<?xml version="1.0" encoding="UTF-8"?>
<!-- track-length = 30603 filtered ascend = 179 plain-ascend = 0 cost=46386 energy=.0kwh time=11m 12s AUTO selected ISO_GREEDY (score 0.885) after 1 candidate(s) in 615ms. short shared stem near start/end: 92m -->
<gpx
 xmlns="http://www.topografix.com/GPX/1/1"
 xmlns:xsi="http://www.w3.org/2001/XMLSchema-instance"
 xsi:schemaLocation="http://www.topografix.com/GPX/1/1 http://www.topografix.com/GPX/1/1/gpx.xsd"
 creator="BRouter-null" version="1.1">
 <trk>
  <name>unset</name>
  <trkseg>
   <trkpt lon="7.589854" lat="47.560133"><ele>248.75</ele></trkpt>
   <trkpt lon="7.590732" lat="47.560569"><ele>250.0</ele></trkpt>
   <trkpt lon="7.590754" lat="47.560580"><ele>250.75</ele></trkpt>
   <trkpt lon="7.590693" lat="47.560638"><ele>250.0</ele></trkpt>
   <trkpt lon="7.590808" lat="47.560694"><ele>252.5</ele></trkpt>
   <trkpt lon="7.591177" lat="47.560864"><ele>252.0</ele></trkpt>
   <trkpt lon="7.591191" lat="47.560851"><ele>252.0</ele></trkpt>
   <trkpt lon="7.591236" lat="47.560812"><ele>252.0</ele></trkpt>
   <trkpt lon="7.591283" lat="47.560774"><ele>251.75</ele></trkpt>
   <trkpt lon="7.591554" lat="47.560549"><ele>250.75</ele></trkpt>
   <trkpt lon="7.591875" lat="47.560249"><ele>250.0</ele></trkpt>
   <trkpt lon="7.591957" lat="47.560175"><ele>250.0</ele></trkpt>
   <trkpt lon="7.592233" lat="47.559924"><ele>250.0</ele></trkpt>
   <trkpt lon="7.592895" lat="47.559399"><ele>250.25</ele></trkpt>
   <trkpt lon="7.593362" lat="47.559109"><ele>250.75</ele></trkpt>
   <trkpt lon="7.593559" lat="47.559037"><ele>250.75</ele></trkpt>
   <trkpt lon="7.593842" lat="47.558960"><ele>251.25</ele></trkpt>
   <trkpt lon="7.593994" lat="47.558925"><ele>251.5</ele></trkpt>
   <trkpt lon="7.594191" lat="47.558897"><ele>252.0</ele></trkpt>
   <trkpt lon="7.594308" lat="47.558892"><ele>252.5</ele></trkpt>
   <trkpt lon="7.594456" lat="47.558934"><ele>253.0</ele></trkpt>
   <trkpt lon="7.594620" lat="47.558962"><ele>253.25</ele></trkpt>
   <trkpt lon="7.594760" lat="47.559007"><ele>253.5</ele></trkpt>
   <trkpt lon="7.595316" lat="47.558894"><ele>254.0</ele></trkpt>
   <trkpt lon="7.595491" lat="47.558881"><ele>254.0</ele></trkpt>
   <trkpt lon="7.595637" lat="47.558881"><ele>254.0</ele></trkpt>
   <trkpt lon="7.596526" lat="47.558754"><ele>255.0</ele></trkpt>
   <trkpt lon="7.596564" lat="47.558760"><ele>255.0</ele></trkpt>
   <trkpt lon="7.596615" lat="47.558722"><ele>255.0</ele></trkpt>
   <trkpt lon="7.597184" lat="47.558502"><ele>255.75</ele></trkpt>
   <trkpt lon="7.597234" lat="47.558483"><ele>256.0</ele></trkpt>
   <trkpt lon="7.597460" lat="47.558392"><ele>256.75</ele></trkpt>
   <trkpt lon="7.597489" lat="47.558382"><ele>256.75</ele></trkpt>
   <trkpt lon="7.597527" lat="47.558372"><ele>257.0</ele></trkpt>
   <trkpt lon="7.597566" lat="47.558358"><ele>257.0</ele></trkpt>
   <trkpt lon="7.597429" lat="47.558164"><ele>256.5</ele></trkpt>
   <trkpt lon="7.595348" lat="47.555659"></trkpt>
   <trkpt lon="7.595173" lat="47.555424"><ele>265.25</ele></trkpt>
   <trkpt lon="7.595091" lat="47.555310"><ele>267.0</ele></trkpt>
   <trkpt lon="7.594958" lat="47.555131"><ele>268.0</ele></trkpt>
   <trkpt lon="7.594732" lat="47.554874"><ele>268.75</ele></trkpt>
   <trkpt lon="7.594701" lat="47.554842"><ele>269.0</ele></trkpt>
   <trkpt lon="7.594611" lat="47.554774"><ele>269.0</ele></trkpt>
   <trkpt lon="7.594562" lat="47.554773"><ele>269.0</ele></trkpt>
   <trkpt lon="7.594516" lat="47.554760"><ele>269.0</ele></trkpt>
   <trkpt lon="7.594479" lat="47.554739"><ele>269.0</ele></trkpt>
   <trkpt lon="7.594454" lat="47.554711"><ele>269.0</ele></trkpt>
   <trkpt lon="7.594443" lat="47.554678"><ele>269.0</ele></trkpt>
   <trkpt lon="7.594449" lat="47.554646"><ele>269.0</ele></trkpt>
   <trkpt lon="7.594487" lat="47.554606"><ele>269.0</ele></trkpt>
   <trkpt lon="7.594517" lat="47.554589"><ele>269.0</ele></trkpt>
   <trkpt lon="7.594549" lat="47.554578"><ele>269.0</ele></trkpt>
   <trkpt lon="7.594602" lat="47.554483"><ele>269.0</ele></trkpt>
   <trkpt lon="7.594718" lat="47.554254"><ele>269.0</ele></trkpt>
   <trkpt lon="7.594857" lat="47.553747"><ele>269.5</ele></trkpt>
   <trkpt lon="7.594945" lat="47.553405"><ele>269.75</ele></trkpt>
   <trkpt lon="7.595003" lat="47.553167"><ele>270.0</ele></trkpt>
   <trkpt lon="7.595034" lat="47.553046"><ele>270.0</ele></trkpt>
   <trkpt lon="7.595029" lat="47.552912"><ele>270.0</ele></trkpt>
   <trkpt lon="7.595063" lat="47.552752"><ele>270.0</ele></trkpt>
   <trkpt lon="7.595116" lat="47.552619"><ele>270.0</ele></trkpt>
   <trkpt lon="7.595197" lat="47.552323"><ele>270.0</ele></trkpt>
   <trkpt lon="7.595288" lat="47.551936"><ele>270.0</ele></trkpt>
   <trkpt lon="7.595361" lat="47.551814"><ele>270.0</ele></trkpt>
   <trkpt lon="7.595388" lat="47.551744"><ele>270.0</ele></trkpt>
   <trkpt lon="7.595400" lat="47.551671"><ele>270.0</ele></trkpt>
   <trkpt lon="7.595406" lat="47.551637"><ele>270.0</ele></trkpt>
   <trkpt lon="7.595408" lat="47.551619"><ele>270.0</ele></trkpt>
   <trkpt lon="7.595400" lat="47.551601"><ele>270.0</ele></trkpt>
   <trkpt lon="7.595386" lat="47.551574"><ele>270.0</ele></trkpt>
   <trkpt lon="7.595319" lat="47.551472"><ele>270.0</ele></trkpt>
   <trkpt lon="7.595238" lat="47.551348"><ele>270.0</ele></trkpt>
   <trkpt lon="7.595220" lat="47.551294"><ele>270.25</ele></trkpt>
   <trkpt lon="7.595211" lat="47.551225"><ele>270.5</ele></trkpt>
   <trkpt lon="7.595214" lat="47.551197"><ele>270.5</ele></trkpt>
   <trkpt lon="7.595219" lat="47.551174"><ele>270.75</ele></trkpt>
   <trkpt lon="7.595248" lat="47.551121"><ele>270.75</ele></trkpt>
   <trkpt lon="7.595286" lat="47.551085"><ele>271.0</ele></trkpt>
   <trkpt lon="7.595450" lat="47.550964"><ele>271.0</ele></trkpt>
   <trkpt lon="7.595533" lat="47.550877"><ele>271.0</ele></trkpt>
   <trkpt lon="7.595755" lat="47.550637"><ele>271.0</ele></trkpt>
   <trkpt lon="7.596152" lat="47.550195"><ele>271.0</ele></trkpt>
   <trkpt lon="7.596254" lat="47.550081"><ele>271.0</ele></trkpt>
   <trkpt lon="7.596331" lat="47.549996"><ele>271.0</ele></trkpt>
   <trkpt lon="7.597242" lat="47.548989"><ele>271.5</ele></trkpt>
   <trkpt lon="7.597627" lat="47.548515"><ele>272.0</ele></trkpt>
   <trkpt lon="7.597711" lat="47.548412"><ele>272.0</ele></trkpt>
   <trkpt lon="7.597947" lat="47.548153"><ele>272.5</ele></trkpt>
   <trkpt lon="7.598007" lat="47.548087"><ele>272.75</ele></trkpt>
   <trkpt lon="7.598025" lat="47.548068"><ele>272.75</ele></trkpt>
   <trkpt lon="7.598076" lat="47.547965"><ele>273.25</ele></trkpt>
   <trkpt lon="7.598095" lat="47.547929"><ele>273.5</ele></trkpt>
   <trkpt lon="7.598143" lat="47.547766"><ele>274.25</ele></trkpt>
   <trkpt lon="7.598118" lat="47.547502"><ele>275.0</ele></trkpt>
   <trkpt lon="7.598100" lat="47.547373"><ele>275.0</ele></trkpt>
   <trkpt lon="7.598076" lat="47.547201"><ele>275.0</ele></trkpt>
   <trkpt lon="7.598059" lat="47.547067"><ele>275.5</ele></trkpt>
   <trkpt lon="7.598056" lat="47.547036"><ele>275.5</ele></trkpt>
   <trkpt lon="7.598052" lat="47.546933"><ele>276.0</ele></trkpt>
   <trkpt lon="7.598063" lat="47.546823"><ele>276.0</ele></trkpt>
   <trkpt lon="7.598076" lat="47.546753"><ele>276.0</ele></trkpt>
   <trkpt lon="7.598103" lat="47.546680"><ele>276.0</ele></trkpt>
   <trkpt lon="7.598345" lat="47.546160"><ele>276.75</ele></trkpt>
   <trkpt lon="7.598648" lat="47.545508"><ele>278.0</ele></trkpt>
   <trkpt lon="7.598671" lat="47.545461"><ele>278.25</ele></trkpt>
   <trkpt lon="7.598704" lat="47.545387"><ele>278.5</ele></trkpt>
   <trkpt lon="7.598767" lat="47.545289"><ele>278.75</ele></trkpt>
   <trkpt lon="7.598815" lat="47.545187"><ele>279.25</ele></trkpt>
   <trkpt lon="7.598921" lat="47.544967"><ele>279.75</ele></trkpt>
   <trkpt lon="7.599028" lat="47.544729"><ele>280.25</ele></trkpt>
   <trkpt lon="7.599061" lat="47.544624"><ele>280.5</ele></trkpt>
   <trkpt lon="7.599072" lat="47.544574"><ele>280.75</ele></trkpt>
   <trkpt lon="7.599079" lat="47.544532"><ele>280.75</ele></trkpt>
   <trkpt lon="7.599090" lat="47.544451"><ele>281.0</ele></trkpt>
   <trkpt lon="7.599092" lat="47.544421"><ele>280.5</ele></trkpt>
   <trkpt lon="7.599090" lat="47.544372"></trkpt>
   <trkpt lon="7.599076" lat="47.544289"></trkpt>
   <trkpt lon="7.598890" lat="47.543559"><ele>277.0</ele></trkpt>
   <trkpt lon="7.598964" lat="47.543477"><ele>278.75</ele></trkpt>
   <trkpt lon="7.598993" lat="47.543446"><ele>279.5</ele></trkpt>
   <trkpt lon="7.599009" lat="47.543430"><ele>279.75</ele></trkpt>
   <trkpt lon="7.599035" lat="47.543408"><ele>280.25</ele></trkpt>
   <trkpt lon="7.599038" lat="47.543406"><ele>280.25</ele></trkpt>
   <trkpt lon="7.599091" lat="47.543370"><ele>281.0</ele></trkpt>
   <trkpt lon="7.599206" lat="47.543311"><ele>281.5</ele></trkpt>
   <trkpt lon="7.599229" lat="47.543300"><ele>281.5</ele></trkpt>
   <trkpt lon="7.599270" lat="47.543280"><ele>281.25</ele></trkpt>
   <trkpt lon="7.599544" lat="47.543164"><ele>280.25</ele></trkpt>
   <trkpt lon="7.599751" lat="47.543063"><ele>280.75</ele></trkpt>
   <trkpt lon="7.600047" lat="47.542914"><ele>281.0</ele></trkpt>
   <trkpt lon="7.600366" lat="47.542752"><ele>281.0</ele></trkpt>
   <trkpt lon="7.601122" lat="47.542391"><ele>280.75</ele></trkpt>
   <trkpt lon="7.601886" lat="47.541998"><ele>280.0</ele></trkpt>
   <trkpt lon="7.602225" lat="47.541814"><ele>280.75</ele></trkpt>
   <trkpt lon="7.602178" lat="47.541773"><ele>281.0</ele></trkpt>
   <trkpt lon="7.602146" lat="47.541725"><ele>281.0</ele></trkpt>
   <trkpt lon="7.602138" lat="47.541693"><ele>281.25</ele></trkpt>
   <trkpt lon="7.602142" lat="47.541646"><ele>281.25</ele></trkpt>
   <trkpt lon="7.602153" lat="47.541598"><ele>281.0</ele></trkpt>
   <trkpt lon="7.602190" lat="47.541515"><ele>281.0</ele></trkpt>
   <trkpt lon="7.602220" lat="47.541449"><ele>281.0</ele></trkpt>
   <trkpt lon="7.602547" lat="47.540722"><ele>282.0</ele></trkpt>
   <trkpt lon="7.602643" lat="47.540528"><ele>282.0</ele></trkpt>
   <trkpt lon="7.603073" lat="47.539622"><ele>282.25</ele></trkpt>
   <trkpt lon="7.603307" lat="47.539108"><ele>283.0</ele></trkpt>
   <trkpt lon="7.603323" lat="47.539070"><ele>283.0</ele></trkpt>
   <trkpt lon="7.603414" lat="47.538866"><ele>283.0</ele></trkpt>
   <trkpt lon="7.603497" lat="47.538673"><ele>283.25</ele></trkpt>
   <trkpt lon="7.603508" lat="47.538648"><ele>283.25</ele></trkpt>
   <trkpt lon="7.603713" lat="47.538204"><ele>283.5</ele></trkpt>
   <trkpt lon="7.603823" lat="47.537974"><ele>284.0</ele></trkpt>
   <trkpt lon="7.604010" lat="47.537537"><ele>284.0</ele></trkpt>
   <trkpt lon="7.604062" lat="47.537422"><ele>284.0</ele></trkpt>
   <trkpt lon="7.604125" lat="47.537285"><ele>284.0</ele></trkpt>
   <trkpt lon="7.604126" lat="47.537225"><ele>284.0</ele></trkpt>
   <trkpt lon="7.604137" lat="47.537177"><ele>284.0</ele></trkpt>
   <trkpt lon="7.604132" lat="47.537117"><ele>284.0</ele></trkpt>
   <trkpt lon="7.604125" lat="47.537098"><ele>284.0</ele></trkpt>
   <trkpt lon="7.604102" lat="47.537064"><ele>284.0</ele></trkpt>
   <trkpt lon="7.604032" lat="47.537040"><ele>284.0</ele></trkpt>
   <trkpt lon="7.603966" lat="47.537003"><ele>284.0</ele></trkpt>
   <trkpt lon="7.603907" lat="47.536945"><ele>284.0</ele></trkpt>
   <trkpt lon="7.603899" lat="47.536927"><ele>284.0</ele></trkpt>
   <trkpt lon="7.603899" lat="47.536900"><ele>284.0</ele></trkpt>
   <trkpt lon="7.603926" lat="47.536844"><ele>284.25</ele></trkpt>
   <trkpt lon="7.604019" lat="47.536765"><ele>284.5</ele></trkpt>
   <trkpt lon="7.604104" lat="47.536700"><ele>284.75</ele></trkpt>
   <trkpt lon="7.604235" lat="47.536602"><ele>285.0</ele></trkpt>
   <trkpt lon="7.604284" lat="47.536554"><ele>285.0</ele></trkpt>
   <trkpt lon="7.604313" lat="47.536514"><ele>285.0</ele></trkpt>
   <trkpt lon="7.604337" lat="47.536435"><ele>285.0</ele></trkpt>
   <trkpt lon="7.604419" lat="47.536025"><ele>284.75</ele></trkpt>
   <trkpt lon="7.604483" lat="47.535735"><ele>285.0</ele></trkpt>
   <trkpt lon="7.604527" lat="47.535638"><ele>285.0</ele></trkpt>
   <trkpt lon="7.604541" lat="47.535614"><ele>285.0</ele></trkpt>
   <trkpt lon="7.604555" lat="47.535592"><ele>285.0</ele></trkpt>
   <trkpt lon="7.604598" lat="47.535539"><ele>285.0</ele></trkpt>
   <trkpt lon="7.604626" lat="47.535416"><ele>285.5</ele></trkpt>
   <trkpt lon="7.604654" lat="47.535212"><ele>286.25</ele></trkpt>
   <trkpt lon="7.604790" lat="47.534506"><ele>286.5</ele></trkpt>
   <trkpt lon="7.604825" lat="47.534380"><ele>286.5</ele></trkpt>
   <trkpt lon="7.604878" lat="47.534133"><ele>287.0</ele></trkpt>
   <trkpt lon="7.604903" lat="47.533973"><ele>287.0</ele></trkpt>
   <trkpt lon="7.604932" lat="47.533795"><ele>287.0</ele></trkpt>
   <trkpt lon="7.604960" lat="47.533644"><ele>287.0</ele></trkpt>
   <trkpt lon="7.604969" lat="47.533591"><ele>287.0</ele></trkpt>
   <trkpt lon="7.605023" lat="47.533324"><ele>287.0</ele></trkpt>
   <trkpt lon="7.605037" lat="47.533253"><ele>287.0</ele></trkpt>
   <trkpt lon="7.605273" lat="47.532108"><ele>288.0</ele></trkpt>
   <trkpt lon="7.605324" lat="47.531863"><ele>288.0</ele></trkpt>
   <trkpt lon="7.605369" lat="47.531639"><ele>288.0</ele></trkpt>
   <trkpt lon="7.605428" lat="47.531339"><ele>288.0</ele></trkpt>
   <trkpt lon="7.605552" lat="47.530717"><ele>288.25</ele></trkpt>
   <trkpt lon="7.605585" lat="47.530490"><ele>288.75</ele></trkpt>
   <trkpt lon="7.605598" lat="47.530360"><ele>288.75</ele></trkpt>
   <trkpt lon="7.605577" lat="47.530295"><ele>288.75</ele></trkpt>
   <trkpt lon="7.605569" lat="47.530192"><ele>288.75</ele></trkpt>
   <trkpt lon="7.605593" lat="47.529991"><ele>289.0</ele></trkpt>
   <trkpt lon="7.605602" lat="47.529930"><ele>289.0</ele></trkpt>
   <trkpt lon="7.605613" lat="47.529852"><ele>289.0</ele></trkpt>
   <trkpt lon="7.605630" lat="47.529736"><ele>289.0</ele></trkpt>
   <trkpt lon="7.605672" lat="47.529220"><ele>289.0</ele></trkpt>
   <trkpt lon="7.605691" lat="47.529146"><ele>289.0</ele></trkpt>
   <trkpt lon="7.605729" lat="47.529053"><ele>289.0</ele></trkpt>
   <trkpt lon="7.605724" lat="47.528798"><ele>289.0</ele></trkpt>
   <trkpt lon="7.605683" lat="47.528378"><ele>289.0</ele></trkpt>
   <trkpt lon="7.605641" lat="47.528143"><ele>289.0</ele></trkpt>
   <trkpt lon="7.605591" lat="47.527937"><ele>289.25</ele></trkpt>
   <trkpt lon="7.605481" lat="47.527631"><ele>289.5</ele></trkpt>
   <trkpt lon="7.605436" lat="47.527572"><ele>289.5</ele></trkpt>
   <trkpt lon="7.605287" lat="47.527298"><ele>289.75</ele></trkpt>
   <trkpt lon="7.605173" lat="47.527090"><ele>290.5</ele></trkpt>
   <trkpt lon="7.605048" lat="47.526909"><ele>290.0</ele></trkpt>
   <trkpt lon="7.604840" lat="47.526525"><ele>290.75</ele></trkpt>
   <trkpt lon="7.604784" lat="47.526442"><ele>290.75</ele></trkpt>
   <trkpt lon="7.604716" lat="47.526384"><ele>291.0</ele></trkpt>
   <trkpt lon="7.604692" lat="47.526375"><ele>291.0</ele></trkpt>
   <trkpt lon="7.604641" lat="47.526338"><ele>291.0</ele></trkpt>
   <trkpt lon="7.604620" lat="47.526307"><ele>291.0</ele></trkpt>
   <trkpt lon="7.604608" lat="47.526244"><ele>291.0</ele></trkpt>
   <trkpt lon="7.604639" lat="47.526187"><ele>291.0</ele></trkpt>
   <trkpt lon="7.604661" lat="47.526167"><ele>291.0</ele></trkpt>
   <trkpt lon="7.604679" lat="47.526070"><ele>290.75</ele></trkpt>
   <trkpt lon="7.604673" lat="47.526030"><ele>290.75</ele></trkpt>
   <trkpt lon="7.604568" lat="47.525737"><ele>290.5</ele></trkpt>
   <trkpt lon="7.604241" lat="47.524793"><ele>290.0</ele></trkpt>
   <trkpt lon="7.604188" lat="47.524640"><ele>290.0</ele></trkpt>
   <trkpt lon="7.603984" lat="47.524009"><ele>290.0</ele></trkpt>
   <trkpt lon="7.603935" lat="47.523810"><ele>289.75</ele></trkpt>
   <trkpt lon="7.603396" lat="47.522151"><ele>290.75</ele></trkpt>
   <trkpt lon="7.603333" lat="47.522032"><ele>291.0</ele></trkpt>
   <trkpt lon="7.603294" lat="47.521902"><ele>291.0</ele></trkpt>
   <trkpt lon="7.603092" lat="47.521309"><ele>291.0</ele></trkpt>
   <trkpt lon="7.603041" lat="47.521155"><ele>291.0</ele></trkpt>
   <trkpt lon="7.603025" lat="47.521077"><ele>291.0</ele></trkpt>
   <trkpt lon="7.603018" lat="47.520933"><ele>291.0</ele></trkpt>
   <trkpt lon="7.602975" lat="47.520770"><ele>291.0</ele></trkpt>
   <trkpt lon="7.602830" lat="47.520119"><ele>290.75</ele></trkpt>
   <trkpt lon="7.602740" lat="47.520010"><ele>291.0</ele></trkpt>
   <trkpt lon="7.602708" lat="47.519906"><ele>290.5</ele></trkpt>
   <trkpt lon="7.602663" lat="47.519700"><ele>290.25</ele></trkpt>
   <trkpt lon="7.602657" lat="47.519258"><ele>290.25</ele></trkpt>
   <trkpt lon="7.602701" lat="47.518956"><ele>290.25</ele></trkpt>
   <trkpt lon="7.602794" lat="47.518510"><ele>290.0</ele></trkpt>
   <trkpt lon="7.602805" lat="47.518462"><ele>290.0</ele></trkpt>
   <trkpt lon="7.602896" lat="47.518072"><ele>290.0</ele></trkpt>
   <trkpt lon="7.603088" lat="47.517242"><ele>290.0</ele></trkpt>
   <trkpt lon="7.603096" lat="47.517155"><ele>290.25</ele></trkpt>
   <trkpt lon="7.603122" lat="47.517056"><ele>290.5</ele></trkpt>
   <trkpt lon="7.603224" lat="47.516963"><ele>290.75</ele></trkpt>
   <trkpt lon="7.603230" lat="47.516933"><ele>291.0</ele></trkpt>
   <trkpt lon="7.603266" lat="47.516705"><ele>291.0</ele></trkpt>
   <trkpt lon="7.603342" lat="47.516321"><ele>291.0</ele></trkpt>
   <trkpt lon="7.603347" lat="47.516300"><ele>291.0</ele></trkpt>
   <trkpt lon="7.603264" lat="47.516276"><ele>291.0</ele></trkpt>
   <trkpt lon="7.603223" lat="47.516246"><ele>291.0</ele></trkpt>
   <trkpt lon="7.603193" lat="47.516189"><ele>291.0</ele></trkpt>
   <trkpt lon="7.603197" lat="47.516148"><ele>290.75</ele></trkpt>
   <trkpt lon="7.603221" lat="47.516111"><ele>291.0</ele></trkpt>
   <trkpt lon="7.603261" lat="47.516080"><ele>291.0</ele></trkpt>
   <trkpt lon="7.603295" lat="47.516065"><ele>291.0</ele></trkpt>
   <trkpt lon="7.603340" lat="47.516055"><ele>291.0</ele></trkpt>
   <trkpt lon="7.603387" lat="47.516053"><ele>291.0</ele></trkpt>
   <trkpt lon="7.603380" lat="47.516027"><ele>291.0</ele></trkpt>
   <trkpt lon="7.603364" lat="47.515962"><ele>291.0</ele></trkpt>
   <trkpt lon="7.603327" lat="47.515834"><ele>291.0</ele></trkpt>
   <trkpt lon="7.603277" lat="47.515659"><ele>291.0</ele></trkpt>
   <trkpt lon="7.603175" lat="47.515301"><ele>291.0</ele></trkpt>
   <trkpt lon="7.603030" lat="47.514778"><ele>292.0</ele></trkpt>
   <trkpt lon="7.602702" lat="47.513694"><ele>292.0</ele></trkpt>
   <trkpt lon="7.602656" lat="47.513426"><ele>292.0</ele></trkpt>
   <trkpt lon="7.602624" lat="47.513129"><ele>292.5</ele></trkpt>
   <trkpt lon="7.602590" lat="47.512472"><ele>293.0</ele></trkpt>
   <trkpt lon="7.602556" lat="47.511875"><ele>293.0</ele></trkpt>
   <trkpt lon="7.602544" lat="47.511682"><ele>293.0</ele></trkpt>
   <trkpt lon="7.602541" lat="47.511628"><ele>293.0</ele></trkpt>
   <trkpt lon="7.602535" lat="47.511529"><ele>293.0</ele></trkpt>
   <trkpt lon="7.602518" lat="47.511486"><ele>293.0</ele></trkpt>
   <trkpt lon="7.602484" lat="47.511400"><ele>293.0</ele></trkpt>
   <trkpt lon="7.602475" lat="47.511206"><ele>293.5</ele></trkpt>
   <trkpt lon="7.602451" lat="47.510563"><ele>293.75</ele></trkpt>
   <trkpt lon="7.602430" lat="47.510007"><ele>294.75</ele></trkpt>
   <trkpt lon="7.602384" lat="47.509964"><ele>295.0</ele></trkpt>
   <trkpt lon="7.602325" lat="47.509935"><ele>295.0</ele></trkpt>
   <trkpt lon="7.602290" lat="47.509927"><ele>295.0</ele></trkpt>
   <trkpt lon="7.602228" lat="47.509921"><ele>295.0</ele></trkpt>
   <trkpt lon="7.602090" lat="47.509961"><ele>295.0</ele></trkpt>
   <trkpt lon="7.601999" lat="47.509976"><ele>295.0</ele></trkpt>
   <trkpt lon="7.601799" lat="47.509986"><ele>295.0</ele></trkpt>
   <trkpt lon="7.601624" lat="47.509996"><ele>295.0</ele></trkpt>
   <trkpt lon="7.601393" lat="47.509963"><ele>295.0</ele></trkpt>
   <trkpt lon="7.601100" lat="47.509864"><ele>295.0</ele></trkpt>
   <trkpt lon="7.601023" lat="47.509820"><ele>295.0</ele></trkpt>
   <trkpt lon="7.600913" lat="47.509756"><ele>295.5</ele></trkpt>
   <trkpt lon="7.600717" lat="47.509620"><ele>295.75</ele></trkpt>
   <trkpt lon="7.600251" lat="47.509282"><ele>295.5</ele></trkpt>
   <trkpt lon="7.600219" lat="47.509265"><ele>295.5</ele></trkpt>
   <trkpt lon="7.600139" lat="47.509224"><ele>295.75</ele></trkpt>
   <trkpt lon="7.599994" lat="47.509149"><ele>296.0</ele></trkpt>
   <trkpt lon="7.599744" lat="47.509042"><ele>296.0</ele></trkpt>
   <trkpt lon="7.599230" lat="47.508886"><ele>295.75</ele></trkpt>
   <trkpt lon="7.598694" lat="47.508724"><ele>295.5</ele></trkpt>
   <trkpt lon="7.598554" lat="47.508681"><ele>296.25</ele></trkpt>
   <trkpt lon="7.598046" lat="47.508527"><ele>295.5</ele></trkpt>
   <trkpt lon="7.597805" lat="47.508463"><ele>295.5</ele></trkpt>
   <trkpt lon="7.597638" lat="47.508418"><ele>296.25</ele></trkpt>
   <trkpt lon="7.597580" lat="47.508401"><ele>296.75</ele></trkpt>
   <trkpt lon="7.597033" lat="47.508239"><ele>297.5</ele></trkpt>
   <trkpt lon="7.596707" lat="47.508142"><ele>298.5</ele></trkpt>
   <trkpt lon="7.596593" lat="47.508111"><ele>298.75</ele></trkpt>
   <trkpt lon="7.595890" lat="47.507920"><ele>299.0</ele></trkpt>
   <trkpt lon="7.595238" lat="47.507743"><ele>301.75</ele></trkpt>
   <trkpt lon="7.595152" lat="47.507708"><ele>302.25</ele></trkpt>
   <trkpt lon="7.595107" lat="47.507661"><ele>302.5</ele></trkpt>
   <trkpt lon="7.595087" lat="47.507606"><ele>302.5</ele></trkpt>
   <trkpt lon="7.595113" lat="47.507538"><ele>302.25</ele></trkpt>
   <trkpt lon="7.595167" lat="47.507448"><ele>301.5</ele></trkpt>
   <trkpt lon="7.595196" lat="47.507339"><ele>301.0</ele></trkpt>
   <trkpt lon="7.595157" lat="47.507159"><ele>300.5</ele></trkpt>
   <trkpt lon="7.595147" lat="47.507110"><ele>300.0</ele></trkpt>
   <trkpt lon="7.594992" lat="47.506347"><ele>297.0</ele></trkpt>
   <trkpt lon="7.594943" lat="47.506163"><ele>297.25</ele></trkpt>
   <trkpt lon="7.594905" lat="47.506040"><ele>297.25</ele></trkpt>
   <trkpt lon="7.594721" lat="47.505574"><ele>297.0</ele></trkpt>
   <trkpt lon="7.594547" lat="47.505132"><ele>298.75</ele></trkpt>
   <trkpt lon="7.594411" lat="47.504811"><ele>298.25</ele></trkpt>
   <trkpt lon="7.594273" lat="47.504487"><ele>297.75</ele></trkpt>
   <trkpt lon="7.594238" lat="47.504406"><ele>297.5</ele></trkpt>
   <trkpt lon="7.593960" lat="47.503785"><ele>297.75</ele></trkpt>
   <trkpt lon="7.593773" lat="47.503363"><ele>299.25</ele></trkpt>
   <trkpt lon="7.593657" lat="47.503094"><ele>298.25</ele></trkpt>
   <trkpt lon="7.593582" lat="47.502939"><ele>298.0</ele></trkpt>
   <trkpt lon="7.593419" lat="47.502577"><ele>297.75</ele></trkpt>
   <trkpt lon="7.593343" lat="47.502409"><ele>298.25</ele></trkpt>
   <trkpt lon="7.593304" lat="47.502305"><ele>298.75</ele></trkpt>
   <trkpt lon="7.593145" lat="47.501932"><ele>299.5</ele></trkpt>
   <trkpt lon="7.593057" lat="47.501724"><ele>299.75</ele></trkpt>
   <trkpt lon="7.592960" lat="47.501506"><ele>300.75</ele></trkpt>
   <trkpt lon="7.592873" lat="47.501305"><ele>301.5</ele></trkpt>
   <trkpt lon="7.592795" lat="47.501119"><ele>301.0</ele></trkpt>
   <trkpt lon="7.592596" lat="47.500643"><ele>301.75</ele></trkpt>
   <trkpt lon="7.592256" lat="47.500137"><ele>302.75</ele></trkpt>
   <trkpt lon="7.591885" lat="47.499687"><ele>302.5</ele></trkpt>
   <trkpt lon="7.591780" lat="47.499565"><ele>303.0</ele></trkpt>
   <trkpt lon="7.591519" lat="47.499206"><ele>302.5</ele></trkpt>
   <trkpt lon="7.591408" lat="47.499050"><ele>302.75</ele></trkpt>
   <trkpt lon="7.591067" lat="47.498589"><ele>303.0</ele></trkpt>
   <trkpt lon="7.590709" lat="47.498126"><ele>304.25</ele></trkpt>
   <trkpt lon="7.590490" lat="47.497854"><ele>304.25</ele></trkpt>
   <trkpt lon="7.590449" lat="47.497800"><ele>304.0</ele></trkpt>
   <trkpt lon="7.590063" lat="47.497159"><ele>303.75</ele></trkpt>
   <trkpt lon="7.589951" lat="47.496992"><ele>304.25</ele></trkpt>
   <trkpt lon="7.589826" lat="47.497041"><ele>305.25</ele></trkpt>
   <trkpt lon="7.589752" lat="47.497120"><ele>305.75</ele></trkpt>
   <trkpt lon="7.589651" lat="47.497303"><ele>307.75</ele></trkpt>
   <trkpt lon="7.589623" lat="47.497453"><ele>309.0</ele></trkpt>
   <trkpt lon="7.589623" lat="47.497658"><ele>311.25</ele></trkpt>
   <trkpt lon="7.589452" lat="47.497630"><ele>313.75</ele></trkpt>
   <trkpt lon="7.588677" lat="47.496987"><ele>315.75</ele></trkpt>
   <trkpt lon="7.588251" lat="47.496812"><ele>319.25</ele></trkpt>
   <trkpt lon="7.587954" lat="47.496594"><ele>321.5</ele></trkpt>
   <trkpt lon="7.587796" lat="47.496479"><ele>323.0</ele></trkpt>
   <trkpt lon="7.587264" lat="47.496116"><ele>325.75</ele></trkpt>
   <trkpt lon="7.586759" lat="47.496002"><ele>326.5</ele></trkpt>
   <trkpt lon="7.586278" lat="47.495846"><ele>327.0</ele></trkpt>
   <trkpt lon="7.585746" lat="47.495682"><ele>332.25</ele></trkpt>
   <trkpt lon="7.585077" lat="47.495387"><ele>334.25</ele></trkpt>
   <trkpt lon="7.584633" lat="47.495218"><ele>333.75</ele></trkpt>
   <trkpt lon="7.584485" lat="47.495188"><ele>333.25</ele></trkpt>
   <trkpt lon="7.583654" lat="47.495143"><ele>329.75</ele></trkpt>
   <trkpt lon="7.583097" lat="47.495093"><ele>328.0</ele></trkpt>
   <trkpt lon="7.582667" lat="47.495075"><ele>330.5</ele></trkpt>
   <trkpt lon="7.582451" lat="47.495067"><ele>331.5</ele></trkpt>
   <trkpt lon="7.582073" lat="47.495075"><ele>334.0</ele></trkpt>
   <trkpt lon="7.581652" lat="47.495105"><ele>337.5</ele></trkpt>
   <trkpt lon="7.581623" lat="47.495107"><ele>337.5</ele></trkpt>
   <trkpt lon="7.581259" lat="47.495156"><ele>338.75</ele></trkpt>
   <trkpt lon="7.580194" lat="47.495399"><ele>343.25</ele></trkpt>
   <trkpt lon="7.579267" lat="47.495499"><ele>344.75</ele></trkpt>
   <trkpt lon="7.578837" lat="47.495526"><ele>345.5</ele></trkpt>
   <trkpt lon="7.578333" lat="47.495524"><ele>346.5</ele></trkpt>
   <trkpt lon="7.577951" lat="47.495504"><ele>346.5</ele></trkpt>
   <trkpt lon="7.577422" lat="47.495455"><ele>347.25</ele></trkpt>
   <trkpt lon="7.576624" lat="47.495439"><ele>347.0</ele></trkpt>
   <trkpt lon="7.575844" lat="47.495477"><ele>346.25</ele></trkpt>
   <trkpt lon="7.575628" lat="47.495497"><ele>347.0</ele></trkpt>
   <trkpt lon="7.575512" lat="47.495540"><ele>347.5</ele></trkpt>
   <trkpt lon="7.574518" lat="47.494748"><ele>337.25</ele></trkpt>
   <trkpt lon="7.574262" lat="47.494547"><ele>334.25</ele></trkpt>
   <trkpt lon="7.574046" lat="47.494400"><ele>332.5</ele></trkpt>
   <trkpt lon="7.573952" lat="47.494336"><ele>331.75</ele></trkpt>
   <trkpt lon="7.573824" lat="47.494281"><ele>331.25</ele></trkpt>
   <trkpt lon="7.572915" lat="47.494588"><ele>338.25</ele></trkpt>
   <trkpt lon="7.571684" lat="47.494972"><ele>339.0</ele></trkpt>
   <trkpt lon="7.571299" lat="47.495065"><ele>335.75</ele></trkpt>
   <trkpt lon="7.570759" lat="47.495154"><ele>332.25</ele></trkpt>
   <trkpt lon="7.570614" lat="47.495172"><ele>331.0</ele></trkpt>
   <trkpt lon="7.570274" lat="47.495215"><ele>329.75</ele></trkpt>
   <trkpt lon="7.569644" lat="47.495313"><ele>326.5</ele></trkpt>
   <trkpt lon="7.569013" lat="47.495416"><ele>325.25</ele></trkpt>
   <trkpt lon="7.568748" lat="47.495419"><ele>324.5</ele></trkpt>
   <trkpt lon="7.568638" lat="47.495440"><ele>324.25</ele></trkpt>
   <trkpt lon="7.567011" lat="47.495738"><ele>319.75</ele></trkpt>
   <trkpt lon="7.566556" lat="47.495834"><ele>318.5</ele></trkpt>
   <trkpt lon="7.566227" lat="47.495906"><ele>317.5</ele></trkpt>
   <trkpt lon="7.566130" lat="47.495930"><ele>317.5</ele></trkpt>
   <trkpt lon="7.565917" lat="47.495985"><ele>317.0</ele></trkpt>
   <trkpt lon="7.565689" lat="47.496047"><ele>316.5</ele></trkpt>
   <trkpt lon="7.565100" lat="47.496222"><ele>316.75</ele></trkpt>
   <trkpt lon="7.564326" lat="47.496457"><ele>315.0</ele></trkpt>
   <trkpt lon="7.563998" lat="47.496554"><ele>315.0</ele></trkpt>
   <trkpt lon="7.563803" lat="47.496608"><ele>314.25</ele></trkpt>
   <trkpt lon="7.563626" lat="47.496661"><ele>313.0</ele></trkpt>
   <trkpt lon="7.563543" lat="47.496686"><ele>313.25</ele></trkpt>
   <trkpt lon="7.562972" lat="47.496858"><ele>313.25</ele></trkpt>
   <trkpt lon="7.562758" lat="47.496921"><ele>312.0</ele></trkpt>
   <trkpt lon="7.561923" lat="47.497171"><ele>311.5</ele></trkpt>
   <trkpt lon="7.561772" lat="47.497215"><ele>311.0</ele></trkpt>
   <trkpt lon="7.561461" lat="47.497305"><ele>311.5</ele></trkpt>
   <trkpt lon="7.561311" lat="47.497348"><ele>311.25</ele></trkpt>
   <trkpt lon="7.560971" lat="47.497450"><ele>310.5</ele></trkpt>
   <trkpt lon="7.560091" lat="47.497715"><ele>309.0</ele></trkpt>
   <trkpt lon="7.559913" lat="47.497769"><ele>308.5</ele></trkpt>
   <trkpt lon="7.559738" lat="47.497822"><ele>308.25</ele></trkpt>
   <trkpt lon="7.559360" lat="47.497934"><ele>307.75</ele></trkpt>
   <trkpt lon="7.559272" lat="47.497962"><ele>307.5</ele></trkpt>
   <trkpt lon="7.559116" lat="47.498010"><ele>307.0</ele></trkpt>
   <trkpt lon="7.558952" lat="47.498080"><ele>307.0</ele></trkpt>
   <trkpt lon="7.558862" lat="47.498130"><ele>307.25</ele></trkpt>
   <trkpt lon="7.558760" lat="47.498207"><ele>307.5</ele></trkpt>
   <trkpt lon="7.558709" lat="47.498256"><ele>307.5</ele></trkpt>
   <trkpt lon="7.558659" lat="47.498318"><ele>307.75</ele></trkpt>
   <trkpt lon="7.558619" lat="47.498387"><ele>308.0</ele></trkpt>
   <trkpt lon="7.558589" lat="47.498462"><ele>308.0</ele></trkpt>
   <trkpt lon="7.558548" lat="47.498605"><ele>308.0</ele></trkpt>
   <trkpt lon="7.558525" lat="47.498682"><ele>308.0</ele></trkpt>
   <trkpt lon="7.558348" lat="47.498700"><ele>308.0</ele></trkpt>
   <trkpt lon="7.558295" lat="47.498705"><ele>307.75</ele></trkpt>
   <trkpt lon="7.557977" lat="47.498767"><ele>306.75</ele></trkpt>
   <trkpt lon="7.557771" lat="47.498819"><ele>306.0</ele></trkpt>
   <trkpt lon="7.557594" lat="47.498861"><ele>306.0</ele></trkpt>
   <trkpt lon="7.557375" lat="47.498913"><ele>305.75</ele></trkpt>
   <trkpt lon="7.557221" lat="47.498949"><ele>306.0</ele></trkpt>
   <trkpt lon="7.557105" lat="47.498974"><ele>306.0</ele></trkpt>
   <trkpt lon="7.557040" lat="47.498990"><ele>306.0</ele></trkpt>
   <trkpt lon="7.557005" lat="47.498998"><ele>306.0</ele></trkpt>
   <trkpt lon="7.556977" lat="47.499004"><ele>306.0</ele></trkpt>
   <trkpt lon="7.556924" lat="47.499017"><ele>306.0</ele></trkpt>
   <trkpt lon="7.556709" lat="47.499067"><ele>306.0</ele></trkpt>
   <trkpt lon="7.556344" lat="47.499151"><ele>306.0</ele></trkpt>
   <trkpt lon="7.555938" lat="47.499243"><ele>306.5</ele></trkpt>
   <trkpt lon="7.555866" lat="47.499259"><ele>306.75</ele></trkpt>
   <trkpt lon="7.555768" lat="47.499277"><ele>307.0</ele></trkpt>
   <trkpt lon="7.555593" lat="47.499301"><ele>307.25</ele></trkpt>
   <trkpt lon="7.555380" lat="47.499331"><ele>307.0</ele></trkpt>
   <trkpt lon="7.555085" lat="47.499361"><ele>306.5</ele></trkpt>
   <trkpt lon="7.554860" lat="47.499363"><ele>306.25</ele></trkpt>
   <trkpt lon="7.554662" lat="47.499365"><ele>306.25</ele></trkpt>
   <trkpt lon="7.554614" lat="47.499363"><ele>306.25</ele></trkpt>
   <trkpt lon="7.554480" lat="47.499356"><ele>306.25</ele></trkpt>
   <trkpt lon="7.554254" lat="47.499340"><ele>306.0</ele></trkpt>
   <trkpt lon="7.553953" lat="47.499294"><ele>306.25</ele></trkpt>
   <trkpt lon="7.553693" lat="47.499235"><ele>306.0</ele></trkpt>
   <trkpt lon="7.553567" lat="47.499197"><ele>305.75</ele></trkpt>
   <trkpt lon="7.553475" lat="47.499171"><ele>306.0</ele></trkpt>
   <trkpt lon="7.553355" lat="47.499152"><ele>306.0</ele></trkpt>
   <trkpt lon="7.553234" lat="47.499132"><ele>306.0</ele></trkpt>
   <trkpt lon="7.553206" lat="47.499148"><ele>306.0</ele></trkpt>
   <trkpt lon="7.553115" lat="47.499161"><ele>306.0</ele></trkpt>
   <trkpt lon="7.553081" lat="47.499157"><ele>306.0</ele></trkpt>
   <trkpt lon="7.553007" lat="47.499122"><ele>306.0</ele></trkpt>
   <trkpt lon="7.552977" lat="47.499092"><ele>306.25</ele></trkpt>
   <trkpt lon="7.552964" lat="47.499063"><ele>306.25</ele></trkpt>
   <trkpt lon="7.552959" lat="47.499022"><ele>306.25</ele></trkpt>
   <trkpt lon="7.552851" lat="47.499008"><ele>306.5</ele></trkpt>
   <trkpt lon="7.552700" lat="47.498997"><ele>307.0</ele></trkpt>
   <trkpt lon="7.552549" lat="47.498999"><ele>307.0</ele></trkpt>
   <trkpt lon="7.552354" lat="47.499017"><ele>307.0</ele></trkpt>
   <trkpt lon="7.552176" lat="47.499034"><ele>307.0</ele></trkpt>
   <trkpt lon="7.551960" lat="47.499054"><ele>307.0</ele></trkpt>
   <trkpt lon="7.551883" lat="47.499057"><ele>307.0</ele></trkpt>
   <trkpt lon="7.551772" lat="47.499060"><ele>307.25</ele></trkpt>
   <trkpt lon="7.551684" lat="47.499061"><ele>307.5</ele></trkpt>
   <trkpt lon="7.551330" lat="47.499060"><ele>308.0</ele></trkpt>
   <trkpt lon="7.551270" lat="47.499059"><ele>308.25</ele></trkpt>
   <trkpt lon="7.550127" lat="47.498949"><ele>311.75</ele></trkpt>
   <trkpt lon="7.549999" lat="47.498937"><ele>312.0</ele></trkpt>
   <trkpt lon="7.549477" lat="47.498889"><ele>312.75</ele></trkpt>
   <trkpt lon="7.548403" lat="47.498789"><ele>314.25</ele></trkpt>
   <trkpt lon="7.548310" lat="47.498785"><ele>314.25</ele></trkpt>
   <trkpt lon="7.548002" lat="47.498771"><ele>315.0</ele></trkpt>
   <trkpt lon="7.547940" lat="47.498768"><ele>314.75</ele></trkpt>
   <trkpt lon="7.547824" lat="47.498771"><ele>314.5</ele></trkpt>
   <trkpt lon="7.547729" lat="47.498776"><ele>314.25</ele></trkpt>
   <trkpt lon="7.547364" lat="47.498827"><ele>314.75</ele></trkpt>
   <trkpt lon="7.546919" lat="47.498933"><ele>313.75</ele></trkpt>
   <trkpt lon="7.546883" lat="47.498942"><ele>313.75</ele></trkpt>
   <trkpt lon="7.546890" lat="47.498966"><ele>313.75</ele></trkpt>
   <trkpt lon="7.546871" lat="47.499014"><ele>313.5</ele></trkpt>
   <trkpt lon="7.546848" lat="47.499033"><ele>313.5</ele></trkpt>
   <trkpt lon="7.546817" lat="47.499047"><ele>313.5</ele></trkpt>
   <trkpt lon="7.546777" lat="47.499055"><ele>313.75</ele></trkpt>
   <trkpt lon="7.546735" lat="47.499053"><ele>313.75</ele></trkpt>
   <trkpt lon="7.546696" lat="47.499043"><ele>313.75</ele></trkpt>
   <trkpt lon="7.546664" lat="47.499024"><ele>314.0</ele></trkpt>
   <trkpt lon="7.546642" lat="47.499000"><ele>314.0</ele></trkpt>
   <trkpt lon="7.546597" lat="47.499012"><ele>314.0</ele></trkpt>
   <trkpt lon="7.544830" lat="47.499493"><ele>312.75</ele></trkpt>
   <trkpt lon="7.540384" lat="47.500684"><ele>313.75</ele></trkpt>
   <trkpt lon="7.540352" lat="47.500693"><ele>313.75</ele></trkpt>
   <trkpt lon="7.538643" lat="47.501152"><ele>313.5</ele></trkpt>
   <trkpt lon="7.538069" lat="47.501275"><ele>314.25</ele></trkpt>
   <trkpt lon="7.534604" lat="47.501864"><ele>314.5</ele></trkpt>
   <trkpt lon="7.532804" lat="47.502173"><ele>315.0</ele></trkpt>
   <trkpt lon="7.532501" lat="47.502228"><ele>315.75</ele></trkpt>
   <trkpt lon="7.530685" lat="47.502556"><ele>316.5</ele></trkpt>
   <trkpt lon="7.530526" lat="47.502585"><ele>316.5</ele></trkpt>
   <trkpt lon="7.529968" lat="47.502694"><ele>316.25</ele></trkpt>
   <trkpt lon="7.528576" lat="47.502968"><ele>316.0</ele></trkpt>
   <trkpt lon="7.528533" lat="47.502976"><ele>316.0</ele></trkpt>
   <trkpt lon="7.528505" lat="47.502981"><ele>316.0</ele></trkpt>
   <trkpt lon="7.528183" lat="47.503039"><ele>315.25</ele></trkpt>
   <trkpt lon="7.527815" lat="47.503095"><ele>314.75</ele></trkpt>
   <trkpt lon="7.526906" lat="47.503200"><ele>313.5</ele></trkpt>
   <trkpt lon="7.526807" lat="47.503210"><ele>313.5</ele></trkpt>
   <trkpt lon="7.526642" lat="47.503224"><ele>313.25</ele></trkpt>
   <trkpt lon="7.526364" lat="47.503245"><ele>313.25</ele></trkpt>
   <trkpt lon="7.526059" lat="47.503252"><ele>313.25</ele></trkpt>
   <trkpt lon="7.525680" lat="47.503223"><ele>314.5</ele></trkpt>
   <trkpt lon="7.524769" lat="47.503031"><ele>315.25</ele></trkpt>
   <trkpt lon="7.524872" lat="47.503616"><ele>313.25</ele></trkpt>
   <trkpt lon="7.524950" lat="47.504135"><ele>312.0</ele></trkpt>
   <trkpt lon="7.524960" lat="47.504208"><ele>311.75</ele></trkpt>
   <trkpt lon="7.524985" lat="47.504340"><ele>311.75</ele></trkpt>
   <trkpt lon="7.524999" lat="47.504406"><ele>311.75</ele></trkpt>
   <trkpt lon="7.525031" lat="47.504533"><ele>311.5</ele></trkpt>
   <trkpt lon="7.525110" lat="47.504712"><ele>311.0</ele></trkpt>
   <trkpt lon="7.525154" lat="47.504805"><ele>311.0</ele></trkpt>
   <trkpt lon="7.525159" lat="47.504817"><ele>311.0</ele></trkpt>
   <trkpt lon="7.525262" lat="47.505004"><ele>310.75</ele></trkpt>
   <trkpt lon="7.525341" lat="47.505213"><ele>310.0</ele></trkpt>
   <trkpt lon="7.525368" lat="47.505326"><ele>310.0</ele></trkpt>
   <trkpt lon="7.525393" lat="47.505533"><ele>310.0</ele></trkpt>
   <trkpt lon="7.525419" lat="47.505824"><ele>310.25</ele></trkpt>
   <trkpt lon="7.525423" lat="47.505906"><ele>310.5</ele></trkpt>
   <trkpt lon="7.525428" lat="47.506011"><ele>310.75</ele></trkpt>
   <trkpt lon="7.525433" lat="47.506173"><ele>311.0</ele></trkpt>
   <trkpt lon="7.525454" lat="47.506227"><ele>311.25</ele></trkpt>
   <trkpt lon="7.525470" lat="47.506247"><ele>311.25</ele></trkpt>
   <trkpt lon="7.525452" lat="47.506302"><ele>311.5</ele></trkpt>
   <trkpt lon="7.525451" lat="47.506379"><ele>311.75</ele></trkpt>
   <trkpt lon="7.525499" lat="47.506535"><ele>312.5</ele></trkpt>
   <trkpt lon="7.525527" lat="47.506787"><ele>313.75</ele></trkpt>
   <trkpt lon="7.525548" lat="47.506893"><ele>314.5</ele></trkpt>
   <trkpt lon="7.525569" lat="47.506998"><ele>315.25</ele></trkpt>
   <trkpt lon="7.525591" lat="47.507150"><ele>316.5</ele></trkpt>
   <trkpt lon="7.525621" lat="47.507307"><ele>317.75</ele></trkpt>
   <trkpt lon="7.525619" lat="47.507403"><ele>318.25</ele></trkpt>
   <trkpt lon="7.525613" lat="47.507593"><ele>319.5</ele></trkpt>
   <trkpt lon="7.525612" lat="47.507638"><ele>319.75</ele></trkpt>
   <trkpt lon="7.525606" lat="47.507857"><ele>321.25</ele></trkpt>
   <trkpt lon="7.525605" lat="47.507897"><ele>321.5</ele></trkpt>
   <trkpt lon="7.525604" lat="47.507952"><ele>321.5</ele></trkpt>
   <trkpt lon="7.525569" lat="47.508123"><ele>322.5</ele></trkpt>
   <trkpt lon="7.525521" lat="47.508366"><ele>324.0</ele></trkpt>
   <trkpt lon="7.525506" lat="47.508441"><ele>324.75</ele></trkpt>
   <trkpt lon="7.525471" lat="47.508619"><ele>326.0</ele></trkpt>
   <trkpt lon="7.525433" lat="47.508809"><ele>327.5</ele></trkpt>
   <trkpt lon="7.525418" lat="47.508887"><ele>327.75</ele></trkpt>
   <trkpt lon="7.525416" lat="47.509137"><ele>330.5</ele></trkpt>
   <trkpt lon="7.525434" lat="47.509234"><ele>331.0</ele></trkpt>
   <trkpt lon="7.525447" lat="47.509300"><ele>331.25</ele></trkpt>
   <trkpt lon="7.525469" lat="47.509418"><ele>331.5</ele></trkpt>
   <trkpt lon="7.525478" lat="47.509467"><ele>331.5</ele></trkpt>
   <trkpt lon="7.525499" lat="47.509577"><ele>331.75</ele></trkpt>
   <trkpt lon="7.525689" lat="47.509676"><ele>333.0</ele></trkpt>
   <trkpt lon="7.524911" lat="47.509659"><ele>330.25</ele></trkpt>
   <trkpt lon="7.524825" lat="47.509652"><ele>330.0</ele></trkpt>
   <trkpt lon="7.524770" lat="47.509649"><ele>329.75</ele></trkpt>
   <trkpt lon="7.524689" lat="47.509634"><ele>329.5</ele></trkpt>
   <trkpt lon="7.524616" lat="47.509621"><ele>329.25</ele></trkpt>
   <trkpt lon="7.524478" lat="47.509597"><ele>329.0</ele></trkpt>
   <trkpt lon="7.524418" lat="47.509586"><ele>329.0</ele></trkpt>
   <trkpt lon="7.524305" lat="47.509566"><ele>329.0</ele></trkpt>
   <trkpt lon="7.524214" lat="47.509589"><ele>329.25</ele></trkpt>
   <trkpt lon="7.524019" lat="47.509557"><ele>329.0</ele></trkpt>
   <trkpt lon="7.523890" lat="47.509536"><ele>328.75</ele></trkpt>
   <trkpt lon="7.523805" lat="47.509522"><ele>328.75</ele></trkpt>
   <trkpt lon="7.523626" lat="47.509492"><ele>328.5</ele></trkpt>
   <trkpt lon="7.523488" lat="47.509469"><ele>328.0</ele></trkpt>
   <trkpt lon="7.523474" lat="47.509540"><ele>328.75</ele></trkpt>
   <trkpt lon="7.523419" lat="47.509833"><ele>331.75</ele></trkpt>
   <trkpt lon="7.523193" lat="47.509792"><ele>331.5</ele></trkpt>
   <trkpt lon="7.523023" lat="47.509760"><ele>331.5</ele></trkpt>
   <trkpt lon="7.522912" lat="47.509739"><ele>330.75</ele></trkpt>
   <trkpt lon="7.522672" lat="47.509695"><ele>330.0</ele></trkpt>
   <trkpt lon="7.522633" lat="47.509688"><ele>330.0</ele></trkpt>
   <trkpt lon="7.522558" lat="47.509674"><ele>330.25</ele></trkpt>
   <trkpt lon="7.522339" lat="47.509633"><ele>330.0</ele></trkpt>
   <trkpt lon="7.522279" lat="47.509622"><ele>329.75</ele></trkpt>
   <trkpt lon="7.522169" lat="47.509602"><ele>329.75</ele></trkpt>
   <trkpt lon="7.521978" lat="47.509566"><ele>329.5</ele></trkpt>
   <trkpt lon="7.521921" lat="47.509556"><ele>329.5</ele></trkpt>
   <trkpt lon="7.521644" lat="47.509506"><ele>329.0</ele></trkpt>
   <trkpt lon="7.521617" lat="47.509501"><ele>329.0</ele></trkpt>
   <trkpt lon="7.521374" lat="47.509461"><ele>328.25</ele></trkpt>
   <trkpt lon="7.521279" lat="47.509445"><ele>328.0</ele></trkpt>
   <trkpt lon="7.520868" lat="47.509383"><ele>327.75</ele></trkpt>
   <trkpt lon="7.520767" lat="47.509368"><ele>327.25</ele></trkpt>
   <trkpt lon="7.520381" lat="47.509312"><ele>326.0</ele></trkpt>
   <trkpt lon="7.519912" lat="47.509244"><ele>326.0</ele></trkpt>
   <trkpt lon="7.519793" lat="47.509225"><ele>325.75</ele></trkpt>
   <trkpt lon="7.519561" lat="47.509187"><ele>325.25</ele></trkpt>
   <trkpt lon="7.519263" lat="47.509138"><ele>325.0</ele></trkpt>
   <trkpt lon="7.519206" lat="47.509128"><ele>325.0</ele></trkpt>
   <trkpt lon="7.519108" lat="47.509112"><ele>325.0</ele></trkpt>
   <trkpt lon="7.518591" lat="47.509026"><ele>324.5</ele></trkpt>
   <trkpt lon="7.518266" lat="47.508976"><ele>324.75</ele></trkpt>
   <trkpt lon="7.518212" lat="47.508947"><ele>324.5</ele></trkpt>
   <trkpt lon="7.518132" lat="47.508905"><ele>324.0</ele></trkpt>
   <trkpt lon="7.518078" lat="47.508839"><ele>323.5</ele></trkpt>
   <trkpt lon="7.517499" lat="47.509119"><ele>329.75</ele></trkpt>
   <trkpt lon="7.517204" lat="47.509234"><ele>332.5</ele></trkpt>
   <trkpt lon="7.517177" lat="47.509247"><ele>333.0</ele></trkpt>
   <trkpt lon="7.516925" lat="47.509378"><ele>335.0</ele></trkpt>
   <trkpt lon="7.516776" lat="47.509441"><ele>336.5</ele></trkpt>
   <trkpt lon="7.516459" lat="47.509569"><ele>339.75</ele></trkpt>
   <trkpt lon="7.516183" lat="47.509685"><ele>342.25</ele></trkpt>
   <trkpt lon="7.515969" lat="47.509793"><ele>344.5</ele></trkpt>
   <trkpt lon="7.515903" lat="47.509823"><ele>345.0</ele></trkpt>
   <trkpt lon="7.515721" lat="47.509941"><ele>346.75</ele></trkpt>
   <trkpt lon="7.515462" lat="47.510158"><ele>351.0</ele></trkpt>
   <trkpt lon="7.515354" lat="47.510305"><ele>353.25</ele></trkpt>
   <trkpt lon="7.515267" lat="47.510449"><ele>354.75</ele></trkpt>
   <trkpt lon="7.515254" lat="47.510485"><ele>355.5</ele></trkpt>
   <trkpt lon="7.515221" lat="47.510587"><ele>357.25</ele></trkpt>
   <trkpt lon="7.515194" lat="47.510705"><ele>359.5</ele></trkpt>
   <trkpt lon="7.515184" lat="47.510826"><ele>361.75</ele></trkpt>
   <trkpt lon="7.515196" lat="47.511075"><ele>364.5</ele></trkpt>
   <trkpt lon="7.515382" lat="47.511793"><ele>373.5</ele></trkpt>
   <trkpt lon="7.515469" lat="47.512175"><ele>376.0</ele></trkpt>
   <trkpt lon="7.515472" lat="47.512214"><ele>376.25</ele></trkpt>
   <trkpt lon="7.515520" lat="47.512736"><ele>374.5</ele></trkpt>
   <trkpt lon="7.515501" lat="47.513200"><ele>372.75</ele></trkpt>
   <trkpt lon="7.515470" lat="47.513431"><ele>371.75</ele></trkpt>
   <trkpt lon="7.515377" lat="47.513860"><ele>370.0</ele></trkpt>
   <trkpt lon="7.515373" lat="47.514060"><ele>369.5</ele></trkpt>
   <trkpt lon="7.515400" lat="47.514198"><ele>369.0</ele></trkpt>
   <trkpt lon="7.515498" lat="47.514505"><ele>367.5</ele></trkpt>
   <trkpt lon="7.515807" lat="47.515307"><ele>364.75</ele></trkpt>
   <trkpt lon="7.515887" lat="47.515522"><ele>364.5</ele></trkpt>
   <trkpt lon="7.515918" lat="47.515636"><ele>364.0</ele></trkpt>
   <trkpt lon="7.515935" lat="47.515773"><ele>363.5</ele></trkpt>
   <trkpt lon="7.515933" lat="47.515896"><ele>363.0</ele></trkpt>
   <trkpt lon="7.515910" lat="47.516026"><ele>362.5</ele></trkpt>
   <trkpt lon="7.515605" lat="47.517316"><ele>360.5</ele></trkpt>
   <trkpt lon="7.515598" lat="47.517348"><ele>360.5</ele></trkpt>
   <trkpt lon="7.515564" lat="47.517491"><ele>360.75</ele></trkpt>
   <trkpt lon="7.515534" lat="47.517574"><ele>361.5</ele></trkpt>
   <trkpt lon="7.515308" lat="47.518066"><ele>362.0</ele></trkpt>
   <trkpt lon="7.515286" lat="47.518163"><ele>361.25</ele></trkpt>
   <trkpt lon="7.515257" lat="47.518504"><ele>359.25</ele></trkpt>
   <trkpt lon="7.515240" lat="47.518864"><ele>358.0</ele></trkpt>
   <trkpt lon="7.515225" lat="47.519153"><ele>358.0</ele></trkpt>
   <trkpt lon="7.515201" lat="47.519284"><ele>358.0</ele></trkpt>
   <trkpt lon="7.515009" lat="47.519696"><ele>356.0</ele></trkpt>
   <trkpt lon="7.514923" lat="47.519919"><ele>355.75</ele></trkpt>
   <trkpt lon="7.514900" lat="47.520598"><ele>355.25</ele></trkpt>
   <trkpt lon="7.514879" lat="47.521665"><ele>354.5</ele></trkpt>
   <trkpt lon="7.514832" lat="47.521770"><ele>354.0</ele></trkpt>
   <trkpt lon="7.514824" lat="47.521867"><ele>354.0</ele></trkpt>
   <trkpt lon="7.514844" lat="47.522000"><ele>353.75</ele></trkpt>
   <trkpt lon="7.515133" lat="47.523936"><ele>349.25</ele></trkpt>
   <trkpt lon="7.515138" lat="47.524011"><ele>349.25</ele></trkpt>
   <trkpt lon="7.515130" lat="47.524031"><ele>349.0</ele></trkpt>
   <trkpt lon="7.515099" lat="47.524076"><ele>348.75</ele></trkpt>
   <trkpt lon="7.515136" lat="47.524094"><ele>349.0</ele></trkpt>
   <trkpt lon="7.515174" lat="47.524134"><ele>349.25</ele></trkpt>
   <trkpt lon="7.515431" lat="47.524613"><ele>350.25</ele></trkpt>
   <trkpt lon="7.515498" lat="47.524671"><ele>350.25</ele></trkpt>
   <trkpt lon="7.515600" lat="47.524726"><ele>350.25</ele></trkpt>
   <trkpt lon="7.515723" lat="47.524749"><ele>351.0</ele></trkpt>
   <trkpt lon="7.515905" lat="47.524789"><ele>351.75</ele></trkpt>
   <trkpt lon="7.516170" lat="47.524910"><ele>351.5</ele></trkpt>
   <trkpt lon="7.516648" lat="47.525206"><ele>350.5</ele></trkpt>
   <trkpt lon="7.516728" lat="47.525262"><ele>350.25</ele></trkpt>
   <trkpt lon="7.517254" lat="47.525625"><ele>350.0</ele></trkpt>
   <trkpt lon="7.517468" lat="47.525773"><ele>351.0</ele></trkpt>
   <trkpt lon="7.517518" lat="47.525813"><ele>351.0</ele></trkpt>
   <trkpt lon="7.518086" lat="47.526212"><ele>350.5</ele></trkpt>
   <trkpt lon="7.518586" lat="47.526543"><ele>350.25</ele></trkpt>
   <trkpt lon="7.518839" lat="47.526651"><ele>349.25</ele></trkpt>
   <trkpt lon="7.519111" lat="47.526692"><ele>348.75</ele></trkpt>
   <trkpt lon="7.519197" lat="47.526729"><ele>348.5</ele></trkpt>
   <trkpt lon="7.519230" lat="47.526771"><ele>348.25</ele></trkpt>
   <trkpt lon="7.519206" lat="47.526832"><ele>347.75</ele></trkpt>
   <trkpt lon="7.519067" lat="47.526969"><ele>346.75</ele></trkpt>
   <trkpt lon="7.518806" lat="47.527195"><ele>344.75</ele></trkpt>
   <trkpt lon="7.518674" lat="47.527309"><ele>343.5</ele></trkpt>
   <trkpt lon="7.518568" lat="47.527441"><ele>342.25</ele></trkpt>
   <trkpt lon="7.518529" lat="47.527524"><ele>341.5</ele></trkpt>
   <trkpt lon="7.518524" lat="47.527626"><ele>341.0</ele></trkpt>
   <trkpt lon="7.518562" lat="47.528312"><ele>339.75</ele></trkpt>
   <trkpt lon="7.518581" lat="47.528391"><ele>340.0</ele></trkpt>
   <trkpt lon="7.518587" lat="47.528415"><ele>340.0</ele></trkpt>
   <trkpt lon="7.518601" lat="47.528471"><ele>340.0</ele></trkpt>
   <trkpt lon="7.518643" lat="47.528561"><ele>339.75</ele></trkpt>
   <trkpt lon="7.518668" lat="47.528614"><ele>339.75</ele></trkpt>
   <trkpt lon="7.518752" lat="47.528834"><ele>340.5</ele></trkpt>
   <trkpt lon="7.518782" lat="47.529024"><ele>341.5</ele></trkpt>
   <trkpt lon="7.518765" lat="47.529495"><ele>344.0</ele></trkpt>
   <trkpt lon="7.518706" lat="47.529793"><ele>346.0</ele></trkpt>
   <trkpt lon="7.518510" lat="47.530323"><ele>350.75</ele></trkpt>
   <trkpt lon="7.518505" lat="47.530381"><ele>351.25</ele></trkpt>
   <trkpt lon="7.518535" lat="47.530484"><ele>352.0</ele></trkpt>
   <trkpt lon="7.518563" lat="47.530545"><ele>352.25</ele></trkpt>
   <trkpt lon="7.518720" lat="47.530801"><ele>352.75</ele></trkpt>
   <trkpt lon="7.518758" lat="47.530864"><ele>353.0</ele></trkpt>
   <trkpt lon="7.518819" lat="47.530987"><ele>353.25</ele></trkpt>
   <trkpt lon="7.518853" lat="47.531056"><ele>353.75</ele></trkpt>
   <trkpt lon="7.518960" lat="47.531346"><ele>354.5</ele></trkpt>
   <trkpt lon="7.519011" lat="47.531427"><ele>354.5</ele></trkpt>
   <trkpt lon="7.519038" lat="47.531546"><ele>354.5</ele></trkpt>
   <trkpt lon="7.519454" lat="47.532236"><ele>354.75</ele></trkpt>
   <trkpt lon="7.519873" lat="47.532720"><ele>354.5</ele></trkpt>
   <trkpt lon="7.520460" lat="47.533337"><ele>353.5</ele></trkpt>
   <trkpt lon="7.520905" lat="47.533751"><ele>351.5</ele></trkpt>
   <trkpt lon="7.521057" lat="47.533906"><ele>351.25</ele></trkpt>
   <trkpt lon="7.521269" lat="47.534080"><ele>352.0</ele></trkpt>
   <trkpt lon="7.521566" lat="47.534257"><ele>353.0</ele></trkpt>
   <trkpt lon="7.522279" lat="47.534591"><ele>354.75</ele></trkpt>
   <trkpt lon="7.523108" lat="47.535097"><ele>353.0</ele></trkpt>
   <trkpt lon="7.523243" lat="47.535196"><ele>353.0</ele></trkpt>
   <trkpt lon="7.523408" lat="47.535343"><ele>352.5</ele></trkpt>
   <trkpt lon="7.523532" lat="47.535517"><ele>352.25</ele></trkpt>
   <trkpt lon="7.523611" lat="47.535688"><ele>351.5</ele></trkpt>
   <trkpt lon="7.523750" lat="47.536141"><ele>349.75</ele></trkpt>
   <trkpt lon="7.523778" lat="47.536250"><ele>349.0</ele></trkpt>
   <trkpt lon="7.523834" lat="47.536473"><ele>347.5</ele></trkpt>
   <trkpt lon="7.524383" lat="47.538184"><ele>346.0</ele></trkpt>
   <trkpt lon="7.524609" lat="47.538887"><ele>345.5</ele></trkpt>
   <trkpt lon="7.524911" lat="47.539659"><ele>346.5</ele></trkpt>
   <trkpt lon="7.524939" lat="47.539710"><ele>346.5</ele></trkpt>
   <trkpt lon="7.525274" lat="47.540520"><ele>347.0</ele></trkpt>
   <trkpt lon="7.525716" lat="47.541426"><ele>344.5</ele></trkpt>
   <trkpt lon="7.525807" lat="47.541694"><ele>342.0</ele></trkpt>
   <trkpt lon="7.525871" lat="47.541837"><ele>342.0</ele></trkpt>
   <trkpt lon="7.525990" lat="47.542259"><ele>340.75</ele></trkpt>
   <trkpt lon="7.526432" lat="47.543694"><ele>336.75</ele></trkpt>
   <trkpt lon="7.526515" lat="47.543966"><ele>336.25</ele></trkpt>
   <trkpt lon="7.526566" lat="47.544101"><ele>336.0</ele></trkpt>
   <trkpt lon="7.526748" lat="47.544277"><ele>335.5</ele></trkpt>
   <trkpt lon="7.527510" lat="47.544868"><ele>334.25</ele></trkpt>
   <trkpt lon="7.527297" lat="47.544995"><ele>334.0</ele></trkpt>
   <trkpt lon="7.526812" lat="47.545334"><ele>333.25</ele></trkpt>
   <trkpt lon="7.526424" lat="47.545607"><ele>332.0</ele></trkpt>
   <trkpt lon="7.526300" lat="47.545704"><ele>331.75</ele></trkpt>
   <trkpt lon="7.526242" lat="47.545798"><ele>331.5</ele></trkpt>
   <trkpt lon="7.526077" lat="47.545905"><ele>330.5</ele></trkpt>
   <trkpt lon="7.525790" lat="47.546164"><ele>327.25</ele></trkpt>
   <trkpt lon="7.525529" lat="47.546373"><ele>324.0</ele></trkpt>
   <trkpt lon="7.525443" lat="47.546519"><ele>322.5</ele></trkpt>
   <trkpt lon="7.525393" lat="47.546623"><ele>320.75</ele></trkpt>
   <trkpt lon="7.525443" lat="47.546756"><ele>320.25</ele></trkpt>
   <trkpt lon="7.525672" lat="47.547116"><ele>318.75</ele></trkpt>
   <trkpt lon="7.525990" lat="47.547494"><ele>314.5</ele></trkpt>
   <trkpt lon="7.526165" lat="47.547792"><ele>311.5</ele></trkpt>
   <trkpt lon="7.526246" lat="47.547974"><ele>311.5</ele></trkpt>
   <trkpt lon="7.526214" lat="47.548052"><ele>310.75</ele></trkpt>
   <trkpt lon="7.526131" lat="47.548152"><ele>310.0</ele></trkpt>
   <trkpt lon="7.526175" lat="47.548195"><ele>310.0</ele></trkpt>
   <trkpt lon="7.526672" lat="47.548798"><ele>309.25</ele></trkpt>
   <trkpt lon="7.526718" lat="47.548863"><ele>309.0</ele></trkpt>
   <trkpt lon="7.526489" lat="47.549213"><ele>310.75</ele></trkpt>
   <trkpt lon="7.526406" lat="47.549350"><ele>312.75</ele></trkpt>
   <trkpt lon="7.526286" lat="47.549546"><ele>316.5</ele></trkpt>
   <trkpt lon="7.526733" lat="47.549620"><ele>313.75</ele></trkpt>
   <trkpt lon="7.527127" lat="47.549727"><ele>311.0</ele></trkpt>
   <trkpt lon="7.527388" lat="47.549812"><ele>310.75</ele></trkpt>
   <trkpt lon="7.527456" lat="47.549835"><ele>310.75</ele></trkpt>
   <trkpt lon="7.527776" lat="47.549946"><ele>309.5</ele></trkpt>
   <trkpt lon="7.527956" lat="47.550009"><ele>308.25</ele></trkpt>
   <trkpt lon="7.529030" lat="47.550386"><ele>307.0</ele></trkpt>
   <trkpt lon="7.529298" lat="47.550475"><ele>306.75</ele></trkpt>
   <trkpt lon="7.529346" lat="47.550489"><ele>306.5</ele></trkpt>
   <trkpt lon="7.529775" lat="47.550591"><ele>306.25</ele></trkpt>
   <trkpt lon="7.531271" lat="47.550910"><ele>305.0</ele></trkpt>
   <trkpt lon="7.531620" lat="47.550981"><ele>304.75</ele></trkpt>
   <trkpt lon="7.531765" lat="47.551009"><ele>304.25</ele></trkpt>
   <trkpt lon="7.532273" lat="47.551102"><ele>301.75</ele></trkpt>
   <trkpt lon="7.532333" lat="47.551114"><ele>301.5</ele></trkpt>
   <trkpt lon="7.532903" lat="47.551223"><ele>301.75</ele></trkpt>
   <trkpt lon="7.533141" lat="47.551271"><ele>301.75</ele></trkpt>
   <trkpt lon="7.533468" lat="47.551356"><ele>299.0</ele></trkpt>
   <trkpt lon="7.533685" lat="47.551421"><ele>297.75</ele></trkpt>
   <trkpt lon="7.534137" lat="47.551581"><ele>296.5</ele></trkpt>
   <trkpt lon="7.534287" lat="47.551643"><ele>295.0</ele></trkpt>
   <trkpt lon="7.534700" lat="47.551892"><ele>294.0</ele></trkpt>
   <trkpt lon="7.534788" lat="47.551952"><ele>293.5</ele></trkpt>
   <trkpt lon="7.535164" lat="47.552130"><ele>290.25</ele></trkpt>
   <trkpt lon="7.535326" lat="47.552197"><ele>288.75</ele></trkpt>
   <trkpt lon="7.535591" lat="47.552300"><ele>286.25</ele></trkpt>
   <trkpt lon="7.535767" lat="47.552353"><ele>285.5</ele></trkpt>
   <trkpt lon="7.535975" lat="47.552385"><ele>284.75</ele></trkpt>
   <trkpt lon="7.536169" lat="47.552402"><ele>284.0</ele></trkpt>
   <trkpt lon="7.536281" lat="47.552405"><ele>283.5</ele></trkpt>
   <trkpt lon="7.536515" lat="47.552391"><ele>282.75</ele></trkpt>
   <trkpt lon="7.536654" lat="47.552367"><ele>282.5</ele></trkpt>
   <trkpt lon="7.536757" lat="47.552342"><ele>282.5</ele></trkpt>
   <trkpt lon="7.536852" lat="47.552303"><ele>282.5</ele></trkpt>
   <trkpt lon="7.536999" lat="47.552384"><ele>282.5</ele></trkpt>
   <trkpt lon="7.537176" lat="47.552440"><ele>282.75</ele></trkpt>
   <trkpt lon="7.538086" lat="47.552671"><ele>282.0</ele></trkpt>
   <trkpt lon="7.538137" lat="47.552691"><ele>282.0</ele></trkpt>
   <trkpt lon="7.538309" lat="47.552759"><ele>282.0</ele></trkpt>
   <trkpt lon="7.538494" lat="47.552816"><ele>282.0</ele></trkpt>
   <trkpt lon="7.538581" lat="47.552836"><ele>282.0</ele></trkpt>
   <trkpt lon="7.540068" lat="47.553172"><ele>280.0</ele></trkpt>
   <trkpt lon="7.540328" lat="47.553261"><ele>280.0</ele></trkpt>
   <trkpt lon="7.540953" lat="47.553615"><ele>278.75</ele></trkpt>
   <trkpt lon="7.541579" lat="47.553993"><ele>278.5</ele></trkpt>
   <trkpt lon="7.541629" lat="47.554007"><ele>278.5</ele></trkpt>
   <trkpt lon="7.541679" lat="47.554018"><ele>278.25</ele></trkpt>
   <trkpt lon="7.541723" lat="47.553982"><ele>278.25</ele></trkpt>
   <trkpt lon="7.541788" lat="47.553968"><ele>278.25</ele></trkpt>
   <trkpt lon="7.541855" lat="47.553980"><ele>278.5</ele></trkpt>
   <trkpt lon="7.541881" lat="47.553995"><ele>278.5</ele></trkpt>
   <trkpt lon="7.541902" lat="47.554016"><ele>278.5</ele></trkpt>
   <trkpt lon="7.541912" lat="47.554040"><ele>278.25</ele></trkpt>
   <trkpt lon="7.541911" lat="47.554065"><ele>278.25</ele></trkpt>
   <trkpt lon="7.541899" lat="47.554089"><ele>278.25</ele></trkpt>
   <trkpt lon="7.541877" lat="47.554109"><ele>278.25</ele></trkpt>
   <trkpt lon="7.541847" lat="47.554124"><ele>278.25</ele></trkpt>
   <trkpt lon="7.541872" lat="47.554149"><ele>278.25</ele></trkpt>
   <trkpt lon="7.541922" lat="47.554200"><ele>277.75</ele></trkpt>
   <trkpt lon="7.541939" lat="47.554214"><ele>277.75</ele></trkpt>
   <trkpt lon="7.541972" lat="47.554243"><ele>277.75</ele></trkpt>
   <trkpt lon="7.542231" lat="47.554401"><ele>278.0</ele></trkpt>
   <trkpt lon="7.543935" lat="47.555420"><ele>277.25</ele></trkpt>
   <trkpt lon="7.544061" lat="47.555507"><ele>277.0</ele></trkpt>
   <trkpt lon="7.544549" lat="47.555801"><ele>277.0</ele></trkpt>
   <trkpt lon="7.544737" lat="47.555915"><ele>276.5</ele></trkpt>
   <trkpt lon="7.545080" lat="47.556121"><ele>276.75</ele></trkpt>
   <trkpt lon="7.545272" lat="47.556236"><ele>276.5</ele></trkpt>
   <trkpt lon="7.545375" lat="47.556297"><ele>276.5</ele></trkpt>
   <trkpt lon="7.545894" lat="47.556607"><ele>276.25</ele></trkpt>
   <trkpt lon="7.546775" lat="47.557134"><ele>276.0</ele></trkpt>
   <trkpt lon="7.546987" lat="47.557261"><ele>276.0</ele></trkpt>
   <trkpt lon="7.547181" lat="47.557377"><ele>276.0</ele></trkpt>
   <trkpt lon="7.547302" lat="47.557449"><ele>276.0</ele></trkpt>
   <trkpt lon="7.547495" lat="47.557565"><ele>275.75</ele></trkpt>
   <trkpt lon="7.547701" lat="47.557688"><ele>276.0</ele></trkpt>
   <trkpt lon="7.548285" lat="47.558037"><ele>276.0</ele></trkpt>
   <trkpt lon="7.548363" lat="47.558084"><ele>275.75</ele></trkpt>
   <trkpt lon="7.548763" lat="47.558323"><ele>275.5</ele></trkpt>
   <trkpt lon="7.549188" lat="47.558576"><ele>275.0</ele></trkpt>
   <trkpt lon="7.550608" lat="47.559427"><ele>275.0</ele></trkpt>
   <trkpt lon="7.550740" lat="47.559506"><ele>275.0</ele></trkpt>
   <trkpt lon="7.550811" lat="47.559549"><ele>275.0</ele></trkpt>
   <trkpt lon="7.551191" lat="47.559776"><ele>275.0</ele></trkpt>
   <trkpt lon="7.551449" lat="47.559930"><ele>275.0</ele></trkpt>
   <trkpt lon="7.551817" lat="47.560150"><ele>275.0</ele></trkpt>
   <trkpt lon="7.553950" lat="47.561424"><ele>275.0</ele></trkpt>
   <trkpt lon="7.554285" lat="47.561620"><ele>275.0</ele></trkpt>
   <trkpt lon="7.554423" lat="47.561702"><ele>275.0</ele></trkpt>
   <trkpt lon="7.554797" lat="47.561920"><ele>275.25</ele></trkpt>
   <trkpt lon="7.554861" lat="47.561957"><ele>275.25</ele></trkpt>
   <trkpt lon="7.555085" lat="47.562087"><ele>275.25</ele></trkpt>
   <trkpt lon="7.555549" lat="47.562357"><ele>275.75</ele></trkpt>
   <trkpt lon="7.555579" lat="47.562376"><ele>275.75</ele></trkpt>
   <trkpt lon="7.555700" lat="47.562449"><ele>275.5</ele></trkpt>
   <trkpt lon="7.555886" lat="47.562562"><ele>275.0</ele></trkpt>
   <trkpt lon="7.556820" lat="47.563134"><ele>275.5</ele></trkpt>
   <trkpt lon="7.556989" lat="47.563239"><ele>275.5</ele></trkpt>
   <trkpt lon="7.557186" lat="47.563415"><ele>275.5</ele></trkpt>
   <trkpt lon="7.557273" lat="47.563502"><ele>275.5</ele></trkpt>
   <trkpt lon="7.557316" lat="47.563549"><ele>275.25</ele></trkpt>
   <trkpt lon="7.557433" lat="47.563677"><ele>275.5</ele></trkpt>
   <trkpt lon="7.557480" lat="47.563725"><ele>275.5</ele></trkpt>
   <trkpt lon="7.557519" lat="47.563766"><ele>275.25</ele></trkpt>
   <trkpt lon="7.557689" lat="47.563959"><ele>275.0</ele></trkpt>
   <trkpt lon="7.557735" lat="47.564032"><ele>275.0</ele></trkpt>
   <trkpt lon="7.557841" lat="47.564200"><ele>275.0</ele></trkpt>
   <trkpt lon="7.557891" lat="47.564293"><ele>275.0</ele></trkpt>
   <trkpt lon="7.558066" lat="47.564581"><ele>275.0</ele></trkpt>
   <trkpt lon="7.558149" lat="47.564718"><ele>275.0</ele></trkpt>
   <trkpt lon="7.558264" lat="47.564890"><ele>275.0</ele></trkpt>
   <trkpt lon="7.558477" lat="47.565210"><ele>275.0</ele></trkpt>
   <trkpt lon="7.558577" lat="47.565379"><ele>275.0</ele></trkpt>
   <trkpt lon="7.558687" lat="47.565378"><ele>275.0</ele></trkpt>
   <trkpt lon="7.558745" lat="47.565368"><ele>275.0</ele></trkpt>
   <trkpt lon="7.559248" lat="47.565229"><ele>275.0</ele></trkpt>
   <trkpt lon="7.559276" lat="47.565222"><ele>275.0</ele></trkpt>
   <trkpt lon="7.559606" lat="47.565130"><ele>275.25</ele></trkpt>
   <trkpt lon="7.559870" lat="47.565056"><ele>275.75</ele></trkpt>
   <trkpt lon="7.559989" lat="47.565022"><ele>275.75</ele></trkpt>
   <trkpt lon="7.561607" lat="47.564569"><ele>276.0</ele></trkpt>
   <trkpt lon="7.561804" lat="47.564514"><ele>276.0</ele></trkpt>
   <trkpt lon="7.561980" lat="47.564465"><ele>276.0</ele></trkpt>
   <trkpt lon="7.562228" lat="47.564394"><ele>276.0</ele></trkpt>
   <trkpt lon="7.562366" lat="47.564354"><ele>276.0</ele></trkpt>
   <trkpt lon="7.562573" lat="47.564295"><ele>276.0</ele></trkpt>
   <trkpt lon="7.562815" lat="47.564228"><ele>276.0</ele></trkpt>
   <trkpt lon="7.562849" lat="47.564219"><ele>276.0</ele></trkpt>
   <trkpt lon="7.563065" lat="47.564139"><ele>275.75</ele></trkpt>
   <trkpt lon="7.563143" lat="47.564106"><ele>275.5</ele></trkpt>
   <trkpt lon="7.563228" lat="47.564063"><ele>275.5</ele></trkpt>
   <trkpt lon="7.563237" lat="47.564034"><ele>275.5</ele></trkpt>
   <trkpt lon="7.563257" lat="47.564007"><ele>275.5</ele></trkpt>
   <trkpt lon="7.563317" lat="47.563969"><ele>275.75</ele></trkpt>
   <trkpt lon="7.563396" lat="47.563953"><ele>276.0</ele></trkpt>
   <trkpt lon="7.563478" lat="47.563963"><ele>276.0</ele></trkpt>
   <trkpt lon="7.563513" lat="47.563977"><ele>276.0</ele></trkpt>
   <trkpt lon="7.563527" lat="47.563985"><ele>276.0</ele></trkpt>
   <trkpt lon="7.563557" lat="47.564009"><ele>276.0</ele></trkpt>
   <trkpt lon="7.563577" lat="47.564037"><ele>276.0</ele></trkpt>
   <trkpt lon="7.563586" lat="47.564067"><ele>276.0</ele></trkpt>
   <trkpt lon="7.563582" lat="47.564098"><ele>276.0</ele></trkpt>
   <trkpt lon="7.563550" lat="47.564148"><ele>276.0</ele></trkpt>
   <trkpt lon="7.563537" lat="47.564182"><ele>275.75</ele></trkpt>
   <trkpt lon="7.563532" lat="47.564295"><ele>276.0</ele></trkpt>
   <trkpt lon="7.563502" lat="47.564424"><ele>276.0</ele></trkpt>
   <trkpt lon="7.563529" lat="47.564501"><ele>275.75</ele></trkpt>
   <trkpt lon="7.563532" lat="47.564511"><ele>275.75</ele></trkpt>
   <trkpt lon="7.563555" lat="47.564570"><ele>275.5</ele></trkpt>
   <trkpt lon="7.563582" lat="47.564628"><ele>275.25</ele></trkpt>
   <trkpt lon="7.563673" lat="47.564806"><ele>275.0</ele></trkpt>
   <trkpt lon="7.563742" lat="47.564905"><ele>275.0</ele></trkpt>
   <trkpt lon="7.563879" lat="47.565074"><ele>274.5</ele></trkpt>
   <trkpt lon="7.563975" lat="47.565175"><ele>274.25</ele></trkpt>
   <trkpt lon="7.563994" lat="47.565195"><ele>274.25</ele></trkpt>
   <trkpt lon="7.564031" lat="47.565235"><ele>274.0</ele></trkpt>
   <trkpt lon="7.564114" lat="47.565322"><ele>273.75</ele></trkpt>
   <trkpt lon="7.564212" lat="47.565425"><ele>273.5</ele></trkpt>
   <trkpt lon="7.564409" lat="47.565638"><ele>273.5</ele></trkpt>
   <trkpt lon="7.564709" lat="47.565963"><ele>272.5</ele></trkpt>
   <trkpt lon="7.564840" lat="47.566112"><ele>272.0</ele></trkpt>
   <trkpt lon="7.564876" lat="47.566150"><ele>272.0</ele></trkpt>
   <trkpt lon="7.564951" lat="47.566225"><ele>272.0</ele></trkpt>
   <trkpt lon="7.564985" lat="47.566257"><ele>272.0</ele></trkpt>
   <trkpt lon="7.565011" lat="47.566282"><ele>272.0</ele></trkpt>
   <trkpt lon="7.565075" lat="47.566346"><ele>272.0</ele></trkpt>
   <trkpt lon="7.565116" lat="47.566387"><ele>272.0</ele></trkpt>
   <trkpt lon="7.565292" lat="47.566555"><ele>271.25</ele></trkpt>
   <trkpt lon="7.565358" lat="47.566617"><ele>271.0</ele></trkpt>
   <trkpt lon="7.565715" lat="47.566953"><ele>269.75</ele></trkpt>
   <trkpt lon="7.566143" lat="47.567386"><ele>269.0</ele></trkpt>
   <trkpt lon="7.566443" lat="47.567684"><ele>268.25</ele></trkpt>
   <trkpt lon="7.566652" lat="47.567879"><ele>268.0</ele></trkpt>
   <trkpt lon="7.566908" lat="47.568081"><ele>267.25</ele></trkpt>
   <trkpt lon="7.567188" lat="47.568284"><ele>267.0</ele></trkpt>
   <trkpt lon="7.567299" lat="47.568356"><ele>267.0</ele></trkpt>
   <trkpt lon="7.567462" lat="47.568454"><ele>267.0</ele></trkpt>
   <trkpt lon="7.567631" lat="47.568484"><ele>267.0</ele></trkpt>
   <trkpt lon="7.567807" lat="47.568547"><ele>267.0</ele></trkpt>
   <trkpt lon="7.568098" lat="47.568671"><ele>266.75</ele></trkpt>
   <trkpt lon="7.568562" lat="47.568836"><ele>266.0</ele></trkpt>
   <trkpt lon="7.568786" lat="47.568905"><ele>266.5</ele></trkpt>
   <trkpt lon="7.569039" lat="47.568969"><ele>267.0</ele></trkpt>
   <trkpt lon="7.569415" lat="47.569048"><ele>267.0</ele></trkpt>
   <trkpt lon="7.569536" lat="47.569068"><ele>267.0</ele></trkpt>
   <trkpt lon="7.569570" lat="47.569073"><ele>267.25</ele></trkpt>
   <trkpt lon="7.569628" lat="47.569060"><ele>267.25</ele></trkpt>
   <trkpt lon="7.569690" lat="47.569059"><ele>267.5</ele></trkpt>
   <trkpt lon="7.569750" lat="47.569073"><ele>267.5</ele></trkpt>
   <trkpt lon="7.569801" lat="47.569099"><ele>267.75</ele></trkpt>
   <trkpt lon="7.569836" lat="47.569135"><ele>267.75</ele></trkpt>
   <trkpt lon="7.569851" lat="47.569177"><ele>267.75</ele></trkpt>
   <trkpt lon="7.569845" lat="47.569220"><ele>267.75</ele></trkpt>
   <trkpt lon="7.569878" lat="47.569227"><ele>267.75</ele></trkpt>
   <trkpt lon="7.569968" lat="47.569245"><ele>267.5</ele></trkpt>
   <trkpt lon="7.570270" lat="47.569318"><ele>267.0</ele></trkpt>
   <trkpt lon="7.572233" lat="47.569750"></trkpt>
   <trkpt lon="7.572505" lat="47.569810"></trkpt>
   <trkpt lon="7.572735" lat="47.569871"></trkpt>
   <trkpt lon="7.572806" lat="47.569895"></trkpt>
   <trkpt lon="7.573085" lat="47.570002"></trkpt>
   <trkpt lon="7.573201" lat="47.570057"></trkpt>
   <trkpt lon="7.573565" lat="47.570271"></trkpt>
   <trkpt lon="7.574082" lat="47.570648"><ele>259.0</ele></trkpt>
   <trkpt lon="7.574469" lat="47.570911"><ele>259.5</ele></trkpt>
   <trkpt lon="7.574537" lat="47.570953"><ele>259.25</ele></trkpt>
   <trkpt lon="7.574565" lat="47.570969"><ele>259.25</ele></trkpt>
   <trkpt lon="7.574663" lat="47.570931"><ele>259.0</ele></trkpt>
   <trkpt lon="7.574699" lat="47.570924"><ele>259.0</ele></trkpt>
   <trkpt lon="7.574803" lat="47.570920"><ele>259.0</ele></trkpt>
   <trkpt lon="7.574894" lat="47.570931"><ele>259.0</ele></trkpt>
   <trkpt lon="7.574937" lat="47.570943"><ele>259.0</ele></trkpt>
   <trkpt lon="7.574974" lat="47.570959"><ele>259.0</ele></trkpt>
   <trkpt lon="7.575019" lat="47.571004"><ele>259.0</ele></trkpt>
   <trkpt lon="7.575025" lat="47.571012"><ele>259.0</ele></trkpt>
   <trkpt lon="7.575037" lat="47.571040"><ele>259.0</ele></trkpt>
   <trkpt lon="7.575039" lat="47.571076"><ele>259.0</ele></trkpt>
   <trkpt lon="7.575024" lat="47.571114"><ele>259.0</ele></trkpt>
   <trkpt lon="7.574990" lat="47.571154"><ele>259.0</ele></trkpt>
   <trkpt lon="7.574964" lat="47.571172"><ele>259.0</ele></trkpt>
   <trkpt lon="7.574881" lat="47.571202"><ele>259.0</ele></trkpt>
   <trkpt lon="7.574901" lat="47.571222"><ele>259.0</ele></trkpt>
   <trkpt lon="7.574952" lat="47.571275"><ele>259.0</ele></trkpt>
   <trkpt lon="7.575649" lat="47.571891"><ele>258.0</ele></trkpt>
   <trkpt lon="7.576262" lat="47.572431"><ele>257.25</ele></trkpt>
   <trkpt lon="7.576385" lat="47.572524"><ele>257.0</ele></trkpt>
   <trkpt lon="7.576401" lat="47.572536"><ele>257.0</ele></trkpt>
   <trkpt lon="7.576304" lat="47.572644"><ele>257.5</ele></trkpt>
   <trkpt lon="7.576220" lat="47.572728"><ele>257.75</ele></trkpt>
   <trkpt lon="7.575900" lat="47.573039"><ele>258.75</ele></trkpt>
   <trkpt lon="7.575437" lat="47.573492"><ele>259.0</ele></trkpt>
   <trkpt lon="7.574800" lat="47.574113"><ele>259.0</ele></trkpt>
   <trkpt lon="7.574779" lat="47.574134"><ele>259.0</ele></trkpt>
   <trkpt lon="7.574591" lat="47.574317"><ele>258.25</ele></trkpt>
   <trkpt lon="7.574109" lat="47.574777"><ele>259.0</ele></trkpt>
   <trkpt lon="7.574064" lat="47.574852"><ele>259.0</ele></trkpt>
   <trkpt lon="7.573925" lat="47.575081"><ele>258.5</ele></trkpt>
   <trkpt lon="7.573577" lat="47.575408"><ele>259.0</ele></trkpt>
   <trkpt lon="7.573538" lat="47.575445"><ele>259.0</ele></trkpt>
   <trkpt lon="7.573419" lat="47.575556"><ele>259.0</ele></trkpt>
   <trkpt lon="7.573416" lat="47.575587"><ele>259.0</ele></trkpt>
   <trkpt lon="7.573447" lat="47.575669"><ele>259.0</ele></trkpt>
   <trkpt lon="7.573525" lat="47.575819"><ele>259.0</ele></trkpt>
   <trkpt lon="7.573557" lat="47.575882"><ele>259.0</ele></trkpt>
   <trkpt lon="7.573620" lat="47.576008"><ele>258.75</ele></trkpt>
   <trkpt lon="7.573774" lat="47.575973"><ele>258.25</ele></trkpt>
   <trkpt lon="7.573838" lat="47.575958"><ele>258.0</ele></trkpt>
   <trkpt lon="7.574368" lat="47.575834"><ele>258.0</ele></trkpt>
   <trkpt lon="7.574463" lat="47.575830"><ele>258.0</ele></trkpt>
   <trkpt lon="7.574552" lat="47.575836"><ele>258.0</ele></trkpt>
   <trkpt lon="7.574623" lat="47.575866"><ele>258.0</ele></trkpt>
   <trkpt lon="7.574736" lat="47.575940"><ele>258.0</ele></trkpt>
   <trkpt lon="7.575007" lat="47.576161"><ele>258.75</ele></trkpt>
   <trkpt lon="7.575047" lat="47.576145"><ele>258.5</ele></trkpt>
   <trkpt lon="7.575092" lat="47.576138"><ele>258.5</ele></trkpt>
   <trkpt lon="7.575138" lat="47.576139"><ele>258.25</ele></trkpt>
   <trkpt lon="7.575182" lat="47.576149"><ele>258.25</ele></trkpt>
   <trkpt lon="7.575219" lat="47.576168"><ele>258.0</ele></trkpt>
   <trkpt lon="7.575248" lat="47.576192"><ele>258.0</ele></trkpt>
   <trkpt lon="7.575269" lat="47.576241"><ele>258.0</ele></trkpt>
   <trkpt lon="7.575254" lat="47.576291"><ele>258.0</ele></trkpt>
   <trkpt lon="7.575636" lat="47.576385"><ele>257.75</ele></trkpt>
   <trkpt lon="7.575835" lat="47.576372"><ele>257.75</ele></trkpt>
   <trkpt lon="7.575957" lat="47.576408"><ele>257.75</ele></trkpt>
   <trkpt lon="7.576112" lat="47.576448"></trkpt>
   <trkpt lon="7.576318" lat="47.576501"><ele>257.5</ele></trkpt>
   <trkpt lon="7.576555" lat="47.576567"><ele>257.0</ele></trkpt>
   <trkpt lon="7.576704" lat="47.576662"><ele>256.75</ele></trkpt>
   <trkpt lon="7.576895" lat="47.576754"><ele>256.0</ele></trkpt>
   <trkpt lon="7.577016" lat="47.576831"><ele>256.0</ele></trkpt>
   <trkpt lon="7.577124" lat="47.576947"><ele>256.0</ele></trkpt>
   <trkpt lon="7.577184" lat="47.577032"><ele>256.0</ele></trkpt>
   <trkpt lon="7.577200" lat="47.577071"><ele>256.0</ele></trkpt>
   <trkpt lon="7.577394" lat="47.577955"><ele>255.0</ele></trkpt>
   <trkpt lon="7.577424" lat="47.578048"><ele>255.0</ele></trkpt>
   <trkpt lon="7.577476" lat="47.578144"><ele>254.75</ele></trkpt>
   <trkpt lon="7.577561" lat="47.578270"><ele>255.0</ele></trkpt>
   <trkpt lon="7.577593" lat="47.578311"><ele>255.0</ele></trkpt>
   <trkpt lon="7.577679" lat="47.578467"><ele>255.25</ele></trkpt>
   <trkpt lon="7.577727" lat="47.578613"><ele>256.0</ele></trkpt>
   <trkpt lon="7.577989" lat="47.579650"><ele>255.75</ele></trkpt>
   <trkpt lon="7.578013" lat="47.579715"><ele>255.75</ele></trkpt>
   <trkpt lon="7.578065" lat="47.579792"><ele>255.75</ele></trkpt>
   <trkpt lon="7.578144" lat="47.579878"><ele>255.5</ele></trkpt>
   <trkpt lon="7.578283" lat="47.579987"><ele>255.75</ele></trkpt>
   <trkpt lon="7.578350" lat="47.580026"><ele>255.75</ele></trkpt>
   <trkpt lon="7.578430" lat="47.580061"><ele>255.5</ele></trkpt>
   <trkpt lon="7.578544" lat="47.580101"><ele>255.0</ele></trkpt>
   <trkpt lon="7.578717" lat="47.580142"><ele>255.0</ele></trkpt>
   <trkpt lon="7.578886" lat="47.580164"><ele>255.25</ele></trkpt>
   <trkpt lon="7.578989" lat="47.580164"><ele>255.25</ele></trkpt>
   <trkpt lon="7.580022" lat="47.580064"><ele>255.0</ele></trkpt>
   <trkpt lon="7.581117" lat="47.579955"><ele>256.0</ele></trkpt>
   <trkpt lon="7.581515" lat="47.579918"><ele>256.0</ele></trkpt>
   <trkpt lon="7.581565" lat="47.579923"><ele>256.0</ele></trkpt>
   <trkpt lon="7.581620" lat="47.579935"><ele>256.0</ele></trkpt>
   <trkpt lon="7.581651" lat="47.579952"><ele>256.0</ele></trkpt>
   <trkpt lon="7.581715" lat="47.579990"><ele>255.75</ele></trkpt>
   <trkpt lon="7.581744" lat="47.580023"><ele>255.5</ele></trkpt>
   <trkpt lon="7.581762" lat="47.580065"><ele>255.5</ele></trkpt>
   <trkpt lon="7.581811" lat="47.580289"><ele>255.0</ele></trkpt>
   <trkpt lon="7.581979" lat="47.581025"><ele>254.75</ele></trkpt>
   <trkpt lon="7.582065" lat="47.581489"><ele>253.5</ele></trkpt>
   <trkpt lon="7.582137" lat="47.581960"><ele>253.75</ele></trkpt>
   <trkpt lon="7.582156" lat="47.582076"><ele>253.5</ele></trkpt>
   <trkpt lon="7.582506" lat="47.584186"><ele>249.75</ele></trkpt>
   <trkpt lon="7.582634" lat="47.584756"><ele>249.75</ele></trkpt>
   <trkpt lon="7.582612" lat="47.584894"><ele>249.25</ele></trkpt>
   <trkpt lon="7.582703" lat="47.584855"><ele>249.5</ele></trkpt>
   <trkpt lon="7.583328" lat="47.584152"><ele>249.0</ele></trkpt>
   <trkpt lon="7.583371" lat="47.584140"><ele>249.0</ele></trkpt>
   <trkpt lon="7.584040" lat="47.584198"><ele>248.0</ele></trkpt>
   <trkpt lon="7.584321" lat="47.584123"><ele>246.5</ele></trkpt>
   <trkpt lon="7.584303" lat="47.584060"><ele>246.5</ele></trkpt>
   <trkpt lon="7.584266" lat="47.583989"><ele>246.5</ele></trkpt>
   <trkpt lon="7.583813" lat="47.583110"><ele>247.25</ele></trkpt>
   <trkpt lon="7.583789" lat="47.583034"><ele>247.25</ele></trkpt>
   <trkpt lon="7.583637" lat="47.582302"><ele>247.5</ele></trkpt>
   <trkpt lon="7.583601" lat="47.582082"><ele>247.5</ele></trkpt>
   <trkpt lon="7.583447" lat="47.581434"><ele>247.75</ele></trkpt>
   <trkpt lon="7.583440" lat="47.581361"><ele>247.5</ele></trkpt>
   <trkpt lon="7.583345" lat="47.581043"></trkpt>
   <trkpt lon="7.583273" lat="47.580761"></trkpt>
   <trkpt lon="7.583214" lat="47.580440"></trkpt>
   <trkpt lon="7.583178" lat="47.580116"></trkpt>
   <trkpt lon="7.583123" lat="47.579731"><ele>248.0</ele></trkpt>
   <trkpt lon="7.583111" lat="47.579676"><ele>248.0</ele></trkpt>
   <trkpt lon="7.583036" lat="47.579544"><ele>248.75</ele></trkpt>
   <trkpt lon="7.583005" lat="47.579448"><ele>249.25</ele></trkpt>
   <trkpt lon="7.582908" lat="47.578788"><ele>251.0</ele></trkpt>
   <trkpt lon="7.582886" lat="47.578232"><ele>251.75</ele></trkpt>
   <trkpt lon="7.582993" lat="47.576211"><ele>251.0</ele></trkpt>
   <trkpt lon="7.582988" lat="47.575965"><ele>250.25</ele></trkpt>
   <trkpt lon="7.583000" lat="47.575829"><ele>250.0</ele></trkpt>
   <trkpt lon="7.583011" lat="47.575788"><ele>250.0</ele></trkpt>
   <trkpt lon="7.583066" lat="47.575695"><ele>249.75</ele></trkpt>
   <trkpt lon="7.583109" lat="47.575589"><ele>249.5</ele></trkpt>
   <trkpt lon="7.583118" lat="47.575494"><ele>249.75</ele></trkpt>
   <trkpt lon="7.583116" lat="47.575403"><ele>250.0</ele></trkpt>
   <trkpt lon="7.583139" lat="47.575269"><ele>250.25</ele></trkpt>
   <trkpt lon="7.583196" lat="47.575138"><ele>249.5</ele></trkpt>
   <trkpt lon="7.583246" lat="47.574909"><ele>249.5</ele></trkpt>
   <trkpt lon="7.583358" lat="47.574501"><ele>247.5</ele></trkpt>
   <trkpt lon="7.583359" lat="47.574366"><ele>249.0</ele></trkpt>
   <trkpt lon="7.583404" lat="47.574254"><ele>249.75</ele></trkpt>
   <trkpt lon="7.583470" lat="47.574101"><ele>249.25</ele></trkpt>
   <trkpt lon="7.583430" lat="47.573915"><ele>251.0</ele></trkpt>
   <trkpt lon="7.583563" lat="47.573653"><ele>248.25</ele></trkpt>
   <trkpt lon="7.583568" lat="47.573459"><ele>248.75</ele></trkpt>
   <trkpt lon="7.583620" lat="47.573302"><ele>247.75</ele></trkpt>
   <trkpt lon="7.583597" lat="47.573178"><ele>248.25</ele></trkpt>
   <trkpt lon="7.583598" lat="47.572981"><ele>248.5</ele></trkpt>
   <trkpt lon="7.583626" lat="47.572858"><ele>248.5</ele></trkpt>
   <trkpt lon="7.583668" lat="47.572596"><ele>248.5</ele></trkpt>
   <trkpt lon="7.583625" lat="47.572410"><ele>249.25</ele></trkpt>
   <trkpt lon="7.583627" lat="47.572176"><ele>248.75</ele></trkpt>
   <trkpt lon="7.583601" lat="47.571972"><ele>249.0</ele></trkpt>
   <trkpt lon="7.583608" lat="47.571655"><ele>249.75</ele></trkpt>
   <trkpt lon="7.583556" lat="47.571366"><ele>248.5</ele></trkpt>
   <trkpt lon="7.583497" lat="47.571009"><ele>250.0</ele></trkpt>
   <trkpt lon="7.583415" lat="47.570510"><ele>249.5</ele></trkpt>
   <trkpt lon="7.583336" lat="47.570029"><ele>247.0</ele></trkpt>
   <trkpt lon="7.583359" lat="47.569906"><ele>247.0</ele></trkpt>
   <trkpt lon="7.583306" lat="47.569580"><ele>248.0</ele></trkpt>
   <trkpt lon="7.583182" lat="47.569392"><ele>248.5</ele></trkpt>
   <trkpt lon="7.583141" lat="47.569339"><ele>249.0</ele></trkpt>
   <trkpt lon="7.583128" lat="47.569297"><ele>249.25</ele></trkpt>
   <trkpt lon="7.583127" lat="47.569236"><ele>249.5</ele></trkpt>
   <trkpt lon="7.583115" lat="47.568726"><ele>249.75</ele></trkpt>
   <trkpt lon="7.583118" lat="47.568312"><ele>250.5</ele></trkpt>
   <trkpt lon="7.583025" lat="47.567827"><ele>253.75</ele></trkpt>
   <trkpt lon="7.583036" lat="47.567670"><ele>254.0</ele></trkpt>
   <trkpt lon="7.582982" lat="47.567642"><ele>254.0</ele></trkpt>
   <trkpt lon="7.582937" lat="47.567632"><ele>254.0</ele></trkpt>
   <trkpt lon="7.582926" lat="47.567653"><ele>254.0</ele></trkpt>
   <trkpt lon="7.582881" lat="47.567685"><ele>254.0</ele></trkpt>
   <trkpt lon="7.582851" lat="47.567695"><ele>254.0</ele></trkpt>
   <trkpt lon="7.582816" lat="47.567700"><ele>254.0</ele></trkpt>
   <trkpt lon="7.582785" lat="47.567697"><ele>254.0</ele></trkpt>
   <trkpt lon="7.582733" lat="47.567676"><ele>254.0</ele></trkpt>
   <trkpt lon="7.582715" lat="47.567657"><ele>254.0</ele></trkpt>
   <trkpt lon="7.582704" lat="47.567630"><ele>254.0</ele></trkpt>
   <trkpt lon="7.582721" lat="47.567581"><ele>254.0</ele></trkpt>
   <trkpt lon="7.582827" lat="47.567479"><ele>254.0</ele></trkpt>
   <trkpt lon="7.582843" lat="47.567454"><ele>254.0</ele></trkpt>
   <trkpt lon="7.582855" lat="47.567423"><ele>254.0</ele></trkpt>
   <trkpt lon="7.582865" lat="47.567273"><ele>254.0</ele></trkpt>
   <trkpt lon="7.582875" lat="47.567233"><ele>254.0</ele></trkpt>
   <trkpt lon="7.582980" lat="47.567043"><ele>253.5</ele></trkpt>
   <trkpt lon="7.583019" lat="47.566984"><ele>253.25</ele></trkpt>
   <trkpt lon="7.583047" lat="47.566866"><ele>253.5</ele></trkpt>
   <trkpt lon="7.583125" lat="47.566659"><ele>253.75</ele></trkpt>
   <trkpt lon="7.583190" lat="47.566511"><ele>253.0</ele></trkpt>
   <trkpt lon="7.583219" lat="47.566463"><ele>252.75</ele></trkpt>
   <trkpt lon="7.583499" lat="47.565827"><ele>251.0</ele></trkpt>
   <trkpt lon="7.583666" lat="47.565449"><ele>250.25</ele></trkpt>
   <trkpt lon="7.583709" lat="47.565358"><ele>249.75</ele></trkpt>
   <trkpt lon="7.583969" lat="47.564838"><ele>248.5</ele></trkpt>
   <trkpt lon="7.584070" lat="47.564683"><ele>248.0</ele></trkpt>
   <trkpt lon="7.584144" lat="47.564572"><ele>249.0</ele></trkpt>
   <trkpt lon="7.584298" lat="47.564341"><ele>249.25</ele></trkpt>
   <trkpt lon="7.584351" lat="47.564264"><ele>249.25</ele></trkpt>
   <trkpt lon="7.584648" lat="47.563838"><ele>248.75</ele></trkpt>
   <trkpt lon="7.584719" lat="47.563746"><ele>248.5</ele></trkpt>
   <trkpt lon="7.585094" lat="47.563290"><ele>248.25</ele></trkpt>
   <trkpt lon="7.585659" lat="47.562664"><ele>248.75</ele></trkpt>
   <trkpt lon="7.586345" lat="47.561898"><ele>249.75</ele></trkpt>
   <trkpt lon="7.586445" lat="47.561772"><ele>251.0</ele></trkpt>
   <trkpt lon="7.586495" lat="47.561719"><ele>251.25</ele></trkpt>
   <trkpt lon="7.586512" lat="47.561681"><ele>251.5</ele></trkpt>
   <trkpt lon="7.586499" lat="47.561648"><ele>252.25</ele></trkpt>
   <trkpt lon="7.586479" lat="47.561632"><ele>253.0</ele></trkpt>
   <trkpt lon="7.586414" lat="47.561618"><ele>254.75</ele></trkpt>
   <trkpt lon="7.586257" lat="47.561610"><ele>256.5</ele></trkpt>
   <trkpt lon="7.586194" lat="47.561589"><ele>257.25</ele></trkpt>
   <trkpt lon="7.586146" lat="47.561557"><ele>257.5</ele></trkpt>
   <trkpt lon="7.586131" lat="47.561547"><ele>257.75</ele></trkpt>
   <trkpt lon="7.586180" lat="47.561486"><ele>257.5</ele></trkpt>
   <trkpt lon="7.586191" lat="47.561473"><ele>257.5</ele></trkpt>
   <trkpt lon="7.586234" lat="47.561427"><ele>257.25</ele></trkpt>
   <trkpt lon="7.586255" lat="47.561403"><ele>257.25</ele></trkpt>
   <trkpt lon="7.586286" lat="47.561372"><ele>257.25</ele></trkpt>
   <trkpt lon="7.586387" lat="47.561283"><ele>257.0</ele></trkpt>
   <trkpt lon="7.586552" lat="47.561166"><ele>256.0</ele></trkpt>
   <trkpt lon="7.586791" lat="47.561012"><ele>255.75</ele></trkpt>
   <trkpt lon="7.586837" lat="47.560981"><ele>255.5</ele></trkpt>
   <trkpt lon="7.587017" lat="47.560855"><ele>254.5</ele></trkpt>
   <trkpt lon="7.587099" lat="47.560783"><ele>254.25</ele></trkpt>
   <trkpt lon="7.587210" lat="47.560664"><ele>253.25</ele></trkpt>
   <trkpt lon="7.587271" lat="47.560570"><ele>252.75</ele></trkpt>
   <trkpt lon="7.587433" lat="47.560343"><ele>252.75</ele></trkpt>
   <trkpt lon="7.587456" lat="47.560314"><ele>252.75</ele></trkpt>
   <trkpt lon="7.587652" lat="47.560076"><ele>252.0</ele></trkpt>
   <trkpt lon="7.587709" lat="47.560022"><ele>252.0</ele></trkpt>
   <trkpt lon="7.587828" lat="47.559956"><ele>252.0</ele></trkpt>
   <trkpt lon="7.587849" lat="47.559946"><ele>252.0</ele></trkpt>
   <trkpt lon="7.587947" lat="47.559911"><ele>252.0</ele></trkpt>
   <trkpt lon="7.588026" lat="47.559883"><ele>252.25</ele></trkpt>
   <trkpt lon="7.588131" lat="47.559834"><ele>251.75</ele></trkpt>
   <trkpt lon="7.588340" lat="47.559694"><ele>252.75</ele></trkpt>
   <trkpt lon="7.588443" lat="47.559647"><ele>252.5</ele></trkpt>
   <trkpt lon="7.588516" lat="47.559631"><ele>252.5</ele></trkpt>
   <trkpt lon="7.588560" lat="47.559629"><ele>252.25</ele></trkpt>
   <trkpt lon="7.588624" lat="47.559632"><ele>252.0</ele></trkpt>
   <trkpt lon="7.588712" lat="47.559653"><ele>249.75</ele></trkpt>
   <trkpt lon="7.590693" lat="47.560638"><ele>250.0</ele></trkpt>
   <trkpt lon="7.590754" lat="47.560580"><ele>250.75</ele></trkpt>
   <trkpt lon="7.590732" lat="47.560569"><ele>250.0</ele></trkpt>
   <trkpt lon="7.589854" lat="47.560133"><ele>247.5</ele></trkpt>
  </trkseg>
 </trk>
</gpx>
