<?xml version="1.0" encoding="UTF-8"?>
<!-- track-length = 26144 filtered ascend = 76 plain-ascend = 0 cost=42069 energy=.1kwh time=1h 23m 18s AUTO selected WAYPOINT (score 0.871) after 2 candidate(s) in 2384ms. Also tried ISO_GREEDY: score 0.813. short shared stem near start/end: 44m minor mid-route overlap: 62m (below 2412m rejection cap) -->
<gpx
 xmlns="http://www.topografix.com/GPX/1/1"
 xmlns:xsi="http://www.w3.org/2001/XMLSchema-instance"
 xsi:schemaLocation="http://www.topografix.com/GPX/1/1 http://www.topografix.com/GPX/1/1/gpx.xsd"
 creator="BRouter-null" version="1.1">
 <trk>
  <name>brouter_fastbike_0</name>
  <trkseg>
   <trkpt lon="7.589852" lat="47.560132"><ele>248.75</ele></trkpt>
   <trkpt lon="7.590732" lat="47.560569"><ele>250.0</ele></trkpt>
   <trkpt lon="7.590754" lat="47.560580"><ele>250.75</ele></trkpt>
   <trkpt lon="7.590693" lat="47.560638"><ele>250.0</ele></trkpt>
   <trkpt lon="7.588712" lat="47.559653"><ele>249.75</ele></trkpt>
   <trkpt lon="7.588624" lat="47.559632"><ele>252.0</ele></trkpt>
   <trkpt lon="7.588560" lat="47.559629"><ele>252.25</ele></trkpt>
   <trkpt lon="7.588516" lat="47.559631"><ele>252.5</ele></trkpt>
   <trkpt lon="7.588443" lat="47.559647"><ele>252.5</ele></trkpt>
   <trkpt lon="7.588340" lat="47.559694"><ele>252.75</ele></trkpt>
   <trkpt lon="7.588131" lat="47.559834"><ele>251.75</ele></trkpt>
   <trkpt lon="7.588026" lat="47.559883"><ele>252.25</ele></trkpt>
   <trkpt lon="7.587947" lat="47.559911"><ele>252.0</ele></trkpt>
   <trkpt lon="7.587849" lat="47.559946"><ele>252.0</ele></trkpt>
   <trkpt lon="7.587828" lat="47.559956"><ele>252.0</ele></trkpt>
   <trkpt lon="7.587709" lat="47.560022"><ele>252.0</ele></trkpt>
   <trkpt lon="7.587652" lat="47.560076"><ele>252.0</ele></trkpt>
   <trkpt lon="7.587456" lat="47.560314"><ele>252.75</ele></trkpt>
   <trkpt lon="7.587433" lat="47.560343"><ele>252.75</ele></trkpt>
   <trkpt lon="7.587271" lat="47.560570"><ele>252.75</ele></trkpt>
   <trkpt lon="7.587210" lat="47.560664"><ele>253.25</ele></trkpt>
   <trkpt lon="7.587099" lat="47.560783"><ele>254.25</ele></trkpt>
   <trkpt lon="7.587017" lat="47.560855"><ele>254.5</ele></trkpt>
   <trkpt lon="7.586837" lat="47.560981"><ele>255.5</ele></trkpt>
   <trkpt lon="7.586791" lat="47.561012"><ele>255.75</ele></trkpt>
   <trkpt lon="7.586552" lat="47.561166"><ele>256.0</ele></trkpt>
   <trkpt lon="7.586387" lat="47.561283"><ele>257.0</ele></trkpt>
   <trkpt lon="7.586286" lat="47.561372"><ele>257.25</ele></trkpt>
   <trkpt lon="7.586255" lat="47.561403"><ele>257.25</ele></trkpt>
   <trkpt lon="7.586234" lat="47.561427"><ele>257.25</ele></trkpt>
   <trkpt lon="7.586191" lat="47.561473"><ele>257.5</ele></trkpt>
   <trkpt lon="7.586180" lat="47.561486"><ele>257.5</ele></trkpt>
   <trkpt lon="7.586131" lat="47.561547"><ele>257.75</ele></trkpt>
   <trkpt lon="7.586111" lat="47.561542"><ele>258.0</ele></trkpt>
   <trkpt lon="7.586042" lat="47.561528"><ele>258.0</ele></trkpt>
   <trkpt lon="7.585957" lat="47.561523"><ele>258.0</ele></trkpt>
   <trkpt lon="7.585899" lat="47.561529"><ele>258.0</ele></trkpt>
   <trkpt lon="7.585792" lat="47.561558"><ele>258.0</ele></trkpt>
   <trkpt lon="7.585686" lat="47.561596"><ele>258.0</ele></trkpt>
   <trkpt lon="7.585600" lat="47.561631"><ele>258.0</ele></trkpt>
   <trkpt lon="7.585275" lat="47.561786"><ele>258.0</ele></trkpt>
   <trkpt lon="7.585147" lat="47.561837"><ele>258.0</ele></trkpt>
   <trkpt lon="7.585020" lat="47.561862"><ele>258.0</ele></trkpt>
   <trkpt lon="7.584889" lat="47.561889"><ele>257.75</ele></trkpt>
   <trkpt lon="7.584787" lat="47.561910"><ele>257.75</ele></trkpt>
   <trkpt lon="7.584709" lat="47.561933"><ele>257.75</ele></trkpt>
   <trkpt lon="7.584677" lat="47.561950"><ele>258.0</ele></trkpt>
   <trkpt lon="7.584515" lat="47.562033"><ele>258.0</ele></trkpt>
   <trkpt lon="7.583704" lat="47.562590"><ele>258.25</ele></trkpt>
   <trkpt lon="7.583340" lat="47.562915"><ele>258.25</ele></trkpt>
   <trkpt lon="7.583209" lat="47.563030"><ele>258.25</ele></trkpt>
   <trkpt lon="7.583104" lat="47.563121"><ele>258.5</ele></trkpt>
   <trkpt lon="7.582809" lat="47.563378"><ele>258.0</ele></trkpt>
   <trkpt lon="7.582783" lat="47.563401"><ele>258.0</ele></trkpt>
   <trkpt lon="7.582696" lat="47.563477"><ele>258.0</ele></trkpt>
   <trkpt lon="7.582587" lat="47.563566"><ele>258.0</ele></trkpt>
   <trkpt lon="7.582560" lat="47.563586"><ele>258.0</ele></trkpt>
   <trkpt lon="7.582164" lat="47.563888"><ele>258.0</ele></trkpt>
   <trkpt lon="7.582045" lat="47.563983"><ele>258.0</ele></trkpt>
   <trkpt lon="7.581999" lat="47.564021"><ele>258.0</ele></trkpt>
   <trkpt lon="7.581673" lat="47.564275"><ele>258.0</ele></trkpt>
   <trkpt lon="7.581319" lat="47.564550"><ele>258.0</ele></trkpt>
   <trkpt lon="7.580852" lat="47.564915"><ele>258.0</ele></trkpt>
   <trkpt lon="7.580765" lat="47.564937"><ele>258.0</ele></trkpt>
   <trkpt lon="7.580666" lat="47.564930"><ele>258.0</ele></trkpt>
   <trkpt lon="7.580583" lat="47.564890"><ele>258.0</ele></trkpt>
   <trkpt lon="7.579908" lat="47.564482"><ele>258.0</ele></trkpt>
   <trkpt lon="7.579852" lat="47.564448"><ele>258.0</ele></trkpt>
   <trkpt lon="7.579810" lat="47.564422"><ele>258.0</ele></trkpt>
   <trkpt lon="7.579534" lat="47.564261"><ele>258.0</ele></trkpt>
   <trkpt lon="7.579156" lat="47.564053"><ele>258.0</ele></trkpt>
   <trkpt lon="7.579034" lat="47.563991"><ele>258.0</ele></trkpt>
   <trkpt lon="7.578974" lat="47.563976"><ele>258.0</ele></trkpt>
   <trkpt lon="7.578859" lat="47.563971"><ele>258.0</ele></trkpt>
   <trkpt lon="7.578740" lat="47.564002"><ele>258.5</ele></trkpt>
   <trkpt lon="7.578459" lat="47.564088"><ele>259.0</ele></trkpt>
   <trkpt lon="7.578077" lat="47.564204"><ele>258.75</ele></trkpt>
   <trkpt lon="7.577689" lat="47.564322"><ele>259.75</ele></trkpt>
   <trkpt lon="7.577575" lat="47.564356"><ele>260.0</ele></trkpt>
   <trkpt lon="7.577461" lat="47.564391"><ele>260.25</ele></trkpt>
   <trkpt lon="7.577112" lat="47.564499"><ele>260.75</ele></trkpt>
   <trkpt lon="7.576289" lat="47.564754"><ele>263.0</ele></trkpt>
   <trkpt lon="7.576072" lat="47.564822"><ele>263.5</ele></trkpt>
   <trkpt lon="7.575829" lat="47.564899"><ele>264.0</ele></trkpt>
   <trkpt lon="7.575057" lat="47.565131"><ele>265.75</ele></trkpt>
   <trkpt lon="7.574519" lat="47.565290"><ele>266.75</ele></trkpt>
   <trkpt lon="7.574214" lat="47.565348"><ele>267.0</ele></trkpt>
   <trkpt lon="7.574120" lat="47.565429"><ele>267.0</ele></trkpt>
   <trkpt lon="7.574059" lat="47.565471"><ele>267.0</ele></trkpt>
   <trkpt lon="7.574001" lat="47.565512"><ele>267.0</ele></trkpt>
   <trkpt lon="7.573947" lat="47.565550"><ele>267.0</ele></trkpt>
   <trkpt lon="7.573775" lat="47.565663"><ele>267.0</ele></trkpt>
   <trkpt lon="7.573721" lat="47.565719"><ele>267.0</ele></trkpt>
   <trkpt lon="7.573639" lat="47.565782"><ele>267.0</ele></trkpt>
   <trkpt lon="7.573537" lat="47.565832"><ele>267.0</ele></trkpt>
   <trkpt lon="7.573506" lat="47.565842"><ele>266.75</ele></trkpt>
   <trkpt lon="7.573430" lat="47.565861"><ele>266.75</ele></trkpt>
   <trkpt lon="7.573313" lat="47.565876"><ele>266.75</ele></trkpt>
   <trkpt lon="7.573116" lat="47.565965"><ele>266.75</ele></trkpt>
   <trkpt lon="7.573050" lat="47.566002"><ele>267.0</ele></trkpt>
   <trkpt lon="7.572880" lat="47.566081"><ele>267.0</ele></trkpt>
   <trkpt lon="7.572745" lat="47.566156"><ele>267.0</ele></trkpt>
   <trkpt lon="7.572703" lat="47.566303"><ele>267.25</ele></trkpt>
   <trkpt lon="7.572669" lat="47.566388"><ele>267.25</ele></trkpt>
   <trkpt lon="7.572626" lat="47.566453"><ele>267.5</ele></trkpt>
   <trkpt lon="7.572515" lat="47.566546"><ele>267.25</ele></trkpt>
   <trkpt lon="7.572336" lat="47.566670"><ele>267.0</ele></trkpt>
   <trkpt lon="7.571534" lat="47.567227"><ele>267.25</ele></trkpt>
   <trkpt lon="7.571144" lat="47.567514"><ele>267.0</ele></trkpt>
   <trkpt lon="7.570687" lat="47.567836"><ele>267.0</ele></trkpt>
   <trkpt lon="7.570630" lat="47.567803"><ele>266.75</ele></trkpt>
   <trkpt lon="7.569822" lat="47.567276"><ele>267.75</ele></trkpt>
   <trkpt lon="7.569653" lat="47.567181"><ele>268.0</ele></trkpt>
   <trkpt lon="7.569623" lat="47.567126"><ele>268.0</ele></trkpt>
   <trkpt lon="7.568249" lat="47.566167"><ele>268.0</ele></trkpt>
   <trkpt lon="7.568197" lat="47.566128"><ele>268.0</ele></trkpt>
   <trkpt lon="7.567945" lat="47.565942"><ele>269.0</ele></trkpt>
   <trkpt lon="7.567468" lat="47.565621"><ele>270.0</ele></trkpt>
   <trkpt lon="7.567306" lat="47.565485"><ele>270.75</ele></trkpt>
   <trkpt lon="7.567066" lat="47.565253"><ele>272.0</ele></trkpt>
   <trkpt lon="7.567056" lat="47.565244"><ele>272.0</ele></trkpt>
   <trkpt lon="7.566887" lat="47.565326"><ele>271.75</ele></trkpt>
   <trkpt lon="7.566448" lat="47.565539"><ele>272.0</ele></trkpt>
   <trkpt lon="7.566382" lat="47.565569"><ele>271.75</ele></trkpt>
   <trkpt lon="7.566047" lat="47.565735"><ele>272.0</ele></trkpt>
   <trkpt lon="7.565721" lat="47.565895"><ele>271.75</ele></trkpt>
   <trkpt lon="7.565197" lat="47.566149"><ele>272.0</ele></trkpt>
   <trkpt lon="7.565140" lat="47.566177"><ele>272.0</ele></trkpt>
   <trkpt lon="7.564985" lat="47.566257"><ele>272.0</ele></trkpt>
   <trkpt lon="7.564831" lat="47.566340"><ele>272.0</ele></trkpt>
   <trkpt lon="7.564784" lat="47.566367"><ele>272.0</ele></trkpt>
   <trkpt lon="7.564214" lat="47.566708"><ele>272.75</ele></trkpt>
   <trkpt lon="7.564058" lat="47.566801"><ele>273.0</ele></trkpt>
   <trkpt lon="7.563558" lat="47.567123"><ele>273.0</ele></trkpt>
   <trkpt lon="7.563406" lat="47.567213"><ele>273.0</ele></trkpt>
   <trkpt lon="7.562761" lat="47.567604"><ele>273.0</ele></trkpt>
   <trkpt lon="7.562078" lat="47.568020"><ele>273.0</ele></trkpt>
   <trkpt lon="7.561862" lat="47.568160"><ele>272.75</ele></trkpt>
   <trkpt lon="7.561629" lat="47.568314"><ele>273.0</ele></trkpt>
   <trkpt lon="7.561560" lat="47.568357"><ele>272.75</ele></trkpt>
   <trkpt lon="7.561027" lat="47.568714"><ele>273.0</ele></trkpt>
   <trkpt lon="7.560670" lat="47.568959"><ele>273.0</ele></trkpt>
   <trkpt lon="7.560284" lat="47.569256"><ele>271.5</ele></trkpt>
   <trkpt lon="7.560147" lat="47.569364"><ele>271.75</ele></trkpt>
   <trkpt lon="7.559953" lat="47.569498"><ele>271.25</ele></trkpt>
   <trkpt lon="7.559094" lat="47.570038"><ele>271.5</ele></trkpt>
   <trkpt lon="7.558787" lat="47.570256"><ele>271.25</ele></trkpt>
   <trkpt lon="7.558563" lat="47.570441"><ele>272.0</ele></trkpt>
   <trkpt lon="7.558261" lat="47.570721"><ele>272.5</ele></trkpt>
   <trkpt lon="7.558070" lat="47.570948"><ele>272.75</ele></trkpt>
   <trkpt lon="7.557918" lat="47.571156"><ele>273.0</ele></trkpt>
   <trkpt lon="7.557780" lat="47.571368"><ele>273.0</ele></trkpt>
   <trkpt lon="7.557685" lat="47.571506"><ele>272.5</ele></trkpt>
   <trkpt lon="7.557570" lat="47.571674"><ele>272.25</ele></trkpt>
   <trkpt lon="7.557583" lat="47.571731"><ele>272.0</ele></trkpt>
   <trkpt lon="7.557553" lat="47.571795"><ele>272.25</ele></trkpt>
   <trkpt lon="7.557397" lat="47.572012"><ele>272.25</ele></trkpt>
   <trkpt lon="7.557219" lat="47.572236"><ele>271.75</ele></trkpt>
   <trkpt lon="7.557201" lat="47.572259"><ele>271.5</ele></trkpt>
   <trkpt lon="7.557067" lat="47.572428"><ele>270.25</ele></trkpt>
   <trkpt lon="7.557001" lat="47.572495"><ele>270.25</ele></trkpt>
   <trkpt lon="7.556913" lat="47.572548"><ele>270.75</ele></trkpt>
   <trkpt lon="7.556904" lat="47.572554"><ele>270.75</ele></trkpt>
   <trkpt lon="7.556861" lat="47.572581"><ele>271.0</ele></trkpt>
   <trkpt lon="7.556698" lat="47.572699"><ele>271.0</ele></trkpt>
   <trkpt lon="7.556483" lat="47.572813"><ele>270.5</ele></trkpt>
   <trkpt lon="7.556198" lat="47.572933"><ele>271.0</ele></trkpt>
   <trkpt lon="7.556113" lat="47.572969"><ele>271.75</ele></trkpt>
   <trkpt lon="7.555438" lat="47.573304"><ele>273.25</ele></trkpt>
   <trkpt lon="7.555315" lat="47.573386"><ele>272.75</ele></trkpt>
   <trkpt lon="7.554506" lat="47.573979"><ele>272.0</ele></trkpt>
   <trkpt lon="7.554368" lat="47.574082"><ele>272.25</ele></trkpt>
   <trkpt lon="7.554290" lat="47.574149"><ele>272.5</ele></trkpt>
   <trkpt lon="7.553836" lat="47.574528"><ele>272.25</ele></trkpt>
   <trkpt lon="7.553725" lat="47.574594"><ele>272.25</ele></trkpt>
   <trkpt lon="7.553490" lat="47.574793"><ele>272.5</ele></trkpt>
   <trkpt lon="7.553252" lat="47.574964"><ele>273.0</ele></trkpt>
   <trkpt lon="7.553073" lat="47.575099"><ele>272.75</ele></trkpt>
   <trkpt lon="7.552576" lat="47.575457"><ele>273.0</ele></trkpt>
   <trkpt lon="7.552397" lat="47.575610"><ele>272.75</ele></trkpt>
   <trkpt lon="7.552285" lat="47.575743"><ele>272.75</ele></trkpt>
   <trkpt lon="7.552191" lat="47.575867"><ele>273.0</ele></trkpt>
   <trkpt lon="7.552001" lat="47.576036"><ele>273.0</ele></trkpt>
   <trkpt lon="7.551832" lat="47.576153"><ele>273.0</ele></trkpt>
   <trkpt lon="7.551658" lat="47.576254"><ele>273.0</ele></trkpt>
   <trkpt lon="7.551294" lat="47.576441"><ele>273.0</ele></trkpt>
   <trkpt lon="7.551163" lat="47.576483"><ele>273.0</ele></trkpt>
   <trkpt lon="7.550839" lat="47.576650"><ele>273.0</ele></trkpt>
   <trkpt lon="7.550741" lat="47.576727"><ele>273.0</ele></trkpt>
   <trkpt lon="7.550254" lat="47.576963"><ele>272.75</ele></trkpt>
   <trkpt lon="7.550152" lat="47.577014"><ele>272.5</ele></trkpt>
   <trkpt lon="7.549830" lat="47.577157"><ele>272.0</ele></trkpt>
   <trkpt lon="7.549703" lat="47.577219"><ele>272.0</ele></trkpt>
   <trkpt lon="7.549539" lat="47.577297"><ele>271.5</ele></trkpt>
   <trkpt lon="7.549469" lat="47.577349"><ele>271.25</ele></trkpt>
   <trkpt lon="7.548727" lat="47.577696"><ele>270.75</ele></trkpt>
   <trkpt lon="7.548622" lat="47.577722"><ele>270.75</ele></trkpt>
   <trkpt lon="7.548509" lat="47.577780"><ele>270.75</ele></trkpt>
   <trkpt lon="7.548016" lat="47.578012"><ele>270.75</ele></trkpt>
   <trkpt lon="7.547809" lat="47.578122"><ele>270.25</ele></trkpt>
   <trkpt lon="7.547697" lat="47.578193"><ele>270.0</ele></trkpt>
   <trkpt lon="7.547568" lat="47.578389"><ele>269.5</ele></trkpt>
   <trkpt lon="7.547560" lat="47.578437"><ele>269.25</ele></trkpt>
   <trkpt lon="7.547546" lat="47.578509"><ele>269.25</ele></trkpt>
   <trkpt lon="7.547536" lat="47.578566"><ele>269.0</ele></trkpt>
   <trkpt lon="7.547299" lat="47.578534"><ele>269.25</ele></trkpt>
   <trkpt lon="7.546654" lat="47.578533"><ele>271.25</ele></trkpt>
   <trkpt lon="7.546635" lat="47.578590"><ele>271.75</ele></trkpt>
   <trkpt lon="7.546631" lat="47.578601"><ele>271.75</ele></trkpt>
   <trkpt lon="7.546421" lat="47.579133"><ele>271.0</ele></trkpt>
   <trkpt lon="7.546150" lat="47.579694"><ele>271.0</ele></trkpt>
   <trkpt lon="7.545793" lat="47.580516"><ele>271.0</ele></trkpt>
   <trkpt lon="7.545726" lat="47.580735"><ele>269.5</ele></trkpt>
   <trkpt lon="7.545670" lat="47.580948"><ele>269.75</ele></trkpt>
   <trkpt lon="7.545527" lat="47.581425"><ele>268.75</ele></trkpt>
   <trkpt lon="7.545549" lat="47.581584"><ele>268.25</ele></trkpt>
   <trkpt lon="7.545649" lat="47.582149"><ele>267.5</ele></trkpt>
   <trkpt lon="7.545609" lat="47.582423"><ele>266.75</ele></trkpt>
   <trkpt lon="7.545454" lat="47.582663"><ele>266.75</ele></trkpt>
   <trkpt lon="7.545288" lat="47.582823"><ele>266.5</ele></trkpt>
   <trkpt lon="7.545022" lat="47.583047"><ele>266.0</ele></trkpt>
   <trkpt lon="7.544867" lat="47.583131"><ele>266.5</ele></trkpt>
   <trkpt lon="7.544739" lat="47.583217"><ele>266.5</ele></trkpt>
   <trkpt lon="7.544239" lat="47.583467"><ele>266.25</ele></trkpt>
   <trkpt lon="7.543574" lat="47.583892"><ele>264.5</ele></trkpt>
   <trkpt lon="7.543143" lat="47.584181"><ele>265.25</ele></trkpt>
   <trkpt lon="7.542983" lat="47.584312"><ele>265.5</ele></trkpt>
   <trkpt lon="7.542874" lat="47.584438"><ele>264.75</ele></trkpt>
   <trkpt lon="7.542826" lat="47.584559"><ele>264.25</ele></trkpt>
   <trkpt lon="7.542840" lat="47.584730"><ele>263.75</ele></trkpt>
   <trkpt lon="7.543020" lat="47.585163"><ele>263.5</ele></trkpt>
   <trkpt lon="7.543044" lat="47.585302"><ele>263.75</ele></trkpt>
   <trkpt lon="7.543060" lat="47.585424"><ele>263.75</ele></trkpt>
   <trkpt lon="7.543029" lat="47.585563"><ele>264.0</ele></trkpt>
   <trkpt lon="7.542999" lat="47.585637"><ele>264.25</ele></trkpt>
   <trkpt lon="7.543057" lat="47.585769"><ele>263.75</ele></trkpt>
   <trkpt lon="7.543055" lat="47.585887"><ele>264.0</ele></trkpt>
   <trkpt lon="7.543091" lat="47.585990"><ele>263.75</ele></trkpt>
   <trkpt lon="7.543419" lat="47.586366"><ele>263.75</ele></trkpt>
   <trkpt lon="7.544582" lat="47.587186"><ele>265.0</ele></trkpt>
   <trkpt lon="7.545016" lat="47.587488"><ele>265.5</ele></trkpt>
   <trkpt lon="7.545384" lat="47.587719"><ele>263.5</ele></trkpt>
   <trkpt lon="7.545653" lat="47.587906"><ele>265.5</ele></trkpt>
   <trkpt lon="7.545724" lat="47.587951"><ele>265.75</ele></trkpt>
   <trkpt lon="7.545998" lat="47.588167"><ele>265.5</ele></trkpt>
   <trkpt lon="7.546257" lat="47.588635"><ele>263.75</ele></trkpt>
   <trkpt lon="7.546314" lat="47.588846"><ele>263.0</ele></trkpt>
   <trkpt lon="7.546393" lat="47.588947"><ele>262.25</ele></trkpt>
   <trkpt lon="7.546492" lat="47.588995"><ele>261.0</ele></trkpt>
   <trkpt lon="7.546927" lat="47.589144"><ele>260.75</ele></trkpt>
   <trkpt lon="7.547817" lat="47.589447"><ele>263.75</ele></trkpt>
   <trkpt lon="7.547916" lat="47.589516"><ele>263.0</ele></trkpt>
   <trkpt lon="7.548783" lat="47.590129"><ele>259.5</ele></trkpt>
   <trkpt lon="7.548944" lat="47.590221"><ele>259.5</ele></trkpt>
   <trkpt lon="7.549594" lat="47.590659"><ele>257.75</ele></trkpt>
   <trkpt lon="7.549999" lat="47.590924"><ele>256.0</ele></trkpt>
   <trkpt lon="7.550436" lat="47.591157"><ele>255.0</ele></trkpt>
   <trkpt lon="7.551086" lat="47.591497"><ele>253.25</ele></trkpt>
   <trkpt lon="7.551521" lat="47.591649"><ele>251.75</ele></trkpt>
   <trkpt lon="7.552124" lat="47.591917"><ele>250.5</ele></trkpt>
   <trkpt lon="7.552873" lat="47.592273"><ele>252.25</ele></trkpt>
   <trkpt lon="7.553428" lat="47.592546"><ele>252.25</ele></trkpt>
   <trkpt lon="7.553639" lat="47.592659"><ele>252.5</ele></trkpt>
   <trkpt lon="7.554283" lat="47.593063"><ele>250.25</ele></trkpt>
   <trkpt lon="7.554922" lat="47.593444"><ele>251.75</ele></trkpt>
   <trkpt lon="7.554947" lat="47.593461"><ele>251.75</ele></trkpt>
   <trkpt lon="7.555086" lat="47.593530"><ele>252.0</ele></trkpt>
   <trkpt lon="7.555167" lat="47.593518"><ele>252.25</ele></trkpt>
   <trkpt lon="7.555209" lat="47.593520"><ele>252.5</ele></trkpt>
   <trkpt lon="7.555285" lat="47.593536"><ele>252.5</ele></trkpt>
   <trkpt lon="7.555349" lat="47.593569"><ele>252.75</ele></trkpt>
   <trkpt lon="7.555394" lat="47.593613"><ele>252.75</ele></trkpt>
   <trkpt lon="7.555414" lat="47.593669"><ele>252.75</ele></trkpt>
   <trkpt lon="7.555410" lat="47.593711"><ele>252.75</ele></trkpt>
   <trkpt lon="7.555389" lat="47.593752"><ele>252.75</ele></trkpt>
   <trkpt lon="7.555353" lat="47.593787"><ele>252.75</ele></trkpt>
   <trkpt lon="7.555305" lat="47.593815"><ele>252.75</ele></trkpt>
   <trkpt lon="7.555261" lat="47.593830"><ele>252.75</ele></trkpt>
   <trkpt lon="7.555198" lat="47.593923"><ele>252.5</ele></trkpt>
   <trkpt lon="7.555186" lat="47.593951"><ele>252.5</ele></trkpt>
   <trkpt lon="7.555148" lat="47.594032"><ele>252.75</ele></trkpt>
   <trkpt lon="7.555089" lat="47.594142"><ele>252.75</ele></trkpt>
   <trkpt lon="7.554827" lat="47.594477"><ele>253.0</ele></trkpt>
   <trkpt lon="7.554236" lat="47.595221"><ele>253.75</ele></trkpt>
   <trkpt lon="7.554169" lat="47.595309"><ele>254.0</ele></trkpt>
   <trkpt lon="7.554089" lat="47.595411"><ele>254.0</ele></trkpt>
   <trkpt lon="7.553528" lat="47.596125"><ele>254.0</ele></trkpt>
   <trkpt lon="7.553336" lat="47.596374"><ele>254.0</ele></trkpt>
   <trkpt lon="7.553202" lat="47.596548"><ele>253.75</ele></trkpt>
   <trkpt lon="7.553269" lat="47.596574"><ele>253.75</ele></trkpt>
   <trkpt lon="7.553301" lat="47.596595"><ele>253.75</ele></trkpt>
   <trkpt lon="7.553396" lat="47.596658"><ele>254.0</ele></trkpt>
   <trkpt lon="7.553783" lat="47.597070"><ele>253.5</ele></trkpt>
   <trkpt lon="7.554041" lat="47.597345"><ele>253.0</ele></trkpt>
   <trkpt lon="7.554356" lat="47.597681"><ele>253.0</ele></trkpt>
   <trkpt lon="7.555034" lat="47.598409"><ele>251.75</ele></trkpt>
   <trkpt lon="7.555113" lat="47.598496"><ele>251.5</ele></trkpt>
   <trkpt lon="7.555292" lat="47.598697"><ele>249.75</ele></trkpt>
   <trkpt lon="7.555404" lat="47.598822"><ele>249.0</ele></trkpt>
   <trkpt lon="7.555441" lat="47.598863"><ele>249.0</ele></trkpt>
   <trkpt lon="7.555526" lat="47.598951"><ele>249.0</ele></trkpt>
   <trkpt lon="7.555619" lat="47.599047"><ele>248.25</ele></trkpt>
   <trkpt lon="7.555815" lat="47.599250"><ele>248.0</ele></trkpt>
   <trkpt lon="7.556122" lat="47.599569"><ele>245.75</ele></trkpt>
   <trkpt lon="7.556169" lat="47.599617"><ele>245.5</ele></trkpt>
   <trkpt lon="7.556197" lat="47.599647"><ele>245.5</ele></trkpt>
   <trkpt lon="7.556288" lat="47.599741"><ele>245.25</ele></trkpt>
   <trkpt lon="7.557662" lat="47.601250"><ele>244.25</ele></trkpt>
   <trkpt lon="7.557700" lat="47.601292"><ele>244.25</ele></trkpt>
   <trkpt lon="7.557966" lat="47.601587"><ele>244.5</ele></trkpt>
   <trkpt lon="7.558079" lat="47.601713"><ele>244.75</ele></trkpt>
   <trkpt lon="7.558780" lat="47.602467"><ele>245.0</ele></trkpt>
   <trkpt lon="7.559135" lat="47.602792"><ele>244.75</ele></trkpt>
   <trkpt lon="7.559344" lat="47.602948"><ele>245.0</ele></trkpt>
   <trkpt lon="7.560652" lat="47.603717"><ele>245.75</ele></trkpt>
   <trkpt lon="7.561259" lat="47.604048"><ele>246.5</ele></trkpt>
   <trkpt lon="7.561392" lat="47.604121"><ele>246.5</ele></trkpt>
   <trkpt lon="7.561555" lat="47.604218"><ele>244.75</ele></trkpt>
   <trkpt lon="7.561828" lat="47.604362"><ele>244.75</ele></trkpt>
   <trkpt lon="7.561894" lat="47.604392"><ele>245.5</ele></trkpt>
   <trkpt lon="7.562030" lat="47.604434"><ele>246.75</ele></trkpt>
   <trkpt lon="7.562224" lat="47.604468"><ele>246.75</ele></trkpt>
   <trkpt lon="7.564956" lat="47.604759"><ele>245.0</ele></trkpt>
   <trkpt lon="7.564933" lat="47.604867"><ele>245.0</ele></trkpt>
   <trkpt lon="7.564426" lat="47.605537"><ele>244.0</ele></trkpt>
   <trkpt lon="7.564416" lat="47.605587"><ele>244.0</ele></trkpt>
   <trkpt lon="7.564428" lat="47.605626"><ele>244.0</ele></trkpt>
   <trkpt lon="7.564521" lat="47.605661"><ele>244.0</ele></trkpt>
   <trkpt lon="7.565023" lat="47.605752"><ele>244.0</ele></trkpt>
   <trkpt lon="7.565149" lat="47.605808"><ele>244.0</ele></trkpt>
   <trkpt lon="7.565240" lat="47.605905"><ele>244.0</ele></trkpt>
   <trkpt lon="7.565789" lat="47.606807"><ele>245.0</ele></trkpt>
   <trkpt lon="7.565855" lat="47.606919"><ele>244.75</ele></trkpt>
   <trkpt lon="7.565915" lat="47.607015"><ele>245.0</ele></trkpt>
   <trkpt lon="7.566407" lat="47.607778"><ele>244.0</ele></trkpt>
   <trkpt lon="7.566481" lat="47.607895"><ele>244.0</ele></trkpt>
   <trkpt lon="7.566541" lat="47.607991"><ele>244.0</ele></trkpt>
   <trkpt lon="7.566599" lat="47.608084"><ele>244.0</ele></trkpt>
   <trkpt lon="7.566756" lat="47.608335"><ele>244.0</ele></trkpt>
   <trkpt lon="7.566915" lat="47.608692"><ele>244.0</ele></trkpt>
   <trkpt lon="7.567012" lat="47.609096"><ele>244.0</ele></trkpt>
   <trkpt lon="7.567053" lat="47.609812"><ele>245.0</ele></trkpt>
   <trkpt lon="7.567058" lat="47.610274"><ele>245.0</ele></trkpt>
   <trkpt lon="7.567569" lat="47.610068"><ele>244.5</ele></trkpt>
   <trkpt lon="7.567746" lat="47.609983"><ele>244.0</ele></trkpt>
   <trkpt lon="7.567859" lat="47.609878"><ele>244.0</ele></trkpt>
   <trkpt lon="7.568398" lat="47.609113"><ele>244.0</ele></trkpt>
   <trkpt lon="7.568935" lat="47.608405"><ele>244.75</ele></trkpt>
   <trkpt lon="7.569020" lat="47.608293"><ele>244.5</ele></trkpt>
   <trkpt lon="7.569463" lat="47.607719"><ele>244.75</ele></trkpt>
   <trkpt lon="7.569595" lat="47.607547"><ele>244.75</ele></trkpt>
   <trkpt lon="7.569897" lat="47.607164"><ele>245.0</ele></trkpt>
   <trkpt lon="7.569948" lat="47.607102"><ele>245.0</ele></trkpt>
   <trkpt lon="7.570474" lat="47.606454"><ele>245.0</ele></trkpt>
   <trkpt lon="7.570550" lat="47.606362"><ele>245.0</ele></trkpt>
   <trkpt lon="7.570750" lat="47.606113"><ele>244.75</ele></trkpt>
   <trkpt lon="7.571062" lat="47.605724"><ele>245.0</ele></trkpt>
   <trkpt lon="7.571167" lat="47.605587"><ele>245.0</ele></trkpt>
   <trkpt lon="7.571285" lat="47.605630"><ele>245.0</ele></trkpt>
   <trkpt lon="7.571774" lat="47.605792"><ele>245.0</ele></trkpt>
   <trkpt lon="7.572090" lat="47.605905"><ele>244.75</ele></trkpt>
   <trkpt lon="7.572397" lat="47.606010"><ele>245.0</ele></trkpt>
   <trkpt lon="7.572451" lat="47.606029"><ele>245.0</ele></trkpt>
   <trkpt lon="7.572995" lat="47.606241"><ele>244.5</ele></trkpt>
   <trkpt lon="7.573762" lat="47.606591"><ele>244.0</ele></trkpt>
   <trkpt lon="7.574371" lat="47.606846"><ele>243.5</ele></trkpt>
   <trkpt lon="7.574594" lat="47.606942"><ele>243.0</ele></trkpt>
   <trkpt lon="7.574968" lat="47.607109"><ele>243.0</ele></trkpt>
   <trkpt lon="7.575786" lat="47.607468"><ele>242.75</ele></trkpt>
   <trkpt lon="7.576188" lat="47.607657"><ele>243.0</ele></trkpt>
   <trkpt lon="7.576266" lat="47.607695"><ele>243.0</ele></trkpt>
   <trkpt lon="7.576492" lat="47.607519"><ele>243.0</ele></trkpt>
   <trkpt lon="7.576678" lat="47.607380"><ele>242.75</ele></trkpt>
   <trkpt lon="7.576977" lat="47.607181"><ele>242.75</ele></trkpt>
   <trkpt lon="7.577390" lat="47.606952"><ele>243.0</ele></trkpt>
   <trkpt lon="7.577753" lat="47.606771"><ele>242.75</ele></trkpt>
   <trkpt lon="7.578415" lat="47.606470"><ele>243.0</ele></trkpt>
   <trkpt lon="7.579326" lat="47.606073"><ele>243.5</ele></trkpt>
   <trkpt lon="7.580581" lat="47.605515"><ele>243.5</ele></trkpt>
   <trkpt lon="7.580678" lat="47.605468"><ele>243.5</ele></trkpt>
   <trkpt lon="7.580906" lat="47.605357"><ele>243.25</ele></trkpt>
   <trkpt lon="7.581286" lat="47.605169"><ele>243.25</ele></trkpt>
   <trkpt lon="7.581689" lat="47.604935"><ele>243.5</ele></trkpt>
   <trkpt lon="7.582130" lat="47.604619"><ele>243.75</ele></trkpt>
   <trkpt lon="7.582405" lat="47.604394"><ele>243.75</ele></trkpt>
   <trkpt lon="7.582671" lat="47.604149"><ele>243.5</ele></trkpt>
   <trkpt lon="7.582927" lat="47.603883"><ele>244.0</ele></trkpt>
   <trkpt lon="7.583158" lat="47.603605"><ele>244.0</ele></trkpt>
   <trkpt lon="7.583345" lat="47.603348"><ele>244.0</ele></trkpt>
   <trkpt lon="7.583503" lat="47.603069"><ele>244.0</ele></trkpt>
   <trkpt lon="7.583642" lat="47.602801"><ele>244.0</ele></trkpt>
   <trkpt lon="7.583725" lat="47.602590"><ele>244.25</ele></trkpt>
   <trkpt lon="7.583780" lat="47.602452"><ele>244.5</ele></trkpt>
   <trkpt lon="7.583850" lat="47.602224"><ele>244.75</ele></trkpt>
   <trkpt lon="7.583917" lat="47.601944"><ele>244.0</ele></trkpt>
   <trkpt lon="7.583958" lat="47.601643"><ele>245.0</ele></trkpt>
   <trkpt lon="7.583972" lat="47.601276"><ele>245.0</ele></trkpt>
   <trkpt lon="7.583917" lat="47.601088"><ele>245.0</ele></trkpt>
   <trkpt lon="7.583883" lat="47.601008"><ele>244.75</ele></trkpt>
   <trkpt lon="7.583848" lat="47.600940"><ele>244.75</ele></trkpt>
   <trkpt lon="7.583815" lat="47.600877"><ele>244.75</ele></trkpt>
   <trkpt lon="7.583765" lat="47.600861"><ele>244.75</ele></trkpt>
   <trkpt lon="7.583680" lat="47.600811"><ele>245.0</ele></trkpt>
   <trkpt lon="7.583627" lat="47.600745"><ele>245.25</ele></trkpt>
   <trkpt lon="7.583614" lat="47.600708"><ele>245.25</ele></trkpt>
   <trkpt lon="7.583617" lat="47.600635"><ele>245.5</ele></trkpt>
   <trkpt lon="7.583657" lat="47.600566"><ele>245.75</ele></trkpt>
   <trkpt lon="7.583733" lat="47.600510"><ele>245.75</ele></trkpt>
   <trkpt lon="7.583780" lat="47.600489"><ele>245.75</ele></trkpt>
   <trkpt lon="7.583833" lat="47.600474"><ele>245.75</ele></trkpt>
   <trkpt lon="7.583945" lat="47.600465"><ele>246.0</ele></trkpt>
   <trkpt lon="7.584056" lat="47.600483"><ele>246.0</ele></trkpt>
   <trkpt lon="7.584139" lat="47.600520"><ele>246.0</ele></trkpt>
   <trkpt lon="7.584201" lat="47.600572"><ele>245.75</ele></trkpt>
   <trkpt lon="7.584367" lat="47.600597"><ele>245.75</ele></trkpt>
   <trkpt lon="7.584412" lat="47.600599"><ele>245.75</ele></trkpt>
   <trkpt lon="7.584465" lat="47.600605"><ele>245.75</ele></trkpt>
   <trkpt lon="7.584597" lat="47.600614"><ele>245.5</ele></trkpt>
   <trkpt lon="7.584916" lat="47.600636"><ele>244.5</ele></trkpt>
   <trkpt lon="7.585183" lat="47.600633"><ele>244.25</ele></trkpt>
   <trkpt lon="7.585651" lat="47.600640"><ele>245.25</ele></trkpt>
   <trkpt lon="7.586057" lat="47.600635"><ele>247.0</ele></trkpt>
   <trkpt lon="7.587067" lat="47.600590"><ele>251.0</ele></trkpt>
   <trkpt lon="7.587369" lat="47.600576"><ele>252.25</ele></trkpt>
   <trkpt lon="7.587563" lat="47.600552"><ele>252.75</ele></trkpt>
   <trkpt lon="7.587642" lat="47.600538"><ele>252.75</ele></trkpt>
   <trkpt lon="7.587754" lat="47.600505"><ele>252.5</ele></trkpt>
   <trkpt lon="7.587826" lat="47.600460"><ele>252.5</ele></trkpt>
   <trkpt lon="7.587905" lat="47.600395"><ele>252.5</ele></trkpt>
   <trkpt lon="7.588013" lat="47.600335"><ele>252.75</ele></trkpt>
   <trkpt lon="7.588113" lat="47.600304"><ele>252.75</ele></trkpt>
   <trkpt lon="7.588205" lat="47.600289"><ele>253.0</ele></trkpt>
   <trkpt lon="7.588348" lat="47.600291"><ele>253.0</ele></trkpt>
   <trkpt lon="7.588568" lat="47.600310"><ele>253.0</ele></trkpt>
   <trkpt lon="7.588862" lat="47.600337"><ele>253.0</ele></trkpt>
   <trkpt lon="7.588951" lat="47.600355"><ele>253.0</ele></trkpt>
   <trkpt lon="7.589028" lat="47.600386"><ele>253.0</ele></trkpt>
   <trkpt lon="7.589112" lat="47.600444"><ele>253.0</ele></trkpt>
   <trkpt lon="7.589145" lat="47.600478"><ele>253.0</ele></trkpt>
   <trkpt lon="7.589183" lat="47.600517"><ele>252.75</ele></trkpt>
   <trkpt lon="7.589217" lat="47.600596"><ele>253.0</ele></trkpt>
   <trkpt lon="7.589326" lat="47.600653"><ele>253.0</ele></trkpt>
   <trkpt lon="7.589416" lat="47.600684"><ele>253.0</ele></trkpt>
   <trkpt lon="7.589597" lat="47.600717"><ele>252.75</ele></trkpt>
   <trkpt lon="7.589763" lat="47.600730"><ele>252.5</ele></trkpt>
   <trkpt lon="7.589853" lat="47.600737"><ele>252.25</ele></trkpt>
   <trkpt lon="7.591204" lat="47.600842"><ele>250.5</ele></trkpt>
   <trkpt lon="7.592990" lat="47.600972"><ele>248.25</ele></trkpt>
   <trkpt lon="7.592993" lat="47.600972"><ele>248.25</ele></trkpt>
   <trkpt lon="7.594231" lat="47.601068"><ele>246.75</ele></trkpt>
   <trkpt lon="7.595590" lat="47.601173"><ele>245.0</ele></trkpt>
   <trkpt lon="7.595737" lat="47.601182"><ele>245.0</ele></trkpt>
   <trkpt lon="7.596113" lat="47.601205"><ele>245.25</ele></trkpt>
   <trkpt lon="7.596491" lat="47.601219"><ele>245.5</ele></trkpt>
   <trkpt lon="7.597190" lat="47.601212"><ele>245.75</ele></trkpt>
   <trkpt lon="7.597733" lat="47.601193"><ele>246.0</ele></trkpt>
   <trkpt lon="7.598541" lat="47.601171"><ele>246.0</ele></trkpt>
   <trkpt lon="7.599256" lat="47.601169"><ele>246.0</ele></trkpt>
   <trkpt lon="7.599709" lat="47.601176"><ele>246.0</ele></trkpt>
   <trkpt lon="7.600039" lat="47.601199"><ele>246.0</ele></trkpt>
   <trkpt lon="7.600167" lat="47.601209"><ele>246.0</ele></trkpt>
   <trkpt lon="7.600321" lat="47.601223"><ele>246.0</ele></trkpt>
   <trkpt lon="7.600460" lat="47.601237"><ele>246.0</ele></trkpt>
   <trkpt lon="7.600524" lat="47.601245"><ele>246.0</ele></trkpt>
   <trkpt lon="7.600743" lat="47.601279"><ele>246.0</ele></trkpt>
   <trkpt lon="7.600967" lat="47.601317"><ele>246.0</ele></trkpt>
   <trkpt lon="7.601191" lat="47.601360"><ele>246.0</ele></trkpt>
   <trkpt lon="7.601337" lat="47.601390"><ele>246.0</ele></trkpt>
   <trkpt lon="7.601893" lat="47.601537"><ele>246.25</ele></trkpt>
   <trkpt lon="7.602590" lat="47.601751"><ele>246.75</ele></trkpt>
   <trkpt lon="7.603442" lat="47.602016"><ele>247.0</ele></trkpt>
   <trkpt lon="7.603605" lat="47.602067"><ele>246.75</ele></trkpt>
   <trkpt lon="7.604062" lat="47.602216"><ele>247.0</ele></trkpt>
   <trkpt lon="7.604138" lat="47.602239"><ele>247.0</ele></trkpt>
   <trkpt lon="7.604463" lat="47.602343"><ele>247.75</ele></trkpt>
   <trkpt lon="7.608216" lat="47.603514"><ele>260.0</ele></trkpt>
   <trkpt lon="7.608584" lat="47.603625"><ele>260.0</ele></trkpt>
   <trkpt lon="7.608882" lat="47.603717"><ele>260.0</ele></trkpt>
   <trkpt lon="7.609047" lat="47.603695"><ele>260.0</ele></trkpt>
   <trkpt lon="7.609147" lat="47.603675"><ele>260.0</ele></trkpt>
   <trkpt lon="7.609210" lat="47.603654"><ele>260.0</ele></trkpt>
   <trkpt lon="7.609284" lat="47.603615"><ele>260.0</ele></trkpt>
   <trkpt lon="7.609373" lat="47.603549"><ele>260.0</ele></trkpt>
   <trkpt lon="7.609398" lat="47.603498"><ele>260.25</ele></trkpt>
   <trkpt lon="7.609428" lat="47.603408"><ele>260.5</ele></trkpt>
   <trkpt lon="7.609411" lat="47.603311"><ele>261.0</ele></trkpt>
   <trkpt lon="7.609376" lat="47.603196"><ele>261.0</ele></trkpt>
   <trkpt lon="7.609372" lat="47.603084"><ele>261.0</ele></trkpt>
   <trkpt lon="7.609405" lat="47.602996"><ele>261.0</ele></trkpt>
   <trkpt lon="7.609372" lat="47.603084"><ele>261.0</ele></trkpt>
   <trkpt lon="7.609376" lat="47.603196"><ele>261.0</ele></trkpt>
   <trkpt lon="7.609411" lat="47.603311"><ele>261.0</ele></trkpt>
   <trkpt lon="7.609428" lat="47.603408"><ele>260.5</ele></trkpt>
   <trkpt lon="7.609398" lat="47.603498"><ele>260.25</ele></trkpt>
   <trkpt lon="7.609373" lat="47.603549"><ele>260.0</ele></trkpt>
   <trkpt lon="7.609335" lat="47.603679"><ele>260.0</ele></trkpt>
   <trkpt lon="7.609329" lat="47.603731"><ele>260.0</ele></trkpt>
   <trkpt lon="7.609338" lat="47.603769"><ele>260.0</ele></trkpt>
   <trkpt lon="7.609362" lat="47.603810"><ele>260.0</ele></trkpt>
   <trkpt lon="7.609413" lat="47.603878"><ele>260.0</ele></trkpt>
   <trkpt lon="7.609718" lat="47.603974"><ele>260.0</ele></trkpt>
   <trkpt lon="7.609875" lat="47.604022"><ele>260.0</ele></trkpt>
   <trkpt lon="7.611179" lat="47.604424"><ele>261.5</ele></trkpt>
   <trkpt lon="7.611678" lat="47.604550"><ele>262.0</ele></trkpt>
   <trkpt lon="7.612129" lat="47.604639"><ele>262.25</ele></trkpt>
   <trkpt lon="7.612369" lat="47.604674"><ele>262.5</ele></trkpt>
   <trkpt lon="7.612926" lat="47.604731"><ele>263.0</ele></trkpt>
   <trkpt lon="7.613188" lat="47.604744"><ele>263.25</ele></trkpt>
   <trkpt lon="7.613462" lat="47.604752"><ele>263.5</ele></trkpt>
   <trkpt lon="7.613796" lat="47.604746"><ele>264.0</ele></trkpt>
   <trkpt lon="7.614129" lat="47.604732"><ele>264.25</ele></trkpt>
   <trkpt lon="7.614433" lat="47.604706"><ele>264.5</ele></trkpt>
   <trkpt lon="7.614729" lat="47.604670"><ele>264.75</ele></trkpt>
   <trkpt lon="7.615023" lat="47.604627"><ele>265.0</ele></trkpt>
   <trkpt lon="7.615359" lat="47.604560"><ele>265.5</ele></trkpt>
   <trkpt lon="7.615691" lat="47.604481"><ele>265.75</ele></trkpt>
   <trkpt lon="7.616169" lat="47.604342"><ele>266.25</ele></trkpt>
   <trkpt lon="7.616305" lat="47.604294"><ele>266.25</ele></trkpt>
   <trkpt lon="7.616436" lat="47.604246"><ele>266.5</ele></trkpt>
   <trkpt lon="7.616674" lat="47.604154"><ele>267.0</ele></trkpt>
   <trkpt lon="7.616907" lat="47.604054"><ele>267.25</ele></trkpt>
   <trkpt lon="7.617181" lat="47.603919"><ele>267.75</ele></trkpt>
   <trkpt lon="7.617394" lat="47.603801"><ele>268.0</ele></trkpt>
   <trkpt lon="7.617589" lat="47.603685"><ele>268.0</ele></trkpt>
   <trkpt lon="7.617858" lat="47.603512"><ele>268.0</ele></trkpt>
   <trkpt lon="7.618222" lat="47.603224"><ele>269.0</ele></trkpt>
   <trkpt lon="7.618464" lat="47.603014"><ele>269.0</ele></trkpt>
   <trkpt lon="7.618577" lat="47.602906"><ele>269.0</ele></trkpt>
   <trkpt lon="7.618685" lat="47.602804"><ele>269.0</ele></trkpt>
   <trkpt lon="7.618895" lat="47.602613"><ele>269.5</ele></trkpt>
   <trkpt lon="7.619006" lat="47.602511"><ele>269.75</ele></trkpt>
   <trkpt lon="7.619138" lat="47.602395"><ele>270.25</ele></trkpt>
   <trkpt lon="7.619799" lat="47.601835"><ele>271.25</ele></trkpt>
   <trkpt lon="7.620153" lat="47.601558"><ele>272.0</ele></trkpt>
   <trkpt lon="7.620501" lat="47.601300"><ele>272.0</ele></trkpt>
   <trkpt lon="7.621048" lat="47.600924"><ele>272.0</ele></trkpt>
   <trkpt lon="7.621116" lat="47.600880"><ele>272.0</ele></trkpt>
   <trkpt lon="7.622779" lat="47.599782"><ele>274.0</ele></trkpt>
   <trkpt lon="7.622818" lat="47.599756"><ele>274.0</ele></trkpt>
   <trkpt lon="7.622853" lat="47.599733"><ele>274.0</ele></trkpt>
   <trkpt lon="7.623176" lat="47.599520"><ele>274.0</ele></trkpt>
   <trkpt lon="7.623440" lat="47.599346"><ele>274.0</ele></trkpt>
   <trkpt lon="7.623749" lat="47.599132"><ele>274.0</ele></trkpt>
   <trkpt lon="7.623925" lat="47.599016"><ele>274.0</ele></trkpt>
   <trkpt lon="7.624382" lat="47.598718"><ele>274.25</ele></trkpt>
   <trkpt lon="7.624731" lat="47.598493"><ele>275.0</ele></trkpt>
   <trkpt lon="7.624880" lat="47.598398"><ele>275.0</ele></trkpt>
   <trkpt lon="7.624911" lat="47.598378"><ele>275.0</ele></trkpt>
   <trkpt lon="7.625067" lat="47.598275"><ele>275.0</ele></trkpt>
   <trkpt lon="7.625241" lat="47.598161"><ele>275.75</ele></trkpt>
   <trkpt lon="7.625274" lat="47.598140"><ele>275.75</ele></trkpt>
   <trkpt lon="7.625362" lat="47.598083"><ele>276.0</ele></trkpt>
   <trkpt lon="7.625429" lat="47.598040"><ele>276.0</ele></trkpt>
   <trkpt lon="7.625569" lat="47.597950"><ele>276.0</ele></trkpt>
   <trkpt lon="7.625609" lat="47.597925"><ele>276.0</ele></trkpt>
   <trkpt lon="7.625931" lat="47.597726"><ele>276.0</ele></trkpt>
   <trkpt lon="7.626666" lat="47.597306"><ele>276.0</ele></trkpt>
   <trkpt lon="7.626886" lat="47.597166"><ele>276.0</ele></trkpt>
   <trkpt lon="7.627038" lat="47.597038"><ele>276.0</ele></trkpt>
   <trkpt lon="7.627259" lat="47.596850"><ele>276.0</ele></trkpt>
   <trkpt lon="7.627382" lat="47.596745"><ele>276.25</ele></trkpt>
   <trkpt lon="7.627526" lat="47.596629"><ele>277.0</ele></trkpt>
   <trkpt lon="7.627653" lat="47.596520"><ele>277.0</ele></trkpt>
   <trkpt lon="7.627691" lat="47.596487"><ele>277.0</ele></trkpt>
   <trkpt lon="7.627900" lat="47.596305"><ele>277.0</ele></trkpt>
   <trkpt lon="7.628171" lat="47.596071"><ele>277.0</ele></trkpt>
   <trkpt lon="7.628443" lat="47.595834"><ele>277.0</ele></trkpt>
   <trkpt lon="7.628709" lat="47.595623"><ele>277.0</ele></trkpt>
   <trkpt lon="7.628883" lat="47.595457"><ele>277.0</ele></trkpt>
   <trkpt lon="7.629127" lat="47.595143"><ele>277.25</ele></trkpt>
   <trkpt lon="7.629329" lat="47.594892"><ele>278.0</ele></trkpt>
   <trkpt lon="7.629505" lat="47.594658"><ele>278.0</ele></trkpt>
   <trkpt lon="7.629531" lat="47.594622"><ele>278.0</ele></trkpt>
   <trkpt lon="7.629572" lat="47.594567"><ele>278.0</ele></trkpt>
   <trkpt lon="7.629661" lat="47.594449"><ele>278.0</ele></trkpt>
   <trkpt lon="7.629725" lat="47.594370"><ele>278.0</ele></trkpt>
   <trkpt lon="7.629944" lat="47.594402"><ele>278.0</ele></trkpt>
   <trkpt lon="7.630263" lat="47.594503"><ele>278.0</ele></trkpt>
   <trkpt lon="7.630366" lat="47.594523"><ele>278.0</ele></trkpt>
   <trkpt lon="7.630455" lat="47.594527"><ele>278.0</ele></trkpt>
   <trkpt lon="7.630554" lat="47.594510"><ele>278.0</ele></trkpt>
   <trkpt lon="7.630948" lat="47.594341"><ele>278.25</ele></trkpt>
   <trkpt lon="7.631099" lat="47.594290"><ele>278.25</ele></trkpt>
   <trkpt lon="7.631268" lat="47.594244"><ele>278.5</ele></trkpt>
   <trkpt lon="7.631619" lat="47.594170"><ele>279.0</ele></trkpt>
   <trkpt lon="7.631776" lat="47.594129"><ele>279.0</ele></trkpt>
   <trkpt lon="7.631905" lat="47.594067"><ele>279.0</ele></trkpt>
   <trkpt lon="7.632160" lat="47.593945"><ele>279.0</ele></trkpt>
   <trkpt lon="7.632732" lat="47.593669"><ele>279.0</ele></trkpt>
   <trkpt lon="7.632922" lat="47.593570"><ele>279.0</ele></trkpt>
   <trkpt lon="7.633366" lat="47.593357"><ele>279.75</ele></trkpt>
   <trkpt lon="7.633642" lat="47.593264"><ele>280.0</ele></trkpt>
   <trkpt lon="7.633915" lat="47.593191"><ele>280.0</ele></trkpt>
   <trkpt lon="7.634554" lat="47.593147"><ele>280.0</ele></trkpt>
   <trkpt lon="7.634881" lat="47.593107"><ele>280.5</ele></trkpt>
   <trkpt lon="7.635149" lat="47.593058"><ele>281.0</ele></trkpt>
   <trkpt lon="7.635250" lat="47.593020"><ele>281.0</ele></trkpt>
   <trkpt lon="7.635295" lat="47.592945"><ele>281.0</ele></trkpt>
   <trkpt lon="7.635317" lat="47.592524"><ele>281.0</ele></trkpt>
   <trkpt lon="7.635333" lat="47.592477"><ele>281.0</ele></trkpt>
   <trkpt lon="7.635387" lat="47.592405"><ele>281.0</ele></trkpt>
   <trkpt lon="7.635505" lat="47.592364"><ele>281.0</ele></trkpt>
   <trkpt lon="7.636264" lat="47.592152"><ele>281.75</ele></trkpt>
   <trkpt lon="7.636793" lat="47.592004"><ele>282.0</ele></trkpt>
   <trkpt lon="7.636981" lat="47.591939"><ele>281.75</ele></trkpt>
   <trkpt lon="7.637265" lat="47.591826"><ele>281.5</ele></trkpt>
   <trkpt lon="7.637341" lat="47.591793"><ele>281.25</ele></trkpt>
   <trkpt lon="7.637606" lat="47.591687"><ele>281.0</ele></trkpt>
   <trkpt lon="7.637870" lat="47.591591"><ele>281.0</ele></trkpt>
   <trkpt lon="7.637986" lat="47.591568"><ele>281.0</ele></trkpt>
   <trkpt lon="7.638083" lat="47.591560"><ele>280.75</ele></trkpt>
   <trkpt lon="7.638177" lat="47.591561"><ele>281.0</ele></trkpt>
   <trkpt lon="7.638432" lat="47.591609"><ele>281.0</ele></trkpt>
   <trkpt lon="7.638617" lat="47.591669"><ele>281.0</ele></trkpt>
   <trkpt lon="7.638948" lat="47.591795"><ele>280.75</ele></trkpt>
   <trkpt lon="7.639591" lat="47.592042"><ele>280.75</ele></trkpt>
   <trkpt lon="7.639698" lat="47.592082"><ele>280.5</ele></trkpt>
   <trkpt lon="7.639788" lat="47.592111"><ele>280.0</ele></trkpt>
   <trkpt lon="7.639963" lat="47.592130"><ele>279.0</ele></trkpt>
   <trkpt lon="7.640219" lat="47.592141"><ele>277.5</ele></trkpt>
   <trkpt lon="7.640409" lat="47.592180"><ele>277.75</ele></trkpt>
   <trkpt lon="7.640454" lat="47.592197"><ele>277.75</ele></trkpt>
   <trkpt lon="7.640536" lat="47.592231"><ele>278.0</ele></trkpt>
   <trkpt lon="7.640612" lat="47.592272"><ele>277.75</ele></trkpt>
   <trkpt lon="7.640687" lat="47.592302"><ele>277.75</ele></trkpt>
   <trkpt lon="7.640861" lat="47.592339"><ele>277.0</ele></trkpt>
   <trkpt lon="7.641133" lat="47.592342"><ele>276.75</ele></trkpt>
   <trkpt lon="7.641301" lat="47.592329"><ele>277.0</ele></trkpt>
   <trkpt lon="7.641581" lat="47.592291"><ele>276.25</ele></trkpt>
   <trkpt lon="7.641676" lat="47.592277"><ele>275.75</ele></trkpt>
   <trkpt lon="7.641856" lat="47.592210"><ele>274.0</ele></trkpt>
   <trkpt lon="7.641891" lat="47.592199"><ele>274.0</ele></trkpt>
   <trkpt lon="7.642236" lat="47.592142"><ele>273.5</ele></trkpt>
   <trkpt lon="7.642302" lat="47.592138"><ele>273.5</ele></trkpt>
   <trkpt lon="7.642395" lat="47.592144"><ele>273.5</ele></trkpt>
   <trkpt lon="7.642526" lat="47.592147"><ele>273.5</ele></trkpt>
   <trkpt lon="7.642591" lat="47.592139"><ele>273.5</ele></trkpt>
   <trkpt lon="7.642817" lat="47.592109"><ele>273.5</ele></trkpt>
   <trkpt lon="7.642889" lat="47.592097"><ele>273.25</ele></trkpt>
   <trkpt lon="7.643002" lat="47.592075"><ele>273.0</ele></trkpt>
   <trkpt lon="7.643114" lat="47.592059"><ele>272.75</ele></trkpt>
   <trkpt lon="7.643345" lat="47.592040"><ele>272.75</ele></trkpt>
   <trkpt lon="7.643441" lat="47.592040"><ele>272.5</ele></trkpt>
   <trkpt lon="7.643610" lat="47.592052"><ele>272.0</ele></trkpt>
   <trkpt lon="7.643725" lat="47.592070"><ele>272.0</ele></trkpt>
   <trkpt lon="7.643876" lat="47.592107"><ele>272.0</ele></trkpt>
   <trkpt lon="7.644024" lat="47.592160"><ele>272.0</ele></trkpt>
   <trkpt lon="7.644561" lat="47.592387"><ele>272.5</ele></trkpt>
   <trkpt lon="7.644683" lat="47.592440"><ele>272.0</ele></trkpt>
   <trkpt lon="7.645014" lat="47.592571"><ele>272.0</ele></trkpt>
   <trkpt lon="7.645155" lat="47.592604"><ele>272.0</ele></trkpt>
   <trkpt lon="7.645321" lat="47.592615"><ele>272.0</ele></trkpt>
   <trkpt lon="7.645397" lat="47.592608"><ele>272.0</ele></trkpt>
   <trkpt lon="7.645573" lat="47.592575"><ele>271.75</ele></trkpt>
   <trkpt lon="7.645627" lat="47.592558"><ele>271.0</ele></trkpt>
   <trkpt lon="7.645695" lat="47.592527"><ele>270.0</ele></trkpt>
   <trkpt lon="7.645734" lat="47.592507"><ele>269.25</ele></trkpt>
   <trkpt lon="7.646268" lat="47.592240"><ele>270.0</ele></trkpt>
   <trkpt lon="7.646307" lat="47.592219"><ele>270.75</ele></trkpt>
   <trkpt lon="7.646350" lat="47.592279"><ele>270.5</ele></trkpt>
   <trkpt lon="7.646546" lat="47.592449"><ele>269.75</ele></trkpt>
   <trkpt lon="7.647637" lat="47.593500"><ele>270.0</ele></trkpt>
   <trkpt lon="7.648158" lat="47.593995"><ele>270.5</ele></trkpt>
   <trkpt lon="7.648666" lat="47.594565"><ele>270.75</ele></trkpt>
   <trkpt lon="7.648928" lat="47.594904"><ele>270.75</ele></trkpt>
   <trkpt lon="7.649180" lat="47.595258"><ele>272.0</ele></trkpt>
   <trkpt lon="7.649348" lat="47.595471"><ele>271.5</ele></trkpt>
   <trkpt lon="7.649401" lat="47.595518"><ele>272.25</ele></trkpt>
   <trkpt lon="7.649468" lat="47.595561"><ele>272.75</ele></trkpt>
   <trkpt lon="7.649917" lat="47.595804"><ele>272.75</ele></trkpt>
   <trkpt lon="7.650061" lat="47.595901"><ele>272.25</ele></trkpt>
   <trkpt lon="7.650108" lat="47.595947"><ele>272.5</ele></trkpt>
   <trkpt lon="7.650130" lat="47.595980"><ele>272.5</ele></trkpt>
   <trkpt lon="7.650178" lat="47.596024"><ele>272.25</ele></trkpt>
   <trkpt lon="7.650270" lat="47.596104"><ele>272.0</ele></trkpt>
   <trkpt lon="7.650291" lat="47.596138"><ele>271.75</ele></trkpt>
   <trkpt lon="7.650301" lat="47.596193"><ele>271.75</ele></trkpt>
   <trkpt lon="7.650289" lat="47.596326"><ele>271.75</ele></trkpt>
   <trkpt lon="7.650316" lat="47.596424"><ele>272.25</ele></trkpt>
   <trkpt lon="7.650525" lat="47.596795"><ele>275.0</ele></trkpt>
   <trkpt lon="7.650557" lat="47.596821"><ele>275.0</ele></trkpt>
   <trkpt lon="7.650600" lat="47.596839"><ele>275.0</ele></trkpt>
   <trkpt lon="7.650693" lat="47.596855"><ele>275.0</ele></trkpt>
   <trkpt lon="7.650730" lat="47.596868"><ele>275.0</ele></trkpt>
   <trkpt lon="7.650779" lat="47.596901"><ele>275.0</ele></trkpt>
   <trkpt lon="7.650854" lat="47.596969"><ele>275.0</ele></trkpt>
   <trkpt lon="7.650879" lat="47.596967"><ele>275.0</ele></trkpt>
   <trkpt lon="7.651321" lat="47.596940"><ele>275.0</ele></trkpt>
   <trkpt lon="7.652243" lat="47.596894"><ele>275.0</ele></trkpt>
   <trkpt lon="7.653683" lat="47.596813"><ele>275.5</ele></trkpt>
   <trkpt lon="7.653897" lat="47.596801"><ele>276.0</ele></trkpt>
   <trkpt lon="7.654112" lat="47.596774"><ele>276.25</ele></trkpt>
   <trkpt lon="7.654292" lat="47.596735"><ele>276.5</ele></trkpt>
   <trkpt lon="7.654333" lat="47.596725"><ele>276.75</ele></trkpt>
   <trkpt lon="7.654438" lat="47.596698"><ele>277.0</ele></trkpt>
   <trkpt lon="7.654867" lat="47.596600"><ele>278.5</ele></trkpt>
   <trkpt lon="7.655065" lat="47.596551"><ele>279.0</ele></trkpt>
   <trkpt lon="7.656002" lat="47.596331"><ele>281.0</ele></trkpt>
   <trkpt lon="7.655980" lat="47.596264"><ele>281.0</ele></trkpt>
   <trkpt lon="7.655952" lat="47.596169"><ele>281.0</ele></trkpt>
   <trkpt lon="7.655943" lat="47.596135"><ele>281.0</ele></trkpt>
   <trkpt lon="7.656311" lat="47.596062"><ele>281.5</ele></trkpt>
   <trkpt lon="7.656434" lat="47.596042"><ele>282.0</ele></trkpt>
   <trkpt lon="7.657189" lat="47.595889"><ele>282.75</ele></trkpt>
   <trkpt lon="7.657185" lat="47.595843"><ele>282.75</ele></trkpt>
   <trkpt lon="7.657193" lat="47.595835"><ele>282.75</ele></trkpt>
   <trkpt lon="7.657244" lat="47.595825"><ele>283.0</ele></trkpt>
   <trkpt lon="7.657299" lat="47.595816"><ele>283.0</ele></trkpt>
   <trkpt lon="7.657349" lat="47.595807"><ele>283.0</ele></trkpt>
   <trkpt lon="7.657370" lat="47.595804"><ele>283.0</ele></trkpt>
   <trkpt lon="7.657404" lat="47.595800"><ele>283.0</ele></trkpt>
   <trkpt lon="7.657205" lat="47.595173"><ele>285.0</ele></trkpt>
   <trkpt lon="7.657104" lat="47.594890"><ele>285.5</ele></trkpt>
   <trkpt lon="7.656793" lat="47.593907"><ele>285.0</ele></trkpt>
   <trkpt lon="7.658269" lat="47.593564"><ele>285.75</ele></trkpt>
   <trkpt lon="7.658587" lat="47.593490"><ele>285.5</ele></trkpt>
   <trkpt lon="7.658998" lat="47.593384"><ele>285.25</ele></trkpt>
   <trkpt lon="7.660064" lat="47.593061"><ele>287.0</ele></trkpt>
   <trkpt lon="7.660210" lat="47.593011"><ele>287.75</ele></trkpt>
   <trkpt lon="7.660168" lat="47.592917"><ele>287.5</ele></trkpt>
   <trkpt lon="7.659977" lat="47.592559"><ele>286.75</ele></trkpt>
   <trkpt lon="7.659251" lat="47.591236"><ele>286.75</ele></trkpt>
   <trkpt lon="7.659063" lat="47.590868"><ele>287.5</ele></trkpt>
   <trkpt lon="7.658754" lat="47.590164"><ele>287.0</ele></trkpt>
   <trkpt lon="7.658419" lat="47.589336"><ele>288.25</ele></trkpt>
   <trkpt lon="7.658245" lat="47.588938"><ele>288.5</ele></trkpt>
   <trkpt lon="7.657751" lat="47.589017"><ele>287.75</ele></trkpt>
   <trkpt lon="7.657515" lat="47.589058"><ele>287.25</ele></trkpt>
   <trkpt lon="7.657420" lat="47.589075"><ele>287.0</ele></trkpt>
   <trkpt lon="7.657361" lat="47.589085"><ele>287.0</ele></trkpt>
   <trkpt lon="7.657128" lat="47.589101"><ele>287.0</ele></trkpt>
   <trkpt lon="7.656929" lat="47.589099"><ele>286.75</ele></trkpt>
   <trkpt lon="7.656811" lat="47.589089"><ele>286.25</ele></trkpt>
   <trkpt lon="7.656709" lat="47.589076"><ele>285.75</ele></trkpt>
   <trkpt lon="7.656489" lat="47.589023"><ele>285.75</ele></trkpt>
   <trkpt lon="7.656150" lat="47.588890"><ele>286.0</ele></trkpt>
   <trkpt lon="7.656181" lat="47.588860"><ele>285.75</ele></trkpt>
   <trkpt lon="7.656192" lat="47.588833"><ele>285.75</ele></trkpt>
   <trkpt lon="7.656194" lat="47.588805"><ele>285.5</ele></trkpt>
   <trkpt lon="7.656173" lat="47.588732"><ele>285.25</ele></trkpt>
   <trkpt lon="7.655905" lat="47.587780"><ele>284.75</ele></trkpt>
   <trkpt lon="7.655706" lat="47.587319"><ele>286.25</ele></trkpt>
   <trkpt lon="7.655691" lat="47.587289"><ele>286.25</ele></trkpt>
   <trkpt lon="7.655659" lat="47.587229"><ele>286.25</ele></trkpt>
   <trkpt lon="7.655604" lat="47.587127"><ele>286.0</ele></trkpt>
   <trkpt lon="7.655546" lat="47.587018"><ele>285.75</ele></trkpt>
   <trkpt lon="7.655335" lat="47.586653"><ele>284.0</ele></trkpt>
   <trkpt lon="7.655236" lat="47.586482"><ele>284.0</ele></trkpt>
   <trkpt lon="7.655187" lat="47.586397"><ele>284.0</ele></trkpt>
   <trkpt lon="7.655149" lat="47.586289"><ele>284.25</ele></trkpt>
   <trkpt lon="7.654947" lat="47.585650"><ele>285.0</ele></trkpt>
   <trkpt lon="7.654928" lat="47.585596"><ele>285.0</ele></trkpt>
   <trkpt lon="7.654889" lat="47.585489"><ele>285.0</ele></trkpt>
   <trkpt lon="7.654841" lat="47.585354"><ele>285.25</ele></trkpt>
   <trkpt lon="7.654766" lat="47.585208"><ele>285.0</ele></trkpt>
   <trkpt lon="7.654721" lat="47.585111"><ele>284.75</ele></trkpt>
   <trkpt lon="7.654608" lat="47.584894"><ele>284.25</ele></trkpt>
   <trkpt lon="7.654482" lat="47.584644"><ele>284.0</ele></trkpt>
   <trkpt lon="7.654212" lat="47.584105"><ele>284.0</ele></trkpt>
   <trkpt lon="7.654154" lat="47.584017"><ele>283.75</ele></trkpt>
   <trkpt lon="7.654073" lat="47.583950"><ele>283.5</ele></trkpt>
   <trkpt lon="7.653953" lat="47.583866"><ele>283.25</ele></trkpt>
   <trkpt lon="7.653809" lat="47.583793"><ele>283.5</ele></trkpt>
   <trkpt lon="7.653769" lat="47.583779"><ele>283.5</ele></trkpt>
   <trkpt lon="7.653317" lat="47.583620"><ele>283.75</ele></trkpt>
   <trkpt lon="7.653203" lat="47.583580"><ele>283.75</ele></trkpt>
   <trkpt lon="7.652704" lat="47.583407"><ele>283.0</ele></trkpt>
   <trkpt lon="7.652481" lat="47.583295"><ele>283.0</ele></trkpt>
   <trkpt lon="7.652372" lat="47.583222"><ele>283.0</ele></trkpt>
   <trkpt lon="7.652248" lat="47.583121"><ele>283.0</ele></trkpt>
   <trkpt lon="7.652092" lat="47.582925"><ele>282.75</ele></trkpt>
   <trkpt lon="7.651865" lat="47.582649"><ele>283.25</ele></trkpt>
   <trkpt lon="7.651788" lat="47.582569"><ele>283.25</ele></trkpt>
   <trkpt lon="7.651596" lat="47.582386"><ele>283.0</ele></trkpt>
   <trkpt lon="7.651252" lat="47.582139"><ele>283.0</ele></trkpt>
   <trkpt lon="7.650574" lat="47.581664"><ele>282.0</ele></trkpt>
   <trkpt lon="7.650129" lat="47.581330"><ele>282.0</ele></trkpt>
   <trkpt lon="7.649586" lat="47.580923"><ele>282.0</ele></trkpt>
   <trkpt lon="7.649276" lat="47.580690"><ele>281.75</ele></trkpt>
   <trkpt lon="7.649212" lat="47.580638"><ele>281.75</ele></trkpt>
   <trkpt lon="7.649166" lat="47.580600"><ele>281.75</ele></trkpt>
   <trkpt lon="7.649136" lat="47.580575"><ele>281.75</ele></trkpt>
   <trkpt lon="7.649043" lat="47.580497"><ele>281.75</ele></trkpt>
   <trkpt lon="7.648947" lat="47.580390"><ele>281.75</ele></trkpt>
   <trkpt lon="7.648842" lat="47.580196"><ele>281.75</ele></trkpt>
   <trkpt lon="7.648645" lat="47.579842"><ele>281.0</ele></trkpt>
   <trkpt lon="7.648402" lat="47.579401"><ele>281.0</ele></trkpt>
   <trkpt lon="7.647926" lat="47.578549"><ele>281.0</ele></trkpt>
   <trkpt lon="7.647814" lat="47.578355"><ele>281.75</ele></trkpt>
   <trkpt lon="7.647750" lat="47.578240"><ele>281.75</ele></trkpt>
   <trkpt lon="7.647702" lat="47.578231"><ele>281.75</ele></trkpt>
   <trkpt lon="7.647592" lat="47.578212"><ele>281.75</ele></trkpt>
   <trkpt lon="7.647371" lat="47.578172"><ele>281.75</ele></trkpt>
   <trkpt lon="7.647072" lat="47.578114"><ele>281.75</ele></trkpt>
   <trkpt lon="7.646569" lat="47.578017"><ele>281.0</ele></trkpt>
   <trkpt lon="7.646248" lat="47.577955"><ele>281.25</ele></trkpt>
   <trkpt lon="7.645828" lat="47.577871"><ele>280.5</ele></trkpt>
   <trkpt lon="7.645640" lat="47.577819"><ele>280.5</ele></trkpt>
   <trkpt lon="7.645521" lat="47.577778"><ele>280.75</ele></trkpt>
   <trkpt lon="7.645322" lat="47.577688"><ele>280.75</ele></trkpt>
   <trkpt lon="7.645153" lat="47.577584"><ele>281.25</ele></trkpt>
   <trkpt lon="7.644524" lat="47.577094"><ele>281.0</ele></trkpt>
   <trkpt lon="7.644471" lat="47.577068"><ele>280.75</ele></trkpt>
   <trkpt lon="7.644408" lat="47.577053"><ele>281.0</ele></trkpt>
   <trkpt lon="7.644345" lat="47.577040"><ele>281.0</ele></trkpt>
   <trkpt lon="7.644284" lat="47.577039"><ele>281.0</ele></trkpt>
   <trkpt lon="7.643912" lat="47.577082"><ele>280.5</ele></trkpt>
   <trkpt lon="7.643839" lat="47.577090"><ele>280.75</ele></trkpt>
   <trkpt lon="7.643633" lat="47.577084"><ele>281.75</ele></trkpt>
   <trkpt lon="7.642148" lat="47.576932"><ele>279.5</ele></trkpt>
   <trkpt lon="7.641623" lat="47.576872"><ele>279.25</ele></trkpt>
   <trkpt lon="7.640018" lat="47.576712"><ele>278.0</ele></trkpt>
   <trkpt lon="7.639839" lat="47.576694"><ele>277.75</ele></trkpt>
   <trkpt lon="7.639649" lat="47.576683"><ele>277.5</ele></trkpt>
   <trkpt lon="7.639448" lat="47.576678"><ele>277.0</ele></trkpt>
   <trkpt lon="7.639270" lat="47.576675"><ele>277.0</ele></trkpt>
   <trkpt lon="7.638408" lat="47.576648"><ele>275.25</ele></trkpt>
   <trkpt lon="7.637512" lat="47.576615"><ele>274.25</ele></trkpt>
   <trkpt lon="7.637360" lat="47.576633"><ele>273.25</ele></trkpt>
   <trkpt lon="7.637250" lat="47.576687"><ele>272.0</ele></trkpt>
   <trkpt lon="7.636723" lat="47.576443"><ele>272.25</ele></trkpt>
   <trkpt lon="7.635862" lat="47.576142"><ele>269.0</ele></trkpt>
   <trkpt lon="7.635708" lat="47.576083"><ele>269.0</ele></trkpt>
   <trkpt lon="7.635536" lat="47.576022"><ele>268.75</ele></trkpt>
   <trkpt lon="7.635464" lat="47.575995"><ele>268.5</ele></trkpt>
   <trkpt lon="7.635417" lat="47.575978"><ele>268.5</ele></trkpt>
   <trkpt lon="7.635242" lat="47.575916"><ele>267.75</ele></trkpt>
   <trkpt lon="7.635070" lat="47.575853"><ele>267.25</ele></trkpt>
   <trkpt lon="7.634597" lat="47.575671"><ele>265.75</ele></trkpt>
   <trkpt lon="7.634257" lat="47.575484"><ele>265.75</ele></trkpt>
   <trkpt lon="7.633917" lat="47.575190"><ele>265.0</ele></trkpt>
   <trkpt lon="7.633705" lat="47.574953"><ele>264.0</ele></trkpt>
   <trkpt lon="7.632945" lat="47.574153"><ele>263.0</ele></trkpt>
   <trkpt lon="7.632752" lat="47.573934"><ele>262.75</ele></trkpt>
   <trkpt lon="7.632677" lat="47.573865"><ele>262.5</ele></trkpt>
   <trkpt lon="7.632543" lat="47.573770"><ele>262.5</ele></trkpt>
   <trkpt lon="7.632392" lat="47.573685"><ele>262.25</ele></trkpt>
   <trkpt lon="7.632235" lat="47.573619"><ele>262.0</ele></trkpt>
   <trkpt lon="7.631988" lat="47.573543"><ele>262.0</ele></trkpt>
   <trkpt lon="7.631286" lat="47.573393"><ele>262.0</ele></trkpt>
   <trkpt lon="7.630225" lat="47.573121"><ele>261.0</ele></trkpt>
   <trkpt lon="7.629841" lat="47.573009"><ele>261.0</ele></trkpt>
   <trkpt lon="7.629654" lat="47.572952"><ele>261.0</ele></trkpt>
   <trkpt lon="7.629581" lat="47.572934"><ele>261.0</ele></trkpt>
   <trkpt lon="7.629271" lat="47.572859"><ele>261.25</ele></trkpt>
   <trkpt lon="7.629089" lat="47.572822"><ele>261.0</ele></trkpt>
   <trkpt lon="7.628893" lat="47.572800"><ele>261.0</ele></trkpt>
   <trkpt lon="7.628769" lat="47.572796"><ele>261.0</ele></trkpt>
   <trkpt lon="7.628318" lat="47.572810"><ele>260.75</ele></trkpt>
   <trkpt lon="7.627702" lat="47.572822"><ele>260.75</ele></trkpt>
   <trkpt lon="7.627424" lat="47.572802"><ele>260.5</ele></trkpt>
   <trkpt lon="7.625894" lat="47.572565"><ele>260.5</ele></trkpt>
   <trkpt lon="7.623909" lat="47.572281"><ele>259.75</ele></trkpt>
   <trkpt lon="7.622362" lat="47.572009"><ele>259.0</ele></trkpt>
   <trkpt lon="7.621477" lat="47.571862"><ele>259.0</ele></trkpt>
   <trkpt lon="7.621181" lat="47.571800"><ele>258.5</ele></trkpt>
   <trkpt lon="7.620701" lat="47.571698"><ele>258.0</ele></trkpt>
   <trkpt lon="7.618947" lat="47.571358"><ele>258.0</ele></trkpt>
   <trkpt lon="7.618636" lat="47.571251"><ele>258.0</ele></trkpt>
   <trkpt lon="7.618133" lat="47.570989"><ele>258.0</ele></trkpt>
   <trkpt lon="7.617719" lat="47.570748"><ele>258.0</ele></trkpt>
   <trkpt lon="7.617171" lat="47.570429"><ele>258.0</ele></trkpt>
   <trkpt lon="7.617114" lat="47.570396"><ele>258.25</ele></trkpt>
   <trkpt lon="7.616910" lat="47.570309"><ele>258.75</ele></trkpt>
   <trkpt lon="7.616868" lat="47.570365"><ele>258.75</ele></trkpt>
   <trkpt lon="7.616846" lat="47.570394"><ele>258.75</ele></trkpt>
   <trkpt lon="7.616761" lat="47.570470"><ele>258.5</ele></trkpt>
   <trkpt lon="7.616713" lat="47.570511"><ele>258.25</ele></trkpt>
   <trkpt lon="7.616688" lat="47.570532"><ele>258.0</ele></trkpt>
   <trkpt lon="7.616579" lat="47.570622"><ele>257.75</ele></trkpt>
   <trkpt lon="7.616429" lat="47.570747"><ele>257.75</ele></trkpt>
   <trkpt lon="7.616335" lat="47.570807"><ele>258.0</ele></trkpt>
   <trkpt lon="7.616295" lat="47.570793"><ele>258.0</ele></trkpt>
   <trkpt lon="7.616165" lat="47.570749"><ele>258.0</ele></trkpt>
   <trkpt lon="7.616045" lat="47.570714"><ele>258.0</ele></trkpt>
   <trkpt lon="7.615510" lat="47.570562"><ele>257.0</ele></trkpt>
   <trkpt lon="7.615154" lat="47.570468"><ele>257.75</ele></trkpt>
   <trkpt lon="7.614871" lat="47.570397"><ele>257.5</ele></trkpt>
   <trkpt lon="7.614785" lat="47.570377"><ele>257.75</ele></trkpt>
   <trkpt lon="7.614204" lat="47.570254"><ele>257.0</ele></trkpt>
   <trkpt lon="7.613372" lat="47.570074"><ele>257.25</ele></trkpt>
   <trkpt lon="7.612338" lat="47.569913"><ele>257.0</ele></trkpt>
   <trkpt lon="7.612225" lat="47.569898"><ele>257.0</ele></trkpt>
   <trkpt lon="7.611343" lat="47.569793"><ele>256.5</ele></trkpt>
   <trkpt lon="7.610513" lat="47.569728"><ele>256.75</ele></trkpt>
   <trkpt lon="7.609844" lat="47.569688"><ele>256.0</ele></trkpt>
   <trkpt lon="7.609783" lat="47.569690"><ele>256.0</ele></trkpt>
   <trkpt lon="7.609742" lat="47.569698"><ele>256.0</ele></trkpt>
   <trkpt lon="7.609679" lat="47.569733"><ele>256.0</ele></trkpt>
   <trkpt lon="7.609650" lat="47.569753"><ele>256.0</ele></trkpt>
   <trkpt lon="7.609607" lat="47.569731"><ele>256.0</ele></trkpt>
   <trkpt lon="7.609548" lat="47.569716"><ele>256.0</ele></trkpt>
   <trkpt lon="7.609161" lat="47.569656"><ele>256.0</ele></trkpt>
   <trkpt lon="7.609032" lat="47.569631"><ele>256.25</ele></trkpt>
   <trkpt lon="7.608941" lat="47.569605"><ele>256.25</ele></trkpt>
   <trkpt lon="7.608501" lat="47.569482"><ele>256.5</ele></trkpt>
   <trkpt lon="7.608287" lat="47.569419"><ele>257.5</ele></trkpt>
   <trkpt lon="7.608171" lat="47.569382"><ele>260.25</ele></trkpt>
   <trkpt lon="7.608128" lat="47.569367"><ele>261.0</ele></trkpt>
   <trkpt lon="7.607813" lat="47.569254"><ele>261.75</ele></trkpt>
   <trkpt lon="7.607750" lat="47.569232"><ele>261.5</ele></trkpt>
   <trkpt lon="7.607625" lat="47.569187"><ele>261.0</ele></trkpt>
   <trkpt lon="7.606158" lat="47.568656"><ele>257.0</ele></trkpt>
   <trkpt lon="7.605895" lat="47.568561"><ele>257.0</ele></trkpt>
   <trkpt lon="7.605824" lat="47.568536"><ele>257.0</ele></trkpt>
   <trkpt lon="7.605775" lat="47.568518"><ele>257.0</ele></trkpt>
   <trkpt lon="7.605695" lat="47.568490"><ele>257.0</ele></trkpt>
   <trkpt lon="7.605552" lat="47.568437"><ele>257.0</ele></trkpt>
   <trkpt lon="7.605411" lat="47.568387"><ele>257.0</ele></trkpt>
   <trkpt lon="7.604587" lat="47.568147"><ele>256.0</ele></trkpt>
   <trkpt lon="7.602738" lat="47.567606"><ele>256.0</ele></trkpt>
   <trkpt lon="7.602624" lat="47.567574"><ele>256.0</ele></trkpt>
   <trkpt lon="7.602504" lat="47.567538"><ele>256.0</ele></trkpt>
   <trkpt lon="7.600989" lat="47.567104"><ele>255.25</ele></trkpt>
   <trkpt lon="7.599109" lat="47.566574"><ele>256.0</ele></trkpt>
   <trkpt lon="7.598759" lat="47.566474"><ele>257.0</ele></trkpt>
   <trkpt lon="7.597887" lat="47.566225"><ele>256.5</ele></trkpt>
   <trkpt lon="7.597755" lat="47.566179"><ele>256.0</ele></trkpt>
   <trkpt lon="7.597738" lat="47.566173"><ele>256.0</ele></trkpt>
   <trkpt lon="7.597722" lat="47.566168"><ele>256.0</ele></trkpt>
   <trkpt lon="7.597614" lat="47.566135"><ele>256.0</ele></trkpt>
   <trkpt lon="7.595557" lat="47.565500"><ele>256.0</ele></trkpt>
   <trkpt lon="7.594265" lat="47.565103"><ele>255.25</ele></trkpt>
   <trkpt lon="7.594021" lat="47.565029"><ele>255.0</ele></trkpt>
   <trkpt lon="7.592723" lat="47.564664"><ele>254.75</ele></trkpt>
   <trkpt lon="7.592619" lat="47.564632"><ele>254.75</ele></trkpt>
   <trkpt lon="7.591567" lat="47.564319"><ele>254.25</ele></trkpt>
   <trkpt lon="7.591489" lat="47.564318"><ele>254.0</ele></trkpt>
   <trkpt lon="7.591471" lat="47.564319"><ele>254.0</ele></trkpt>
   <trkpt lon="7.591445" lat="47.564093"><ele>254.0</ele></trkpt>
   <trkpt lon="7.591452" lat="47.564000"><ele>254.0</ele></trkpt>
   <trkpt lon="7.591484" lat="47.563905"><ele>254.0</ele></trkpt>
   <trkpt lon="7.591803" lat="47.563314"><ele>254.0</ele></trkpt>
   <trkpt lon="7.591913" lat="47.563129"><ele>254.0</ele></trkpt>
   <trkpt lon="7.591973" lat="47.563031"><ele>254.0</ele></trkpt>
   <trkpt lon="7.592034" lat="47.562938"><ele>254.0</ele></trkpt>
   <trkpt lon="7.592192" lat="47.562691"><ele>253.75</ele></trkpt>
   <trkpt lon="7.592293" lat="47.562556"><ele>254.0</ele></trkpt>
   <trkpt lon="7.592399" lat="47.562449"><ele>254.0</ele></trkpt>
   <trkpt lon="7.592551" lat="47.562325"><ele>253.75</ele></trkpt>
   <trkpt lon="7.592833" lat="47.562113"><ele>254.0</ele></trkpt>
   <trkpt lon="7.593227" lat="47.561785"><ele>254.0</ele></trkpt>
   <trkpt lon="7.593276" lat="47.561713"><ele>254.0</ele></trkpt>
   <trkpt lon="7.593306" lat="47.561670"><ele>254.0</ele></trkpt>
   <trkpt lon="7.593354" lat="47.561602"><ele>254.0</ele></trkpt>
   <trkpt lon="7.593371" lat="47.561579"><ele>254.0</ele></trkpt>
   <trkpt lon="7.593410" lat="47.561568"><ele>254.0</ele></trkpt>
   <trkpt lon="7.593227" lat="47.561526"><ele>254.0</ele></trkpt>
   <trkpt lon="7.593181" lat="47.561518"><ele>254.0</ele></trkpt>
   <trkpt lon="7.593090" lat="47.561501"><ele>254.0</ele></trkpt>
   <trkpt lon="7.592802" lat="47.561417"><ele>253.0</ele></trkpt>
   <trkpt lon="7.592435" lat="47.561303"><ele>253.0</ele></trkpt>
   <trkpt lon="7.592072" lat="47.561176"><ele>253.0</ele></trkpt>
   <trkpt lon="7.591975" lat="47.561144"><ele>253.0</ele></trkpt>
   <trkpt lon="7.591313" lat="47.560910"><ele>252.0</ele></trkpt>
   <trkpt lon="7.591177" lat="47.560864"><ele>252.0</ele></trkpt>
   <trkpt lon="7.590808" lat="47.560694"><ele>252.5</ele></trkpt>
   <trkpt lon="7.590693" lat="47.560638"><ele>250.0</ele></trkpt>
   <trkpt lon="7.590754" lat="47.560580"><ele>250.75</ele></trkpt>
   <trkpt lon="7.590732" lat="47.560569"><ele>250.0</ele></trkpt>
   <trkpt lon="7.589853" lat="47.560132"><ele>247.5</ele></trkpt>
  </trkseg>
 </trk>
</gpx>
