<?xml version="1.0" encoding="UTF-8"?>
<gpx version="1.1" creator="BRouter paired review" xmlns="http://www.topografix.com/GPX/1/1">
<trk><name>Route B</name><trkseg>
<trkpt lat="47.560133" lon="7.589854"><ele>248.75</ele></trkpt>
<trkpt lat="47.560569" lon="7.590732"><ele>250.0</ele></trkpt>
<trkpt lat="47.560580" lon="7.590754"><ele>250.75</ele></trkpt>
<trkpt lat="47.560638" lon="7.590693"><ele>250.0</ele></trkpt>
<trkpt lat="47.560694" lon="7.590808"><ele>252.5</ele></trkpt>
<trkpt lat="47.560864" lon="7.591177"><ele>252.0</ele></trkpt>
<trkpt lat="47.560851" lon="7.591191"><ele>252.0</ele></trkpt>
<trkpt lat="47.560812" lon="7.591236"><ele>252.0</ele></trkpt>
<trkpt lat="47.560774" lon="7.591283"><ele>251.75</ele></trkpt>
<trkpt lat="47.560549" lon="7.591554"><ele>250.75</ele></trkpt>
<trkpt lat="47.560249" lon="7.591875"><ele>250.0</ele></trkpt>
<trkpt lat="47.560175" lon="7.591957"><ele>250.0</ele></trkpt>
<trkpt lat="47.559924" lon="7.592233"><ele>250.0</ele></trkpt>
<trkpt lat="47.559399" lon="7.592895"><ele>250.25</ele></trkpt>
<trkpt lat="47.559109" lon="7.593362"><ele>250.75</ele></trkpt>
<trkpt lat="47.559037" lon="7.593559"><ele>250.75</ele></trkpt>
<trkpt lat="47.558960" lon="7.593842"><ele>251.25</ele></trkpt>
<trkpt lat="47.558925" lon="7.593994"><ele>251.5</ele></trkpt>
<trkpt lat="47.558897" lon="7.594191"><ele>252.0</ele></trkpt>
<trkpt lat="47.558892" lon="7.594308"><ele>252.5</ele></trkpt>
<trkpt lat="47.558934" lon="7.594456"><ele>253.0</ele></trkpt>
<trkpt lat="47.558962" lon="7.594620"><ele>253.25</ele></trkpt>
<trkpt lat="47.559007" lon="7.594760"><ele>253.5</ele></trkpt>
<trkpt lat="47.558894" lon="7.595316"><ele>254.0</ele></trkpt>
<trkpt lat="47.558881" lon="7.595491"><ele>254.0</ele></trkpt>
<trkpt lat="47.558881" lon="7.595637"><ele>254.0</ele></trkpt>
<trkpt lat="47.558754" lon="7.596526"><ele>255.0</ele></trkpt>
<trkpt lat="47.558760" lon="7.596564"><ele>255.0</ele></trkpt>
<trkpt lat="47.558722" lon="7.596615"><ele>255.0</ele></trkpt>
<trkpt lat="47.558502" lon="7.597184"><ele>255.75</ele></trkpt>
<trkpt lat="47.558483" lon="7.597234"><ele>256.0</ele></trkpt>
<trkpt lat="47.558392" lon="7.597460"><ele>256.75</ele></trkpt>
<trkpt lat="47.558382" lon="7.597489"><ele>256.75</ele></trkpt>
<trkpt lat="47.558372" lon="7.597527"><ele>257.0</ele></trkpt>
<trkpt lat="47.558358" lon="7.597566"><ele>257.0</ele></trkpt>
<trkpt lat="47.558164" lon="7.597429"><ele>256.5</ele></trkpt>
<trkpt lat="47.555659" lon="7.595348"></trkpt>
<trkpt lat="47.555424" lon="7.595173"><ele>265.25</ele></trkpt>
<trkpt lat="47.555310" lon="7.595091"><ele>267.0</ele></trkpt>
<trkpt lat="47.555131" lon="7.594958"><ele>268.0</ele></trkpt>
<trkpt lat="47.554874" lon="7.594732"><ele>268.75</ele></trkpt>
<trkpt lat="47.554842" lon="7.594701"><ele>269.0</ele></trkpt>
<trkpt lat="47.554774" lon="7.594611"><ele>269.0</ele></trkpt>
<trkpt lat="47.554773" lon="7.594562"><ele>269.0</ele></trkpt>
<trkpt lat="47.554760" lon="7.594516"><ele>269.0</ele></trkpt>
<trkpt lat="47.554739" lon="7.594479"><ele>269.0</ele></trkpt>
<trkpt lat="47.554711" lon="7.594454"><ele>269.0</ele></trkpt>
<trkpt lat="47.554678" lon="7.594443"><ele>269.0</ele></trkpt>
<trkpt lat="47.554646" lon="7.594449"><ele>269.0</ele></trkpt>
<trkpt lat="47.554606" lon="7.594487"><ele>269.0</ele></trkpt>
<trkpt lat="47.554589" lon="7.594517"><ele>269.0</ele></trkpt>
<trkpt lat="47.554578" lon="7.594549"><ele>269.0</ele></trkpt>
<trkpt lat="47.554483" lon="7.594602"><ele>269.0</ele></trkpt>
<trkpt lat="47.554254" lon="7.594718"><ele>269.0</ele></trkpt>
<trkpt lat="47.553747" lon="7.594857"><ele>269.5</ele></trkpt>
<trkpt lat="47.553405" lon="7.594945"><ele>269.75</ele></trkpt>
<trkpt lat="47.553167" lon="7.595003"><ele>270.0</ele></trkpt>
<trkpt lat="47.553046" lon="7.595034"><ele>270.0</ele></trkpt>
<trkpt lat="47.552912" lon="7.595029"><ele>270.0</ele></trkpt>
<trkpt lat="47.552752" lon="7.595063"><ele>270.0</ele></trkpt>
<trkpt lat="47.552619" lon="7.595116"><ele>270.0</ele></trkpt>
<trkpt lat="47.552323" lon="7.595197"><ele>270.0</ele></trkpt>
<trkpt lat="47.551936" lon="7.595288"><ele>270.0</ele></trkpt>
<trkpt lat="47.551814" lon="7.595361"><ele>270.0</ele></trkpt>
<trkpt lat="47.551744" lon="7.595388"><ele>270.0</ele></trkpt>
<trkpt lat="47.551671" lon="7.595400"><ele>270.0</ele></trkpt>
<trkpt lat="47.551637" lon="7.595406"><ele>270.0</ele></trkpt>
<trkpt lat="47.551619" lon="7.595408"><ele>270.0</ele></trkpt>
<trkpt lat="47.551601" lon="7.595400"><ele>270.0</ele></trkpt>
<trkpt lat="47.551574" lon="7.595386"><ele>270.0</ele></trkpt>
<trkpt lat="47.551472" lon="7.595319"><ele>270.0</ele></trkpt>
<trkpt lat="47.551348" lon="7.595238"><ele>270.0</ele></trkpt>
<trkpt lat="47.551294" lon="7.595220"><ele>270.25</ele></trkpt>
<trkpt lat="47.551225" lon="7.595211"><ele>270.5</ele></trkpt>
<trkpt lat="47.551197" lon="7.595214"><ele>270.5</ele></trkpt>
<trkpt lat="47.551174" lon="7.595219"><ele>270.75</ele></trkpt>
<trkpt lat="47.551121" lon="7.595248"><ele>270.75</ele></trkpt>
<trkpt lat="47.551085" lon="7.595286"><ele>271.0</ele></trkpt>
<trkpt lat="47.550964" lon="7.595450"><ele>271.0</ele></trkpt>
<trkpt lat="47.550877" lon="7.595533"><ele>271.0</ele></trkpt>
<trkpt lat="47.550637" lon="7.595755"><ele>271.0</ele></trkpt>
<trkpt lat="47.550195" lon="7.596152"><ele>271.0</ele></trkpt>
<trkpt lat="47.550081" lon="7.596254"><ele>271.0</ele></trkpt>
<trkpt lat="47.549996" lon="7.596331"><ele>271.0</ele></trkpt>
<trkpt lat="47.548989" lon="7.597242"><ele>271.5</ele></trkpt>
<trkpt lat="47.548515" lon="7.597627"><ele>272.0</ele></trkpt>
<trkpt lat="47.548412" lon="7.597711"><ele>272.0</ele></trkpt>
<trkpt lat="47.548153" lon="7.597947"><ele>272.5</ele></trkpt>
<trkpt lat="47.548087" lon="7.598007"><ele>272.75</ele></trkpt>
<trkpt lat="47.548068" lon="7.598025"><ele>272.75</ele></trkpt>
<trkpt lat="47.547965" lon="7.598076"><ele>273.25</ele></trkpt>
<trkpt lat="47.547929" lon="7.598095"><ele>273.5</ele></trkpt>
<trkpt lat="47.547766" lon="7.598143"><ele>274.25</ele></trkpt>
<trkpt lat="47.547502" lon="7.598118"><ele>275.0</ele></trkpt>
<trkpt lat="47.547373" lon="7.598100"><ele>275.0</ele></trkpt>
<trkpt lat="47.547201" lon="7.598076"><ele>275.0</ele></trkpt>
<trkpt lat="47.547067" lon="7.598059"><ele>275.5</ele></trkpt>
<trkpt lat="47.547036" lon="7.598056"><ele>275.5</ele></trkpt>
<trkpt lat="47.546933" lon="7.598052"><ele>276.0</ele></trkpt>
<trkpt lat="47.546823" lon="7.598063"><ele>276.0</ele></trkpt>
<trkpt lat="47.546753" lon="7.598076"><ele>276.0</ele></trkpt>
<trkpt lat="47.546680" lon="7.598103"><ele>276.0</ele></trkpt>
<trkpt lat="47.546160" lon="7.598345"><ele>276.75</ele></trkpt>
<trkpt lat="47.545508" lon="7.598648"><ele>278.0</ele></trkpt>
<trkpt lat="47.545461" lon="7.598671"><ele>278.25</ele></trkpt>
<trkpt lat="47.545387" lon="7.598704"><ele>278.5</ele></trkpt>
<trkpt lat="47.545289" lon="7.598767"><ele>278.75</ele></trkpt>
<trkpt lat="47.545187" lon="7.598815"><ele>279.25</ele></trkpt>
<trkpt lat="47.544967" lon="7.598921"><ele>279.75</ele></trkpt>
<trkpt lat="47.544729" lon="7.599028"><ele>280.25</ele></trkpt>
<trkpt lat="47.544624" lon="7.599061"><ele>280.5</ele></trkpt>
<trkpt lat="47.544574" lon="7.599072"><ele>280.75</ele></trkpt>
<trkpt lat="47.544532" lon="7.599079"><ele>280.75</ele></trkpt>
<trkpt lat="47.544451" lon="7.599090"><ele>281.0</ele></trkpt>
<trkpt lat="47.544421" lon="7.599092"><ele>280.5</ele></trkpt>
<trkpt lat="47.544372" lon="7.599090"></trkpt>
<trkpt lat="47.544289" lon="7.599076"></trkpt>
<trkpt lat="47.543559" lon="7.598890"><ele>277.0</ele></trkpt>
<trkpt lat="47.543477" lon="7.598964"><ele>278.75</ele></trkpt>
<trkpt lat="47.543446" lon="7.598993"><ele>279.5</ele></trkpt>
<trkpt lat="47.543430" lon="7.599009"><ele>279.75</ele></trkpt>
<trkpt lat="47.543408" lon="7.599035"><ele>280.25</ele></trkpt>
<trkpt lat="47.543406" lon="7.599038"><ele>280.25</ele></trkpt>
<trkpt lat="47.543370" lon="7.599091"><ele>281.0</ele></trkpt>
<trkpt lat="47.543311" lon="7.599206"><ele>281.5</ele></trkpt>
<trkpt lat="47.543300" lon="7.599229"><ele>281.5</ele></trkpt>
<trkpt lat="47.543280" lon="7.599270"><ele>281.25</ele></trkpt>
<trkpt lat="47.543164" lon="7.599544"><ele>280.25</ele></trkpt>
<trkpt lat="47.543063" lon="7.599751"><ele>280.75</ele></trkpt>
<trkpt lat="47.542914" lon="7.600047"><ele>281.0</ele></trkpt>
<trkpt lat="47.542752" lon="7.600366"><ele>281.0</ele></trkpt>
<trkpt lat="47.542391" lon="7.601122"><ele>280.75</ele></trkpt>
<trkpt lat="47.541998" lon="7.601886"><ele>280.0</ele></trkpt>
<trkpt lat="47.541814" lon="7.602225"><ele>280.75</ele></trkpt>
<trkpt lat="47.541773" lon="7.602178"><ele>281.0</ele></trkpt>
<trkpt lat="47.541725" lon="7.602146"><ele>281.0</ele></trkpt>
<trkpt lat="47.541693" lon="7.602138"><ele>281.25</ele></trkpt>
<trkpt lat="47.541646" lon="7.602142"><ele>281.25</ele></trkpt>
<trkpt lat="47.541598" lon="7.602153"><ele>281.0</ele></trkpt>
<trkpt lat="47.541515" lon="7.602190"><ele>281.0</ele></trkpt>
<trkpt lat="47.541449" lon="7.602220"><ele>281.0</ele></trkpt>
<trkpt lat="47.540722" lon="7.602547"><ele>282.0</ele></trkpt>
<trkpt lat="47.540528" lon="7.602643"><ele>282.0</ele></trkpt>
<trkpt lat="47.539622" lon="7.603073"><ele>282.25</ele></trkpt>
<trkpt lat="47.539108" lon="7.603307"><ele>283.0</ele></trkpt>
<trkpt lat="47.539070" lon="7.603323"><ele>283.0</ele></trkpt>
<trkpt lat="47.538866" lon="7.603414"><ele>283.0</ele></trkpt>
<trkpt lat="47.538673" lon="7.603497"><ele>283.25</ele></trkpt>
<trkpt lat="47.538648" lon="7.603508"><ele>283.25</ele></trkpt>
<trkpt lat="47.538204" lon="7.603713"><ele>283.5</ele></trkpt>
<trkpt lat="47.537974" lon="7.603823"><ele>284.0</ele></trkpt>
<trkpt lat="47.537537" lon="7.604010"><ele>284.0</ele></trkpt>
<trkpt lat="47.537422" lon="7.604062"><ele>284.0</ele></trkpt>
<trkpt lat="47.537285" lon="7.604125"><ele>284.0</ele></trkpt>
<trkpt lat="47.537225" lon="7.604126"><ele>284.0</ele></trkpt>
<trkpt lat="47.537177" lon="7.604137"><ele>284.0</ele></trkpt>
<trkpt lat="47.537117" lon="7.604132"><ele>284.0</ele></trkpt>
<trkpt lat="47.537098" lon="7.604125"><ele>284.0</ele></trkpt>
<trkpt lat="47.537064" lon="7.604102"><ele>284.0</ele></trkpt>
<trkpt lat="47.537040" lon="7.604032"><ele>284.0</ele></trkpt>
<trkpt lat="47.537003" lon="7.603966"><ele>284.0</ele></trkpt>
<trkpt lat="47.536945" lon="7.603907"><ele>284.0</ele></trkpt>
<trkpt lat="47.536927" lon="7.603899"><ele>284.0</ele></trkpt>
<trkpt lat="47.536900" lon="7.603899"><ele>284.0</ele></trkpt>
<trkpt lat="47.536844" lon="7.603926"><ele>284.25</ele></trkpt>
<trkpt lat="47.536765" lon="7.604019"><ele>284.5</ele></trkpt>
<trkpt lat="47.536700" lon="7.604104"><ele>284.75</ele></trkpt>
<trkpt lat="47.536602" lon="7.604235"><ele>285.0</ele></trkpt>
<trkpt lat="47.536554" lon="7.604284"><ele>285.0</ele></trkpt>
<trkpt lat="47.536514" lon="7.604313"><ele>285.0</ele></trkpt>
<trkpt lat="47.536435" lon="7.604337"><ele>285.0</ele></trkpt>
<trkpt lat="47.536025" lon="7.604419"><ele>284.75</ele></trkpt>
<trkpt lat="47.535735" lon="7.604483"><ele>285.0</ele></trkpt>
<trkpt lat="47.535638" lon="7.604527"><ele>285.0</ele></trkpt>
<trkpt lat="47.535614" lon="7.604541"><ele>285.0</ele></trkpt>
<trkpt lat="47.535592" lon="7.604555"><ele>285.0</ele></trkpt>
<trkpt lat="47.535539" lon="7.604598"><ele>285.0</ele></trkpt>
<trkpt lat="47.535416" lon="7.604626"><ele>285.5</ele></trkpt>
<trkpt lat="47.535212" lon="7.604654"><ele>286.25</ele></trkpt>
<trkpt lat="47.534506" lon="7.604790"><ele>286.5</ele></trkpt>
<trkpt lat="47.534380" lon="7.604825"><ele>286.5</ele></trkpt>
<trkpt lat="47.534133" lon="7.604878"><ele>287.0</ele></trkpt>
<trkpt lat="47.533973" lon="7.604903"><ele>287.0</ele></trkpt>
<trkpt lat="47.533795" lon="7.604932"><ele>287.0</ele></trkpt>
<trkpt lat="47.533644" lon="7.604960"><ele>287.0</ele></trkpt>
<trkpt lat="47.533591" lon="7.604969"><ele>287.0</ele></trkpt>
<trkpt lat="47.533324" lon="7.605023"><ele>287.0</ele></trkpt>
<trkpt lat="47.533253" lon="7.605037"><ele>287.0</ele></trkpt>
<trkpt lat="47.532108" lon="7.605273"><ele>288.0</ele></trkpt>
<trkpt lat="47.531863" lon="7.605324"><ele>288.0</ele></trkpt>
<trkpt lat="47.531639" lon="7.605369"><ele>288.0</ele></trkpt>
<trkpt lat="47.531339" lon="7.605428"><ele>288.0</ele></trkpt>
<trkpt lat="47.530717" lon="7.605552"><ele>288.25</ele></trkpt>
<trkpt lat="47.530490" lon="7.605585"><ele>288.75</ele></trkpt>
<trkpt lat="47.530360" lon="7.605598"><ele>288.75</ele></trkpt>
<trkpt lat="47.530295" lon="7.605577"><ele>288.75</ele></trkpt>
<trkpt lat="47.530192" lon="7.605569"><ele>288.75</ele></trkpt>
<trkpt lat="47.529991" lon="7.605593"><ele>289.0</ele></trkpt>
<trkpt lat="47.529930" lon="7.605602"><ele>289.0</ele></trkpt>
<trkpt lat="47.529852" lon="7.605613"><ele>289.0</ele></trkpt>
<trkpt lat="47.529736" lon="7.605630"><ele>289.0</ele></trkpt>
<trkpt lat="47.529220" lon="7.605672"><ele>289.0</ele></trkpt>
<trkpt lat="47.529146" lon="7.605691"><ele>289.0</ele></trkpt>
<trkpt lat="47.529053" lon="7.605729"><ele>289.0</ele></trkpt>
<trkpt lat="47.528798" lon="7.605724"><ele>289.0</ele></trkpt>
<trkpt lat="47.528378" lon="7.605683"><ele>289.0</ele></trkpt>
<trkpt lat="47.528143" lon="7.605641"><ele>289.0</ele></trkpt>
<trkpt lat="47.527937" lon="7.605591"><ele>289.25</ele></trkpt>
<trkpt lat="47.527631" lon="7.605481"><ele>289.5</ele></trkpt>
<trkpt lat="47.527572" lon="7.605436"><ele>289.5</ele></trkpt>
<trkpt lat="47.527298" lon="7.605287"><ele>289.75</ele></trkpt>
<trkpt lat="47.527090" lon="7.605173"><ele>290.5</ele></trkpt>
<trkpt lat="47.526909" lon="7.605048"><ele>290.0</ele></trkpt>
<trkpt lat="47.526525" lon="7.604840"><ele>290.75</ele></trkpt>
<trkpt lat="47.526442" lon="7.604784"><ele>290.75</ele></trkpt>
<trkpt lat="47.526384" lon="7.604716"><ele>291.0</ele></trkpt>
<trkpt lat="47.526375" lon="7.604692"><ele>291.0</ele></trkpt>
<trkpt lat="47.526338" lon="7.604641"><ele>291.0</ele></trkpt>
<trkpt lat="47.526307" lon="7.604620"><ele>291.0</ele></trkpt>
<trkpt lat="47.526244" lon="7.604608"><ele>291.0</ele></trkpt>
<trkpt lat="47.526187" lon="7.604639"><ele>291.0</ele></trkpt>
<trkpt lat="47.526167" lon="7.604661"><ele>291.0</ele></trkpt>
<trkpt lat="47.526070" lon="7.604679"><ele>290.75</ele></trkpt>
<trkpt lat="47.526030" lon="7.604673"><ele>290.75</ele></trkpt>
<trkpt lat="47.525737" lon="7.604568"><ele>290.5</ele></trkpt>
<trkpt lat="47.524793" lon="7.604241"><ele>290.0</ele></trkpt>
<trkpt lat="47.524640" lon="7.604188"><ele>290.0</ele></trkpt>
<trkpt lat="47.524009" lon="7.603984"><ele>290.0</ele></trkpt>
<trkpt lat="47.523810" lon="7.603935"><ele>289.75</ele></trkpt>
<trkpt lat="47.522151" lon="7.603396"><ele>290.75</ele></trkpt>
<trkpt lat="47.522032" lon="7.603333"><ele>291.0</ele></trkpt>
<trkpt lat="47.521902" lon="7.603294"><ele>291.0</ele></trkpt>
<trkpt lat="47.521309" lon="7.603092"><ele>291.0</ele></trkpt>
<trkpt lat="47.521155" lon="7.603041"><ele>291.0</ele></trkpt>
<trkpt lat="47.521077" lon="7.603025"><ele>291.0</ele></trkpt>
<trkpt lat="47.520933" lon="7.603018"><ele>291.0</ele></trkpt>
<trkpt lat="47.520770" lon="7.602975"><ele>291.0</ele></trkpt>
<trkpt lat="47.520119" lon="7.602830"><ele>290.75</ele></trkpt>
<trkpt lat="47.520010" lon="7.602740"><ele>291.0</ele></trkpt>
<trkpt lat="47.519906" lon="7.602708"><ele>290.5</ele></trkpt>
<trkpt lat="47.519700" lon="7.602663"><ele>290.25</ele></trkpt>
<trkpt lat="47.519258" lon="7.602657"><ele>290.25</ele></trkpt>
<trkpt lat="47.518956" lon="7.602701"><ele>290.25</ele></trkpt>
<trkpt lat="47.518510" lon="7.602794"><ele>290.0</ele></trkpt>
<trkpt lat="47.518462" lon="7.602805"><ele>290.0</ele></trkpt>
<trkpt lat="47.518072" lon="7.602896"><ele>290.0</ele></trkpt>
<trkpt lat="47.517242" lon="7.603088"><ele>290.0</ele></trkpt>
<trkpt lat="47.517155" lon="7.603096"><ele>290.25</ele></trkpt>
<trkpt lat="47.517056" lon="7.603122"><ele>290.5</ele></trkpt>
<trkpt lat="47.516963" lon="7.603224"><ele>290.75</ele></trkpt>
<trkpt lat="47.516933" lon="7.603230"><ele>291.0</ele></trkpt>
<trkpt lat="47.516705" lon="7.603266"><ele>291.0</ele></trkpt>
<trkpt lat="47.516321" lon="7.603342"><ele>291.0</ele></trkpt>
<trkpt lat="47.516300" lon="7.603347"><ele>291.0</ele></trkpt>
<trkpt lat="47.516276" lon="7.603264"><ele>291.0</ele></trkpt>
<trkpt lat="47.516246" lon="7.603223"><ele>291.0</ele></trkpt>
<trkpt lat="47.516189" lon="7.603193"><ele>291.0</ele></trkpt>
<trkpt lat="47.516148" lon="7.603197"><ele>290.75</ele></trkpt>
<trkpt lat="47.516111" lon="7.603221"><ele>291.0</ele></trkpt>
<trkpt lat="47.516080" lon="7.603261"><ele>291.0</ele></trkpt>
<trkpt lat="47.516065" lon="7.603295"><ele>291.0</ele></trkpt>
<trkpt lat="47.516055" lon="7.603340"><ele>291.0</ele></trkpt>
<trkpt lat="47.516053" lon="7.603387"><ele>291.0</ele></trkpt>
<trkpt lat="47.516027" lon="7.603380"><ele>291.0</ele></trkpt>
<trkpt lat="47.515962" lon="7.603364"><ele>291.0</ele></trkpt>
<trkpt lat="47.515834" lon="7.603327"><ele>291.0</ele></trkpt>
<trkpt lat="47.515659" lon="7.603277"><ele>291.0</ele></trkpt>
<trkpt lat="47.515301" lon="7.603175"><ele>291.0</ele></trkpt>
<trkpt lat="47.514778" lon="7.603030"><ele>292.0</ele></trkpt>
<trkpt lat="47.513694" lon="7.602702"><ele>292.0</ele></trkpt>
<trkpt lat="47.513426" lon="7.602656"><ele>292.0</ele></trkpt>
<trkpt lat="47.513129" lon="7.602624"><ele>292.5</ele></trkpt>
<trkpt lat="47.512472" lon="7.602590"><ele>293.0</ele></trkpt>
<trkpt lat="47.511875" lon="7.602556"><ele>293.0</ele></trkpt>
<trkpt lat="47.511682" lon="7.602544"><ele>293.0</ele></trkpt>
<trkpt lat="47.511628" lon="7.602541"><ele>293.0</ele></trkpt>
<trkpt lat="47.511529" lon="7.602535"><ele>293.0</ele></trkpt>
<trkpt lat="47.511486" lon="7.602518"><ele>293.0</ele></trkpt>
<trkpt lat="47.511400" lon="7.602484"><ele>293.0</ele></trkpt>
<trkpt lat="47.511206" lon="7.602475"><ele>293.5</ele></trkpt>
<trkpt lat="47.510563" lon="7.602451"><ele>293.75</ele></trkpt>
<trkpt lat="47.510007" lon="7.602430"><ele>294.75</ele></trkpt>
<trkpt lat="47.509964" lon="7.602384"><ele>295.0</ele></trkpt>
<trkpt lat="47.509935" lon="7.602325"><ele>295.0</ele></trkpt>
<trkpt lat="47.509927" lon="7.602290"><ele>295.0</ele></trkpt>
<trkpt lat="47.509921" lon="7.602228"><ele>295.0</ele></trkpt>
<trkpt lat="47.509961" lon="7.602090"><ele>295.0</ele></trkpt>
<trkpt lat="47.509976" lon="7.601999"><ele>295.0</ele></trkpt>
<trkpt lat="47.509986" lon="7.601799"><ele>295.0</ele></trkpt>
<trkpt lat="47.509996" lon="7.601624"><ele>295.0</ele></trkpt>
<trkpt lat="47.509963" lon="7.601393"><ele>295.0</ele></trkpt>
<trkpt lat="47.509864" lon="7.601100"><ele>295.0</ele></trkpt>
<trkpt lat="47.509820" lon="7.601023"><ele>295.0</ele></trkpt>
<trkpt lat="47.509756" lon="7.600913"><ele>295.5</ele></trkpt>
<trkpt lat="47.509620" lon="7.600717"><ele>295.75</ele></trkpt>
<trkpt lat="47.509282" lon="7.600251"><ele>295.5</ele></trkpt>
<trkpt lat="47.509265" lon="7.600219"><ele>295.5</ele></trkpt>
<trkpt lat="47.509224" lon="7.600139"><ele>295.75</ele></trkpt>
<trkpt lat="47.509149" lon="7.599994"><ele>296.0</ele></trkpt>
<trkpt lat="47.509042" lon="7.599744"><ele>296.0</ele></trkpt>
<trkpt lat="47.508886" lon="7.599230"><ele>295.75</ele></trkpt>
<trkpt lat="47.508724" lon="7.598694"><ele>295.5</ele></trkpt>
<trkpt lat="47.508681" lon="7.598554"><ele>296.25</ele></trkpt>
<trkpt lat="47.508527" lon="7.598046"><ele>295.5</ele></trkpt>
<trkpt lat="47.508463" lon="7.597805"><ele>295.5</ele></trkpt>
<trkpt lat="47.508418" lon="7.597638"><ele>296.25</ele></trkpt>
<trkpt lat="47.508401" lon="7.597580"><ele>296.75</ele></trkpt>
<trkpt lat="47.508239" lon="7.597033"><ele>297.5</ele></trkpt>
<trkpt lat="47.508142" lon="7.596707"><ele>298.5</ele></trkpt>
<trkpt lat="47.508111" lon="7.596593"><ele>298.75</ele></trkpt>
<trkpt lat="47.507920" lon="7.595890"><ele>299.0</ele></trkpt>
<trkpt lat="47.507743" lon="7.595238"><ele>301.75</ele></trkpt>
<trkpt lat="47.507708" lon="7.595152"><ele>302.25</ele></trkpt>
<trkpt lat="47.507661" lon="7.595107"><ele>302.5</ele></trkpt>
<trkpt lat="47.507606" lon="7.595087"><ele>302.5</ele></trkpt>
<trkpt lat="47.507538" lon="7.595113"><ele>302.25</ele></trkpt>
<trkpt lat="47.507448" lon="7.595167"><ele>301.5</ele></trkpt>
<trkpt lat="47.507339" lon="7.595196"><ele>301.0</ele></trkpt>
<trkpt lat="47.507159" lon="7.595157"><ele>300.5</ele></trkpt>
<trkpt lat="47.507110" lon="7.595147"><ele>300.0</ele></trkpt>
<trkpt lat="47.506347" lon="7.594992"><ele>297.0</ele></trkpt>
<trkpt lat="47.506163" lon="7.594943"><ele>297.25</ele></trkpt>
<trkpt lat="47.506040" lon="7.594905"><ele>297.25</ele></trkpt>
<trkpt lat="47.505574" lon="7.594721"><ele>297.0</ele></trkpt>
<trkpt lat="47.505132" lon="7.594547"><ele>298.75</ele></trkpt>
<trkpt lat="47.504811" lon="7.594411"><ele>298.25</ele></trkpt>
<trkpt lat="47.504487" lon="7.594273"><ele>297.75</ele></trkpt>
<trkpt lat="47.504406" lon="7.594238"><ele>297.5</ele></trkpt>
<trkpt lat="47.503785" lon="7.593960"><ele>297.75</ele></trkpt>
<trkpt lat="47.503363" lon="7.593773"><ele>299.25</ele></trkpt>
<trkpt lat="47.503094" lon="7.593657"><ele>298.25</ele></trkpt>
<trkpt lat="47.502939" lon="7.593582"><ele>298.0</ele></trkpt>
<trkpt lat="47.502577" lon="7.593419"><ele>297.75</ele></trkpt>
<trkpt lat="47.502409" lon="7.593343"><ele>298.25</ele></trkpt>
<trkpt lat="47.502305" lon="7.593304"><ele>298.75</ele></trkpt>
<trkpt lat="47.501932" lon="7.593145"><ele>299.5</ele></trkpt>
<trkpt lat="47.501724" lon="7.593057"><ele>299.75</ele></trkpt>
<trkpt lat="47.501506" lon="7.592960"><ele>300.75</ele></trkpt>
<trkpt lat="47.501305" lon="7.592873"><ele>301.5</ele></trkpt>
<trkpt lat="47.501119" lon="7.592795"><ele>301.0</ele></trkpt>
<trkpt lat="47.500643" lon="7.592596"><ele>301.75</ele></trkpt>
<trkpt lat="47.500137" lon="7.592256"><ele>302.75</ele></trkpt>
<trkpt lat="47.499687" lon="7.591885"><ele>302.5</ele></trkpt>
<trkpt lat="47.499565" lon="7.591780"><ele>303.0</ele></trkpt>
<trkpt lat="47.499206" lon="7.591519"><ele>302.5</ele></trkpt>
<trkpt lat="47.499050" lon="7.591408"><ele>302.75</ele></trkpt>
<trkpt lat="47.498589" lon="7.591067"><ele>303.0</ele></trkpt>
<trkpt lat="47.498126" lon="7.590709"><ele>304.25</ele></trkpt>
<trkpt lat="47.497854" lon="7.590490"><ele>304.25</ele></trkpt>
<trkpt lat="47.497800" lon="7.590449"><ele>304.0</ele></trkpt>
<trkpt lat="47.497159" lon="7.590063"><ele>303.75</ele></trkpt>
<trkpt lat="47.496992" lon="7.589951"><ele>304.25</ele></trkpt>
<trkpt lat="47.497041" lon="7.589826"><ele>305.25</ele></trkpt>
<trkpt lat="47.497120" lon="7.589752"><ele>305.75</ele></trkpt>
<trkpt lat="47.497303" lon="7.589651"><ele>307.75</ele></trkpt>
<trkpt lat="47.497453" lon="7.589623"><ele>309.0</ele></trkpt>
<trkpt lat="47.497658" lon="7.589623"><ele>311.25</ele></trkpt>
<trkpt lat="47.497630" lon="7.589452"><ele>313.75</ele></trkpt>
<trkpt lat="47.496987" lon="7.588677"><ele>315.75</ele></trkpt>
<trkpt lat="47.496812" lon="7.588251"><ele>319.25</ele></trkpt>
<trkpt lat="47.496594" lon="7.587954"><ele>321.5</ele></trkpt>
<trkpt lat="47.496479" lon="7.587796"><ele>323.0</ele></trkpt>
<trkpt lat="47.496116" lon="7.587264"><ele>325.75</ele></trkpt>
<trkpt lat="47.496002" lon="7.586759"><ele>326.5</ele></trkpt>
<trkpt lat="47.495846" lon="7.586278"><ele>327.0</ele></trkpt>
<trkpt lat="47.495682" lon="7.585746"><ele>332.25</ele></trkpt>
<trkpt lat="47.495387" lon="7.585077"><ele>334.25</ele></trkpt>
<trkpt lat="47.495218" lon="7.584633"><ele>333.75</ele></trkpt>
<trkpt lat="47.495188" lon="7.584485"><ele>333.25</ele></trkpt>
<trkpt lat="47.495143" lon="7.583654"><ele>329.75</ele></trkpt>
<trkpt lat="47.495093" lon="7.583097"><ele>328.0</ele></trkpt>
<trkpt lat="47.495075" lon="7.582667"><ele>330.5</ele></trkpt>
<trkpt lat="47.495067" lon="7.582451"><ele>331.5</ele></trkpt>
<trkpt lat="47.495075" lon="7.582073"><ele>334.0</ele></trkpt>
<trkpt lat="47.495105" lon="7.581652"><ele>337.5</ele></trkpt>
<trkpt lat="47.495107" lon="7.581623"><ele>337.5</ele></trkpt>
<trkpt lat="47.495156" lon="7.581259"><ele>338.75</ele></trkpt>
<trkpt lat="47.495399" lon="7.580194"><ele>343.25</ele></trkpt>
<trkpt lat="47.495499" lon="7.579267"><ele>344.75</ele></trkpt>
<trkpt lat="47.495526" lon="7.578837"><ele>345.5</ele></trkpt>
<trkpt lat="47.495524" lon="7.578333"><ele>346.5</ele></trkpt>
<trkpt lat="47.495504" lon="7.577951"><ele>346.5</ele></trkpt>
<trkpt lat="47.495455" lon="7.577422"><ele>347.25</ele></trkpt>
<trkpt lat="47.495439" lon="7.576624"><ele>347.0</ele></trkpt>
<trkpt lat="47.495477" lon="7.575844"><ele>346.25</ele></trkpt>
<trkpt lat="47.495497" lon="7.575628"><ele>347.0</ele></trkpt>
<trkpt lat="47.495540" lon="7.575512"><ele>347.5</ele></trkpt>
<trkpt lat="47.494748" lon="7.574518"><ele>337.25</ele></trkpt>
<trkpt lat="47.494547" lon="7.574262"><ele>334.25</ele></trkpt>
<trkpt lat="47.494400" lon="7.574046"><ele>332.5</ele></trkpt>
<trkpt lat="47.494336" lon="7.573952"><ele>331.75</ele></trkpt>
<trkpt lat="47.494281" lon="7.573824"><ele>331.25</ele></trkpt>
<trkpt lat="47.494588" lon="7.572915"><ele>338.25</ele></trkpt>
<trkpt lat="47.494972" lon="7.571684"><ele>339.0</ele></trkpt>
<trkpt lat="47.495065" lon="7.571299"><ele>335.75</ele></trkpt>
<trkpt lat="47.495154" lon="7.570759"><ele>332.25</ele></trkpt>
<trkpt lat="47.495172" lon="7.570614"><ele>331.0</ele></trkpt>
<trkpt lat="47.495215" lon="7.570274"><ele>329.75</ele></trkpt>
<trkpt lat="47.495313" lon="7.569644"><ele>326.5</ele></trkpt>
<trkpt lat="47.495416" lon="7.569013"><ele>325.25</ele></trkpt>
<trkpt lat="47.495419" lon="7.568748"><ele>324.5</ele></trkpt>
<trkpt lat="47.495440" lon="7.568638"><ele>324.25</ele></trkpt>
<trkpt lat="47.495738" lon="7.567011"><ele>319.75</ele></trkpt>
<trkpt lat="47.495834" lon="7.566556"><ele>318.5</ele></trkpt>
<trkpt lat="47.495906" lon="7.566227"><ele>317.5</ele></trkpt>
<trkpt lat="47.495930" lon="7.566130"><ele>317.5</ele></trkpt>
<trkpt lat="47.495985" lon="7.565917"><ele>317.0</ele></trkpt>
<trkpt lat="47.496047" lon="7.565689"><ele>316.5</ele></trkpt>
<trkpt lat="47.496222" lon="7.565100"><ele>316.75</ele></trkpt>
<trkpt lat="47.496457" lon="7.564326"><ele>315.0</ele></trkpt>
<trkpt lat="47.496554" lon="7.563998"><ele>315.0</ele></trkpt>
<trkpt lat="47.496608" lon="7.563803"><ele>314.25</ele></trkpt>
<trkpt lat="47.496661" lon="7.563626"><ele>313.0</ele></trkpt>
<trkpt lat="47.496686" lon="7.563543"><ele>313.25</ele></trkpt>
<trkpt lat="47.496858" lon="7.562972"><ele>313.25</ele></trkpt>
<trkpt lat="47.496921" lon="7.562758"><ele>312.0</ele></trkpt>
<trkpt lat="47.497171" lon="7.561923"><ele>311.5</ele></trkpt>
<trkpt lat="47.497215" lon="7.561772"><ele>311.0</ele></trkpt>
<trkpt lat="47.497305" lon="7.561461"><ele>311.5</ele></trkpt>
<trkpt lat="47.497348" lon="7.561311"><ele>311.25</ele></trkpt>
<trkpt lat="47.497450" lon="7.560971"><ele>310.5</ele></trkpt>
<trkpt lat="47.497715" lon="7.560091"><ele>309.0</ele></trkpt>
<trkpt lat="47.497769" lon="7.559913"><ele>308.5</ele></trkpt>
<trkpt lat="47.497822" lon="7.559738"><ele>308.25</ele></trkpt>
<trkpt lat="47.497934" lon="7.559360"><ele>307.75</ele></trkpt>
<trkpt lat="47.497962" lon="7.559272"><ele>307.5</ele></trkpt>
<trkpt lat="47.498010" lon="7.559116"><ele>307.0</ele></trkpt>
<trkpt lat="47.498080" lon="7.558952"><ele>307.0</ele></trkpt>
<trkpt lat="47.498130" lon="7.558862"><ele>307.25</ele></trkpt>
<trkpt lat="47.498207" lon="7.558760"><ele>307.5</ele></trkpt>
<trkpt lat="47.498256" lon="7.558709"><ele>307.5</ele></trkpt>
<trkpt lat="47.498318" lon="7.558659"><ele>307.75</ele></trkpt>
<trkpt lat="47.498387" lon="7.558619"><ele>308.0</ele></trkpt>
<trkpt lat="47.498462" lon="7.558589"><ele>308.0</ele></trkpt>
<trkpt lat="47.498605" lon="7.558548"><ele>308.0</ele></trkpt>
<trkpt lat="47.498682" lon="7.558525"><ele>308.0</ele></trkpt>
<trkpt lat="47.498700" lon="7.558348"><ele>308.0</ele></trkpt>
<trkpt lat="47.498705" lon="7.558295"><ele>307.75</ele></trkpt>
<trkpt lat="47.498767" lon="7.557977"><ele>306.75</ele></trkpt>
<trkpt lat="47.498819" lon="7.557771"><ele>306.0</ele></trkpt>
<trkpt lat="47.498861" lon="7.557594"><ele>306.0</ele></trkpt>
<trkpt lat="47.498913" lon="7.557375"><ele>305.75</ele></trkpt>
<trkpt lat="47.498949" lon="7.557221"><ele>306.0</ele></trkpt>
<trkpt lat="47.498974" lon="7.557105"><ele>306.0</ele></trkpt>
<trkpt lat="47.498990" lon="7.557040"><ele>306.0</ele></trkpt>
<trkpt lat="47.498998" lon="7.557005"><ele>306.0</ele></trkpt>
<trkpt lat="47.499004" lon="7.556977"><ele>306.0</ele></trkpt>
<trkpt lat="47.499017" lon="7.556924"><ele>306.0</ele></trkpt>
<trkpt lat="47.499067" lon="7.556709"><ele>306.0</ele></trkpt>
<trkpt lat="47.499151" lon="7.556344"><ele>306.0</ele></trkpt>
<trkpt lat="47.499243" lon="7.555938"><ele>306.5</ele></trkpt>
<trkpt lat="47.499259" lon="7.555866"><ele>306.75</ele></trkpt>
<trkpt lat="47.499277" lon="7.555768"><ele>307.0</ele></trkpt>
<trkpt lat="47.499301" lon="7.555593"><ele>307.25</ele></trkpt>
<trkpt lat="47.499331" lon="7.555380"><ele>307.0</ele></trkpt>
<trkpt lat="47.499361" lon="7.555085"><ele>306.5</ele></trkpt>
<trkpt lat="47.499363" lon="7.554860"><ele>306.25</ele></trkpt>
<trkpt lat="47.499365" lon="7.554662"><ele>306.25</ele></trkpt>
<trkpt lat="47.499363" lon="7.554614"><ele>306.25</ele></trkpt>
<trkpt lat="47.499356" lon="7.554480"><ele>306.25</ele></trkpt>
<trkpt lat="47.499340" lon="7.554254"><ele>306.0</ele></trkpt>
<trkpt lat="47.499294" lon="7.553953"><ele>306.25</ele></trkpt>
<trkpt lat="47.499235" lon="7.553693"><ele>306.0</ele></trkpt>
<trkpt lat="47.499197" lon="7.553567"><ele>305.75</ele></trkpt>
<trkpt lat="47.499171" lon="7.553475"><ele>306.0</ele></trkpt>
<trkpt lat="47.499152" lon="7.553355"><ele>306.0</ele></trkpt>
<trkpt lat="47.499132" lon="7.553234"><ele>306.0</ele></trkpt>
<trkpt lat="47.499148" lon="7.553206"><ele>306.0</ele></trkpt>
<trkpt lat="47.499161" lon="7.553115"><ele>306.0</ele></trkpt>
<trkpt lat="47.499157" lon="7.553081"><ele>306.0</ele></trkpt>
<trkpt lat="47.499122" lon="7.553007"><ele>306.0</ele></trkpt>
<trkpt lat="47.499092" lon="7.552977"><ele>306.25</ele></trkpt>
<trkpt lat="47.499063" lon="7.552964"><ele>306.25</ele></trkpt>
<trkpt lat="47.499022" lon="7.552959"><ele>306.25</ele></trkpt>
<trkpt lat="47.499008" lon="7.552851"><ele>306.5</ele></trkpt>
<trkpt lat="47.498997" lon="7.552700"><ele>307.0</ele></trkpt>
<trkpt lat="47.498999" lon="7.552549"><ele>307.0</ele></trkpt>
<trkpt lat="47.499017" lon="7.552354"><ele>307.0</ele></trkpt>
<trkpt lat="47.499034" lon="7.552176"><ele>307.0</ele></trkpt>
<trkpt lat="47.499054" lon="7.551960"><ele>307.0</ele></trkpt>
<trkpt lat="47.499057" lon="7.551883"><ele>307.0</ele></trkpt>
<trkpt lat="47.499060" lon="7.551772"><ele>307.25</ele></trkpt>
<trkpt lat="47.499061" lon="7.551684"><ele>307.5</ele></trkpt>
<trkpt lat="47.499060" lon="7.551330"><ele>308.0</ele></trkpt>
<trkpt lat="47.499059" lon="7.551270"><ele>308.25</ele></trkpt>
<trkpt lat="47.498949" lon="7.550127"><ele>311.75</ele></trkpt>
<trkpt lat="47.498937" lon="7.549999"><ele>312.0</ele></trkpt>
<trkpt lat="47.498889" lon="7.549477"><ele>312.75</ele></trkpt>
<trkpt lat="47.498789" lon="7.548403"><ele>314.25</ele></trkpt>
<trkpt lat="47.498785" lon="7.548310"><ele>314.25</ele></trkpt>
<trkpt lat="47.498771" lon="7.548002"><ele>315.0</ele></trkpt>
<trkpt lat="47.498768" lon="7.547940"><ele>314.75</ele></trkpt>
<trkpt lat="47.498771" lon="7.547824"><ele>314.5</ele></trkpt>
<trkpt lat="47.498776" lon="7.547729"><ele>314.25</ele></trkpt>
<trkpt lat="47.498827" lon="7.547364"><ele>314.75</ele></trkpt>
<trkpt lat="47.498933" lon="7.546919"><ele>313.75</ele></trkpt>
<trkpt lat="47.498942" lon="7.546883"><ele>313.75</ele></trkpt>
<trkpt lat="47.498966" lon="7.546890"><ele>313.75</ele></trkpt>
<trkpt lat="47.499014" lon="7.546871"><ele>313.5</ele></trkpt>
<trkpt lat="47.499033" lon="7.546848"><ele>313.5</ele></trkpt>
<trkpt lat="47.499047" lon="7.546817"><ele>313.5</ele></trkpt>
<trkpt lat="47.499055" lon="7.546777"><ele>313.75</ele></trkpt>
<trkpt lat="47.499053" lon="7.546735"><ele>313.75</ele></trkpt>
<trkpt lat="47.499043" lon="7.546696"><ele>313.75</ele></trkpt>
<trkpt lat="47.499024" lon="7.546664"><ele>314.0</ele></trkpt>
<trkpt lat="47.499000" lon="7.546642"><ele>314.0</ele></trkpt>
<trkpt lat="47.499012" lon="7.546597"><ele>314.0</ele></trkpt>
<trkpt lat="47.499493" lon="7.544830"><ele>312.75</ele></trkpt>
<trkpt lat="47.500684" lon="7.540384"><ele>313.75</ele></trkpt>
<trkpt lat="47.500693" lon="7.540352"><ele>313.75</ele></trkpt>
<trkpt lat="47.501152" lon="7.538643"><ele>313.5</ele></trkpt>
<trkpt lat="47.501275" lon="7.538069"><ele>314.25</ele></trkpt>
<trkpt lat="47.501864" lon="7.534604"><ele>314.5</ele></trkpt>
<trkpt lat="47.502173" lon="7.532804"><ele>315.0</ele></trkpt>
<trkpt lat="47.502228" lon="7.532501"><ele>315.75</ele></trkpt>
<trkpt lat="47.502556" lon="7.530685"><ele>316.5</ele></trkpt>
<trkpt lat="47.502585" lon="7.530526"><ele>316.5</ele></trkpt>
<trkpt lat="47.502694" lon="7.529968"><ele>316.25</ele></trkpt>
<trkpt lat="47.502968" lon="7.528576"><ele>316.0</ele></trkpt>
<trkpt lat="47.502976" lon="7.528533"><ele>316.0</ele></trkpt>
<trkpt lat="47.502981" lon="7.528505"><ele>316.0</ele></trkpt>
<trkpt lat="47.503039" lon="7.528183"><ele>315.25</ele></trkpt>
<trkpt lat="47.503095" lon="7.527815"><ele>314.75</ele></trkpt>
<trkpt lat="47.503200" lon="7.526906"><ele>313.5</ele></trkpt>
<trkpt lat="47.503210" lon="7.526807"><ele>313.5</ele></trkpt>
<trkpt lat="47.503224" lon="7.526642"><ele>313.25</ele></trkpt>
<trkpt lat="47.503245" lon="7.526364"><ele>313.25</ele></trkpt>
<trkpt lat="47.503252" lon="7.526059"><ele>313.25</ele></trkpt>
<trkpt lat="47.503223" lon="7.525680"><ele>314.5</ele></trkpt>
<trkpt lat="47.503031" lon="7.524769"><ele>315.25</ele></trkpt>
<trkpt lat="47.503616" lon="7.524872"><ele>313.25</ele></trkpt>
<trkpt lat="47.504135" lon="7.524950"><ele>312.0</ele></trkpt>
<trkpt lat="47.504208" lon="7.524960"><ele>311.75</ele></trkpt>
<trkpt lat="47.504340" lon="7.524985"><ele>311.75</ele></trkpt>
<trkpt lat="47.504406" lon="7.524999"><ele>311.75</ele></trkpt>
<trkpt lat="47.504533" lon="7.525031"><ele>311.5</ele></trkpt>
<trkpt lat="47.504712" lon="7.525110"><ele>311.0</ele></trkpt>
<trkpt lat="47.504805" lon="7.525154"><ele>311.0</ele></trkpt>
<trkpt lat="47.504817" lon="7.525159"><ele>311.0</ele></trkpt>
<trkpt lat="47.505004" lon="7.525262"><ele>310.75</ele></trkpt>
<trkpt lat="47.505213" lon="7.525341"><ele>310.0</ele></trkpt>
<trkpt lat="47.505326" lon="7.525368"><ele>310.0</ele></trkpt>
<trkpt lat="47.505533" lon="7.525393"><ele>310.0</ele></trkpt>
<trkpt lat="47.505824" lon="7.525419"><ele>310.25</ele></trkpt>
<trkpt lat="47.505906" lon="7.525423"><ele>310.5</ele></trkpt>
<trkpt lat="47.506011" lon="7.525428"><ele>310.75</ele></trkpt>
<trkpt lat="47.506173" lon="7.525433"><ele>311.0</ele></trkpt>
<trkpt lat="47.506227" lon="7.525454"><ele>311.25</ele></trkpt>
<trkpt lat="47.506247" lon="7.525470"><ele>311.25</ele></trkpt>
<trkpt lat="47.506302" lon="7.525452"><ele>311.5</ele></trkpt>
<trkpt lat="47.506379" lon="7.525451"><ele>311.75</ele></trkpt>
<trkpt lat="47.506535" lon="7.525499"><ele>312.5</ele></trkpt>
<trkpt lat="47.506787" lon="7.525527"><ele>313.75</ele></trkpt>
<trkpt lat="47.506893" lon="7.525548"><ele>314.5</ele></trkpt>
<trkpt lat="47.506998" lon="7.525569"><ele>315.25</ele></trkpt>
<trkpt lat="47.507150" lon="7.525591"><ele>316.5</ele></trkpt>
<trkpt lat="47.507307" lon="7.525621"><ele>317.75</ele></trkpt>
<trkpt lat="47.507403" lon="7.525619"><ele>318.25</ele></trkpt>
<trkpt lat="47.507593" lon="7.525613"><ele>319.5</ele></trkpt>
<trkpt lat="47.507638" lon="7.525612"><ele>319.75</ele></trkpt>
<trkpt lat="47.507857" lon="7.525606"><ele>321.25</ele></trkpt>
<trkpt lat="47.507897" lon="7.525605"><ele>321.5</ele></trkpt>
<trkpt lat="47.507952" lon="7.525604"><ele>321.5</ele></trkpt>
<trkpt lat="47.508123" lon="7.525569"><ele>322.5</ele></trkpt>
<trkpt lat="47.508366" lon="7.525521"><ele>324.0</ele></trkpt>
<trkpt lat="47.508441" lon="7.525506"><ele>324.75</ele></trkpt>
<trkpt lat="47.508619" lon="7.525471"><ele>326.0</ele></trkpt>
<trkpt lat="47.508809" lon="7.525433"><ele>327.5</ele></trkpt>
<trkpt lat="47.508887" lon="7.525418"><ele>327.75</ele></trkpt>
<trkpt lat="47.509137" lon="7.525416"><ele>330.5</ele></trkpt>
<trkpt lat="47.509234" lon="7.525434"><ele>331.0</ele></trkpt>
<trkpt lat="47.509300" lon="7.525447"><ele>331.25</ele></trkpt>
<trkpt lat="47.509418" lon="7.525469"><ele>331.5</ele></trkpt>
<trkpt lat="47.509467" lon="7.525478"><ele>331.5</ele></trkpt>
<trkpt lat="47.509577" lon="7.525499"><ele>331.75</ele></trkpt>
<trkpt lat="47.509676" lon="7.525689"><ele>333.0</ele></trkpt>
<trkpt lat="47.509659" lon="7.524911"><ele>330.25</ele></trkpt>
<trkpt lat="47.509652" lon="7.524825"><ele>330.0</ele></trkpt>
<trkpt lat="47.509649" lon="7.524770"><ele>329.75</ele></trkpt>
<trkpt lat="47.509634" lon="7.524689"><ele>329.5</ele></trkpt>
<trkpt lat="47.509621" lon="7.524616"><ele>329.25</ele></trkpt>
<trkpt lat="47.509597" lon="7.524478"><ele>329.0</ele></trkpt>
<trkpt lat="47.509586" lon="7.524418"><ele>329.0</ele></trkpt>
<trkpt lat="47.509566" lon="7.524305"><ele>329.0</ele></trkpt>
<trkpt lat="47.509589" lon="7.524214"><ele>329.25</ele></trkpt>
<trkpt lat="47.509557" lon="7.524019"><ele>329.0</ele></trkpt>
<trkpt lat="47.509536" lon="7.523890"><ele>328.75</ele></trkpt>
<trkpt lat="47.509522" lon="7.523805"><ele>328.75</ele></trkpt>
<trkpt lat="47.509492" lon="7.523626"><ele>328.5</ele></trkpt>
<trkpt lat="47.509469" lon="7.523488"><ele>328.0</ele></trkpt>
<trkpt lat="47.509540" lon="7.523474"><ele>328.75</ele></trkpt>
<trkpt lat="47.509833" lon="7.523419"><ele>331.75</ele></trkpt>
<trkpt lat="47.509792" lon="7.523193"><ele>331.5</ele></trkpt>
<trkpt lat="47.509760" lon="7.523023"><ele>331.5</ele></trkpt>
<trkpt lat="47.509739" lon="7.522912"><ele>330.75</ele></trkpt>
<trkpt lat="47.509695" lon="7.522672"><ele>330.0</ele></trkpt>
<trkpt lat="47.509688" lon="7.522633"><ele>330.0</ele></trkpt>
<trkpt lat="47.509674" lon="7.522558"><ele>330.25</ele></trkpt>
<trkpt lat="47.509633" lon="7.522339"><ele>330.0</ele></trkpt>
<trkpt lat="47.509622" lon="7.522279"><ele>329.75</ele></trkpt>
<trkpt lat="47.509602" lon="7.522169"><ele>329.75</ele></trkpt>
<trkpt lat="47.509566" lon="7.521978"><ele>329.5</ele></trkpt>
<trkpt lat="47.509556" lon="7.521921"><ele>329.5</ele></trkpt>
<trkpt lat="47.509506" lon="7.521644"><ele>329.0</ele></trkpt>
<trkpt lat="47.509501" lon="7.521617"><ele>329.0</ele></trkpt>
<trkpt lat="47.509461" lon="7.521374"><ele>328.25</ele></trkpt>
<trkpt lat="47.509445" lon="7.521279"><ele>328.0</ele></trkpt>
<trkpt lat="47.509383" lon="7.520868"><ele>327.75</ele></trkpt>
<trkpt lat="47.509368" lon="7.520767"><ele>327.25</ele></trkpt>
<trkpt lat="47.509312" lon="7.520381"><ele>326.0</ele></trkpt>
<trkpt lat="47.509244" lon="7.519912"><ele>326.0</ele></trkpt>
<trkpt lat="47.509225" lon="7.519793"><ele>325.75</ele></trkpt>
<trkpt lat="47.509187" lon="7.519561"><ele>325.25</ele></trkpt>
<trkpt lat="47.509138" lon="7.519263"><ele>325.0</ele></trkpt>
<trkpt lat="47.509128" lon="7.519206"><ele>325.0</ele></trkpt>
<trkpt lat="47.509112" lon="7.519108"><ele>325.0</ele></trkpt>
<trkpt lat="47.509026" lon="7.518591"><ele>324.5</ele></trkpt>
<trkpt lat="47.508976" lon="7.518266"><ele>324.75</ele></trkpt>
<trkpt lat="47.508947" lon="7.518212"><ele>324.5</ele></trkpt>
<trkpt lat="47.508905" lon="7.518132"><ele>324.0</ele></trkpt>
<trkpt lat="47.508839" lon="7.518078"><ele>323.5</ele></trkpt>
<trkpt lat="47.509119" lon="7.517499"><ele>329.75</ele></trkpt>
<trkpt lat="47.509234" lon="7.517204"><ele>332.5</ele></trkpt>
<trkpt lat="47.509247" lon="7.517177"><ele>333.0</ele></trkpt>
<trkpt lat="47.509378" lon="7.516925"><ele>335.0</ele></trkpt>
<trkpt lat="47.509441" lon="7.516776"><ele>336.5</ele></trkpt>
<trkpt lat="47.509569" lon="7.516459"><ele>339.75</ele></trkpt>
<trkpt lat="47.509685" lon="7.516183"><ele>342.25</ele></trkpt>
<trkpt lat="47.509793" lon="7.515969"><ele>344.5</ele></trkpt>
<trkpt lat="47.509823" lon="7.515903"><ele>345.0</ele></trkpt>
<trkpt lat="47.509941" lon="7.515721"><ele>346.75</ele></trkpt>
<trkpt lat="47.510158" lon="7.515462"><ele>351.0</ele></trkpt>
<trkpt lat="47.510305" lon="7.515354"><ele>353.25</ele></trkpt>
<trkpt lat="47.510449" lon="7.515267"><ele>354.75</ele></trkpt>
<trkpt lat="47.510485" lon="7.515254"><ele>355.5</ele></trkpt>
<trkpt lat="47.510587" lon="7.515221"><ele>357.25</ele></trkpt>
<trkpt lat="47.510705" lon="7.515194"><ele>359.5</ele></trkpt>
<trkpt lat="47.510826" lon="7.515184"><ele>361.75</ele></trkpt>
<trkpt lat="47.511075" lon="7.515196"><ele>364.5</ele></trkpt>
<trkpt lat="47.511793" lon="7.515382"><ele>373.5</ele></trkpt>
<trkpt lat="47.512175" lon="7.515469"><ele>376.0</ele></trkpt>
<trkpt lat="47.512214" lon="7.515472"><ele>376.25</ele></trkpt>
<trkpt lat="47.512736" lon="7.515520"><ele>374.5</ele></trkpt>
<trkpt lat="47.513200" lon="7.515501"><ele>372.75</ele></trkpt>
<trkpt lat="47.513431" lon="7.515470"><ele>371.75</ele></trkpt>
<trkpt lat="47.513860" lon="7.515377"><ele>370.0</ele></trkpt>
<trkpt lat="47.514060" lon="7.515373"><ele>369.5</ele></trkpt>
<trkpt lat="47.514198" lon="7.515400"><ele>369.0</ele></trkpt>
<trkpt lat="47.514505" lon="7.515498"><ele>367.5</ele></trkpt>
<trkpt lat="47.515307" lon="7.515807"><ele>364.75</ele></trkpt>
<trkpt lat="47.515522" lon="7.515887"><ele>364.5</ele></trkpt>
<trkpt lat="47.515636" lon="7.515918"><ele>364.0</ele></trkpt>
<trkpt lat="47.515773" lon="7.515935"><ele>363.5</ele></trkpt>
<trkpt lat="47.515896" lon="7.515933"><ele>363.0</ele></trkpt>
<trkpt lat="47.516026" lon="7.515910"><ele>362.5</ele></trkpt>
<trkpt lat="47.517316" lon="7.515605"><ele>360.5</ele></trkpt>
<trkpt lat="47.517348" lon="7.515598"><ele>360.5</ele></trkpt>
<trkpt lat="47.517491" lon="7.515564"><ele>360.75</ele></trkpt>
<trkpt lat="47.517574" lon="7.515534"><ele>361.5</ele></trkpt>
<trkpt lat="47.518066" lon="7.515308"><ele>362.0</ele></trkpt>
<trkpt lat="47.518163" lon="7.515286"><ele>361.25</ele></trkpt>
<trkpt lat="47.518504" lon="7.515257"><ele>359.25</ele></trkpt>
<trkpt lat="47.518864" lon="7.515240"><ele>358.0</ele></trkpt>
<trkpt lat="47.519153" lon="7.515225"><ele>358.0</ele></trkpt>
<trkpt lat="47.519284" lon="7.515201"><ele>358.0</ele></trkpt>
<trkpt lat="47.519696" lon="7.515009"><ele>356.0</ele></trkpt>
<trkpt lat="47.519919" lon="7.514923"><ele>355.75</ele></trkpt>
<trkpt lat="47.520598" lon="7.514900"><ele>355.25</ele></trkpt>
<trkpt lat="47.521665" lon="7.514879"><ele>354.5</ele></trkpt>
<trkpt lat="47.521770" lon="7.514832"><ele>354.0</ele></trkpt>
<trkpt lat="47.521867" lon="7.514824"><ele>354.0</ele></trkpt>
<trkpt lat="47.522000" lon="7.514844"><ele>353.75</ele></trkpt>
<trkpt lat="47.523936" lon="7.515133"><ele>349.25</ele></trkpt>
<trkpt lat="47.524011" lon="7.515138"><ele>349.25</ele></trkpt>
<trkpt lat="47.524031" lon="7.515130"><ele>349.0</ele></trkpt>
<trkpt lat="47.524076" lon="7.515099"><ele>348.75</ele></trkpt>
<trkpt lat="47.524094" lon="7.515136"><ele>349.0</ele></trkpt>
<trkpt lat="47.524134" lon="7.515174"><ele>349.25</ele></trkpt>
<trkpt lat="47.524613" lon="7.515431"><ele>350.25</ele></trkpt>
<trkpt lat="47.524671" lon="7.515498"><ele>350.25</ele></trkpt>
<trkpt lat="47.524726" lon="7.515600"><ele>350.25</ele></trkpt>
<trkpt lat="47.524749" lon="7.515723"><ele>351.0</ele></trkpt>
<trkpt lat="47.524789" lon="7.515905"><ele>351.75</ele></trkpt>
<trkpt lat="47.524910" lon="7.516170"><ele>351.5</ele></trkpt>
<trkpt lat="47.525206" lon="7.516648"><ele>350.5</ele></trkpt>
<trkpt lat="47.525262" lon="7.516728"><ele>350.25</ele></trkpt>
<trkpt lat="47.525625" lon="7.517254"><ele>350.0</ele></trkpt>
<trkpt lat="47.525773" lon="7.517468"><ele>351.0</ele></trkpt>
<trkpt lat="47.525813" lon="7.517518"><ele>351.0</ele></trkpt>
<trkpt lat="47.526212" lon="7.518086"><ele>350.5</ele></trkpt>
<trkpt lat="47.526543" lon="7.518586"><ele>350.25</ele></trkpt>
<trkpt lat="47.526651" lon="7.518839"><ele>349.25</ele></trkpt>
<trkpt lat="47.526692" lon="7.519111"><ele>348.75</ele></trkpt>
<trkpt lat="47.526729" lon="7.519197"><ele>348.5</ele></trkpt>
<trkpt lat="47.526771" lon="7.519230"><ele>348.25</ele></trkpt>
<trkpt lat="47.526832" lon="7.519206"><ele>347.75</ele></trkpt>
<trkpt lat="47.526969" lon="7.519067"><ele>346.75</ele></trkpt>
<trkpt lat="47.527195" lon="7.518806"><ele>344.75</ele></trkpt>
<trkpt lat="47.527309" lon="7.518674"><ele>343.5</ele></trkpt>
<trkpt lat="47.527441" lon="7.518568"><ele>342.25</ele></trkpt>
<trkpt lat="47.527524" lon="7.518529"><ele>341.5</ele></trkpt>
<trkpt lat="47.527626" lon="7.518524"><ele>341.0</ele></trkpt>
<trkpt lat="47.528312" lon="7.518562"><ele>339.75</ele></trkpt>
<trkpt lat="47.528391" lon="7.518581"><ele>340.0</ele></trkpt>
<trkpt lat="47.528415" lon="7.518587"><ele>340.0</ele></trkpt>
<trkpt lat="47.528471" lon="7.518601"><ele>340.0</ele></trkpt>
<trkpt lat="47.528561" lon="7.518643"><ele>339.75</ele></trkpt>
<trkpt lat="47.528614" lon="7.518668"><ele>339.75</ele></trkpt>
<trkpt lat="47.528834" lon="7.518752"><ele>340.5</ele></trkpt>
<trkpt lat="47.529024" lon="7.518782"><ele>341.5</ele></trkpt>
<trkpt lat="47.529495" lon="7.518765"><ele>344.0</ele></trkpt>
<trkpt lat="47.529793" lon="7.518706"><ele>346.0</ele></trkpt>
<trkpt lat="47.530323" lon="7.518510"><ele>350.75</ele></trkpt>
<trkpt lat="47.530381" lon="7.518505"><ele>351.25</ele></trkpt>
<trkpt lat="47.530484" lon="7.518535"><ele>352.0</ele></trkpt>
<trkpt lat="47.530545" lon="7.518563"><ele>352.25</ele></trkpt>
<trkpt lat="47.530801" lon="7.518720"><ele>352.75</ele></trkpt>
<trkpt lat="47.530864" lon="7.518758"><ele>353.0</ele></trkpt>
<trkpt lat="47.530987" lon="7.518819"><ele>353.25</ele></trkpt>
<trkpt lat="47.531056" lon="7.518853"><ele>353.75</ele></trkpt>
<trkpt lat="47.531346" lon="7.518960"><ele>354.5</ele></trkpt>
<trkpt lat="47.531427" lon="7.519011"><ele>354.5</ele></trkpt>
<trkpt lat="47.531546" lon="7.519038"><ele>354.5</ele></trkpt>
<trkpt lat="47.532236" lon="7.519454"><ele>354.75</ele></trkpt>
<trkpt lat="47.532720" lon="7.519873"><ele>354.5</ele></trkpt>
<trkpt lat="47.533337" lon="7.520460"><ele>353.5</ele></trkpt>
<trkpt lat="47.533751" lon="7.520905"><ele>351.5</ele></trkpt>
<trkpt lat="47.533906" lon="7.521057"><ele>351.25</ele></trkpt>
<trkpt lat="47.534080" lon="7.521269"><ele>352.0</ele></trkpt>
<trkpt lat="47.534257" lon="7.521566"><ele>353.0</ele></trkpt>
<trkpt lat="47.534591" lon="7.522279"><ele>354.75</ele></trkpt>
<trkpt lat="47.535097" lon="7.523108"><ele>353.0</ele></trkpt>
<trkpt lat="47.535196" lon="7.523243"><ele>353.0</ele></trkpt>
<trkpt lat="47.535343" lon="7.523408"><ele>352.5</ele></trkpt>
<trkpt lat="47.535517" lon="7.523532"><ele>352.25</ele></trkpt>
<trkpt lat="47.535688" lon="7.523611"><ele>351.5</ele></trkpt>
<trkpt lat="47.536141" lon="7.523750"><ele>349.75</ele></trkpt>
<trkpt lat="47.536250" lon="7.523778"><ele>349.0</ele></trkpt>
<trkpt lat="47.536473" lon="7.523834"><ele>347.5</ele></trkpt>
<trkpt lat="47.538184" lon="7.524383"><ele>346.0</ele></trkpt>
<trkpt lat="47.538887" lon="7.524609"><ele>345.5</ele></trkpt>
<trkpt lat="47.539659" lon="7.524911"><ele>346.5</ele></trkpt>
<trkpt lat="47.539710" lon="7.524939"><ele>346.5</ele></trkpt>
<trkpt lat="47.540520" lon="7.525274"><ele>347.0</ele></trkpt>
<trkpt lat="47.541426" lon="7.525716"><ele>344.5</ele></trkpt>
<trkpt lat="47.541694" lon="7.525807"><ele>342.0</ele></trkpt>
<trkpt lat="47.541837" lon="7.525871"><ele>342.0</ele></trkpt>
<trkpt lat="47.542259" lon="7.525990"><ele>340.75</ele></trkpt>
<trkpt lat="47.543694" lon="7.526432"><ele>336.75</ele></trkpt>
<trkpt lat="47.543966" lon="7.526515"><ele>336.25</ele></trkpt>
<trkpt lat="47.544101" lon="7.526566"><ele>336.0</ele></trkpt>
<trkpt lat="47.544277" lon="7.526748"><ele>335.5</ele></trkpt>
<trkpt lat="47.544868" lon="7.527510"><ele>334.25</ele></trkpt>
<trkpt lat="47.544995" lon="7.527297"><ele>334.0</ele></trkpt>
<trkpt lat="47.545334" lon="7.526812"><ele>333.25</ele></trkpt>
<trkpt lat="47.545607" lon="7.526424"><ele>332.0</ele></trkpt>
<trkpt lat="47.545704" lon="7.526300"><ele>331.75</ele></trkpt>
<trkpt lat="47.545798" lon="7.526242"><ele>331.5</ele></trkpt>
<trkpt lat="47.545905" lon="7.526077"><ele>330.5</ele></trkpt>
<trkpt lat="47.546164" lon="7.525790"><ele>327.25</ele></trkpt>
<trkpt lat="47.546373" lon="7.525529"><ele>324.0</ele></trkpt>
<trkpt lat="47.546519" lon="7.525443"><ele>322.5</ele></trkpt>
<trkpt lat="47.546623" lon="7.525393"><ele>320.75</ele></trkpt>
<trkpt lat="47.546756" lon="7.525443"><ele>320.25</ele></trkpt>
<trkpt lat="47.547116" lon="7.525672"><ele>318.75</ele></trkpt>
<trkpt lat="47.547494" lon="7.525990"><ele>314.5</ele></trkpt>
<trkpt lat="47.547792" lon="7.526165"><ele>311.5</ele></trkpt>
<trkpt lat="47.547974" lon="7.526246"><ele>311.5</ele></trkpt>
<trkpt lat="47.548052" lon="7.526214"><ele>310.75</ele></trkpt>
<trkpt lat="47.548152" lon="7.526131"><ele>310.0</ele></trkpt>
<trkpt lat="47.548195" lon="7.526175"><ele>310.0</ele></trkpt>
<trkpt lat="47.548798" lon="7.526672"><ele>309.25</ele></trkpt>
<trkpt lat="47.548863" lon="7.526718"><ele>309.0</ele></trkpt>
<trkpt lat="47.549213" lon="7.526489"><ele>310.75</ele></trkpt>
<trkpt lat="47.549350" lon="7.526406"><ele>312.75</ele></trkpt>
<trkpt lat="47.549546" lon="7.526286"><ele>316.5</ele></trkpt>
<trkpt lat="47.549620" lon="7.526733"><ele>313.75</ele></trkpt>
<trkpt lat="47.549727" lon="7.527127"><ele>311.0</ele></trkpt>
<trkpt lat="47.549812" lon="7.527388"><ele>310.75</ele></trkpt>
<trkpt lat="47.549835" lon="7.527456"><ele>310.75</ele></trkpt>
<trkpt lat="47.549946" lon="7.527776"><ele>309.5</ele></trkpt>
<trkpt lat="47.550009" lon="7.527956"><ele>308.25</ele></trkpt>
<trkpt lat="47.550386" lon="7.529030"><ele>307.0</ele></trkpt>
<trkpt lat="47.550475" lon="7.529298"><ele>306.75</ele></trkpt>
<trkpt lat="47.550489" lon="7.529346"><ele>306.5</ele></trkpt>
<trkpt lat="47.550591" lon="7.529775"><ele>306.25</ele></trkpt>
<trkpt lat="47.550910" lon="7.531271"><ele>305.0</ele></trkpt>
<trkpt lat="47.550981" lon="7.531620"><ele>304.75</ele></trkpt>
<trkpt lat="47.551018" lon="7.531598"><ele>305.0</ele></trkpt>
<trkpt lat="47.551065" lon="7.531571"><ele>305.75</ele></trkpt>
<trkpt lat="47.551577" lon="7.531168"><ele>309.0</ele></trkpt>
<trkpt lat="47.551590" lon="7.531157"><ele>309.0</ele></trkpt>
<trkpt lat="47.551781" lon="7.530990"><ele>310.25</ele></trkpt>
<trkpt lat="47.551999" lon="7.530800"><ele>311.75</ele></trkpt>
<trkpt lat="47.552319" lon="7.530520"><ele>314.75</ele></trkpt>
<trkpt lat="47.552545" lon="7.531187"><ele>315.5</ele></trkpt>
<trkpt lat="47.552237" lon="7.531446"><ele>313.25</ele></trkpt>
<trkpt lat="47.552066" lon="7.531588"><ele>312.5</ele></trkpt>
<trkpt lat="47.551739" lon="7.531873"><ele>308.75</ele></trkpt>
<trkpt lat="47.551848" lon="7.532397"><ele>309.25</ele></trkpt>
<trkpt lat="47.551857" lon="7.532441"><ele>309.25</ele></trkpt>
<trkpt lat="47.551913" lon="7.532696"><ele>309.0</ele></trkpt>
<trkpt lat="47.552097" lon="7.533531"><ele>306.5</ele></trkpt>
<trkpt lat="47.552293" lon="7.534525"><ele>297.5</ele></trkpt>
<trkpt lat="47.552077" lon="7.534596"><ele>296.25</ele></trkpt>
<trkpt lat="47.551947" lon="7.534651"><ele>295.25</ele></trkpt>
<trkpt lat="47.551931" lon="7.534665"><ele>294.75</ele></trkpt>
<trkpt lat="47.551892" lon="7.534700"><ele>294.0</ele></trkpt>
<trkpt lat="47.551952" lon="7.534788"><ele>293.5</ele></trkpt>
<trkpt lat="47.552130" lon="7.535164"><ele>290.25</ele></trkpt>
<trkpt lat="47.552197" lon="7.535326"><ele>288.75</ele></trkpt>
<trkpt lat="47.552300" lon="7.535591"><ele>286.25</ele></trkpt>
<trkpt lat="47.552353" lon="7.535767"><ele>285.5</ele></trkpt>
<trkpt lat="47.552385" lon="7.535975"><ele>284.75</ele></trkpt>
<trkpt lat="47.552402" lon="7.536169"><ele>284.0</ele></trkpt>
<trkpt lat="47.552405" lon="7.536281"><ele>283.5</ele></trkpt>
<trkpt lat="47.552391" lon="7.536515"><ele>282.75</ele></trkpt>
<trkpt lat="47.552367" lon="7.536654"><ele>282.5</ele></trkpt>
<trkpt lat="47.552342" lon="7.536757"><ele>282.5</ele></trkpt>
<trkpt lat="47.552303" lon="7.536852"><ele>282.5</ele></trkpt>
<trkpt lat="47.552384" lon="7.536999"><ele>282.5</ele></trkpt>
<trkpt lat="47.552440" lon="7.537176"><ele>282.75</ele></trkpt>
<trkpt lat="47.552671" lon="7.538086"><ele>282.0</ele></trkpt>
<trkpt lat="47.552691" lon="7.538137"><ele>282.0</ele></trkpt>
<trkpt lat="47.552759" lon="7.538309"><ele>282.0</ele></trkpt>
<trkpt lat="47.552816" lon="7.538494"><ele>282.0</ele></trkpt>
<trkpt lat="47.552836" lon="7.538581"><ele>282.0</ele></trkpt>
<trkpt lat="47.553172" lon="7.540068"><ele>280.0</ele></trkpt>
<trkpt lat="47.553261" lon="7.540328"><ele>280.0</ele></trkpt>
<trkpt lat="47.553615" lon="7.540953"><ele>278.75</ele></trkpt>
<trkpt lat="47.553993" lon="7.541579"><ele>278.5</ele></trkpt>
<trkpt lat="47.554007" lon="7.541629"><ele>278.5</ele></trkpt>
<trkpt lat="47.554018" lon="7.541679"><ele>278.25</ele></trkpt>
<trkpt lat="47.553982" lon="7.541723"><ele>278.25</ele></trkpt>
<trkpt lat="47.553968" lon="7.541788"><ele>278.25</ele></trkpt>
<trkpt lat="47.553980" lon="7.541855"><ele>278.5</ele></trkpt>
<trkpt lat="47.553995" lon="7.541881"><ele>278.5</ele></trkpt>
<trkpt lat="47.554016" lon="7.541902"><ele>278.5</ele></trkpt>
<trkpt lat="47.554040" lon="7.541912"><ele>278.25</ele></trkpt>
<trkpt lat="47.554065" lon="7.541911"><ele>278.25</ele></trkpt>
<trkpt lat="47.554089" lon="7.541899"><ele>278.25</ele></trkpt>
<trkpt lat="47.554109" lon="7.541877"><ele>278.25</ele></trkpt>
<trkpt lat="47.554124" lon="7.541847"><ele>278.25</ele></trkpt>
<trkpt lat="47.554149" lon="7.541872"><ele>278.25</ele></trkpt>
<trkpt lat="47.554200" lon="7.541922"><ele>277.75</ele></trkpt>
<trkpt lat="47.554214" lon="7.541939"><ele>277.75</ele></trkpt>
<trkpt lat="47.554243" lon="7.541972"><ele>277.75</ele></trkpt>
<trkpt lat="47.554401" lon="7.542231"><ele>278.0</ele></trkpt>
<trkpt lat="47.555420" lon="7.543935"><ele>277.25</ele></trkpt>
<trkpt lat="47.555507" lon="7.544061"><ele>277.0</ele></trkpt>
<trkpt lat="47.555801" lon="7.544549"><ele>277.0</ele></trkpt>
<trkpt lat="47.555915" lon="7.544737"><ele>276.5</ele></trkpt>
<trkpt lat="47.556121" lon="7.545080"><ele>276.75</ele></trkpt>
<trkpt lat="47.556236" lon="7.545272"><ele>276.5</ele></trkpt>
<trkpt lat="47.556297" lon="7.545375"><ele>276.5</ele></trkpt>
<trkpt lat="47.556607" lon="7.545894"><ele>276.25</ele></trkpt>
<trkpt lat="47.557134" lon="7.546775"><ele>276.0</ele></trkpt>
<trkpt lat="47.557261" lon="7.546987"><ele>276.0</ele></trkpt>
<trkpt lat="47.557377" lon="7.547181"><ele>276.0</ele></trkpt>
<trkpt lat="47.557449" lon="7.547302"><ele>276.0</ele></trkpt>
<trkpt lat="47.557565" lon="7.547495"><ele>275.75</ele></trkpt>
<trkpt lat="47.557688" lon="7.547701"><ele>276.0</ele></trkpt>
<trkpt lat="47.558037" lon="7.548285"><ele>276.0</ele></trkpt>
<trkpt lat="47.558084" lon="7.548363"><ele>275.75</ele></trkpt>
<trkpt lat="47.558323" lon="7.548763"><ele>275.5</ele></trkpt>
<trkpt lat="47.558576" lon="7.549188"><ele>275.0</ele></trkpt>
<trkpt lat="47.559427" lon="7.550608"><ele>275.0</ele></trkpt>
<trkpt lat="47.559506" lon="7.550740"><ele>275.0</ele></trkpt>
<trkpt lat="47.559549" lon="7.550811"><ele>275.0</ele></trkpt>
<trkpt lat="47.559776" lon="7.551191"><ele>275.0</ele></trkpt>
<trkpt lat="47.559930" lon="7.551449"><ele>275.0</ele></trkpt>
<trkpt lat="47.560150" lon="7.551817"><ele>275.0</ele></trkpt>
<trkpt lat="47.561424" lon="7.553950"><ele>275.0</ele></trkpt>
<trkpt lat="47.561620" lon="7.554285"><ele>275.0</ele></trkpt>
<trkpt lat="47.561702" lon="7.554423"><ele>275.0</ele></trkpt>
<trkpt lat="47.561920" lon="7.554797"><ele>275.25</ele></trkpt>
<trkpt lat="47.561957" lon="7.554861"><ele>275.25</ele></trkpt>
<trkpt lat="47.562087" lon="7.555085"><ele>275.25</ele></trkpt>
<trkpt lat="47.562357" lon="7.555549"><ele>275.75</ele></trkpt>
<trkpt lat="47.562376" lon="7.555579"><ele>275.75</ele></trkpt>
<trkpt lat="47.562449" lon="7.555700"><ele>275.5</ele></trkpt>
<trkpt lat="47.562562" lon="7.555886"><ele>275.0</ele></trkpt>
<trkpt lat="47.563134" lon="7.556820"><ele>275.5</ele></trkpt>
<trkpt lat="47.563239" lon="7.556989"><ele>275.5</ele></trkpt>
<trkpt lat="47.563415" lon="7.557186"><ele>275.5</ele></trkpt>
<trkpt lat="47.563502" lon="7.557273"><ele>275.5</ele></trkpt>
<trkpt lat="47.563549" lon="7.557316"><ele>275.25</ele></trkpt>
<trkpt lat="47.563677" lon="7.557433"><ele>275.5</ele></trkpt>
<trkpt lat="47.563725" lon="7.557480"><ele>275.5</ele></trkpt>
<trkpt lat="47.563766" lon="7.557519"><ele>275.25</ele></trkpt>
<trkpt lat="47.563959" lon="7.557689"><ele>275.0</ele></trkpt>
<trkpt lat="47.564032" lon="7.557735"><ele>275.0</ele></trkpt>
<trkpt lat="47.564200" lon="7.557841"><ele>275.0</ele></trkpt>
<trkpt lat="47.564293" lon="7.557891"><ele>275.0</ele></trkpt>
<trkpt lat="47.564581" lon="7.558066"><ele>275.0</ele></trkpt>
<trkpt lat="47.564718" lon="7.558149"><ele>275.0</ele></trkpt>
<trkpt lat="47.564890" lon="7.558264"><ele>275.0</ele></trkpt>
<trkpt lat="47.565210" lon="7.558477"><ele>275.0</ele></trkpt>
<trkpt lat="47.565379" lon="7.558577"><ele>275.0</ele></trkpt>
<trkpt lat="47.565378" lon="7.558687"><ele>275.0</ele></trkpt>
<trkpt lat="47.565368" lon="7.558745"><ele>275.0</ele></trkpt>
<trkpt lat="47.565229" lon="7.559248"><ele>275.0</ele></trkpt>
<trkpt lat="47.565222" lon="7.559276"><ele>275.0</ele></trkpt>
<trkpt lat="47.565130" lon="7.559606"><ele>275.25</ele></trkpt>
<trkpt lat="47.565056" lon="7.559870"><ele>275.75</ele></trkpt>
<trkpt lat="47.565022" lon="7.559989"><ele>275.75</ele></trkpt>
<trkpt lat="47.564569" lon="7.561607"><ele>276.0</ele></trkpt>
<trkpt lat="47.564514" lon="7.561804"><ele>276.0</ele></trkpt>
<trkpt lat="47.564465" lon="7.561980"><ele>276.0</ele></trkpt>
<trkpt lat="47.564394" lon="7.562228"><ele>276.0</ele></trkpt>
<trkpt lat="47.564354" lon="7.562366"><ele>276.0</ele></trkpt>
<trkpt lat="47.564295" lon="7.562573"><ele>276.0</ele></trkpt>
<trkpt lat="47.564228" lon="7.562815"><ele>276.0</ele></trkpt>
<trkpt lat="47.564219" lon="7.562849"><ele>276.0</ele></trkpt>
<trkpt lat="47.564139" lon="7.563065"><ele>275.75</ele></trkpt>
<trkpt lat="47.564106" lon="7.563143"><ele>275.5</ele></trkpt>
<trkpt lat="47.564063" lon="7.563228"><ele>275.5</ele></trkpt>
<trkpt lat="47.564034" lon="7.563237"><ele>275.5</ele></trkpt>
<trkpt lat="47.564007" lon="7.563257"><ele>275.5</ele></trkpt>
<trkpt lat="47.563969" lon="7.563317"><ele>275.75</ele></trkpt>
<trkpt lat="47.563953" lon="7.563396"><ele>276.0</ele></trkpt>
<trkpt lat="47.563963" lon="7.563478"><ele>276.0</ele></trkpt>
<trkpt lat="47.563977" lon="7.563513"><ele>276.0</ele></trkpt>
<trkpt lat="47.563985" lon="7.563527"><ele>276.0</ele></trkpt>
<trkpt lat="47.564009" lon="7.563557"><ele>276.0</ele></trkpt>
<trkpt lat="47.564037" lon="7.563577"><ele>276.0</ele></trkpt>
<trkpt lat="47.564067" lon="7.563586"><ele>276.0</ele></trkpt>
<trkpt lat="47.564098" lon="7.563582"><ele>276.0</ele></trkpt>
<trkpt lat="47.564148" lon="7.563550"><ele>276.0</ele></trkpt>
<trkpt lat="47.564182" lon="7.563537"><ele>275.75</ele></trkpt>
<trkpt lat="47.564295" lon="7.563532"><ele>276.0</ele></trkpt>
<trkpt lat="47.564424" lon="7.563502"><ele>276.0</ele></trkpt>
<trkpt lat="47.564501" lon="7.563529"><ele>275.75</ele></trkpt>
<trkpt lat="47.564511" lon="7.563532"><ele>275.75</ele></trkpt>
<trkpt lat="47.564570" lon="7.563555"><ele>275.5</ele></trkpt>
<trkpt lat="47.564628" lon="7.563582"><ele>275.25</ele></trkpt>
<trkpt lat="47.564806" lon="7.563673"><ele>275.0</ele></trkpt>
<trkpt lat="47.564905" lon="7.563742"><ele>275.0</ele></trkpt>
<trkpt lat="47.565074" lon="7.563879"><ele>274.5</ele></trkpt>
<trkpt lat="47.565175" lon="7.563975"><ele>274.25</ele></trkpt>
<trkpt lat="47.565195" lon="7.563994"><ele>274.25</ele></trkpt>
<trkpt lat="47.565235" lon="7.564031"><ele>274.0</ele></trkpt>
<trkpt lat="47.565322" lon="7.564114"><ele>273.75</ele></trkpt>
<trkpt lat="47.565425" lon="7.564212"><ele>273.5</ele></trkpt>
<trkpt lat="47.565638" lon="7.564409"><ele>273.5</ele></trkpt>
<trkpt lat="47.565963" lon="7.564709"><ele>272.5</ele></trkpt>
<trkpt lat="47.566112" lon="7.564840"><ele>272.0</ele></trkpt>
<trkpt lat="47.566150" lon="7.564876"><ele>272.0</ele></trkpt>
<trkpt lat="47.566225" lon="7.564951"><ele>272.0</ele></trkpt>
<trkpt lat="47.566257" lon="7.564985"><ele>272.0</ele></trkpt>
<trkpt lat="47.566282" lon="7.565011"><ele>272.0</ele></trkpt>
<trkpt lat="47.566346" lon="7.565075"><ele>272.0</ele></trkpt>
<trkpt lat="47.566387" lon="7.565116"><ele>272.0</ele></trkpt>
<trkpt lat="47.566555" lon="7.565292"><ele>271.25</ele></trkpt>
<trkpt lat="47.566617" lon="7.565358"><ele>271.0</ele></trkpt>
<trkpt lat="47.566953" lon="7.565715"><ele>269.75</ele></trkpt>
<trkpt lat="47.567386" lon="7.566143"><ele>269.0</ele></trkpt>
<trkpt lat="47.567684" lon="7.566443"><ele>268.25</ele></trkpt>
<trkpt lat="47.567879" lon="7.566652"><ele>268.0</ele></trkpt>
<trkpt lat="47.568081" lon="7.566908"><ele>267.25</ele></trkpt>
<trkpt lat="47.568284" lon="7.567188"><ele>267.0</ele></trkpt>
<trkpt lat="47.568356" lon="7.567299"><ele>267.0</ele></trkpt>
<trkpt lat="47.568454" lon="7.567462"><ele>267.0</ele></trkpt>
<trkpt lat="47.568484" lon="7.567631"><ele>267.0</ele></trkpt>
<trkpt lat="47.568547" lon="7.567807"><ele>267.0</ele></trkpt>
<trkpt lat="47.568671" lon="7.568098"><ele>266.75</ele></trkpt>
<trkpt lat="47.568836" lon="7.568562"><ele>266.0</ele></trkpt>
<trkpt lat="47.568905" lon="7.568786"><ele>266.5</ele></trkpt>
<trkpt lat="47.568969" lon="7.569039"><ele>267.0</ele></trkpt>
<trkpt lat="47.569048" lon="7.569415"><ele>267.0</ele></trkpt>
<trkpt lat="47.569068" lon="7.569536"><ele>267.0</ele></trkpt>
<trkpt lat="47.569073" lon="7.569570"><ele>267.25</ele></trkpt>
<trkpt lat="47.569060" lon="7.569628"><ele>267.25</ele></trkpt>
<trkpt lat="47.569059" lon="7.569690"><ele>267.5</ele></trkpt>
<trkpt lat="47.569073" lon="7.569750"><ele>267.5</ele></trkpt>
<trkpt lat="47.569099" lon="7.569801"><ele>267.75</ele></trkpt>
<trkpt lat="47.569135" lon="7.569836"><ele>267.75</ele></trkpt>
<trkpt lat="47.569177" lon="7.569851"><ele>267.75</ele></trkpt>
<trkpt lat="47.569220" lon="7.569845"><ele>267.75</ele></trkpt>
<trkpt lat="47.569227" lon="7.569878"><ele>267.75</ele></trkpt>
<trkpt lat="47.569245" lon="7.569968"><ele>267.5</ele></trkpt>
<trkpt lat="47.569318" lon="7.570270"><ele>267.0</ele></trkpt>
<trkpt lat="47.569750" lon="7.572233"></trkpt>
<trkpt lat="47.569810" lon="7.572505"></trkpt>
<trkpt lat="47.569871" lon="7.572735"></trkpt>
<trkpt lat="47.569895" lon="7.572806"></trkpt>
<trkpt lat="47.570002" lon="7.573085"></trkpt>
<trkpt lat="47.570057" lon="7.573201"></trkpt>
<trkpt lat="47.570271" lon="7.573565"></trkpt>
<trkpt lat="47.570648" lon="7.574082"><ele>259.0</ele></trkpt>
<trkpt lat="47.570911" lon="7.574469"><ele>259.5</ele></trkpt>
<trkpt lat="47.570953" lon="7.574537"><ele>259.25</ele></trkpt>
<trkpt lat="47.570969" lon="7.574565"><ele>259.25</ele></trkpt>
<trkpt lat="47.570931" lon="7.574663"><ele>259.0</ele></trkpt>
<trkpt lat="47.570924" lon="7.574699"><ele>259.0</ele></trkpt>
<trkpt lat="47.570920" lon="7.574803"><ele>259.0</ele></trkpt>
<trkpt lat="47.570931" lon="7.574894"><ele>259.0</ele></trkpt>
<trkpt lat="47.570943" lon="7.574937"><ele>259.0</ele></trkpt>
<trkpt lat="47.570959" lon="7.574974"><ele>259.0</ele></trkpt>
<trkpt lat="47.571004" lon="7.575019"><ele>259.0</ele></trkpt>
<trkpt lat="47.571012" lon="7.575025"><ele>259.0</ele></trkpt>
<trkpt lat="47.571040" lon="7.575037"><ele>259.0</ele></trkpt>
<trkpt lat="47.571076" lon="7.575039"><ele>259.0</ele></trkpt>
<trkpt lat="47.571114" lon="7.575024"><ele>259.0</ele></trkpt>
<trkpt lat="47.571154" lon="7.574990"><ele>259.0</ele></trkpt>
<trkpt lat="47.571172" lon="7.574964"><ele>259.0</ele></trkpt>
<trkpt lat="47.571202" lon="7.574881"><ele>259.0</ele></trkpt>
<trkpt lat="47.571222" lon="7.574901"><ele>259.0</ele></trkpt>
<trkpt lat="47.571275" lon="7.574952"><ele>259.0</ele></trkpt>
<trkpt lat="47.571891" lon="7.575649"><ele>258.0</ele></trkpt>
<trkpt lat="47.572431" lon="7.576262"><ele>257.25</ele></trkpt>
<trkpt lat="47.572524" lon="7.576385"><ele>257.0</ele></trkpt>
<trkpt lat="47.572536" lon="7.576401"><ele>257.0</ele></trkpt>
<trkpt lat="47.572644" lon="7.576304"><ele>257.5</ele></trkpt>
<trkpt lat="47.572728" lon="7.576220"><ele>257.75</ele></trkpt>
<trkpt lat="47.573039" lon="7.575900"><ele>258.75</ele></trkpt>
<trkpt lat="47.573492" lon="7.575437"><ele>259.0</ele></trkpt>
<trkpt lat="47.574113" lon="7.574800"><ele>259.0</ele></trkpt>
<trkpt lat="47.574134" lon="7.574779"><ele>259.0</ele></trkpt>
<trkpt lat="47.574317" lon="7.574591"><ele>258.25</ele></trkpt>
<trkpt lat="47.574777" lon="7.574109"><ele>259.0</ele></trkpt>
<trkpt lat="47.574852" lon="7.574064"><ele>259.0</ele></trkpt>
<trkpt lat="47.575081" lon="7.573925"><ele>258.5</ele></trkpt>
<trkpt lat="47.575408" lon="7.573577"><ele>259.0</ele></trkpt>
<trkpt lat="47.575445" lon="7.573538"><ele>259.0</ele></trkpt>
<trkpt lat="47.575556" lon="7.573419"><ele>259.0</ele></trkpt>
<trkpt lat="47.575587" lon="7.573416"><ele>259.0</ele></trkpt>
<trkpt lat="47.575669" lon="7.573447"><ele>259.0</ele></trkpt>
<trkpt lat="47.575819" lon="7.573525"><ele>259.0</ele></trkpt>
<trkpt lat="47.575882" lon="7.573557"><ele>259.0</ele></trkpt>
<trkpt lat="47.576008" lon="7.573620"><ele>258.75</ele></trkpt>
<trkpt lat="47.575973" lon="7.573774"><ele>258.25</ele></trkpt>
<trkpt lat="47.575958" lon="7.573838"><ele>258.0</ele></trkpt>
<trkpt lat="47.575834" lon="7.574368"><ele>258.0</ele></trkpt>
<trkpt lat="47.575830" lon="7.574463"><ele>258.0</ele></trkpt>
<trkpt lat="47.575836" lon="7.574552"><ele>258.0</ele></trkpt>
<trkpt lat="47.575866" lon="7.574623"><ele>258.0</ele></trkpt>
<trkpt lat="47.575940" lon="7.574736"><ele>258.0</ele></trkpt>
<trkpt lat="47.576161" lon="7.575007"><ele>258.75</ele></trkpt>
<trkpt lat="47.576145" lon="7.575047"><ele>258.5</ele></trkpt>
<trkpt lat="47.576138" lon="7.575092"><ele>258.5</ele></trkpt>
<trkpt lat="47.576139" lon="7.575138"><ele>258.25</ele></trkpt>
<trkpt lat="47.576149" lon="7.575182"><ele>258.25</ele></trkpt>
<trkpt lat="47.576168" lon="7.575219"><ele>258.0</ele></trkpt>
<trkpt lat="47.576192" lon="7.575248"><ele>258.0</ele></trkpt>
<trkpt lat="47.576241" lon="7.575269"><ele>258.0</ele></trkpt>
<trkpt lat="47.576291" lon="7.575254"><ele>258.0</ele></trkpt>
<trkpt lat="47.576385" lon="7.575636"><ele>257.75</ele></trkpt>
<trkpt lat="47.576372" lon="7.575835"><ele>257.75</ele></trkpt>
<trkpt lat="47.576408" lon="7.575957"><ele>257.75</ele></trkpt>
<trkpt lat="47.576448" lon="7.576112"></trkpt>
<trkpt lat="47.576501" lon="7.576318"><ele>257.5</ele></trkpt>
<trkpt lat="47.576567" lon="7.576555"><ele>257.0</ele></trkpt>
<trkpt lat="47.576662" lon="7.576704"><ele>256.75</ele></trkpt>
<trkpt lat="47.576754" lon="7.576895"><ele>256.0</ele></trkpt>
<trkpt lat="47.576831" lon="7.577016"><ele>256.0</ele></trkpt>
<trkpt lat="47.576947" lon="7.577124"><ele>256.0</ele></trkpt>
<trkpt lat="47.577032" lon="7.577184"><ele>256.0</ele></trkpt>
<trkpt lat="47.577071" lon="7.577200"><ele>256.0</ele></trkpt>
<trkpt lat="47.577955" lon="7.577394"><ele>255.0</ele></trkpt>
<trkpt lat="47.578048" lon="7.577424"><ele>255.0</ele></trkpt>
<trkpt lat="47.578144" lon="7.577476"><ele>254.75</ele></trkpt>
<trkpt lat="47.578270" lon="7.577561"><ele>255.0</ele></trkpt>
<trkpt lat="47.578311" lon="7.577593"><ele>255.0</ele></trkpt>
<trkpt lat="47.578467" lon="7.577679"><ele>255.25</ele></trkpt>
<trkpt lat="47.578613" lon="7.577727"><ele>256.0</ele></trkpt>
<trkpt lat="47.579650" lon="7.577989"><ele>255.75</ele></trkpt>
<trkpt lat="47.579715" lon="7.578013"><ele>255.75</ele></trkpt>
<trkpt lat="47.579792" lon="7.578065"><ele>255.75</ele></trkpt>
<trkpt lat="47.579878" lon="7.578144"><ele>255.5</ele></trkpt>
<trkpt lat="47.579987" lon="7.578283"><ele>255.75</ele></trkpt>
<trkpt lat="47.580026" lon="7.578350"><ele>255.75</ele></trkpt>
<trkpt lat="47.580061" lon="7.578430"><ele>255.5</ele></trkpt>
<trkpt lat="47.580101" lon="7.578544"><ele>255.0</ele></trkpt>
<trkpt lat="47.580142" lon="7.578717"><ele>255.0</ele></trkpt>
<trkpt lat="47.580164" lon="7.578886"><ele>255.25</ele></trkpt>
<trkpt lat="47.580164" lon="7.578989"><ele>255.25</ele></trkpt>
<trkpt lat="47.580064" lon="7.580022"><ele>255.0</ele></trkpt>
<trkpt lat="47.579955" lon="7.581117"><ele>256.0</ele></trkpt>
<trkpt lat="47.579918" lon="7.581515"><ele>256.0</ele></trkpt>
<trkpt lat="47.579923" lon="7.581565"><ele>256.0</ele></trkpt>
<trkpt lat="47.579935" lon="7.581620"><ele>256.0</ele></trkpt>
<trkpt lat="47.579952" lon="7.581651"><ele>256.0</ele></trkpt>
<trkpt lat="47.579990" lon="7.581715"><ele>255.75</ele></trkpt>
<trkpt lat="47.580023" lon="7.581744"><ele>255.5</ele></trkpt>
<trkpt lat="47.580065" lon="7.581762"><ele>255.5</ele></trkpt>
<trkpt lat="47.580289" lon="7.581811"><ele>255.0</ele></trkpt>
<trkpt lat="47.581025" lon="7.581979"><ele>254.75</ele></trkpt>
<trkpt lat="47.581489" lon="7.582065"><ele>253.5</ele></trkpt>
<trkpt lat="47.581960" lon="7.582137"><ele>253.75</ele></trkpt>
<trkpt lat="47.582076" lon="7.582156"><ele>253.5</ele></trkpt>
<trkpt lat="47.584186" lon="7.582506"><ele>249.75</ele></trkpt>
<trkpt lat="47.584756" lon="7.582634"><ele>249.75</ele></trkpt>
<trkpt lat="47.584894" lon="7.582612"><ele>249.25</ele></trkpt>
<trkpt lat="47.584855" lon="7.582703"><ele>249.5</ele></trkpt>
<trkpt lat="47.584152" lon="7.583328"><ele>249.0</ele></trkpt>
<trkpt lat="47.584140" lon="7.583371"><ele>249.0</ele></trkpt>
<trkpt lat="47.584198" lon="7.584040"><ele>248.0</ele></trkpt>
<trkpt lat="47.584123" lon="7.584321"><ele>246.5</ele></trkpt>
<trkpt lat="47.584060" lon="7.584303"><ele>246.5</ele></trkpt>
<trkpt lat="47.583989" lon="7.584266"><ele>246.5</ele></trkpt>
<trkpt lat="47.583110" lon="7.583813"><ele>247.25</ele></trkpt>
<trkpt lat="47.583034" lon="7.583789"><ele>247.25</ele></trkpt>
<trkpt lat="47.582302" lon="7.583637"><ele>247.5</ele></trkpt>
<trkpt lat="47.582082" lon="7.583601"><ele>247.5</ele></trkpt>
<trkpt lat="47.581434" lon="7.583447"><ele>247.75</ele></trkpt>
<trkpt lat="47.581361" lon="7.583440"><ele>247.5</ele></trkpt>
<trkpt lat="47.581043" lon="7.583345"></trkpt>
<trkpt lat="47.580761" lon="7.583273"></trkpt>
<trkpt lat="47.580440" lon="7.583214"></trkpt>
<trkpt lat="47.580116" lon="7.583178"></trkpt>
<trkpt lat="47.579731" lon="7.583123"><ele>248.0</ele></trkpt>
<trkpt lat="47.579676" lon="7.583111"><ele>248.0</ele></trkpt>
<trkpt lat="47.579544" lon="7.583036"><ele>248.75</ele></trkpt>
<trkpt lat="47.579448" lon="7.583005"><ele>249.25</ele></trkpt>
<trkpt lat="47.578788" lon="7.582908"><ele>251.0</ele></trkpt>
<trkpt lat="47.578232" lon="7.582886"><ele>251.75</ele></trkpt>
<trkpt lat="47.576211" lon="7.582993"><ele>251.0</ele></trkpt>
<trkpt lat="47.575965" lon="7.582988"><ele>250.25</ele></trkpt>
<trkpt lat="47.575829" lon="7.583000"><ele>250.0</ele></trkpt>
<trkpt lat="47.575788" lon="7.583011"><ele>250.0</ele></trkpt>
<trkpt lat="47.575695" lon="7.583066"><ele>249.75</ele></trkpt>
<trkpt lat="47.575589" lon="7.583109"><ele>249.5</ele></trkpt>
<trkpt lat="47.575494" lon="7.583118"><ele>249.75</ele></trkpt>
<trkpt lat="47.575403" lon="7.583116"><ele>250.0</ele></trkpt>
<trkpt lat="47.575269" lon="7.583139"><ele>250.25</ele></trkpt>
<trkpt lat="47.575138" lon="7.583196"><ele>249.5</ele></trkpt>
<trkpt lat="47.574909" lon="7.583246"><ele>249.5</ele></trkpt>
<trkpt lat="47.574501" lon="7.583358"><ele>247.5</ele></trkpt>
<trkpt lat="47.574366" lon="7.583359"><ele>249.0</ele></trkpt>
<trkpt lat="47.574254" lon="7.583404"><ele>249.75</ele></trkpt>
<trkpt lat="47.574101" lon="7.583470"><ele>249.25</ele></trkpt>
<trkpt lat="47.573915" lon="7.583430"><ele>251.0</ele></trkpt>
<trkpt lat="47.573653" lon="7.583563"><ele>248.25</ele></trkpt>
<trkpt lat="47.573459" lon="7.583568"><ele>248.75</ele></trkpt>
<trkpt lat="47.573302" lon="7.583620"><ele>247.75</ele></trkpt>
<trkpt lat="47.573178" lon="7.583597"><ele>248.25</ele></trkpt>
<trkpt lat="47.572981" lon="7.583598"><ele>248.5</ele></trkpt>
<trkpt lat="47.572858" lon="7.583626"><ele>248.5</ele></trkpt>
<trkpt lat="47.572596" lon="7.583668"><ele>248.5</ele></trkpt>
<trkpt lat="47.572410" lon="7.583625"><ele>249.25</ele></trkpt>
<trkpt lat="47.572176" lon="7.583627"><ele>248.75</ele></trkpt>
<trkpt lat="47.571972" lon="7.583601"><ele>249.0</ele></trkpt>
<trkpt lat="47.571655" lon="7.583608"><ele>249.75</ele></trkpt>
<trkpt lat="47.571366" lon="7.583556"><ele>248.5</ele></trkpt>
<trkpt lat="47.571009" lon="7.583497"><ele>250.0</ele></trkpt>
<trkpt lat="47.570510" lon="7.583415"><ele>249.5</ele></trkpt>
<trkpt lat="47.570029" lon="7.583336"><ele>247.0</ele></trkpt>
<trkpt lat="47.569906" lon="7.583359"><ele>247.0</ele></trkpt>
<trkpt lat="47.569580" lon="7.583306"><ele>248.0</ele></trkpt>
<trkpt lat="47.569392" lon="7.583182"><ele>248.5</ele></trkpt>
<trkpt lat="47.569339" lon="7.583141"><ele>249.0</ele></trkpt>
<trkpt lat="47.569297" lon="7.583128"><ele>249.25</ele></trkpt>
<trkpt lat="47.569236" lon="7.583127"><ele>249.5</ele></trkpt>
<trkpt lat="47.568726" lon="7.583115"><ele>249.75</ele></trkpt>
<trkpt lat="47.568312" lon="7.583118"><ele>250.5</ele></trkpt>
<trkpt lat="47.567827" lon="7.583025"><ele>253.75</ele></trkpt>
<trkpt lat="47.567670" lon="7.583036"><ele>254.0</ele></trkpt>
<trkpt lat="47.567642" lon="7.582982"><ele>254.0</ele></trkpt>
<trkpt lat="47.567632" lon="7.582937"><ele>254.0</ele></trkpt>
<trkpt lat="47.567653" lon="7.582926"><ele>254.0</ele></trkpt>
<trkpt lat="47.567685" lon="7.582881"><ele>254.0</ele></trkpt>
<trkpt lat="47.567695" lon="7.582851"><ele>254.0</ele></trkpt>
<trkpt lat="47.567700" lon="7.582816"><ele>254.0</ele></trkpt>
<trkpt lat="47.567697" lon="7.582785"><ele>254.0</ele></trkpt>
<trkpt lat="47.567676" lon="7.582733"><ele>254.0</ele></trkpt>
<trkpt lat="47.567657" lon="7.582715"><ele>254.0</ele></trkpt>
<trkpt lat="47.567630" lon="7.582704"><ele>254.0</ele></trkpt>
<trkpt lat="47.567581" lon="7.582721"><ele>254.0</ele></trkpt>
<trkpt lat="47.567479" lon="7.582827"><ele>254.0</ele></trkpt>
<trkpt lat="47.567454" lon="7.582843"><ele>254.0</ele></trkpt>
<trkpt lat="47.567423" lon="7.582855"><ele>254.0</ele></trkpt>
<trkpt lat="47.567273" lon="7.582865"><ele>254.0</ele></trkpt>
<trkpt lat="47.567233" lon="7.582875"><ele>254.0</ele></trkpt>
<trkpt lat="47.567043" lon="7.582980"><ele>253.5</ele></trkpt>
<trkpt lat="47.566984" lon="7.583019"><ele>253.25</ele></trkpt>
<trkpt lat="47.566866" lon="7.583047"><ele>253.5</ele></trkpt>
<trkpt lat="47.566659" lon="7.583125"><ele>253.75</ele></trkpt>
<trkpt lat="47.566511" lon="7.583190"><ele>253.0</ele></trkpt>
<trkpt lat="47.566463" lon="7.583219"><ele>252.75</ele></trkpt>
<trkpt lat="47.565827" lon="7.583499"><ele>251.0</ele></trkpt>
<trkpt lat="47.565449" lon="7.583666"><ele>250.25</ele></trkpt>
<trkpt lat="47.565358" lon="7.583709"><ele>249.75</ele></trkpt>
<trkpt lat="47.564838" lon="7.583969"><ele>248.5</ele></trkpt>
<trkpt lat="47.564683" lon="7.584070"><ele>248.0</ele></trkpt>
<trkpt lat="47.564572" lon="7.584144"><ele>249.0</ele></trkpt>
<trkpt lat="47.564341" lon="7.584298"><ele>249.25</ele></trkpt>
<trkpt lat="47.564264" lon="7.584351"><ele>249.25</ele></trkpt>
<trkpt lat="47.563838" lon="7.584648"><ele>248.75</ele></trkpt>
<trkpt lat="47.563746" lon="7.584719"><ele>248.5</ele></trkpt>
<trkpt lat="47.563290" lon="7.585094"><ele>248.25</ele></trkpt>
<trkpt lat="47.562664" lon="7.585659"><ele>248.75</ele></trkpt>
<trkpt lat="47.561898" lon="7.586345"><ele>249.75</ele></trkpt>
<trkpt lat="47.561772" lon="7.586445"><ele>251.0</ele></trkpt>
<trkpt lat="47.561719" lon="7.586495"><ele>251.25</ele></trkpt>
<trkpt lat="47.561681" lon="7.586512"><ele>251.5</ele></trkpt>
<trkpt lat="47.561648" lon="7.586499"><ele>252.25</ele></trkpt>
<trkpt lat="47.561632" lon="7.586479"><ele>253.0</ele></trkpt>
<trkpt lat="47.561618" lon="7.586414"><ele>254.75</ele></trkpt>
<trkpt lat="47.561610" lon="7.586257"><ele>256.5</ele></trkpt>
<trkpt lat="47.561589" lon="7.586194"><ele>257.25</ele></trkpt>
<trkpt lat="47.561557" lon="7.586146"><ele>257.5</ele></trkpt>
<trkpt lat="47.561547" lon="7.586131"><ele>257.75</ele></trkpt>
<trkpt lat="47.561486" lon="7.586180"><ele>257.5</ele></trkpt>
<trkpt lat="47.561473" lon="7.586191"><ele>257.5</ele></trkpt>
<trkpt lat="47.561427" lon="7.586234"><ele>257.25</ele></trkpt>
<trkpt lat="47.561403" lon="7.586255"><ele>257.25</ele></trkpt>
<trkpt lat="47.561372" lon="7.586286"><ele>257.25</ele></trkpt>
<trkpt lat="47.561283" lon="7.586387"><ele>257.0</ele></trkpt>
<trkpt lat="47.561166" lon="7.586552"><ele>256.0</ele></trkpt>
<trkpt lat="47.561012" lon="7.586791"><ele>255.75</ele></trkpt>
<trkpt lat="47.560981" lon="7.586837"><ele>255.5</ele></trkpt>
<trkpt lat="47.560855" lon="7.587017"><ele>254.5</ele></trkpt>
<trkpt lat="47.560783" lon="7.587099"><ele>254.25</ele></trkpt>
<trkpt lat="47.560664" lon="7.587210"><ele>253.25</ele></trkpt>
<trkpt lat="47.560570" lon="7.587271"><ele>252.75</ele></trkpt>
<trkpt lat="47.560343" lon="7.587433"><ele>252.75</ele></trkpt>
<trkpt lat="47.560314" lon="7.587456"><ele>252.75</ele></trkpt>
<trkpt lat="47.560076" lon="7.587652"><ele>252.0</ele></trkpt>
<trkpt lat="47.560022" lon="7.587709"><ele>252.0</ele></trkpt>
<trkpt lat="47.559956" lon="7.587828"><ele>252.0</ele></trkpt>
<trkpt lat="47.559946" lon="7.587849"><ele>252.0</ele></trkpt>
<trkpt lat="47.559911" lon="7.587947"><ele>252.0</ele></trkpt>
<trkpt lat="47.559883" lon="7.588026"><ele>252.25</ele></trkpt>
<trkpt lat="47.559834" lon="7.588131"><ele>251.75</ele></trkpt>
<trkpt lat="47.559694" lon="7.588340"><ele>252.75</ele></trkpt>
<trkpt lat="47.559647" lon="7.588443"><ele>252.5</ele></trkpt>
<trkpt lat="47.559631" lon="7.588516"><ele>252.5</ele></trkpt>
<trkpt lat="47.559629" lon="7.588560"><ele>252.25</ele></trkpt>
<trkpt lat="47.559632" lon="7.588624"><ele>252.0</ele></trkpt>
<trkpt lat="47.559653" lon="7.588712"><ele>249.75</ele></trkpt>
<trkpt lat="47.560638" lon="7.590693"><ele>250.0</ele></trkpt>
<trkpt lat="47.560580" lon="7.590754"><ele>250.75</ele></trkpt>
<trkpt lat="47.560569" lon="7.590732"><ele>250.0</ele></trkpt>
<trkpt lat="47.560133" lon="7.589854"><ele>247.5</ele></trkpt>
</trkseg></trk></gpx>
