<?xml version="1.0" encoding="UTF-8"?>
<!-- track-length = 28556 filtered ascend = 27 plain-ascend = 1 cost=87496 energy=.0kwh time=17m 49s AUTO selected ISO_GREEDY (score 0.854) after 1 candidate(s) in 1066ms. short shared stem near start/end: 475m -->
<gpx
 xmlns="http://www.topografix.com/GPX/1/1"
 xmlns:xsi="http://www.w3.org/2001/XMLSchema-instance"
 xsi:schemaLocation="http://www.topografix.com/GPX/1/1 http://www.topografix.com/GPX/1/1/gpx.xsd"
 creator="BRouter-null" version="1.1">
 <trk>
  <name>unset</name>
  <trkseg>
   <trkpt lon="7.589854" lat="47.560133"><ele>248.75</ele></trkpt>
   <trkpt lon="7.590732" lat="47.560569"><ele>250.0</ele></trkpt>
   <trkpt lon="7.590754" lat="47.560580"><ele>250.75</ele></trkpt>
   <trkpt lon="7.590693" lat="47.560638"><ele>250.0</ele></trkpt>
   <trkpt lon="7.588712" lat="47.559653"><ele>249.75</ele></trkpt>
   <trkpt lon="7.588624" lat="47.559632"><ele>252.0</ele></trkpt>
   <trkpt lon="7.588560" lat="47.559629"><ele>252.25</ele></trkpt>
   <trkpt lon="7.588516" lat="47.559631"><ele>252.5</ele></trkpt>
   <trkpt lon="7.588443" lat="47.559647"><ele>252.5</ele></trkpt>
   <trkpt lon="7.588340" lat="47.559694"><ele>252.75</ele></trkpt>
   <trkpt lon="7.588131" lat="47.559834"><ele>251.75</ele></trkpt>
   <trkpt lon="7.588026" lat="47.559883"><ele>252.25</ele></trkpt>
   <trkpt lon="7.587947" lat="47.559911"><ele>252.0</ele></trkpt>
   <trkpt lon="7.587849" lat="47.559946"><ele>252.0</ele></trkpt>
   <trkpt lon="7.587828" lat="47.559956"><ele>252.0</ele></trkpt>
   <trkpt lon="7.587709" lat="47.560022"><ele>252.0</ele></trkpt>
   <trkpt lon="7.587652" lat="47.560076"><ele>252.0</ele></trkpt>
   <trkpt lon="7.587456" lat="47.560314"><ele>252.75</ele></trkpt>
   <trkpt lon="7.587433" lat="47.560343"><ele>252.75</ele></trkpt>
   <trkpt lon="7.587271" lat="47.560570"><ele>252.75</ele></trkpt>
   <trkpt lon="7.587210" lat="47.560664"><ele>253.25</ele></trkpt>
   <trkpt lon="7.587099" lat="47.560783"><ele>254.25</ele></trkpt>
   <trkpt lon="7.587017" lat="47.560855"><ele>254.5</ele></trkpt>
   <trkpt lon="7.586837" lat="47.560981"><ele>255.5</ele></trkpt>
   <trkpt lon="7.586791" lat="47.561012"><ele>255.75</ele></trkpt>
   <trkpt lon="7.586552" lat="47.561166"><ele>256.0</ele></trkpt>
   <trkpt lon="7.586387" lat="47.561283"><ele>257.0</ele></trkpt>
   <trkpt lon="7.586286" lat="47.561372"><ele>257.25</ele></trkpt>
   <trkpt lon="7.586255" lat="47.561403"><ele>257.25</ele></trkpt>
   <trkpt lon="7.586234" lat="47.561427"><ele>257.25</ele></trkpt>
   <trkpt lon="7.586191" lat="47.561473"><ele>257.5</ele></trkpt>
   <trkpt lon="7.586180" lat="47.561486"><ele>257.5</ele></trkpt>
   <trkpt lon="7.586131" lat="47.561547"><ele>257.75</ele></trkpt>
   <trkpt lon="7.586111" lat="47.561542"><ele>258.0</ele></trkpt>
   <trkpt lon="7.586042" lat="47.561528"><ele>258.0</ele></trkpt>
   <trkpt lon="7.585957" lat="47.561523"><ele>258.0</ele></trkpt>
   <trkpt lon="7.585899" lat="47.561529"><ele>258.0</ele></trkpt>
   <trkpt lon="7.585792" lat="47.561558"><ele>258.0</ele></trkpt>
   <trkpt lon="7.585686" lat="47.561596"><ele>258.0</ele></trkpt>
   <trkpt lon="7.585600" lat="47.561631"><ele>258.0</ele></trkpt>
   <trkpt lon="7.585275" lat="47.561786"><ele>258.0</ele></trkpt>
   <trkpt lon="7.585147" lat="47.561837"><ele>258.0</ele></trkpt>
   <trkpt lon="7.585020" lat="47.561862"><ele>258.0</ele></trkpt>
   <trkpt lon="7.584889" lat="47.561889"><ele>257.75</ele></trkpt>
   <trkpt lon="7.584787" lat="47.561910"><ele>257.75</ele></trkpt>
   <trkpt lon="7.584709" lat="47.561933"><ele>257.75</ele></trkpt>
   <trkpt lon="7.584677" lat="47.561950"><ele>258.0</ele></trkpt>
   <trkpt lon="7.584515" lat="47.562033"><ele>258.0</ele></trkpt>
   <trkpt lon="7.583704" lat="47.562590"><ele>258.25</ele></trkpt>
   <trkpt lon="7.583340" lat="47.562915"><ele>258.25</ele></trkpt>
   <trkpt lon="7.583209" lat="47.563030"><ele>258.25</ele></trkpt>
   <trkpt lon="7.583104" lat="47.563121"><ele>258.5</ele></trkpt>
   <trkpt lon="7.582809" lat="47.563378"><ele>258.0</ele></trkpt>
   <trkpt lon="7.582783" lat="47.563401"><ele>258.0</ele></trkpt>
   <trkpt lon="7.582696" lat="47.563477"><ele>258.0</ele></trkpt>
   <trkpt lon="7.582587" lat="47.563566"><ele>258.0</ele></trkpt>
   <trkpt lon="7.582560" lat="47.563586"><ele>258.0</ele></trkpt>
   <trkpt lon="7.582164" lat="47.563888"><ele>258.0</ele></trkpt>
   <trkpt lon="7.582045" lat="47.563983"><ele>258.0</ele></trkpt>
   <trkpt lon="7.581999" lat="47.564021"><ele>258.0</ele></trkpt>
   <trkpt lon="7.581673" lat="47.564275"><ele>258.0</ele></trkpt>
   <trkpt lon="7.581319" lat="47.564550"><ele>258.0</ele></trkpt>
   <trkpt lon="7.580852" lat="47.564915"><ele>258.0</ele></trkpt>
   <trkpt lon="7.580765" lat="47.564937"><ele>258.0</ele></trkpt>
   <trkpt lon="7.580734" lat="47.565008"><ele>258.0</ele></trkpt>
   <trkpt lon="7.580717" lat="47.565022"><ele>258.0</ele></trkpt>
   <trkpt lon="7.580653" lat="47.565076"><ele>258.0</ele></trkpt>
   <trkpt lon="7.579925" lat="47.565651"><ele>258.0</ele></trkpt>
   <trkpt lon="7.579873" lat="47.565727"><ele>258.0</ele></trkpt>
   <trkpt lon="7.579987" lat="47.565785"><ele>258.0</ele></trkpt>
   <trkpt lon="7.579514" lat="47.566267"><ele>258.0</ele></trkpt>
   <trkpt lon="7.579027" lat="47.566750"><ele>258.0</ele></trkpt>
   <trkpt lon="7.578610" lat="47.567148"><ele>258.0</ele></trkpt>
   <trkpt lon="7.578157" lat="47.567596"><ele>257.75</ele></trkpt>
   <trkpt lon="7.578104" lat="47.567648"><ele>257.75</ele></trkpt>
   <trkpt lon="7.578067" lat="47.567683"><ele>257.75</ele></trkpt>
   <trkpt lon="7.577650" lat="47.568112"><ele>258.0</ele></trkpt>
   <trkpt lon="7.577605" lat="47.568156"><ele>258.0</ele></trkpt>
   <trkpt lon="7.577240" lat="47.568516"><ele>258.0</ele></trkpt>
   <trkpt lon="7.577199" lat="47.568556"><ele>258.0</ele></trkpt>
   <trkpt lon="7.576694" lat="47.569072"><ele>257.5</ele></trkpt>
   <trkpt lon="7.576070" lat="47.569694"><ele>258.0</ele></trkpt>
   <trkpt lon="7.575113" lat="47.570775"><ele>259.0</ele></trkpt>
   <trkpt lon="7.574993" lat="47.570878"><ele>259.0</ele></trkpt>
   <trkpt lon="7.574950" lat="47.570922"><ele>259.0</ele></trkpt>
   <trkpt lon="7.574937" lat="47.570943"><ele>259.0</ele></trkpt>
   <trkpt lon="7.574974" lat="47.570959"><ele>259.0</ele></trkpt>
   <trkpt lon="7.575019" lat="47.571004"><ele>259.0</ele></trkpt>
   <trkpt lon="7.575025" lat="47.571012"><ele>259.0</ele></trkpt>
   <trkpt lon="7.575037" lat="47.571040"><ele>259.0</ele></trkpt>
   <trkpt lon="7.575039" lat="47.571076"><ele>259.0</ele></trkpt>
   <trkpt lon="7.575024" lat="47.571114"><ele>259.0</ele></trkpt>
   <trkpt lon="7.574990" lat="47.571154"><ele>259.0</ele></trkpt>
   <trkpt lon="7.574964" lat="47.571172"><ele>259.0</ele></trkpt>
   <trkpt lon="7.574881" lat="47.571202"><ele>259.0</ele></trkpt>
   <trkpt lon="7.574830" lat="47.571214"><ele>259.0</ele></trkpt>
   <trkpt lon="7.574778" lat="47.571218"><ele>259.0</ele></trkpt>
   <trkpt lon="7.574678" lat="47.571211"><ele>259.0</ele></trkpt>
   <trkpt lon="7.574668" lat="47.571234"><ele>259.0</ele></trkpt>
   <trkpt lon="7.574640" lat="47.571294"><ele>259.0</ele></trkpt>
   <trkpt lon="7.574170" lat="47.571835"><ele>260.5</ele></trkpt>
   <trkpt lon="7.573540" lat="47.572564"><ele>261.25</ele></trkpt>
   <trkpt lon="7.574225" lat="47.572839"><ele>259.25</ele></trkpt>
   <trkpt lon="7.574343" lat="47.572886"><ele>259.75</ele></trkpt>
   <trkpt lon="7.575429" lat="47.573322"><ele>259.0</ele></trkpt>
   <trkpt lon="7.575311" lat="47.573437"><ele>259.0</ele></trkpt>
   <trkpt lon="7.574899" lat="47.573837"><ele>259.0</ele></trkpt>
   <trkpt lon="7.574667" lat="47.574062"><ele>258.5</ele></trkpt>
   <trkpt lon="7.573766" lat="47.574939"><ele>259.0</ele></trkpt>
   <trkpt lon="7.573592" lat="47.575096"><ele>259.0</ele></trkpt>
   <trkpt lon="7.573472" lat="47.575179"><ele>259.0</ele></trkpt>
   <trkpt lon="7.573324" lat="47.575345"><ele>259.0</ele></trkpt>
   <trkpt lon="7.572711" lat="47.576035"><ele>259.0</ele></trkpt>
   <trkpt lon="7.572671" lat="47.576091"><ele>259.0</ele></trkpt>
   <trkpt lon="7.572612" lat="47.576223"><ele>259.0</ele></trkpt>
   <trkpt lon="7.572578" lat="47.576229"><ele>259.0</ele></trkpt>
   <trkpt lon="7.572568" lat="47.576231"><ele>259.0</ele></trkpt>
   <trkpt lon="7.572376" lat="47.576264"><ele>259.0</ele></trkpt>
   <trkpt lon="7.571784" lat="47.576378"><ele>259.0</ele></trkpt>
   <trkpt lon="7.571556" lat="47.576464"><ele>259.0</ele></trkpt>
   <trkpt lon="7.570792" lat="47.576607"><ele>259.75</ele></trkpt>
   <trkpt lon="7.570263" lat="47.576718"><ele>259.75</ele></trkpt>
   <trkpt lon="7.568976" lat="47.577043"><ele>258.0</ele></trkpt>
   <trkpt lon="7.568730" lat="47.577081"><ele>259.25</ele></trkpt>
   <trkpt lon="7.568532" lat="47.577102"><ele>259.75</ele></trkpt>
   <trkpt lon="7.568232" lat="47.577112"><ele>259.5</ele></trkpt>
   <trkpt lon="7.568092" lat="47.577102"><ele>259.75</ele></trkpt>
   <trkpt lon="7.567772" lat="47.577054"><ele>256.5</ele></trkpt>
   <trkpt lon="7.567501" lat="47.576983"><ele>256.25</ele></trkpt>
   <trkpt lon="7.565959" lat="47.576410"><ele>260.75</ele></trkpt>
   <trkpt lon="7.565813" lat="47.576342"><ele>261.0</ele></trkpt>
   <trkpt lon="7.565557" lat="47.576232"><ele>261.0</ele></trkpt>
   <trkpt lon="7.565244" lat="47.576106"><ele>261.0</ele></trkpt>
   <trkpt lon="7.564967" lat="47.575980"><ele>261.0</ele></trkpt>
   <trkpt lon="7.564799" lat="47.575903"><ele>261.0</ele></trkpt>
   <trkpt lon="7.564647" lat="47.575836"><ele>260.5</ele></trkpt>
   <trkpt lon="7.564061" lat="47.575578"><ele>261.25</ele></trkpt>
   <trkpt lon="7.563833" lat="47.575469"></trkpt>
   <trkpt lon="7.563679" lat="47.575361"></trkpt>
   <trkpt lon="7.563235" lat="47.574843"></trkpt>
   <trkpt lon="7.563178" lat="47.574788"></trkpt>
   <trkpt lon="7.563137" lat="47.574760"></trkpt>
   <trkpt lon="7.563062" lat="47.574733"></trkpt>
   <trkpt lon="7.563005" lat="47.574721"><ele>264.25</ele></trkpt>
   <trkpt lon="7.562928" lat="47.574713"><ele>264.75</ele></trkpt>
   <trkpt lon="7.562862" lat="47.574713"><ele>265.25</ele></trkpt>
   <trkpt lon="7.562808" lat="47.574722"><ele>265.75</ele></trkpt>
   <trkpt lon="7.562610" lat="47.574772"><ele>265.0</ele></trkpt>
   <trkpt lon="7.562425" lat="47.574837"><ele>264.5</ele></trkpt>
   <trkpt lon="7.561779" lat="47.575088"><ele>264.75</ele></trkpt>
   <trkpt lon="7.561101" lat="47.575379"><ele>263.75</ele></trkpt>
   <trkpt lon="7.560198" lat="47.575852"><ele>262.5</ele></trkpt>
   <trkpt lon="7.559655" lat="47.576204"><ele>262.25</ele></trkpt>
   <trkpt lon="7.559196" lat="47.576516"><ele>262.25</ele></trkpt>
   <trkpt lon="7.558934" lat="47.576724"><ele>261.5</ele></trkpt>
   <trkpt lon="7.557428" lat="47.578063"><ele>261.75</ele></trkpt>
   <trkpt lon="7.557206" lat="47.578283"><ele>261.75</ele></trkpt>
   <trkpt lon="7.554937" lat="47.580314"><ele>258.75</ele></trkpt>
   <trkpt lon="7.550694" lat="47.584168"><ele>260.75</ele></trkpt>
   <trkpt lon="7.549426" lat="47.585300"><ele>260.75</ele></trkpt>
   <trkpt lon="7.548853" lat="47.585802"><ele>261.0</ele></trkpt>
   <trkpt lon="7.548362" lat="47.586185"><ele>260.5</ele></trkpt>
   <trkpt lon="7.548016" lat="47.586412"><ele>260.0</ele></trkpt>
   <trkpt lon="7.547551" lat="47.586654"><ele>260.5</ele></trkpt>
   <trkpt lon="7.546330" lat="47.587148"><ele>261.75</ele></trkpt>
   <trkpt lon="7.546031" lat="47.587277"><ele>261.5</ele></trkpt>
   <trkpt lon="7.545799" lat="47.587388"><ele>262.0</ele></trkpt>
   <trkpt lon="7.545480" lat="47.587572"><ele>262.25</ele></trkpt>
   <trkpt lon="7.545189" lat="47.587757"><ele>262.25</ele></trkpt>
   <trkpt lon="7.544961" lat="47.587951"><ele>261.5</ele></trkpt>
   <trkpt lon="7.544799" lat="47.588115"><ele>261.0</ele></trkpt>
   <trkpt lon="7.544588" lat="47.588366"><ele>260.25</ele></trkpt>
   <trkpt lon="7.544553" lat="47.588419"><ele>260.25</ele></trkpt>
   <trkpt lon="7.544377" lat="47.588697"><ele>260.5</ele></trkpt>
   <trkpt lon="7.544229" lat="47.589046"><ele>260.25</ele></trkpt>
   <trkpt lon="7.544178" lat="47.589228"><ele>260.5</ele></trkpt>
   <trkpt lon="7.544144" lat="47.589545"><ele>259.5</ele></trkpt>
   <trkpt lon="7.544133" lat="47.589735"><ele>259.0</ele></trkpt>
   <trkpt lon="7.544147" lat="47.589879"><ele>259.0</ele></trkpt>
   <trkpt lon="7.544375" lat="47.590886"><ele>258.0</ele></trkpt>
   <trkpt lon="7.544389" lat="47.591044"><ele>258.0</ele></trkpt>
   <trkpt lon="7.544389" lat="47.591201"><ele>258.0</ele></trkpt>
   <trkpt lon="7.544374" lat="47.591380"><ele>258.25</ele></trkpt>
   <trkpt lon="7.544331" lat="47.591672"><ele>258.0</ele></trkpt>
   <trkpt lon="7.544252" lat="47.591938"><ele>258.0</ele></trkpt>
   <trkpt lon="7.544185" lat="47.592085"><ele>258.0</ele></trkpt>
   <trkpt lon="7.544048" lat="47.592347"><ele>258.0</ele></trkpt>
   <trkpt lon="7.543892" lat="47.592607"><ele>257.75</ele></trkpt>
   <trkpt lon="7.543000" lat="47.593899"><ele>256.75</ele></trkpt>
   <trkpt lon="7.542744" lat="47.594228"><ele>257.0</ele></trkpt>
   <trkpt lon="7.542401" lat="47.594700"><ele>257.0</ele></trkpt>
   <trkpt lon="7.542236" lat="47.594859"><ele>256.75</ele></trkpt>
   <trkpt lon="7.542142" lat="47.594930"><ele>257.0</ele></trkpt>
   <trkpt lon="7.542052" lat="47.594992"><ele>257.0</ele></trkpt>
   <trkpt lon="7.541818" lat="47.595131"><ele>256.75</ele></trkpt>
   <trkpt lon="7.541756" lat="47.595179"><ele>256.5</ele></trkpt>
   <trkpt lon="7.541692" lat="47.595259"><ele>256.0</ele></trkpt>
   <trkpt lon="7.541647" lat="47.595386"><ele>256.0</ele></trkpt>
   <trkpt lon="7.541592" lat="47.595400"><ele>256.0</ele></trkpt>
   <trkpt lon="7.541499" lat="47.595426"><ele>256.25</ele></trkpt>
   <trkpt lon="7.541441" lat="47.595442"><ele>256.25</ele></trkpt>
   <trkpt lon="7.541262" lat="47.595406"><ele>256.75</ele></trkpt>
   <trkpt lon="7.541138" lat="47.595393"><ele>257.0</ele></trkpt>
   <trkpt lon="7.540842" lat="47.595472"><ele>256.75</ele></trkpt>
   <trkpt lon="7.540403" lat="47.595610"><ele>257.5</ele></trkpt>
   <trkpt lon="7.540148" lat="47.595677"><ele>257.75</ele></trkpt>
   <trkpt lon="7.539934" lat="47.595770"><ele>258.0</ele></trkpt>
   <trkpt lon="7.539772" lat="47.595810"><ele>258.0</ele></trkpt>
   <trkpt lon="7.539582" lat="47.595825"><ele>258.0</ele></trkpt>
   <trkpt lon="7.538481" lat="47.596128"><ele>258.25</ele></trkpt>
   <trkpt lon="7.538158" lat="47.596248"><ele>258.25</ele></trkpt>
   <trkpt lon="7.537642" lat="47.596467"><ele>259.0</ele></trkpt>
   <trkpt lon="7.537267" lat="47.596649"><ele>259.75</ele></trkpt>
   <trkpt lon="7.537054" lat="47.596733"><ele>260.5</ele></trkpt>
   <trkpt lon="7.537078" lat="47.596778"><ele>260.25</ele></trkpt>
   <trkpt lon="7.537117" lat="47.596807"><ele>260.0</ele></trkpt>
   <trkpt lon="7.537089" lat="47.596833"><ele>260.0</ele></trkpt>
   <trkpt lon="7.537039" lat="47.596879"><ele>260.25</ele></trkpt>
   <trkpt lon="7.537013" lat="47.596900"><ele>260.5</ele></trkpt>
   <trkpt lon="7.536867" lat="47.596946"><ele>260.5</ele></trkpt>
   <trkpt lon="7.536779" lat="47.596985"><ele>260.0</ele></trkpt>
   <trkpt lon="7.536283" lat="47.597376"><ele>259.0</ele></trkpt>
   <trkpt lon="7.535916" lat="47.597692"><ele>259.25</ele></trkpt>
   <trkpt lon="7.535427" lat="47.598291"><ele>259.5</ele></trkpt>
   <trkpt lon="7.534935" lat="47.598931"><ele>260.0</ele></trkpt>
   <trkpt lon="7.534552" lat="47.599518"><ele>258.5</ele></trkpt>
   <trkpt lon="7.534366" lat="47.599757"><ele>260.25</ele></trkpt>
   <trkpt lon="7.534265" lat="47.599836"><ele>261.0</ele></trkpt>
   <trkpt lon="7.534229" lat="47.599862"><ele>261.25</ele></trkpt>
   <trkpt lon="7.534217" lat="47.599932"><ele>261.5</ele></trkpt>
   <trkpt lon="7.534177" lat="47.600209"><ele>260.25</ele></trkpt>
   <trkpt lon="7.534173" lat="47.600375"><ele>260.0</ele></trkpt>
   <trkpt lon="7.534167" lat="47.600408"><ele>260.0</ele></trkpt>
   <trkpt lon="7.534117" lat="47.600415"><ele>260.25</ele></trkpt>
   <trkpt lon="7.533999" lat="47.600467"><ele>260.75</ele></trkpt>
   <trkpt lon="7.533917" lat="47.600490"><ele>261.0</ele></trkpt>
   <trkpt lon="7.533876" lat="47.600509"><ele>260.75</ele></trkpt>
   <trkpt lon="7.533840" lat="47.600567"><ele>260.0</ele></trkpt>
   <trkpt lon="7.533812" lat="47.600615"><ele>260.0</ele></trkpt>
   <trkpt lon="7.533844" lat="47.600660"><ele>260.0</ele></trkpt>
   <trkpt lon="7.533849" lat="47.600696"><ele>260.0</ele></trkpt>
   <trkpt lon="7.533832" lat="47.600733"><ele>260.25</ele></trkpt>
   <trkpt lon="7.533811" lat="47.600756"><ele>260.5</ele></trkpt>
   <trkpt lon="7.533908" lat="47.600886"><ele>259.5</ele></trkpt>
   <trkpt lon="7.534127" lat="47.601101"><ele>258.0</ele></trkpt>
   <trkpt lon="7.534177" lat="47.601124"><ele>257.75</ele></trkpt>
   <trkpt lon="7.534242" lat="47.601145"><ele>257.5</ele></trkpt>
   <trkpt lon="7.534264" lat="47.601179"><ele>257.25</ele></trkpt>
   <trkpt lon="7.534248" lat="47.601225"><ele>257.0</ele></trkpt>
   <trkpt lon="7.534094" lat="47.601411"><ele>255.75</ele></trkpt>
   <trkpt lon="7.533752" lat="47.601913"><ele>255.5</ele></trkpt>
   <trkpt lon="7.533416" lat="47.602501"><ele>255.25</ele></trkpt>
   <trkpt lon="7.532879" lat="47.602921"><ele>255.0</ele></trkpt>
   <trkpt lon="7.531850" lat="47.603602"><ele>255.0</ele></trkpt>
   <trkpt lon="7.531296" lat="47.603992"><ele>255.0</ele></trkpt>
   <trkpt lon="7.531114" lat="47.604076"><ele>254.5</ele></trkpt>
   <trkpt lon="7.530944" lat="47.604135"><ele>255.25</ele></trkpt>
   <trkpt lon="7.530800" lat="47.604257"><ele>255.0</ele></trkpt>
   <trkpt lon="7.530658" lat="47.604308"><ele>255.25</ele></trkpt>
   <trkpt lon="7.530571" lat="47.604329"><ele>255.75</ele></trkpt>
   <trkpt lon="7.530474" lat="47.604351"><ele>255.75</ele></trkpt>
   <trkpt lon="7.530403" lat="47.604339"><ele>255.5</ele></trkpt>
   <trkpt lon="7.530297" lat="47.604288"><ele>255.5</ele></trkpt>
   <trkpt lon="7.530122" lat="47.604285"><ele>255.75</ele></trkpt>
   <trkpt lon="7.529955" lat="47.604376"><ele>256.0</ele></trkpt>
   <trkpt lon="7.529905" lat="47.604423"><ele>254.75</ele></trkpt>
   <trkpt lon="7.529307" lat="47.604999"><ele>254.75</ele></trkpt>
   <trkpt lon="7.528591" lat="47.605480"><ele>255.5</ele></trkpt>
   <trkpt lon="7.527909" lat="47.605842"><ele>257.75</ele></trkpt>
   <trkpt lon="7.527507" lat="47.606097"><ele>258.0</ele></trkpt>
   <trkpt lon="7.527123" lat="47.606269"><ele>257.75</ele></trkpt>
   <trkpt lon="7.526403" lat="47.606479"><ele>258.75</ele></trkpt>
   <trkpt lon="7.525976" lat="47.606597"><ele>259.5</ele></trkpt>
   <trkpt lon="7.525928" lat="47.606633"><ele>259.5</ele></trkpt>
   <trkpt lon="7.525911" lat="47.606670"><ele>259.5</ele></trkpt>
   <trkpt lon="7.525906" lat="47.606719"><ele>259.5</ele></trkpt>
   <trkpt lon="7.525930" lat="47.606765"><ele>259.25</ele></trkpt>
   <trkpt lon="7.525972" lat="47.606806"><ele>259.0</ele></trkpt>
   <trkpt lon="7.526025" lat="47.606832"><ele>259.0</ele></trkpt>
   <trkpt lon="7.526084" lat="47.606848"><ele>259.0</ele></trkpt>
   <trkpt lon="7.526293" lat="47.606871"><ele>259.0</ele></trkpt>
   <trkpt lon="7.526520" lat="47.606914"><ele>258.25</ele></trkpt>
   <trkpt lon="7.526781" lat="47.607036"><ele>256.0</ele></trkpt>
   <trkpt lon="7.526863" lat="47.607087"><ele>254.75</ele></trkpt>
   <trkpt lon="7.527345" lat="47.607392"><ele>255.25</ele></trkpt>
   <trkpt lon="7.527433" lat="47.607448"><ele>256.0</ele></trkpt>
   <trkpt lon="7.527491" lat="47.607479"><ele>256.5</ele></trkpt>
   <trkpt lon="7.527642" lat="47.607559"><ele>256.0</ele></trkpt>
   <trkpt lon="7.527730" lat="47.607607"><ele>255.5</ele></trkpt>
   <trkpt lon="7.527776" lat="47.607634"><ele>255.5</ele></trkpt>
   <trkpt lon="7.528195" lat="47.607888"><ele>254.0</ele></trkpt>
   <trkpt lon="7.528403" lat="47.607987"><ele>254.0</ele></trkpt>
   <trkpt lon="7.528369" lat="47.608019"><ele>254.0</ele></trkpt>
   <trkpt lon="7.528323" lat="47.608065"><ele>254.0</ele></trkpt>
   <trkpt lon="7.528507" lat="47.608152"><ele>254.0</ele></trkpt>
   <trkpt lon="7.528593" lat="47.608195"><ele>254.0</ele></trkpt>
   <trkpt lon="7.528256" lat="47.608438"><ele>253.5</ele></trkpt>
   <trkpt lon="7.527940" lat="47.608649"><ele>253.0</ele></trkpt>
   <trkpt lon="7.527966" lat="47.608707"><ele>253.0</ele></trkpt>
   <trkpt lon="7.528268" lat="47.608880"><ele>253.5</ele></trkpt>
   <trkpt lon="7.528541" lat="47.608974"><ele>253.75</ele></trkpt>
   <trkpt lon="7.528738" lat="47.609061"><ele>254.0</ele></trkpt>
   <trkpt lon="7.529010" lat="47.609248"><ele>253.75</ele></trkpt>
   <trkpt lon="7.528443" lat="47.609652"><ele>254.0</ele></trkpt>
   <trkpt lon="7.528027" lat="47.609972"><ele>253.0</ele></trkpt>
   <trkpt lon="7.527953" lat="47.610119"><ele>252.5</ele></trkpt>
   <trkpt lon="7.528091" lat="47.610095"><ele>252.25</ele></trkpt>
   <trkpt lon="7.528125" lat="47.610150"><ele>251.75</ele></trkpt>
   <trkpt lon="7.527996" lat="47.610189"><ele>251.75</ele></trkpt>
   <trkpt lon="7.527751" lat="47.610263"><ele>253.0</ele></trkpt>
   <trkpt lon="7.527686" lat="47.610305"><ele>252.75</ele></trkpt>
   <trkpt lon="7.526330" lat="47.611655"><ele>253.0</ele></trkpt>
   <trkpt lon="7.526244" lat="47.611721"><ele>253.0</ele></trkpt>
   <trkpt lon="7.526159" lat="47.611773"><ele>252.5</ele></trkpt>
   <trkpt lon="7.526078" lat="47.611800"><ele>252.0</ele></trkpt>
   <trkpt lon="7.526006" lat="47.611810"><ele>252.25</ele></trkpt>
   <trkpt lon="7.525887" lat="47.611805"><ele>252.75</ele></trkpt>
   <trkpt lon="7.524688" lat="47.611409"><ele>252.0</ele></trkpt>
   <trkpt lon="7.524543" lat="47.611407"><ele>252.0</ele></trkpt>
   <trkpt lon="7.524468" lat="47.611419"><ele>251.75</ele></trkpt>
   <trkpt lon="7.524394" lat="47.611448"><ele>252.0</ele></trkpt>
   <trkpt lon="7.523080" lat="47.612514"><ele>252.75</ele></trkpt>
   <trkpt lon="7.522996" lat="47.612554"><ele>253.25</ele></trkpt>
   <trkpt lon="7.522924" lat="47.612576"><ele>253.75</ele></trkpt>
   <trkpt lon="7.522836" lat="47.612586"><ele>254.5</ele></trkpt>
   <trkpt lon="7.522947" lat="47.612861"><ele>253.5</ele></trkpt>
   <trkpt lon="7.523010" lat="47.613105"><ele>252.25</ele></trkpt>
   <trkpt lon="7.523039" lat="47.613416"><ele>252.25</ele></trkpt>
   <trkpt lon="7.523096" lat="47.613548"><ele>252.5</ele></trkpt>
   <trkpt lon="7.523208" lat="47.613874"><ele>253.75</ele></trkpt>
   <trkpt lon="7.523243" lat="47.613927"><ele>254.0</ele></trkpt>
   <trkpt lon="7.523308" lat="47.614000"><ele>254.0</ele></trkpt>
   <trkpt lon="7.523411" lat="47.614077"><ele>254.0</ele></trkpt>
   <trkpt lon="7.523527" lat="47.614156"><ele>253.25</ele></trkpt>
   <trkpt lon="7.523579" lat="47.614168"><ele>253.0</ele></trkpt>
   <trkpt lon="7.523638" lat="47.614157"><ele>253.0</ele></trkpt>
   <trkpt lon="7.523718" lat="47.614116"><ele>253.0</ele></trkpt>
   <trkpt lon="7.524048" lat="47.613920"><ele>253.25</ele></trkpt>
   <trkpt lon="7.524164" lat="47.613882"><ele>253.0</ele></trkpt>
   <trkpt lon="7.524314" lat="47.613891"><ele>252.75</ele></trkpt>
   <trkpt lon="7.524759" lat="47.613970"><ele>253.0</ele></trkpt>
   <trkpt lon="7.524833" lat="47.613958"><ele>253.0</ele></trkpt>
   <trkpt lon="7.524858" lat="47.614017"><ele>253.0</ele></trkpt>
   <trkpt lon="7.524903" lat="47.614072"><ele>253.0</ele></trkpt>
   <trkpt lon="7.524956" lat="47.614101"><ele>253.0</ele></trkpt>
   <trkpt lon="7.525025" lat="47.614122"><ele>252.75</ele></trkpt>
   <trkpt lon="7.525153" lat="47.614143"><ele>252.25</ele></trkpt>
   <trkpt lon="7.525934" lat="47.614219"><ele>253.0</ele></trkpt>
   <trkpt lon="7.527595" lat="47.614337"><ele>253.0</ele></trkpt>
   <trkpt lon="7.528099" lat="47.614370"><ele>252.75</ele></trkpt>
   <trkpt lon="7.528166" lat="47.614372"><ele>252.75</ele></trkpt>
   <trkpt lon="7.528235" lat="47.614426"><ele>252.75</ele></trkpt>
   <trkpt lon="7.528528" lat="47.614525"><ele>253.0</ele></trkpt>
   <trkpt lon="7.528098" lat="47.615101"><ele>253.0</ele></trkpt>
   <trkpt lon="7.528084" lat="47.615120"><ele>253.0</ele></trkpt>
   <trkpt lon="7.527909" lat="47.615831"><ele>252.75</ele></trkpt>
   <trkpt lon="7.527885" lat="47.616136"><ele>252.75</ele></trkpt>
   <trkpt lon="7.527919" lat="47.616183"><ele>252.75</ele></trkpt>
   <trkpt lon="7.527980" lat="47.616211"><ele>252.5</ele></trkpt>
   <trkpt lon="7.528021" lat="47.616220"><ele>252.5</ele></trkpt>
   <trkpt lon="7.528199" lat="47.616218"><ele>252.25</ele></trkpt>
   <trkpt lon="7.528385" lat="47.616212"><ele>252.0</ele></trkpt>
   <trkpt lon="7.528438" lat="47.616203"><ele>252.0</ele></trkpt>
   <trkpt lon="7.528451" lat="47.616246"><ele>252.0</ele></trkpt>
   <trkpt lon="7.528462" lat="47.616446"><ele>252.0</ele></trkpt>
   <trkpt lon="7.528466" lat="47.616474"><ele>252.0</ele></trkpt>
   <trkpt lon="7.527867" lat="47.616500"><ele>252.25</ele></trkpt>
   <trkpt lon="7.527712" lat="47.616538"><ele>252.25</ele></trkpt>
   <trkpt lon="7.527604" lat="47.616603"><ele>252.5</ele></trkpt>
   <trkpt lon="7.527568" lat="47.616706"><ele>252.75</ele></trkpt>
   <trkpt lon="7.527821" lat="47.618257"><ele>252.0</ele></trkpt>
   <trkpt lon="7.527800" lat="47.618394"><ele>252.0</ele></trkpt>
   <trkpt lon="7.527757" lat="47.618561"><ele>252.0</ele></trkpt>
   <trkpt lon="7.526615" lat="47.620521"><ele>251.0</ele></trkpt>
   <trkpt lon="7.527322" lat="47.620860"><ele>251.0</ele></trkpt>
   <trkpt lon="7.528015" lat="47.621245"><ele>251.0</ele></trkpt>
   <trkpt lon="7.528407" lat="47.621532"><ele>251.75</ele></trkpt>
   <trkpt lon="7.528664" lat="47.621631"><ele>251.5</ele></trkpt>
   <trkpt lon="7.529091" lat="47.621735"><ele>251.0</ele></trkpt>
   <trkpt lon="7.529878" lat="47.621922"><ele>252.5</ele></trkpt>
   <trkpt lon="7.529920" lat="47.621947"><ele>252.5</ele></trkpt>
   <trkpt lon="7.529971" lat="47.621980"><ele>252.75</ele></trkpt>
   <trkpt lon="7.529471" lat="47.622770"><ele>251.75</ele></trkpt>
   <trkpt lon="7.529171" lat="47.623274"><ele>251.75</ele></trkpt>
   <trkpt lon="7.529012" lat="47.623570"><ele>251.75</ele></trkpt>
   <trkpt lon="7.528965" lat="47.623658"><ele>251.75</ele></trkpt>
   <trkpt lon="7.529013" lat="47.623722"><ele>251.75</ele></trkpt>
   <trkpt lon="7.528991" lat="47.623758"><ele>251.75</ele></trkpt>
   <trkpt lon="7.528963" lat="47.623798"><ele>251.75</ele></trkpt>
   <trkpt lon="7.528879" lat="47.623807"><ele>251.75</ele></trkpt>
   <trkpt lon="7.528822" lat="47.623899"><ele>251.5</ele></trkpt>
   <trkpt lon="7.528686" lat="47.624118"><ele>251.5</ele></trkpt>
   <trkpt lon="7.528602" lat="47.624230"><ele>251.75</ele></trkpt>
   <trkpt lon="7.528510" lat="47.624359"><ele>252.0</ele></trkpt>
   <trkpt lon="7.528300" lat="47.624621"><ele>252.25</ele></trkpt>
   <trkpt lon="7.527838" lat="47.625206"><ele>252.5</ele></trkpt>
   <trkpt lon="7.527414" lat="47.625840"><ele>252.75</ele></trkpt>
   <trkpt lon="7.527475" lat="47.625894"><ele>252.75</ele></trkpt>
   <trkpt lon="7.527498" lat="47.625938"><ele>252.5</ele></trkpt>
   <trkpt lon="7.527501" lat="47.626000"><ele>252.25</ele></trkpt>
   <trkpt lon="7.527475" lat="47.626048"><ele>252.25</ele></trkpt>
   <trkpt lon="7.527433" lat="47.626086"><ele>252.25</ele></trkpt>
   <trkpt lon="7.527397" lat="47.626109"><ele>252.25</ele></trkpt>
   <trkpt lon="7.527303" lat="47.626145"><ele>252.5</ele></trkpt>
   <trkpt lon="7.527178" lat="47.626152"><ele>252.5</ele></trkpt>
   <trkpt lon="7.527005" lat="47.626327"><ele>252.5</ele></trkpt>
   <trkpt lon="7.526857" lat="47.626518"><ele>252.5</ele></trkpt>
   <trkpt lon="7.526774" lat="47.626625"><ele>252.5</ele></trkpt>
   <trkpt lon="7.526678" lat="47.626760"><ele>252.75</ele></trkpt>
   <trkpt lon="7.526470" lat="47.627031"><ele>252.25</ele></trkpt>
   <trkpt lon="7.526270" lat="47.627294"><ele>252.25</ele></trkpt>
   <trkpt lon="7.526071" lat="47.627587"><ele>251.25</ele></trkpt>
   <trkpt lon="7.526009" lat="47.627570"><ele>251.5</ele></trkpt>
   <trkpt lon="7.524808" lat="47.629256"><ele>251.25</ele></trkpt>
   <trkpt lon="7.524710" lat="47.629391"><ele>251.0</ele></trkpt>
   <trkpt lon="7.523549" lat="47.631244"><ele>248.25</ele></trkpt>
   <trkpt lon="7.523481" lat="47.631407"><ele>247.25</ele></trkpt>
   <trkpt lon="7.523459" lat="47.631486"><ele>247.25</ele></trkpt>
   <trkpt lon="7.523440" lat="47.631568"><ele>247.5</ele></trkpt>
   <trkpt lon="7.523394" lat="47.631880"><ele>248.0</ele></trkpt>
   <trkpt lon="7.523345" lat="47.632099"><ele>248.75</ele></trkpt>
   <trkpt lon="7.523267" lat="47.632334"><ele>248.0</ele></trkpt>
   <trkpt lon="7.523073" lat="47.632729"><ele>248.25</ele></trkpt>
   <trkpt lon="7.522925" lat="47.632941"><ele>247.5</ele></trkpt>
   <trkpt lon="7.522810" lat="47.633057"><ele>248.5</ele></trkpt>
   <trkpt lon="7.522698" lat="47.633150"><ele>247.5</ele></trkpt>
   <trkpt lon="7.522566" lat="47.633235"><ele>247.75</ele></trkpt>
   <trkpt lon="7.522385" lat="47.633332"><ele>248.5</ele></trkpt>
   <trkpt lon="7.522170" lat="47.633431"><ele>247.25</ele></trkpt>
   <trkpt lon="7.519993" lat="47.634327"><ele>247.0</ele></trkpt>
   <trkpt lon="7.519798" lat="47.634414"><ele>248.25</ele></trkpt>
   <trkpt lon="7.519627" lat="47.634499"><ele>248.25</ele></trkpt>
   <trkpt lon="7.519325" lat="47.634658"><ele>248.5</ele></trkpt>
   <trkpt lon="7.519216" lat="47.634724"><ele>249.5</ele></trkpt>
   <trkpt lon="7.518407" lat="47.635210"><ele>250.75</ele></trkpt>
   <trkpt lon="7.517951" lat="47.635503"><ele>250.75</ele></trkpt>
   <trkpt lon="7.517640" lat="47.635720"><ele>250.75</ele></trkpt>
   <trkpt lon="7.517380" lat="47.635923"><ele>250.75</ele></trkpt>
   <trkpt lon="7.517043" lat="47.636197"><ele>251.0</ele></trkpt>
   <trkpt lon="7.516705" lat="47.636443"><ele>250.75</ele></trkpt>
   <trkpt lon="7.516574" lat="47.636527"><ele>250.75</ele></trkpt>
   <trkpt lon="7.516311" lat="47.636666"><ele>250.75</ele></trkpt>
   <trkpt lon="7.516090" lat="47.636752"><ele>250.5</ele></trkpt>
   <trkpt lon="7.515965" lat="47.636792"><ele>250.25</ele></trkpt>
   <trkpt lon="7.515355" lat="47.636958"><ele>250.75</ele></trkpt>
   <trkpt lon="7.515159" lat="47.637028"><ele>250.25</ele></trkpt>
   <trkpt lon="7.515049" lat="47.637085"><ele>250.0</ele></trkpt>
   <trkpt lon="7.514939" lat="47.637161"><ele>249.75</ele></trkpt>
   <trkpt lon="7.514802" lat="47.637292"><ele>250.0</ele></trkpt>
   <trkpt lon="7.514444" lat="47.637777"><ele>249.0</ele></trkpt>
   <trkpt lon="7.514371" lat="47.637865"><ele>249.0</ele></trkpt>
   <trkpt lon="7.514222" lat="47.638009"><ele>249.0</ele></trkpt>
   <trkpt lon="7.514102" lat="47.638105"><ele>249.0</ele></trkpt>
   <trkpt lon="7.514045" lat="47.638156"><ele>249.0</ele></trkpt>
   <trkpt lon="7.513863" lat="47.638326"><ele>249.0</ele></trkpt>
   <trkpt lon="7.513688" lat="47.638470"><ele>249.25</ele></trkpt>
   <trkpt lon="7.513755" lat="47.638523"><ele>249.25</ele></trkpt>
   <trkpt lon="7.513801" lat="47.638601"><ele>249.25</ele></trkpt>
   <trkpt lon="7.513987" lat="47.638687"><ele>248.0</ele></trkpt>
   <trkpt lon="7.514239" lat="47.638785"><ele>245.75</ele></trkpt>
   <trkpt lon="7.514531" lat="47.638891"><ele>244.25</ele></trkpt>
   <trkpt lon="7.514664" lat="47.638940"><ele>242.25</ele></trkpt>
   <trkpt lon="7.514878" lat="47.639020"><ele>240.25</ele></trkpt>
   <trkpt lon="7.515861" lat="47.639394"><ele>239.5</ele></trkpt>
   <trkpt lon="7.515814" lat="47.639713"><ele>238.75</ele></trkpt>
   <trkpt lon="7.515768" lat="47.639767"><ele>238.75</ele></trkpt>
   <trkpt lon="7.515664" lat="47.639781"><ele>238.25</ele></trkpt>
   <trkpt lon="7.515533" lat="47.639757"><ele>238.0</ele></trkpt>
   <trkpt lon="7.515152" lat="47.639616"><ele>238.0</ele></trkpt>
   <trkpt lon="7.514577" lat="47.639366"><ele>238.0</ele></trkpt>
   <trkpt lon="7.514450" lat="47.639326"><ele>238.25</ele></trkpt>
   <trkpt lon="7.514348" lat="47.639342"><ele>238.0</ele></trkpt>
   <trkpt lon="7.514277" lat="47.639389"><ele>238.0</ele></trkpt>
   <trkpt lon="7.514207" lat="47.639497"><ele>238.0</ele></trkpt>
   <trkpt lon="7.514012" lat="47.640000"><ele>238.0</ele></trkpt>
   <trkpt lon="7.513914" lat="47.640367"><ele>238.0</ele></trkpt>
   <trkpt lon="7.513889" lat="47.640560"><ele>238.0</ele></trkpt>
   <trkpt lon="7.513911" lat="47.640803"><ele>238.0</ele></trkpt>
   <trkpt lon="7.513955" lat="47.641021"><ele>238.0</ele></trkpt>
   <trkpt lon="7.513951" lat="47.641138"><ele>238.0</ele></trkpt>
   <trkpt lon="7.513892" lat="47.641256"><ele>238.0</ele></trkpt>
   <trkpt lon="7.513652" lat="47.641600"><ele>237.75</ele></trkpt>
   <trkpt lon="7.513583" lat="47.641694"><ele>238.25</ele></trkpt>
   <trkpt lon="7.513512" lat="47.641820"><ele>238.5</ele></trkpt>
   <trkpt lon="7.513414" lat="47.641938"><ele>238.0</ele></trkpt>
   <trkpt lon="7.512962" lat="47.642299"><ele>239.0</ele></trkpt>
   <trkpt lon="7.512932" lat="47.642370"><ele>239.0</ele></trkpt>
   <trkpt lon="7.512960" lat="47.642422"><ele>238.25</ele></trkpt>
   <trkpt lon="7.515027" lat="47.643734"><ele>238.25</ele></trkpt>
   <trkpt lon="7.515095" lat="47.643824"><ele>238.75</ele></trkpt>
   <trkpt lon="7.514537" lat="47.644741"><ele>238.5</ele></trkpt>
   <trkpt lon="7.514409" lat="47.645141"><ele>238.75</ele></trkpt>
   <trkpt lon="7.514182" lat="47.645595"><ele>238.0</ele></trkpt>
   <trkpt lon="7.514166" lat="47.645698"><ele>238.0</ele></trkpt>
   <trkpt lon="7.514058" lat="47.646040"><ele>238.25</ele></trkpt>
   <trkpt lon="7.513953" lat="47.646255"><ele>238.0</ele></trkpt>
   <trkpt lon="7.513932" lat="47.646368"><ele>238.0</ele></trkpt>
   <trkpt lon="7.513961" lat="47.646478"><ele>238.0</ele></trkpt>
   <trkpt lon="7.514049" lat="47.646532"><ele>238.0</ele></trkpt>
   <trkpt lon="7.515202" lat="47.646955"><ele>237.75</ele></trkpt>
   <trkpt lon="7.515467" lat="47.647066"><ele>238.0</ele></trkpt>
   <trkpt lon="7.516817" lat="47.647688"><ele>237.0</ele></trkpt>
   <trkpt lon="7.516965" lat="47.647792"><ele>237.0</ele></trkpt>
   <trkpt lon="7.517075" lat="47.647816"><ele>237.0</ele></trkpt>
   <trkpt lon="7.517747" lat="47.648108"><ele>236.75</ele></trkpt>
   <trkpt lon="7.519456" lat="47.648895"><ele>238.75</ele></trkpt>
   <trkpt lon="7.521094" lat="47.646938"><ele>238.75</ele></trkpt>
   <trkpt lon="7.522021" lat="47.645794"><ele>238.25</ele></trkpt>
   <trkpt lon="7.522273" lat="47.645486"><ele>238.25</ele></trkpt>
   <trkpt lon="7.522994" lat="47.644624"><ele>238.0</ele></trkpt>
   <trkpt lon="7.525974" lat="47.641052"><ele>238.0</ele></trkpt>
   <trkpt lon="7.527919" lat="47.638698"><ele>238.25</ele></trkpt>
   <trkpt lon="7.527956" lat="47.638661"><ele>238.25</ele></trkpt>
   <trkpt lon="7.528112" lat="47.638566"><ele>238.5</ele></trkpt>
   <trkpt lon="7.528175" lat="47.638482"><ele>239.0</ele></trkpt>
   <trkpt lon="7.528212" lat="47.638367"><ele>238.25</ele></trkpt>
   <trkpt lon="7.528269" lat="47.638277"><ele>237.75</ele></trkpt>
   <trkpt lon="7.528539" lat="47.637938"><ele>238.25</ele></trkpt>
   <trkpt lon="7.528917" lat="47.637435"><ele>239.0</ele></trkpt>
   <trkpt lon="7.529409" lat="47.636823"><ele>239.25</ele></trkpt>
   <trkpt lon="7.529533" lat="47.636862"><ele>239.5</ele></trkpt>
   <trkpt lon="7.529650" lat="47.636909"><ele>240.25</ele></trkpt>
   <trkpt lon="7.529673" lat="47.636916"><ele>240.5</ele></trkpt>
   <trkpt lon="7.529716" lat="47.636932"><ele>240.75</ele></trkpt>
   <trkpt lon="7.529967" lat="47.637047"><ele>240.0</ele></trkpt>
   <trkpt lon="7.530057" lat="47.637008"><ele>240.0</ele></trkpt>
   <trkpt lon="7.530260" lat="47.637000"><ele>240.0</ele></trkpt>
   <trkpt lon="7.530947" lat="47.636925"><ele>240.0</ele></trkpt>
   <trkpt lon="7.531197" lat="47.636915"><ele>240.0</ele></trkpt>
   <trkpt lon="7.531358" lat="47.636917"><ele>240.0</ele></trkpt>
   <trkpt lon="7.532186" lat="47.636926"><ele>240.0</ele></trkpt>
   <trkpt lon="7.532336" lat="47.636923"><ele>240.25</ele></trkpt>
   <trkpt lon="7.532760" lat="47.636898"><ele>240.0</ele></trkpt>
   <trkpt lon="7.532902" lat="47.636877"><ele>240.0</ele></trkpt>
   <trkpt lon="7.533123" lat="47.636831"><ele>240.0</ele></trkpt>
   <trkpt lon="7.533743" lat="47.636666"><ele>240.0</ele></trkpt>
   <trkpt lon="7.533852" lat="47.636645"><ele>240.0</ele></trkpt>
   <trkpt lon="7.533962" lat="47.636644"><ele>239.5</ele></trkpt>
   <trkpt lon="7.534081" lat="47.636671"><ele>239.25</ele></trkpt>
   <trkpt lon="7.534130" lat="47.636690"><ele>239.0</ele></trkpt>
   <trkpt lon="7.534163" lat="47.636707"><ele>239.0</ele></trkpt>
   <trkpt lon="7.534194" lat="47.636734"><ele>238.75</ele></trkpt>
   <trkpt lon="7.534241" lat="47.636806"><ele>239.0</ele></trkpt>
   <trkpt lon="7.534316" lat="47.636993"><ele>239.0</ele></trkpt>
   <trkpt lon="7.534408" lat="47.637031"><ele>239.0</ele></trkpt>
   <trkpt lon="7.534469" lat="47.637046"><ele>239.0</ele></trkpt>
   <trkpt lon="7.534604" lat="47.637058"><ele>239.0</ele></trkpt>
   <trkpt lon="7.534665" lat="47.637062"><ele>239.0</ele></trkpt>
   <trkpt lon="7.534737" lat="47.636997"><ele>239.0</ele></trkpt>
   <trkpt lon="7.535186" lat="47.636593"><ele>239.0</ele></trkpt>
   <trkpt lon="7.535260" lat="47.636521"><ele>239.0</ele></trkpt>
   <trkpt lon="7.535395" lat="47.636379"><ele>239.25</ele></trkpt>
   <trkpt lon="7.535440" lat="47.636285"><ele>239.5</ele></trkpt>
   <trkpt lon="7.535474" lat="47.636044"><ele>239.75</ele></trkpt>
   <trkpt lon="7.535485" lat="47.635770"><ele>239.5</ele></trkpt>
   <trkpt lon="7.535535" lat="47.635784"><ele>239.75</ele></trkpt>
   <trkpt lon="7.535693" lat="47.635836"><ele>239.5</ele></trkpt>
   <trkpt lon="7.536568" lat="47.636196"><ele>239.75</ele></trkpt>
   <trkpt lon="7.536630" lat="47.636203"><ele>239.75</ele></trkpt>
   <trkpt lon="7.536866" lat="47.636057"><ele>239.75</ele></trkpt>
   <trkpt lon="7.537139" lat="47.635965"><ele>239.25</ele></trkpt>
   <trkpt lon="7.537221" lat="47.635948"><ele>239.25</ele></trkpt>
   <trkpt lon="7.537269" lat="47.635951"><ele>239.25</ele></trkpt>
   <trkpt lon="7.537385" lat="47.635977"><ele>239.0</ele></trkpt>
   <trkpt lon="7.537459" lat="47.636004"><ele>239.0</ele></trkpt>
   <trkpt lon="7.537548" lat="47.636046"><ele>238.75</ele></trkpt>
   <trkpt lon="7.538818" lat="47.636753"><ele>239.0</ele></trkpt>
   <trkpt lon="7.539332" lat="47.637028"><ele>239.0</ele></trkpt>
   <trkpt lon="7.539972" lat="47.636629"><ele>239.0</ele></trkpt>
   <trkpt lon="7.540087" lat="47.636549"><ele>239.0</ele></trkpt>
   <trkpt lon="7.540288" lat="47.636388"><ele>238.75</ele></trkpt>
   <trkpt lon="7.540382" lat="47.636294"><ele>238.75</ele></trkpt>
   <trkpt lon="7.540412" lat="47.636263"><ele>238.75</ele></trkpt>
   <trkpt lon="7.540436" lat="47.636273"><ele>238.75</ele></trkpt>
   <trkpt lon="7.540457" lat="47.636248"><ele>238.75</ele></trkpt>
   <trkpt lon="7.541072" lat="47.635539"><ele>239.0</ele></trkpt>
   <trkpt lon="7.541925" lat="47.634531"><ele>239.0</ele></trkpt>
   <trkpt lon="7.542428" lat="47.633941"><ele>239.75</ele></trkpt>
   <trkpt lon="7.542512" lat="47.633842"><ele>239.75</ele></trkpt>
   <trkpt lon="7.542830" lat="47.633462"><ele>240.0</ele></trkpt>
   <trkpt lon="7.542893" lat="47.633376"><ele>240.0</ele></trkpt>
   <trkpt lon="7.543093" lat="47.633141"><ele>240.0</ele></trkpt>
   <trkpt lon="7.543776" lat="47.632321"><ele>239.5</ele></trkpt>
   <trkpt lon="7.545321" lat="47.632867"><ele>240.0</ele></trkpt>
   <trkpt lon="7.545432" lat="47.632877"><ele>240.0</ele></trkpt>
   <trkpt lon="7.545629" lat="47.632942"><ele>239.75</ele></trkpt>
   <trkpt lon="7.545884" lat="47.632980"><ele>239.25</ele></trkpt>
   <trkpt lon="7.546008" lat="47.632975"><ele>239.5</ele></trkpt>
   <trkpt lon="7.546061" lat="47.632960"><ele>239.5</ele></trkpt>
   <trkpt lon="7.546118" lat="47.632954"><ele>239.5</ele></trkpt>
   <trkpt lon="7.546176" lat="47.632958"><ele>239.5</ele></trkpt>
   <trkpt lon="7.546230" lat="47.632972"><ele>239.5</ele></trkpt>
   <trkpt lon="7.546409" lat="47.632909"><ele>239.25</ele></trkpt>
   <trkpt lon="7.546608" lat="47.632799"><ele>239.0</ele></trkpt>
   <trkpt lon="7.546996" lat="47.632548"><ele>239.0</ele></trkpt>
   <trkpt lon="7.547229" lat="47.632378"><ele>239.0</ele></trkpt>
   <trkpt lon="7.547695" lat="47.632020"><ele>239.0</ele></trkpt>
   <trkpt lon="7.547936" lat="47.631850"><ele>239.0</ele></trkpt>
   <trkpt lon="7.548931" lat="47.631062"><ele>239.75</ele></trkpt>
   <trkpt lon="7.550209" lat="47.630028"><ele>239.0</ele></trkpt>
   <trkpt lon="7.550453" lat="47.629865"><ele>239.0</ele></trkpt>
   <trkpt lon="7.555157" lat="47.626186"><ele>239.75</ele></trkpt>
   <trkpt lon="7.555492" lat="47.625880"><ele>240.0</ele></trkpt>
   <trkpt lon="7.555635" lat="47.625736"><ele>240.0</ele></trkpt>
   <trkpt lon="7.556067" lat="47.625180"><ele>240.0</ele></trkpt>
   <trkpt lon="7.556209" lat="47.624998"><ele>240.0</ele></trkpt>
   <trkpt lon="7.556620" lat="47.624609"><ele>240.0</ele></trkpt>
   <trkpt lon="7.558094" lat="47.623436"><ele>240.5</ele></trkpt>
   <trkpt lon="7.562454" lat="47.619985"><ele>241.0</ele></trkpt>
   <trkpt lon="7.562612" lat="47.619835"><ele>241.0</ele></trkpt>
   <trkpt lon="7.562710" lat="47.619729"><ele>241.0</ele></trkpt>
   <trkpt lon="7.562969" lat="47.619400"><ele>240.5</ele></trkpt>
   <trkpt lon="7.563354" lat="47.618794"><ele>240.0</ele></trkpt>
   <trkpt lon="7.563423" lat="47.618701"><ele>240.0</ele></trkpt>
   <trkpt lon="7.563587" lat="47.618498"><ele>240.25</ele></trkpt>
   <trkpt lon="7.563676" lat="47.618402"><ele>240.5</ele></trkpt>
   <trkpt lon="7.563829" lat="47.618263"><ele>241.0</ele></trkpt>
   <trkpt lon="7.564102" lat="47.618070"><ele>240.75</ele></trkpt>
   <trkpt lon="7.565678" lat="47.617112"><ele>241.5</ele></trkpt>
   <trkpt lon="7.565027" lat="47.616525"><ele>242.0</ele></trkpt>
   <trkpt lon="7.564622" lat="47.616155"><ele>242.0</ele></trkpt>
   <trkpt lon="7.564414" lat="47.615966"><ele>242.0</ele></trkpt>
   <trkpt lon="7.564257" lat="47.615786"><ele>241.75</ele></trkpt>
   <trkpt lon="7.564309" lat="47.615761"><ele>241.75</ele></trkpt>
   <trkpt lon="7.564636" lat="47.615603"><ele>242.0</ele></trkpt>
   <trkpt lon="7.564778" lat="47.615495"><ele>241.75</ele></trkpt>
   <trkpt lon="7.564971" lat="47.615320"><ele>241.0</ele></trkpt>
   <trkpt lon="7.565151" lat="47.615111"><ele>241.75</ele></trkpt>
   <trkpt lon="7.565477" lat="47.614700"><ele>241.75</ele></trkpt>
   <trkpt lon="7.565572" lat="47.614608"><ele>241.5</ele></trkpt>
   <trkpt lon="7.565941" lat="47.614411"><ele>241.25</ele></trkpt>
   <trkpt lon="7.566688" lat="47.614041"><ele>241.25</ele></trkpt>
   <trkpt lon="7.566937" lat="47.613908"><ele>241.75</ele></trkpt>
   <trkpt lon="7.567036" lat="47.613842"><ele>241.75</ele></trkpt>
   <trkpt lon="7.567168" lat="47.613714"><ele>241.75</ele></trkpt>
   <trkpt lon="7.567305" lat="47.613521"><ele>242.0</ele></trkpt>
   <trkpt lon="7.567387" lat="47.613444"><ele>242.0</ele></trkpt>
   <trkpt lon="7.567558" lat="47.613383"><ele>242.0</ele></trkpt>
   <trkpt lon="7.567886" lat="47.613072"><ele>243.0</ele></trkpt>
   <trkpt lon="7.568282" lat="47.612624"><ele>243.0</ele></trkpt>
   <trkpt lon="7.568915" lat="47.611945"><ele>243.75</ele></trkpt>
   <trkpt lon="7.569268" lat="47.611554"><ele>243.5</ele></trkpt>
   <trkpt lon="7.569542" lat="47.611268"><ele>243.5</ele></trkpt>
   <trkpt lon="7.570068" lat="47.610658"><ele>244.0</ele></trkpt>
   <trkpt lon="7.572045" lat="47.608444"><ele>244.25</ele></trkpt>
   <trkpt lon="7.572692" lat="47.607706"><ele>244.5</ele></trkpt>
   <trkpt lon="7.573762" lat="47.606591"><ele>244.0</ele></trkpt>
   <trkpt lon="7.575576" lat="47.604929"><ele>244.75</ele></trkpt>
   <trkpt lon="7.576194" lat="47.604379"><ele>245.0</ele></trkpt>
   <trkpt lon="7.576666" lat="47.603881"><ele>245.0</ele></trkpt>
   <trkpt lon="7.576966" lat="47.603476"><ele>244.75</ele></trkpt>
   <trkpt lon="7.577691" lat="47.602420"><ele>245.0</ele></trkpt>
   <trkpt lon="7.577910" lat="47.602122"><ele>244.75</ele></trkpt>
   <trkpt lon="7.578138" lat="47.601716"><ele>244.5</ele></trkpt>
   <trkpt lon="7.578277" lat="47.601427"><ele>244.75</ele></trkpt>
   <trkpt lon="7.578322" lat="47.601272"><ele>245.0</ele></trkpt>
   <trkpt lon="7.578449" lat="47.600930"><ele>245.0</ele></trkpt>
   <trkpt lon="7.578548" lat="47.600514"><ele>245.0</ele></trkpt>
   <trkpt lon="7.578588" lat="47.600324"><ele>245.0</ele></trkpt>
   <trkpt lon="7.578596" lat="47.600275"><ele>245.0</ele></trkpt>
   <trkpt lon="7.578649" lat="47.600236"><ele>245.0</ele></trkpt>
   <trkpt lon="7.578692" lat="47.600082"><ele>245.5</ele></trkpt>
   <trkpt lon="7.578767" lat="47.600066"><ele>245.75</ele></trkpt>
   <trkpt lon="7.578877" lat="47.600052"><ele>245.75</ele></trkpt>
   <trkpt lon="7.578945" lat="47.600003"><ele>245.75</ele></trkpt>
   <trkpt lon="7.578954" lat="47.599954"><ele>246.0</ele></trkpt>
   <trkpt lon="7.578966" lat="47.599886"><ele>246.0</ele></trkpt>
   <trkpt lon="7.578969" lat="47.599846"><ele>246.0</ele></trkpt>
   <trkpt lon="7.578861" lat="47.599839"><ele>246.0</ele></trkpt>
   <trkpt lon="7.578809" lat="47.599780"><ele>246.0</ele></trkpt>
   <trkpt lon="7.579031" lat="47.599308"><ele>246.75</ele></trkpt>
   <trkpt lon="7.578989" lat="47.599269"><ele>246.5</ele></trkpt>
   <trkpt lon="7.579096" lat="47.599037"><ele>246.5</ele></trkpt>
   <trkpt lon="7.579221" lat="47.598712"><ele>246.25</ele></trkpt>
   <trkpt lon="7.579429" lat="47.598171"><ele>245.75</ele></trkpt>
   <trkpt lon="7.579485" lat="47.598124"><ele>246.0</ele></trkpt>
   <trkpt lon="7.579472" lat="47.598065"><ele>246.0</ele></trkpt>
   <trkpt lon="7.579512" lat="47.598006"><ele>246.0</ele></trkpt>
   <trkpt lon="7.579734" lat="47.597690"><ele>246.0</ele></trkpt>
   <trkpt lon="7.580035" lat="47.597240"><ele>246.0</ele></trkpt>
   <trkpt lon="7.580295" lat="47.596833"><ele>245.5</ele></trkpt>
   <trkpt lon="7.580336" lat="47.596768"><ele>245.25</ele></trkpt>
   <trkpt lon="7.580359" lat="47.596730"><ele>245.25</ele></trkpt>
   <trkpt lon="7.580809" lat="47.596043"><ele>245.75</ele></trkpt>
   <trkpt lon="7.580824" lat="47.595981"><ele>246.0</ele></trkpt>
   <trkpt lon="7.580723" lat="47.595904"><ele>245.75</ele></trkpt>
   <trkpt lon="7.580623" lat="47.595788"><ele>246.0</ele></trkpt>
   <trkpt lon="7.580125" lat="47.595212"><ele>247.0</ele></trkpt>
   <trkpt lon="7.580104" lat="47.595193"><ele>247.0</ele></trkpt>
   <trkpt lon="7.580025" lat="47.595169"><ele>247.0</ele></trkpt>
   <trkpt lon="7.580047" lat="47.595086"><ele>247.0</ele></trkpt>
   <trkpt lon="7.580018" lat="47.594685"><ele>248.0</ele></trkpt>
   <trkpt lon="7.579963" lat="47.593980"><ele>248.0</ele></trkpt>
   <trkpt lon="7.579964" lat="47.593904"><ele>248.0</ele></trkpt>
   <trkpt lon="7.579908" lat="47.593902"><ele>248.0</ele></trkpt>
   <trkpt lon="7.579859" lat="47.593884"><ele>248.0</ele></trkpt>
   <trkpt lon="7.579819" lat="47.593844"><ele>248.0</ele></trkpt>
   <trkpt lon="7.579813" lat="47.593808"><ele>248.0</ele></trkpt>
   <trkpt lon="7.579817" lat="47.593784"><ele>248.0</ele></trkpt>
   <trkpt lon="7.579841" lat="47.593755"><ele>248.0</ele></trkpt>
   <trkpt lon="7.579879" lat="47.593734"><ele>248.0</ele></trkpt>
   <trkpt lon="7.579926" lat="47.593723"><ele>248.0</ele></trkpt>
   <trkpt lon="7.579975" lat="47.593724"><ele>248.0</ele></trkpt>
   <trkpt lon="7.580021" lat="47.593737"><ele>248.0</ele></trkpt>
   <trkpt lon="7.580056" lat="47.593760"><ele>248.0</ele></trkpt>
   <trkpt lon="7.580078" lat="47.593790"><ele>248.0</ele></trkpt>
   <trkpt lon="7.580243" lat="47.593744"><ele>248.0</ele></trkpt>
   <trkpt lon="7.580210" lat="47.593671"><ele>248.0</ele></trkpt>
   <trkpt lon="7.580407" lat="47.593653"><ele>248.0</ele></trkpt>
   <trkpt lon="7.580434" lat="47.593645"><ele>248.0</ele></trkpt>
   <trkpt lon="7.580507" lat="47.593627"><ele>248.0</ele></trkpt>
   <trkpt lon="7.580502" lat="47.593599"><ele>248.0</ele></trkpt>
   <trkpt lon="7.580188" lat="47.593241"><ele>248.0</ele></trkpt>
   <trkpt lon="7.579939" lat="47.592940"><ele>247.75</ele></trkpt>
   <trkpt lon="7.579806" lat="47.592759"><ele>248.0</ele></trkpt>
   <trkpt lon="7.579666" lat="47.592590"><ele>248.0</ele></trkpt>
   <trkpt lon="7.579533" lat="47.592418"><ele>248.0</ele></trkpt>
   <trkpt lon="7.579224" lat="47.592018"><ele>246.75</ele></trkpt>
   <trkpt lon="7.579192" lat="47.591950"><ele>246.0</ele></trkpt>
   <trkpt lon="7.579171" lat="47.591910"><ele>245.5</ele></trkpt>
   <trkpt lon="7.579017" lat="47.591614"><ele>245.5</ele></trkpt>
   <trkpt lon="7.579003" lat="47.591588"><ele>246.0</ele></trkpt>
   <trkpt lon="7.579137" lat="47.591476"><ele>245.5</ele></trkpt>
   <trkpt lon="7.579265" lat="47.591257"><ele>246.25</ele></trkpt>
   <trkpt lon="7.579383" lat="47.591048"><ele>246.75</ele></trkpt>
   <trkpt lon="7.579419" lat="47.590963"><ele>247.0</ele></trkpt>
   <trkpt lon="7.579409" lat="47.590935"><ele>247.25</ele></trkpt>
   <trkpt lon="7.579395" lat="47.590888"><ele>247.75</ele></trkpt>
   <trkpt lon="7.579595" lat="47.590529"><ele>248.0</ele></trkpt>
   <trkpt lon="7.579726" lat="47.590402"><ele>247.75</ele></trkpt>
   <trkpt lon="7.579938" lat="47.590299"><ele>247.75</ele></trkpt>
   <trkpt lon="7.580253" lat="47.590183"><ele>247.25</ele></trkpt>
   <trkpt lon="7.580632" lat="47.590080"><ele>246.75</ele></trkpt>
   <trkpt lon="7.580866" lat="47.590005"><ele>247.5</ele></trkpt>
   <trkpt lon="7.581095" lat="47.589919"><ele>246.5</ele></trkpt>
   <trkpt lon="7.581219" lat="47.589827"><ele>246.5</ele></trkpt>
   <trkpt lon="7.581775" lat="47.589194"><ele>248.75</ele></trkpt>
   <trkpt lon="7.581930" lat="47.589105"><ele>249.0</ele></trkpt>
   <trkpt lon="7.582486" lat="47.588908"><ele>248.75</ele></trkpt>
   <trkpt lon="7.582678" lat="47.588818"><ele>248.5</ele></trkpt>
   <trkpt lon="7.582714" lat="47.588802"><ele>248.25</ele></trkpt>
   <trkpt lon="7.582737" lat="47.588789"><ele>248.25</ele></trkpt>
   <trkpt lon="7.582865" lat="47.588719"><ele>248.25</ele></trkpt>
   <trkpt lon="7.582943" lat="47.588678"><ele>248.0</ele></trkpt>
   <trkpt lon="7.583195" lat="47.588573"><ele>248.0</ele></trkpt>
   <trkpt lon="7.583356" lat="47.588461"><ele>247.75</ele></trkpt>
   <trkpt lon="7.583458" lat="47.588400"><ele>247.75</ele></trkpt>
   <trkpt lon="7.583688" lat="47.588284"><ele>248.0</ele></trkpt>
   <trkpt lon="7.584105" lat="47.588066"><ele>248.5</ele></trkpt>
   <trkpt lon="7.584183" lat="47.588004"><ele>248.75</ele></trkpt>
   <trkpt lon="7.584190" lat="47.587877"><ele>248.75</ele></trkpt>
   <trkpt lon="7.584208" lat="47.587831"><ele>248.75</ele></trkpt>
   <trkpt lon="7.584427" lat="47.587865"><ele>248.5</ele></trkpt>
   <trkpt lon="7.584553" lat="47.587880"><ele>248.25</ele></trkpt>
   <trkpt lon="7.584572" lat="47.587841"><ele>248.5</ele></trkpt>
   <trkpt lon="7.584603" lat="47.587808"><ele>248.75</ele></trkpt>
   <trkpt lon="7.584944" lat="47.587564"><ele>248.75</ele></trkpt>
   <trkpt lon="7.585586" lat="47.587123"><ele>248.25</ele></trkpt>
   <trkpt lon="7.585645" lat="47.587045"><ele>247.5</ele></trkpt>
   <trkpt lon="7.585626" lat="47.586986"><ele>247.25</ele></trkpt>
   <trkpt lon="7.585299" lat="47.586308"><ele>247.5</ele></trkpt>
   <trkpt lon="7.585007" lat="47.585704"><ele>247.25</ele></trkpt>
   <trkpt lon="7.584739" lat="47.585114"><ele>247.25</ele></trkpt>
   <trkpt lon="7.584321" lat="47.584123"><ele>246.5</ele></trkpt>
   <trkpt lon="7.584303" lat="47.584060"><ele>246.5</ele></trkpt>
   <trkpt lon="7.584266" lat="47.583989"><ele>246.5</ele></trkpt>
   <trkpt lon="7.583813" lat="47.583110"><ele>247.25</ele></trkpt>
   <trkpt lon="7.583789" lat="47.583034"><ele>247.25</ele></trkpt>
   <trkpt lon="7.583637" lat="47.582302"><ele>247.5</ele></trkpt>
   <trkpt lon="7.583601" lat="47.582082"><ele>247.5</ele></trkpt>
   <trkpt lon="7.583447" lat="47.581434"><ele>247.75</ele></trkpt>
   <trkpt lon="7.583440" lat="47.581361"><ele>247.5</ele></trkpt>
   <trkpt lon="7.583345" lat="47.581043"></trkpt>
   <trkpt lon="7.583273" lat="47.580761"></trkpt>
   <trkpt lon="7.583214" lat="47.580440"></trkpt>
   <trkpt lon="7.583178" lat="47.580116"></trkpt>
   <trkpt lon="7.583123" lat="47.579731"><ele>248.0</ele></trkpt>
   <trkpt lon="7.583111" lat="47.579676"><ele>248.0</ele></trkpt>
   <trkpt lon="7.583036" lat="47.579544"><ele>248.75</ele></trkpt>
   <trkpt lon="7.583005" lat="47.579448"><ele>249.25</ele></trkpt>
   <trkpt lon="7.582908" lat="47.578788"><ele>251.0</ele></trkpt>
   <trkpt lon="7.582886" lat="47.578232"><ele>251.75</ele></trkpt>
   <trkpt lon="7.582993" lat="47.576211"><ele>251.0</ele></trkpt>
   <trkpt lon="7.582988" lat="47.575965"><ele>250.25</ele></trkpt>
   <trkpt lon="7.583000" lat="47.575829"><ele>250.0</ele></trkpt>
   <trkpt lon="7.583011" lat="47.575788"><ele>250.0</ele></trkpt>
   <trkpt lon="7.583066" lat="47.575695"><ele>249.75</ele></trkpt>
   <trkpt lon="7.583109" lat="47.575589"><ele>249.5</ele></trkpt>
   <trkpt lon="7.583118" lat="47.575494"><ele>249.75</ele></trkpt>
   <trkpt lon="7.583116" lat="47.575403"><ele>250.0</ele></trkpt>
   <trkpt lon="7.583139" lat="47.575269"><ele>250.25</ele></trkpt>
   <trkpt lon="7.583196" lat="47.575138"><ele>249.5</ele></trkpt>
   <trkpt lon="7.583246" lat="47.574909"><ele>249.5</ele></trkpt>
   <trkpt lon="7.583358" lat="47.574501"><ele>247.5</ele></trkpt>
   <trkpt lon="7.583359" lat="47.574366"><ele>249.0</ele></trkpt>
   <trkpt lon="7.583404" lat="47.574254"><ele>249.75</ele></trkpt>
   <trkpt lon="7.583470" lat="47.574101"><ele>249.25</ele></trkpt>
   <trkpt lon="7.583430" lat="47.573915"><ele>251.0</ele></trkpt>
   <trkpt lon="7.583563" lat="47.573653"><ele>248.25</ele></trkpt>
   <trkpt lon="7.583568" lat="47.573459"><ele>248.75</ele></trkpt>
   <trkpt lon="7.583620" lat="47.573302"><ele>247.75</ele></trkpt>
   <trkpt lon="7.583597" lat="47.573178"><ele>248.25</ele></trkpt>
   <trkpt lon="7.583598" lat="47.572981"><ele>248.5</ele></trkpt>
   <trkpt lon="7.583626" lat="47.572858"><ele>248.5</ele></trkpt>
   <trkpt lon="7.583668" lat="47.572596"><ele>248.5</ele></trkpt>
   <trkpt lon="7.583625" lat="47.572410"><ele>249.25</ele></trkpt>
   <trkpt lon="7.583627" lat="47.572176"><ele>248.75</ele></trkpt>
   <trkpt lon="7.583601" lat="47.571972"><ele>249.0</ele></trkpt>
   <trkpt lon="7.583608" lat="47.571655"><ele>249.75</ele></trkpt>
   <trkpt lon="7.583556" lat="47.571366"><ele>248.5</ele></trkpt>
   <trkpt lon="7.583497" lat="47.571009"><ele>250.0</ele></trkpt>
   <trkpt lon="7.583415" lat="47.570510"><ele>249.5</ele></trkpt>
   <trkpt lon="7.583336" lat="47.570029"><ele>247.0</ele></trkpt>
   <trkpt lon="7.583359" lat="47.569906"><ele>247.0</ele></trkpt>
   <trkpt lon="7.583306" lat="47.569580"><ele>248.0</ele></trkpt>
   <trkpt lon="7.583182" lat="47.569392"><ele>248.5</ele></trkpt>
   <trkpt lon="7.583141" lat="47.569339"><ele>249.0</ele></trkpt>
   <trkpt lon="7.583128" lat="47.569297"><ele>249.25</ele></trkpt>
   <trkpt lon="7.583127" lat="47.569236"><ele>249.5</ele></trkpt>
   <trkpt lon="7.583115" lat="47.568726"><ele>249.75</ele></trkpt>
   <trkpt lon="7.583118" lat="47.568312"><ele>250.5</ele></trkpt>
   <trkpt lon="7.583025" lat="47.567827"><ele>253.75</ele></trkpt>
   <trkpt lon="7.583036" lat="47.567670"><ele>254.0</ele></trkpt>
   <trkpt lon="7.582982" lat="47.567642"><ele>254.0</ele></trkpt>
   <trkpt lon="7.582937" lat="47.567632"><ele>254.0</ele></trkpt>
   <trkpt lon="7.582926" lat="47.567653"><ele>254.0</ele></trkpt>
   <trkpt lon="7.582881" lat="47.567685"><ele>254.0</ele></trkpt>
   <trkpt lon="7.582851" lat="47.567695"><ele>254.0</ele></trkpt>
   <trkpt lon="7.582816" lat="47.567700"><ele>254.0</ele></trkpt>
   <trkpt lon="7.582785" lat="47.567697"><ele>254.0</ele></trkpt>
   <trkpt lon="7.582733" lat="47.567676"><ele>254.0</ele></trkpt>
   <trkpt lon="7.582715" lat="47.567657"><ele>254.0</ele></trkpt>
   <trkpt lon="7.582704" lat="47.567630"><ele>254.0</ele></trkpt>
   <trkpt lon="7.582721" lat="47.567581"><ele>254.0</ele></trkpt>
   <trkpt lon="7.582827" lat="47.567479"><ele>254.0</ele></trkpt>
   <trkpt lon="7.582843" lat="47.567454"><ele>254.0</ele></trkpt>
   <trkpt lon="7.582855" lat="47.567423"><ele>254.0</ele></trkpt>
   <trkpt lon="7.582865" lat="47.567273"><ele>254.0</ele></trkpt>
   <trkpt lon="7.582875" lat="47.567233"><ele>254.0</ele></trkpt>
   <trkpt lon="7.582980" lat="47.567043"><ele>253.5</ele></trkpt>
   <trkpt lon="7.583019" lat="47.566984"><ele>253.25</ele></trkpt>
   <trkpt lon="7.583047" lat="47.566866"><ele>253.5</ele></trkpt>
   <trkpt lon="7.583125" lat="47.566659"><ele>253.75</ele></trkpt>
   <trkpt lon="7.583190" lat="47.566511"><ele>253.0</ele></trkpt>
   <trkpt lon="7.583219" lat="47.566463"><ele>252.75</ele></trkpt>
   <trkpt lon="7.583499" lat="47.565827"><ele>251.0</ele></trkpt>
   <trkpt lon="7.583666" lat="47.565449"><ele>250.25</ele></trkpt>
   <trkpt lon="7.583709" lat="47.565358"><ele>249.75</ele></trkpt>
   <trkpt lon="7.583969" lat="47.564838"><ele>248.5</ele></trkpt>
   <trkpt lon="7.584070" lat="47.564683"><ele>248.0</ele></trkpt>
   <trkpt lon="7.584144" lat="47.564572"><ele>249.0</ele></trkpt>
   <trkpt lon="7.584298" lat="47.564341"><ele>249.25</ele></trkpt>
   <trkpt lon="7.584351" lat="47.564264"><ele>249.25</ele></trkpt>
   <trkpt lon="7.584648" lat="47.563838"><ele>248.75</ele></trkpt>
   <trkpt lon="7.584719" lat="47.563746"><ele>248.5</ele></trkpt>
   <trkpt lon="7.585094" lat="47.563290"><ele>248.25</ele></trkpt>
   <trkpt lon="7.585659" lat="47.562664"><ele>248.75</ele></trkpt>
   <trkpt lon="7.586345" lat="47.561898"><ele>249.75</ele></trkpt>
   <trkpt lon="7.586445" lat="47.561772"><ele>251.0</ele></trkpt>
   <trkpt lon="7.586495" lat="47.561719"><ele>251.25</ele></trkpt>
   <trkpt lon="7.586512" lat="47.561681"><ele>251.5</ele></trkpt>
   <trkpt lon="7.586499" lat="47.561648"><ele>252.25</ele></trkpt>
   <trkpt lon="7.586479" lat="47.561632"><ele>253.0</ele></trkpt>
   <trkpt lon="7.586414" lat="47.561618"><ele>254.75</ele></trkpt>
   <trkpt lon="7.586257" lat="47.561610"><ele>256.5</ele></trkpt>
   <trkpt lon="7.586194" lat="47.561589"><ele>257.25</ele></trkpt>
   <trkpt lon="7.586146" lat="47.561557"><ele>257.5</ele></trkpt>
   <trkpt lon="7.586131" lat="47.561547"><ele>257.75</ele></trkpt>
   <trkpt lon="7.586180" lat="47.561486"><ele>257.5</ele></trkpt>
   <trkpt lon="7.586191" lat="47.561473"><ele>257.5</ele></trkpt>
   <trkpt lon="7.586234" lat="47.561427"><ele>257.25</ele></trkpt>
   <trkpt lon="7.586255" lat="47.561403"><ele>257.25</ele></trkpt>
   <trkpt lon="7.586286" lat="47.561372"><ele>257.25</ele></trkpt>
   <trkpt lon="7.586387" lat="47.561283"><ele>257.0</ele></trkpt>
   <trkpt lon="7.586552" lat="47.561166"><ele>256.0</ele></trkpt>
   <trkpt lon="7.586791" lat="47.561012"><ele>255.75</ele></trkpt>
   <trkpt lon="7.586837" lat="47.560981"><ele>255.5</ele></trkpt>
   <trkpt lon="7.587017" lat="47.560855"><ele>254.5</ele></trkpt>
   <trkpt lon="7.587099" lat="47.560783"><ele>254.25</ele></trkpt>
   <trkpt lon="7.587210" lat="47.560664"><ele>253.25</ele></trkpt>
   <trkpt lon="7.587271" lat="47.560570"><ele>252.75</ele></trkpt>
   <trkpt lon="7.587433" lat="47.560343"><ele>252.75</ele></trkpt>
   <trkpt lon="7.587456" lat="47.560314"><ele>252.75</ele></trkpt>
   <trkpt lon="7.587652" lat="47.560076"><ele>252.0</ele></trkpt>
   <trkpt lon="7.587709" lat="47.560022"><ele>252.0</ele></trkpt>
   <trkpt lon="7.587828" lat="47.559956"><ele>252.0</ele></trkpt>
   <trkpt lon="7.587849" lat="47.559946"><ele>252.0</ele></trkpt>
   <trkpt lon="7.587947" lat="47.559911"><ele>252.0</ele></trkpt>
   <trkpt lon="7.588026" lat="47.559883"><ele>252.25</ele></trkpt>
   <trkpt lon="7.588131" lat="47.559834"><ele>251.75</ele></trkpt>
   <trkpt lon="7.588340" lat="47.559694"><ele>252.75</ele></trkpt>
   <trkpt lon="7.588443" lat="47.559647"><ele>252.5</ele></trkpt>
   <trkpt lon="7.588516" lat="47.559631"><ele>252.5</ele></trkpt>
   <trkpt lon="7.588510" lat="47.559620"><ele>252.5</ele></trkpt>
   <trkpt lon="7.588447" lat="47.559543"><ele>252.75</ele></trkpt>
   <trkpt lon="7.588423" lat="47.559518"><ele>252.75</ele></trkpt>
   <trkpt lon="7.588030" lat="47.559301"><ele>254.25</ele></trkpt>
   <trkpt lon="7.587937" lat="47.559249"><ele>254.5</ele></trkpt>
   <trkpt lon="7.587839" lat="47.559173"><ele>254.25</ele></trkpt>
   <trkpt lon="7.587909" lat="47.559143"><ele>255.0</ele></trkpt>
   <trkpt lon="7.588019" lat="47.559222"><ele>255.0</ele></trkpt>
   <trkpt lon="7.588352" lat="47.559367"><ele>255.5</ele></trkpt>
   <trkpt lon="7.588591" lat="47.559448"><ele>252.75</ele></trkpt>
   <trkpt lon="7.588787" lat="47.559562"><ele>249.0</ele></trkpt>
   <trkpt lon="7.588828" lat="47.559624"><ele>247.5</ele></trkpt>
   <trkpt lon="7.589854" lat="47.560133"><ele>250.0</ele></trkpt>
  </trkseg>
 </trk>
</gpx>
