<?xml version="1.0" encoding="UTF-8"?>
<gpx version="1.1" creator="BRouter paired review" xmlns="http://www.topografix.com/GPX/1/1">
<trk><name>Route A</name><trkseg>
<trkpt lat="47.560132" lon="7.589852"><ele>248.75</ele></trkpt>
<trkpt lat="47.560569" lon="7.590732"><ele>250.0</ele></trkpt>
<trkpt lat="47.560580" lon="7.590754"><ele>250.75</ele></trkpt>
<trkpt lat="47.560638" lon="7.590693"><ele>250.0</ele></trkpt>
<trkpt lat="47.559653" lon="7.588712"><ele>249.75</ele></trkpt>
<trkpt lat="47.559632" lon="7.588624"><ele>252.0</ele></trkpt>
<trkpt lat="47.559629" lon="7.588560"><ele>252.25</ele></trkpt>
<trkpt lat="47.559631" lon="7.588516"><ele>252.5</ele></trkpt>
<trkpt lat="47.559647" lon="7.588443"><ele>252.5</ele></trkpt>
<trkpt lat="47.559694" lon="7.588340"><ele>252.75</ele></trkpt>
<trkpt lat="47.559834" lon="7.588131"><ele>251.75</ele></trkpt>
<trkpt lat="47.559883" lon="7.588026"><ele>252.25</ele></trkpt>
<trkpt lat="47.559911" lon="7.587947"><ele>252.0</ele></trkpt>
<trkpt lat="47.559946" lon="7.587849"><ele>252.0</ele></trkpt>
<trkpt lat="47.559956" lon="7.587828"><ele>252.0</ele></trkpt>
<trkpt lat="47.560022" lon="7.587709"><ele>252.0</ele></trkpt>
<trkpt lat="47.560076" lon="7.587652"><ele>252.0</ele></trkpt>
<trkpt lat="47.560314" lon="7.587456"><ele>252.75</ele></trkpt>
<trkpt lat="47.560343" lon="7.587433"><ele>252.75</ele></trkpt>
<trkpt lat="47.560570" lon="7.587271"><ele>252.75</ele></trkpt>
<trkpt lat="47.560664" lon="7.587210"><ele>253.25</ele></trkpt>
<trkpt lat="47.560783" lon="7.587099"><ele>254.25</ele></trkpt>
<trkpt lat="47.560855" lon="7.587017"><ele>254.5</ele></trkpt>
<trkpt lat="47.560981" lon="7.586837"><ele>255.5</ele></trkpt>
<trkpt lat="47.561012" lon="7.586791"><ele>255.75</ele></trkpt>
<trkpt lat="47.561166" lon="7.586552"><ele>256.0</ele></trkpt>
<trkpt lat="47.561283" lon="7.586387"><ele>257.0</ele></trkpt>
<trkpt lat="47.561372" lon="7.586286"><ele>257.25</ele></trkpt>
<trkpt lat="47.561403" lon="7.586255"><ele>257.25</ele></trkpt>
<trkpt lat="47.561427" lon="7.586234"><ele>257.25</ele></trkpt>
<trkpt lat="47.561473" lon="7.586191"><ele>257.5</ele></trkpt>
<trkpt lat="47.561486" lon="7.586180"><ele>257.5</ele></trkpt>
<trkpt lat="47.561547" lon="7.586131"><ele>257.75</ele></trkpt>
<trkpt lat="47.561542" lon="7.586111"><ele>258.0</ele></trkpt>
<trkpt lat="47.561528" lon="7.586042"><ele>258.0</ele></trkpt>
<trkpt lat="47.561523" lon="7.585957"><ele>258.0</ele></trkpt>
<trkpt lat="47.561529" lon="7.585899"><ele>258.0</ele></trkpt>
<trkpt lat="47.561558" lon="7.585792"><ele>258.0</ele></trkpt>
<trkpt lat="47.561596" lon="7.585686"><ele>258.0</ele></trkpt>
<trkpt lat="47.561631" lon="7.585600"><ele>258.0</ele></trkpt>
<trkpt lat="47.561786" lon="7.585275"><ele>258.0</ele></trkpt>
<trkpt lat="47.561837" lon="7.585147"><ele>258.0</ele></trkpt>
<trkpt lat="47.561862" lon="7.585020"><ele>258.0</ele></trkpt>
<trkpt lat="47.561889" lon="7.584889"><ele>257.75</ele></trkpt>
<trkpt lat="47.561910" lon="7.584787"><ele>257.75</ele></trkpt>
<trkpt lat="47.561933" lon="7.584709"><ele>257.75</ele></trkpt>
<trkpt lat="47.561950" lon="7.584677"><ele>258.0</ele></trkpt>
<trkpt lat="47.562033" lon="7.584515"><ele>258.0</ele></trkpt>
<trkpt lat="47.562590" lon="7.583704"><ele>258.25</ele></trkpt>
<trkpt lat="47.562915" lon="7.583340"><ele>258.25</ele></trkpt>
<trkpt lat="47.563030" lon="7.583209"><ele>258.25</ele></trkpt>
<trkpt lat="47.563121" lon="7.583104"><ele>258.5</ele></trkpt>
<trkpt lat="47.563378" lon="7.582809"><ele>258.0</ele></trkpt>
<trkpt lat="47.563401" lon="7.582783"><ele>258.0</ele></trkpt>
<trkpt lat="47.563477" lon="7.582696"><ele>258.0</ele></trkpt>
<trkpt lat="47.563566" lon="7.582587"><ele>258.0</ele></trkpt>
<trkpt lat="47.563586" lon="7.582560"><ele>258.0</ele></trkpt>
<trkpt lat="47.563888" lon="7.582164"><ele>258.0</ele></trkpt>
<trkpt lat="47.563983" lon="7.582045"><ele>258.0</ele></trkpt>
<trkpt lat="47.564021" lon="7.581999"><ele>258.0</ele></trkpt>
<trkpt lat="47.564275" lon="7.581673"><ele>258.0</ele></trkpt>
<trkpt lat="47.564550" lon="7.581319"><ele>258.0</ele></trkpt>
<trkpt lat="47.564915" lon="7.580852"><ele>258.0</ele></trkpt>
<trkpt lat="47.564937" lon="7.580765"><ele>258.0</ele></trkpt>
<trkpt lat="47.564930" lon="7.580666"><ele>258.0</ele></trkpt>
<trkpt lat="47.564890" lon="7.580583"><ele>258.0</ele></trkpt>
<trkpt lat="47.564482" lon="7.579908"><ele>258.0</ele></trkpt>
<trkpt lat="47.564448" lon="7.579852"><ele>258.0</ele></trkpt>
<trkpt lat="47.564422" lon="7.579810"><ele>258.0</ele></trkpt>
<trkpt lat="47.564261" lon="7.579534"><ele>258.0</ele></trkpt>
<trkpt lat="47.564053" lon="7.579156"><ele>258.0</ele></trkpt>
<trkpt lat="47.563991" lon="7.579034"><ele>258.0</ele></trkpt>
<trkpt lat="47.563976" lon="7.578974"><ele>258.0</ele></trkpt>
<trkpt lat="47.563971" lon="7.578859"><ele>258.0</ele></trkpt>
<trkpt lat="47.564002" lon="7.578740"><ele>258.5</ele></trkpt>
<trkpt lat="47.564088" lon="7.578459"><ele>259.0</ele></trkpt>
<trkpt lat="47.564204" lon="7.578077"><ele>258.75</ele></trkpt>
<trkpt lat="47.564322" lon="7.577689"><ele>259.75</ele></trkpt>
<trkpt lat="47.564356" lon="7.577575"><ele>260.0</ele></trkpt>
<trkpt lat="47.564391" lon="7.577461"><ele>260.25</ele></trkpt>
<trkpt lat="47.564499" lon="7.577112"><ele>260.75</ele></trkpt>
<trkpt lat="47.564754" lon="7.576289"><ele>263.0</ele></trkpt>
<trkpt lat="47.564822" lon="7.576072"><ele>263.5</ele></trkpt>
<trkpt lat="47.564899" lon="7.575829"><ele>264.0</ele></trkpt>
<trkpt lat="47.565131" lon="7.575057"><ele>265.75</ele></trkpt>
<trkpt lat="47.565290" lon="7.574519"><ele>266.75</ele></trkpt>
<trkpt lat="47.565348" lon="7.574214"><ele>267.0</ele></trkpt>
<trkpt lat="47.565429" lon="7.574120"><ele>267.0</ele></trkpt>
<trkpt lat="47.565471" lon="7.574059"><ele>267.0</ele></trkpt>
<trkpt lat="47.565512" lon="7.574001"><ele>267.0</ele></trkpt>
<trkpt lat="47.565550" lon="7.573947"><ele>267.0</ele></trkpt>
<trkpt lat="47.565663" lon="7.573775"><ele>267.0</ele></trkpt>
<trkpt lat="47.565719" lon="7.573721"><ele>267.0</ele></trkpt>
<trkpt lat="47.565782" lon="7.573639"><ele>267.0</ele></trkpt>
<trkpt lat="47.565832" lon="7.573537"><ele>267.0</ele></trkpt>
<trkpt lat="47.565842" lon="7.573506"><ele>266.75</ele></trkpt>
<trkpt lat="47.565861" lon="7.573430"><ele>266.75</ele></trkpt>
<trkpt lat="47.565876" lon="7.573313"><ele>266.75</ele></trkpt>
<trkpt lat="47.565965" lon="7.573116"><ele>266.75</ele></trkpt>
<trkpt lat="47.566002" lon="7.573050"><ele>267.0</ele></trkpt>
<trkpt lat="47.566081" lon="7.572880"><ele>267.0</ele></trkpt>
<trkpt lat="47.566156" lon="7.572745"><ele>267.0</ele></trkpt>
<trkpt lat="47.566303" lon="7.572703"><ele>267.25</ele></trkpt>
<trkpt lat="47.566388" lon="7.572669"><ele>267.25</ele></trkpt>
<trkpt lat="47.566453" lon="7.572626"><ele>267.5</ele></trkpt>
<trkpt lat="47.566546" lon="7.572515"><ele>267.25</ele></trkpt>
<trkpt lat="47.566670" lon="7.572336"><ele>267.0</ele></trkpt>
<trkpt lat="47.567227" lon="7.571534"><ele>267.25</ele></trkpt>
<trkpt lat="47.567514" lon="7.571144"><ele>267.0</ele></trkpt>
<trkpt lat="47.567836" lon="7.570687"><ele>267.0</ele></trkpt>
<trkpt lat="47.567803" lon="7.570630"><ele>266.75</ele></trkpt>
<trkpt lat="47.567276" lon="7.569822"><ele>267.75</ele></trkpt>
<trkpt lat="47.567181" lon="7.569653"><ele>268.0</ele></trkpt>
<trkpt lat="47.567126" lon="7.569623"><ele>268.0</ele></trkpt>
<trkpt lat="47.566167" lon="7.568249"><ele>268.0</ele></trkpt>
<trkpt lat="47.566128" lon="7.568197"><ele>268.0</ele></trkpt>
<trkpt lat="47.565942" lon="7.567945"><ele>269.0</ele></trkpt>
<trkpt lat="47.565621" lon="7.567468"><ele>270.0</ele></trkpt>
<trkpt lat="47.565485" lon="7.567306"><ele>270.75</ele></trkpt>
<trkpt lat="47.565253" lon="7.567066"><ele>272.0</ele></trkpt>
<trkpt lat="47.565244" lon="7.567056"><ele>272.0</ele></trkpt>
<trkpt lat="47.565326" lon="7.566887"><ele>271.75</ele></trkpt>
<trkpt lat="47.565539" lon="7.566448"><ele>272.0</ele></trkpt>
<trkpt lat="47.565569" lon="7.566382"><ele>271.75</ele></trkpt>
<trkpt lat="47.565735" lon="7.566047"><ele>272.0</ele></trkpt>
<trkpt lat="47.565895" lon="7.565721"><ele>271.75</ele></trkpt>
<trkpt lat="47.566149" lon="7.565197"><ele>272.0</ele></trkpt>
<trkpt lat="47.566177" lon="7.565140"><ele>272.0</ele></trkpt>
<trkpt lat="47.566257" lon="7.564985"><ele>272.0</ele></trkpt>
<trkpt lat="47.566340" lon="7.564831"><ele>272.0</ele></trkpt>
<trkpt lat="47.566367" lon="7.564784"><ele>272.0</ele></trkpt>
<trkpt lat="47.566708" lon="7.564214"><ele>272.75</ele></trkpt>
<trkpt lat="47.566801" lon="7.564058"><ele>273.0</ele></trkpt>
<trkpt lat="47.567123" lon="7.563558"><ele>273.0</ele></trkpt>
<trkpt lat="47.567213" lon="7.563406"><ele>273.0</ele></trkpt>
<trkpt lat="47.567604" lon="7.562761"><ele>273.0</ele></trkpt>
<trkpt lat="47.568020" lon="7.562078"><ele>273.0</ele></trkpt>
<trkpt lat="47.568160" lon="7.561862"><ele>272.75</ele></trkpt>
<trkpt lat="47.568314" lon="7.561629"><ele>273.0</ele></trkpt>
<trkpt lat="47.568357" lon="7.561560"><ele>272.75</ele></trkpt>
<trkpt lat="47.568714" lon="7.561027"><ele>273.0</ele></trkpt>
<trkpt lat="47.568959" lon="7.560670"><ele>273.0</ele></trkpt>
<trkpt lat="47.569256" lon="7.560284"><ele>271.5</ele></trkpt>
<trkpt lat="47.569364" lon="7.560147"><ele>271.75</ele></trkpt>
<trkpt lat="47.569498" lon="7.559953"><ele>271.25</ele></trkpt>
<trkpt lat="47.570038" lon="7.559094"><ele>271.5</ele></trkpt>
<trkpt lat="47.570256" lon="7.558787"><ele>271.25</ele></trkpt>
<trkpt lat="47.570441" lon="7.558563"><ele>272.0</ele></trkpt>
<trkpt lat="47.570721" lon="7.558261"><ele>272.5</ele></trkpt>
<trkpt lat="47.570948" lon="7.558070"><ele>272.75</ele></trkpt>
<trkpt lat="47.571156" lon="7.557918"><ele>273.0</ele></trkpt>
<trkpt lat="47.571368" lon="7.557780"><ele>273.0</ele></trkpt>
<trkpt lat="47.571506" lon="7.557685"><ele>272.5</ele></trkpt>
<trkpt lat="47.571674" lon="7.557570"><ele>272.25</ele></trkpt>
<trkpt lat="47.571731" lon="7.557583"><ele>272.0</ele></trkpt>
<trkpt lat="47.571795" lon="7.557553"><ele>272.25</ele></trkpt>
<trkpt lat="47.572012" lon="7.557397"><ele>272.25</ele></trkpt>
<trkpt lat="47.572236" lon="7.557219"><ele>271.75</ele></trkpt>
<trkpt lat="47.572259" lon="7.557201"><ele>271.5</ele></trkpt>
<trkpt lat="47.572428" lon="7.557067"><ele>270.25</ele></trkpt>
<trkpt lat="47.572495" lon="7.557001"><ele>270.25</ele></trkpt>
<trkpt lat="47.572548" lon="7.556913"><ele>270.75</ele></trkpt>
<trkpt lat="47.572554" lon="7.556904"><ele>270.75</ele></trkpt>
<trkpt lat="47.572581" lon="7.556861"><ele>271.0</ele></trkpt>
<trkpt lat="47.572699" lon="7.556698"><ele>271.0</ele></trkpt>
<trkpt lat="47.572813" lon="7.556483"><ele>270.5</ele></trkpt>
<trkpt lat="47.572933" lon="7.556198"><ele>271.0</ele></trkpt>
<trkpt lat="47.572969" lon="7.556113"><ele>271.75</ele></trkpt>
<trkpt lat="47.573304" lon="7.555438"><ele>273.25</ele></trkpt>
<trkpt lat="47.573386" lon="7.555315"><ele>272.75</ele></trkpt>
<trkpt lat="47.573979" lon="7.554506"><ele>272.0</ele></trkpt>
<trkpt lat="47.574082" lon="7.554368"><ele>272.25</ele></trkpt>
<trkpt lat="47.574149" lon="7.554290"><ele>272.5</ele></trkpt>
<trkpt lat="47.574528" lon="7.553836"><ele>272.25</ele></trkpt>
<trkpt lat="47.574594" lon="7.553725"><ele>272.25</ele></trkpt>
<trkpt lat="47.574793" lon="7.553490"><ele>272.5</ele></trkpt>
<trkpt lat="47.574964" lon="7.553252"><ele>273.0</ele></trkpt>
<trkpt lat="47.575099" lon="7.553073"><ele>272.75</ele></trkpt>
<trkpt lat="47.575457" lon="7.552576"><ele>273.0</ele></trkpt>
<trkpt lat="47.575610" lon="7.552397"><ele>272.75</ele></trkpt>
<trkpt lat="47.575743" lon="7.552285"><ele>272.75</ele></trkpt>
<trkpt lat="47.575867" lon="7.552191"><ele>273.0</ele></trkpt>
<trkpt lat="47.576036" lon="7.552001"><ele>273.0</ele></trkpt>
<trkpt lat="47.576153" lon="7.551832"><ele>273.0</ele></trkpt>
<trkpt lat="47.576254" lon="7.551658"><ele>273.0</ele></trkpt>
<trkpt lat="47.576441" lon="7.551294"><ele>273.0</ele></trkpt>
<trkpt lat="47.576483" lon="7.551163"><ele>273.0</ele></trkpt>
<trkpt lat="47.576650" lon="7.550839"><ele>273.0</ele></trkpt>
<trkpt lat="47.576727" lon="7.550741"><ele>273.0</ele></trkpt>
<trkpt lat="47.576963" lon="7.550254"><ele>272.75</ele></trkpt>
<trkpt lat="47.577014" lon="7.550152"><ele>272.5</ele></trkpt>
<trkpt lat="47.577157" lon="7.549830"><ele>272.0</ele></trkpt>
<trkpt lat="47.577219" lon="7.549703"><ele>272.0</ele></trkpt>
<trkpt lat="47.577297" lon="7.549539"><ele>271.5</ele></trkpt>
<trkpt lat="47.577349" lon="7.549469"><ele>271.25</ele></trkpt>
<trkpt lat="47.577696" lon="7.548727"><ele>270.75</ele></trkpt>
<trkpt lat="47.577722" lon="7.548622"><ele>270.75</ele></trkpt>
<trkpt lat="47.577780" lon="7.548509"><ele>270.75</ele></trkpt>
<trkpt lat="47.578012" lon="7.548016"><ele>270.75</ele></trkpt>
<trkpt lat="47.578122" lon="7.547809"><ele>270.25</ele></trkpt>
<trkpt lat="47.578193" lon="7.547697"><ele>270.0</ele></trkpt>
<trkpt lat="47.578389" lon="7.547568"><ele>269.5</ele></trkpt>
<trkpt lat="47.578437" lon="7.547560"><ele>269.25</ele></trkpt>
<trkpt lat="47.578509" lon="7.547546"><ele>269.25</ele></trkpt>
<trkpt lat="47.578566" lon="7.547536"><ele>269.0</ele></trkpt>
<trkpt lat="47.578534" lon="7.547299"><ele>269.25</ele></trkpt>
<trkpt lat="47.578533" lon="7.546654"><ele>271.25</ele></trkpt>
<trkpt lat="47.578590" lon="7.546635"><ele>271.75</ele></trkpt>
<trkpt lat="47.578601" lon="7.546631"><ele>271.75</ele></trkpt>
<trkpt lat="47.579133" lon="7.546421"><ele>271.0</ele></trkpt>
<trkpt lat="47.579694" lon="7.546150"><ele>271.0</ele></trkpt>
<trkpt lat="47.580516" lon="7.545793"><ele>271.0</ele></trkpt>
<trkpt lat="47.580735" lon="7.545726"><ele>269.5</ele></trkpt>
<trkpt lat="47.580948" lon="7.545670"><ele>269.75</ele></trkpt>
<trkpt lat="47.581425" lon="7.545527"><ele>268.75</ele></trkpt>
<trkpt lat="47.581584" lon="7.545549"><ele>268.25</ele></trkpt>
<trkpt lat="47.582149" lon="7.545649"><ele>267.5</ele></trkpt>
<trkpt lat="47.582423" lon="7.545609"><ele>266.75</ele></trkpt>
<trkpt lat="47.582663" lon="7.545454"><ele>266.75</ele></trkpt>
<trkpt lat="47.582823" lon="7.545288"><ele>266.5</ele></trkpt>
<trkpt lat="47.583047" lon="7.545022"><ele>266.0</ele></trkpt>
<trkpt lat="47.583131" lon="7.544867"><ele>266.5</ele></trkpt>
<trkpt lat="47.583217" lon="7.544739"><ele>266.5</ele></trkpt>
<trkpt lat="47.583467" lon="7.544239"><ele>266.25</ele></trkpt>
<trkpt lat="47.583892" lon="7.543574"><ele>264.5</ele></trkpt>
<trkpt lat="47.584181" lon="7.543143"><ele>265.25</ele></trkpt>
<trkpt lat="47.584312" lon="7.542983"><ele>265.5</ele></trkpt>
<trkpt lat="47.584438" lon="7.542874"><ele>264.75</ele></trkpt>
<trkpt lat="47.584559" lon="7.542826"><ele>264.25</ele></trkpt>
<trkpt lat="47.584730" lon="7.542840"><ele>263.75</ele></trkpt>
<trkpt lat="47.585163" lon="7.543020"><ele>263.5</ele></trkpt>
<trkpt lat="47.585302" lon="7.543044"><ele>263.75</ele></trkpt>
<trkpt lat="47.585424" lon="7.543060"><ele>263.75</ele></trkpt>
<trkpt lat="47.585563" lon="7.543029"><ele>264.0</ele></trkpt>
<trkpt lat="47.585637" lon="7.542999"><ele>264.25</ele></trkpt>
<trkpt lat="47.585769" lon="7.543057"><ele>263.75</ele></trkpt>
<trkpt lat="47.585887" lon="7.543055"><ele>264.0</ele></trkpt>
<trkpt lat="47.585990" lon="7.543091"><ele>263.75</ele></trkpt>
<trkpt lat="47.586366" lon="7.543419"><ele>263.75</ele></trkpt>
<trkpt lat="47.587186" lon="7.544582"><ele>265.0</ele></trkpt>
<trkpt lat="47.587488" lon="7.545016"><ele>265.5</ele></trkpt>
<trkpt lat="47.587719" lon="7.545384"><ele>263.5</ele></trkpt>
<trkpt lat="47.587906" lon="7.545653"><ele>265.5</ele></trkpt>
<trkpt lat="47.587951" lon="7.545724"><ele>265.75</ele></trkpt>
<trkpt lat="47.588167" lon="7.545998"><ele>265.5</ele></trkpt>
<trkpt lat="47.588635" lon="7.546257"><ele>263.75</ele></trkpt>
<trkpt lat="47.588846" lon="7.546314"><ele>263.0</ele></trkpt>
<trkpt lat="47.588947" lon="7.546393"><ele>262.25</ele></trkpt>
<trkpt lat="47.588995" lon="7.546492"><ele>261.0</ele></trkpt>
<trkpt lat="47.589144" lon="7.546927"><ele>260.75</ele></trkpt>
<trkpt lat="47.589447" lon="7.547817"><ele>263.75</ele></trkpt>
<trkpt lat="47.589516" lon="7.547916"><ele>263.0</ele></trkpt>
<trkpt lat="47.590129" lon="7.548783"><ele>259.5</ele></trkpt>
<trkpt lat="47.590221" lon="7.548944"><ele>259.5</ele></trkpt>
<trkpt lat="47.590659" lon="7.549594"><ele>257.75</ele></trkpt>
<trkpt lat="47.590924" lon="7.549999"><ele>256.0</ele></trkpt>
<trkpt lat="47.591157" lon="7.550436"><ele>255.0</ele></trkpt>
<trkpt lat="47.591497" lon="7.551086"><ele>253.25</ele></trkpt>
<trkpt lat="47.591649" lon="7.551521"><ele>251.75</ele></trkpt>
<trkpt lat="47.591917" lon="7.552124"><ele>250.5</ele></trkpt>
<trkpt lat="47.592273" lon="7.552873"><ele>252.25</ele></trkpt>
<trkpt lat="47.592546" lon="7.553428"><ele>252.25</ele></trkpt>
<trkpt lat="47.592659" lon="7.553639"><ele>252.5</ele></trkpt>
<trkpt lat="47.593063" lon="7.554283"><ele>250.25</ele></trkpt>
<trkpt lat="47.593444" lon="7.554922"><ele>251.75</ele></trkpt>
<trkpt lat="47.593461" lon="7.554947"><ele>251.75</ele></trkpt>
<trkpt lat="47.593530" lon="7.555086"><ele>252.0</ele></trkpt>
<trkpt lat="47.593518" lon="7.555167"><ele>252.25</ele></trkpt>
<trkpt lat="47.593520" lon="7.555209"><ele>252.5</ele></trkpt>
<trkpt lat="47.593536" lon="7.555285"><ele>252.5</ele></trkpt>
<trkpt lat="47.593569" lon="7.555349"><ele>252.75</ele></trkpt>
<trkpt lat="47.593613" lon="7.555394"><ele>252.75</ele></trkpt>
<trkpt lat="47.593669" lon="7.555414"><ele>252.75</ele></trkpt>
<trkpt lat="47.593711" lon="7.555410"><ele>252.75</ele></trkpt>
<trkpt lat="47.593752" lon="7.555389"><ele>252.75</ele></trkpt>
<trkpt lat="47.593787" lon="7.555353"><ele>252.75</ele></trkpt>
<trkpt lat="47.593815" lon="7.555305"><ele>252.75</ele></trkpt>
<trkpt lat="47.593830" lon="7.555261"><ele>252.75</ele></trkpt>
<trkpt lat="47.593923" lon="7.555198"><ele>252.5</ele></trkpt>
<trkpt lat="47.593951" lon="7.555186"><ele>252.5</ele></trkpt>
<trkpt lat="47.594032" lon="7.555148"><ele>252.75</ele></trkpt>
<trkpt lat="47.594142" lon="7.555089"><ele>252.75</ele></trkpt>
<trkpt lat="47.594477" lon="7.554827"><ele>253.0</ele></trkpt>
<trkpt lat="47.595221" lon="7.554236"><ele>253.75</ele></trkpt>
<trkpt lat="47.595309" lon="7.554169"><ele>254.0</ele></trkpt>
<trkpt lat="47.595411" lon="7.554089"><ele>254.0</ele></trkpt>
<trkpt lat="47.596125" lon="7.553528"><ele>254.0</ele></trkpt>
<trkpt lat="47.596374" lon="7.553336"><ele>254.0</ele></trkpt>
<trkpt lat="47.596548" lon="7.553202"><ele>253.75</ele></trkpt>
<trkpt lat="47.596574" lon="7.553269"><ele>253.75</ele></trkpt>
<trkpt lat="47.596595" lon="7.553301"><ele>253.75</ele></trkpt>
<trkpt lat="47.596658" lon="7.553396"><ele>254.0</ele></trkpt>
<trkpt lat="47.597070" lon="7.553783"><ele>253.5</ele></trkpt>
<trkpt lat="47.597345" lon="7.554041"><ele>253.0</ele></trkpt>
<trkpt lat="47.597681" lon="7.554356"><ele>253.0</ele></trkpt>
<trkpt lat="47.598409" lon="7.555034"><ele>251.75</ele></trkpt>
<trkpt lat="47.598496" lon="7.555113"><ele>251.5</ele></trkpt>
<trkpt lat="47.598697" lon="7.555292"><ele>249.75</ele></trkpt>
<trkpt lat="47.598822" lon="7.555404"><ele>249.0</ele></trkpt>
<trkpt lat="47.598863" lon="7.555441"><ele>249.0</ele></trkpt>
<trkpt lat="47.598951" lon="7.555526"><ele>249.0</ele></trkpt>
<trkpt lat="47.599047" lon="7.555619"><ele>248.25</ele></trkpt>
<trkpt lat="47.599250" lon="7.555815"><ele>248.0</ele></trkpt>
<trkpt lat="47.599569" lon="7.556122"><ele>245.75</ele></trkpt>
<trkpt lat="47.599617" lon="7.556169"><ele>245.5</ele></trkpt>
<trkpt lat="47.599647" lon="7.556197"><ele>245.5</ele></trkpt>
<trkpt lat="47.599741" lon="7.556288"><ele>245.25</ele></trkpt>
<trkpt lat="47.601250" lon="7.557662"><ele>244.25</ele></trkpt>
<trkpt lat="47.601292" lon="7.557700"><ele>244.25</ele></trkpt>
<trkpt lat="47.601587" lon="7.557966"><ele>244.5</ele></trkpt>
<trkpt lat="47.601713" lon="7.558079"><ele>244.75</ele></trkpt>
<trkpt lat="47.602467" lon="7.558780"><ele>245.0</ele></trkpt>
<trkpt lat="47.602792" lon="7.559135"><ele>244.75</ele></trkpt>
<trkpt lat="47.602948" lon="7.559344"><ele>245.0</ele></trkpt>
<trkpt lat="47.603717" lon="7.560652"><ele>245.75</ele></trkpt>
<trkpt lat="47.604048" lon="7.561259"><ele>246.5</ele></trkpt>
<trkpt lat="47.604121" lon="7.561392"><ele>246.5</ele></trkpt>
<trkpt lat="47.604218" lon="7.561555"><ele>244.75</ele></trkpt>
<trkpt lat="47.604362" lon="7.561828"><ele>244.75</ele></trkpt>
<trkpt lat="47.604392" lon="7.561894"><ele>245.5</ele></trkpt>
<trkpt lat="47.604434" lon="7.562030"><ele>246.75</ele></trkpt>
<trkpt lat="47.604468" lon="7.562224"><ele>246.75</ele></trkpt>
<trkpt lat="47.604759" lon="7.564956"><ele>245.0</ele></trkpt>
<trkpt lat="47.604867" lon="7.564933"><ele>245.0</ele></trkpt>
<trkpt lat="47.605537" lon="7.564426"><ele>244.0</ele></trkpt>
<trkpt lat="47.605587" lon="7.564416"><ele>244.0</ele></trkpt>
<trkpt lat="47.605626" lon="7.564428"><ele>244.0</ele></trkpt>
<trkpt lat="47.605661" lon="7.564521"><ele>244.0</ele></trkpt>
<trkpt lat="47.605752" lon="7.565023"><ele>244.0</ele></trkpt>
<trkpt lat="47.605808" lon="7.565149"><ele>244.0</ele></trkpt>
<trkpt lat="47.605905" lon="7.565240"><ele>244.0</ele></trkpt>
<trkpt lat="47.606807" lon="7.565789"><ele>245.0</ele></trkpt>
<trkpt lat="47.606919" lon="7.565855"><ele>244.75</ele></trkpt>
<trkpt lat="47.607015" lon="7.565915"><ele>245.0</ele></trkpt>
<trkpt lat="47.607778" lon="7.566407"><ele>244.0</ele></trkpt>
<trkpt lat="47.607895" lon="7.566481"><ele>244.0</ele></trkpt>
<trkpt lat="47.607991" lon="7.566541"><ele>244.0</ele></trkpt>
<trkpt lat="47.608084" lon="7.566599"><ele>244.0</ele></trkpt>
<trkpt lat="47.608335" lon="7.566756"><ele>244.0</ele></trkpt>
<trkpt lat="47.608692" lon="7.566915"><ele>244.0</ele></trkpt>
<trkpt lat="47.609096" lon="7.567012"><ele>244.0</ele></trkpt>
<trkpt lat="47.609812" lon="7.567053"><ele>245.0</ele></trkpt>
<trkpt lat="47.610274" lon="7.567058"><ele>245.0</ele></trkpt>
<trkpt lat="47.610068" lon="7.567569"><ele>244.5</ele></trkpt>
<trkpt lat="47.609983" lon="7.567746"><ele>244.0</ele></trkpt>
<trkpt lat="47.609878" lon="7.567859"><ele>244.0</ele></trkpt>
<trkpt lat="47.609113" lon="7.568398"><ele>244.0</ele></trkpt>
<trkpt lat="47.608405" lon="7.568935"><ele>244.75</ele></trkpt>
<trkpt lat="47.608293" lon="7.569020"><ele>244.5</ele></trkpt>
<trkpt lat="47.607719" lon="7.569463"><ele>244.75</ele></trkpt>
<trkpt lat="47.607547" lon="7.569595"><ele>244.75</ele></trkpt>
<trkpt lat="47.607164" lon="7.569897"><ele>245.0</ele></trkpt>
<trkpt lat="47.607102" lon="7.569948"><ele>245.0</ele></trkpt>
<trkpt lat="47.606454" lon="7.570474"><ele>245.0</ele></trkpt>
<trkpt lat="47.606362" lon="7.570550"><ele>245.0</ele></trkpt>
<trkpt lat="47.606113" lon="7.570750"><ele>244.75</ele></trkpt>
<trkpt lat="47.605724" lon="7.571062"><ele>245.0</ele></trkpt>
<trkpt lat="47.605587" lon="7.571167"><ele>245.0</ele></trkpt>
<trkpt lat="47.605630" lon="7.571285"><ele>245.0</ele></trkpt>
<trkpt lat="47.605792" lon="7.571774"><ele>245.0</ele></trkpt>
<trkpt lat="47.605905" lon="7.572090"><ele>244.75</ele></trkpt>
<trkpt lat="47.606010" lon="7.572397"><ele>245.0</ele></trkpt>
<trkpt lat="47.606029" lon="7.572451"><ele>245.0</ele></trkpt>
<trkpt lat="47.606241" lon="7.572995"><ele>244.5</ele></trkpt>
<trkpt lat="47.606591" lon="7.573762"><ele>244.0</ele></trkpt>
<trkpt lat="47.606846" lon="7.574371"><ele>243.5</ele></trkpt>
<trkpt lat="47.606942" lon="7.574594"><ele>243.0</ele></trkpt>
<trkpt lat="47.607109" lon="7.574968"><ele>243.0</ele></trkpt>
<trkpt lat="47.607468" lon="7.575786"><ele>242.75</ele></trkpt>
<trkpt lat="47.607657" lon="7.576188"><ele>243.0</ele></trkpt>
<trkpt lat="47.607695" lon="7.576266"><ele>243.0</ele></trkpt>
<trkpt lat="47.607519" lon="7.576492"><ele>243.0</ele></trkpt>
<trkpt lat="47.607380" lon="7.576678"><ele>242.75</ele></trkpt>
<trkpt lat="47.607181" lon="7.576977"><ele>242.75</ele></trkpt>
<trkpt lat="47.606952" lon="7.577390"><ele>243.0</ele></trkpt>
<trkpt lat="47.606771" lon="7.577753"><ele>242.75</ele></trkpt>
<trkpt lat="47.606470" lon="7.578415"><ele>243.0</ele></trkpt>
<trkpt lat="47.606073" lon="7.579326"><ele>243.5</ele></trkpt>
<trkpt lat="47.605515" lon="7.580581"><ele>243.5</ele></trkpt>
<trkpt lat="47.605468" lon="7.580678"><ele>243.5</ele></trkpt>
<trkpt lat="47.605357" lon="7.580906"><ele>243.25</ele></trkpt>
<trkpt lat="47.605169" lon="7.581286"><ele>243.25</ele></trkpt>
<trkpt lat="47.604935" lon="7.581689"><ele>243.5</ele></trkpt>
<trkpt lat="47.604619" lon="7.582130"><ele>243.75</ele></trkpt>
<trkpt lat="47.604394" lon="7.582405"><ele>243.75</ele></trkpt>
<trkpt lat="47.604149" lon="7.582671"><ele>243.5</ele></trkpt>
<trkpt lat="47.603883" lon="7.582927"><ele>244.0</ele></trkpt>
<trkpt lat="47.603605" lon="7.583158"><ele>244.0</ele></trkpt>
<trkpt lat="47.603348" lon="7.583345"><ele>244.0</ele></trkpt>
<trkpt lat="47.603069" lon="7.583503"><ele>244.0</ele></trkpt>
<trkpt lat="47.602801" lon="7.583642"><ele>244.0</ele></trkpt>
<trkpt lat="47.602590" lon="7.583725"><ele>244.25</ele></trkpt>
<trkpt lat="47.602452" lon="7.583780"><ele>244.5</ele></trkpt>
<trkpt lat="47.602224" lon="7.583850"><ele>244.75</ele></trkpt>
<trkpt lat="47.601944" lon="7.583917"><ele>244.0</ele></trkpt>
<trkpt lat="47.601643" lon="7.583958"><ele>245.0</ele></trkpt>
<trkpt lat="47.601276" lon="7.583972"><ele>245.0</ele></trkpt>
<trkpt lat="47.601088" lon="7.583917"><ele>245.0</ele></trkpt>
<trkpt lat="47.601008" lon="7.583883"><ele>244.75</ele></trkpt>
<trkpt lat="47.600940" lon="7.583848"><ele>244.75</ele></trkpt>
<trkpt lat="47.600877" lon="7.583815"><ele>244.75</ele></trkpt>
<trkpt lat="47.600861" lon="7.583765"><ele>244.75</ele></trkpt>
<trkpt lat="47.600811" lon="7.583680"><ele>245.0</ele></trkpt>
<trkpt lat="47.600745" lon="7.583627"><ele>245.25</ele></trkpt>
<trkpt lat="47.600708" lon="7.583614"><ele>245.25</ele></trkpt>
<trkpt lat="47.600635" lon="7.583617"><ele>245.5</ele></trkpt>
<trkpt lat="47.600566" lon="7.583657"><ele>245.75</ele></trkpt>
<trkpt lat="47.600510" lon="7.583733"><ele>245.75</ele></trkpt>
<trkpt lat="47.600489" lon="7.583780"><ele>245.75</ele></trkpt>
<trkpt lat="47.600474" lon="7.583833"><ele>245.75</ele></trkpt>
<trkpt lat="47.600465" lon="7.583945"><ele>246.0</ele></trkpt>
<trkpt lat="47.600483" lon="7.584056"><ele>246.0</ele></trkpt>
<trkpt lat="47.600520" lon="7.584139"><ele>246.0</ele></trkpt>
<trkpt lat="47.600572" lon="7.584201"><ele>245.75</ele></trkpt>
<trkpt lat="47.600597" lon="7.584367"><ele>245.75</ele></trkpt>
<trkpt lat="47.600599" lon="7.584412"><ele>245.75</ele></trkpt>
<trkpt lat="47.600605" lon="7.584465"><ele>245.75</ele></trkpt>
<trkpt lat="47.600614" lon="7.584597"><ele>245.5</ele></trkpt>
<trkpt lat="47.600636" lon="7.584916"><ele>244.5</ele></trkpt>
<trkpt lat="47.600633" lon="7.585183"><ele>244.25</ele></trkpt>
<trkpt lat="47.600640" lon="7.585651"><ele>245.25</ele></trkpt>
<trkpt lat="47.600635" lon="7.586057"><ele>247.0</ele></trkpt>
<trkpt lat="47.600590" lon="7.587067"><ele>251.0</ele></trkpt>
<trkpt lat="47.600576" lon="7.587369"><ele>252.25</ele></trkpt>
<trkpt lat="47.600552" lon="7.587563"><ele>252.75</ele></trkpt>
<trkpt lat="47.600538" lon="7.587642"><ele>252.75</ele></trkpt>
<trkpt lat="47.600505" lon="7.587754"><ele>252.5</ele></trkpt>
<trkpt lat="47.600460" lon="7.587826"><ele>252.5</ele></trkpt>
<trkpt lat="47.600395" lon="7.587905"><ele>252.5</ele></trkpt>
<trkpt lat="47.600335" lon="7.588013"><ele>252.75</ele></trkpt>
<trkpt lat="47.600304" lon="7.588113"><ele>252.75</ele></trkpt>
<trkpt lat="47.600289" lon="7.588205"><ele>253.0</ele></trkpt>
<trkpt lat="47.600291" lon="7.588348"><ele>253.0</ele></trkpt>
<trkpt lat="47.600310" lon="7.588568"><ele>253.0</ele></trkpt>
<trkpt lat="47.600337" lon="7.588862"><ele>253.0</ele></trkpt>
<trkpt lat="47.600355" lon="7.588951"><ele>253.0</ele></trkpt>
<trkpt lat="47.600386" lon="7.589028"><ele>253.0</ele></trkpt>
<trkpt lat="47.600444" lon="7.589112"><ele>253.0</ele></trkpt>
<trkpt lat="47.600478" lon="7.589145"><ele>253.0</ele></trkpt>
<trkpt lat="47.600517" lon="7.589183"><ele>252.75</ele></trkpt>
<trkpt lat="47.600596" lon="7.589217"><ele>253.0</ele></trkpt>
<trkpt lat="47.600653" lon="7.589326"><ele>253.0</ele></trkpt>
<trkpt lat="47.600684" lon="7.589416"><ele>253.0</ele></trkpt>
<trkpt lat="47.600717" lon="7.589597"><ele>252.75</ele></trkpt>
<trkpt lat="47.600730" lon="7.589763"><ele>252.5</ele></trkpt>
<trkpt lat="47.600737" lon="7.589853"><ele>252.25</ele></trkpt>
<trkpt lat="47.600842" lon="7.591204"><ele>250.5</ele></trkpt>
<trkpt lat="47.600972" lon="7.592990"><ele>248.25</ele></trkpt>
<trkpt lat="47.600972" lon="7.592993"><ele>248.25</ele></trkpt>
<trkpt lat="47.601068" lon="7.594231"><ele>246.75</ele></trkpt>
<trkpt lat="47.601173" lon="7.595590"><ele>245.0</ele></trkpt>
<trkpt lat="47.601182" lon="7.595737"><ele>245.0</ele></trkpt>
<trkpt lat="47.601205" lon="7.596113"><ele>245.25</ele></trkpt>
<trkpt lat="47.601219" lon="7.596491"><ele>245.5</ele></trkpt>
<trkpt lat="47.601212" lon="7.597190"><ele>245.75</ele></trkpt>
<trkpt lat="47.601193" lon="7.597733"><ele>246.0</ele></trkpt>
<trkpt lat="47.601171" lon="7.598541"><ele>246.0</ele></trkpt>
<trkpt lat="47.601169" lon="7.599256"><ele>246.0</ele></trkpt>
<trkpt lat="47.601176" lon="7.599709"><ele>246.0</ele></trkpt>
<trkpt lat="47.601199" lon="7.600039"><ele>246.0</ele></trkpt>
<trkpt lat="47.601209" lon="7.600167"><ele>246.0</ele></trkpt>
<trkpt lat="47.601223" lon="7.600321"><ele>246.0</ele></trkpt>
<trkpt lat="47.601237" lon="7.600460"><ele>246.0</ele></trkpt>
<trkpt lat="47.601245" lon="7.600524"><ele>246.0</ele></trkpt>
<trkpt lat="47.601279" lon="7.600743"><ele>246.0</ele></trkpt>
<trkpt lat="47.601317" lon="7.600967"><ele>246.0</ele></trkpt>
<trkpt lat="47.601360" lon="7.601191"><ele>246.0</ele></trkpt>
<trkpt lat="47.601390" lon="7.601337"><ele>246.0</ele></trkpt>
<trkpt lat="47.601537" lon="7.601893"><ele>246.25</ele></trkpt>
<trkpt lat="47.601751" lon="7.602590"><ele>246.75</ele></trkpt>
<trkpt lat="47.602016" lon="7.603442"><ele>247.0</ele></trkpt>
<trkpt lat="47.602067" lon="7.603605"><ele>246.75</ele></trkpt>
<trkpt lat="47.602216" lon="7.604062"><ele>247.0</ele></trkpt>
<trkpt lat="47.602239" lon="7.604138"><ele>247.0</ele></trkpt>
<trkpt lat="47.602343" lon="7.604463"><ele>247.75</ele></trkpt>
<trkpt lat="47.603514" lon="7.608216"><ele>260.0</ele></trkpt>
<trkpt lat="47.603625" lon="7.608584"><ele>260.0</ele></trkpt>
<trkpt lat="47.603717" lon="7.608882"><ele>260.0</ele></trkpt>
<trkpt lat="47.603695" lon="7.609047"><ele>260.0</ele></trkpt>
<trkpt lat="47.603675" lon="7.609147"><ele>260.0</ele></trkpt>
<trkpt lat="47.603654" lon="7.609210"><ele>260.0</ele></trkpt>
<trkpt lat="47.603615" lon="7.609284"><ele>260.0</ele></trkpt>
<trkpt lat="47.603549" lon="7.609373"><ele>260.0</ele></trkpt>
<trkpt lat="47.603498" lon="7.609398"><ele>260.25</ele></trkpt>
<trkpt lat="47.603408" lon="7.609428"><ele>260.5</ele></trkpt>
<trkpt lat="47.603311" lon="7.609411"><ele>261.0</ele></trkpt>
<trkpt lat="47.603196" lon="7.609376"><ele>261.0</ele></trkpt>
<trkpt lat="47.603084" lon="7.609372"><ele>261.0</ele></trkpt>
<trkpt lat="47.602996" lon="7.609405"><ele>261.0</ele></trkpt>
<trkpt lat="47.603084" lon="7.609372"><ele>261.0</ele></trkpt>
<trkpt lat="47.603196" lon="7.609376"><ele>261.0</ele></trkpt>
<trkpt lat="47.603311" lon="7.609411"><ele>261.0</ele></trkpt>
<trkpt lat="47.603408" lon="7.609428"><ele>260.5</ele></trkpt>
<trkpt lat="47.603498" lon="7.609398"><ele>260.25</ele></trkpt>
<trkpt lat="47.603549" lon="7.609373"><ele>260.0</ele></trkpt>
<trkpt lat="47.603679" lon="7.609335"><ele>260.0</ele></trkpt>
<trkpt lat="47.603731" lon="7.609329"><ele>260.0</ele></trkpt>
<trkpt lat="47.603769" lon="7.609338"><ele>260.0</ele></trkpt>
<trkpt lat="47.603810" lon="7.609362"><ele>260.0</ele></trkpt>
<trkpt lat="47.603878" lon="7.609413"><ele>260.0</ele></trkpt>
<trkpt lat="47.603974" lon="7.609718"><ele>260.0</ele></trkpt>
<trkpt lat="47.604022" lon="7.609875"><ele>260.0</ele></trkpt>
<trkpt lat="47.604424" lon="7.611179"><ele>261.5</ele></trkpt>
<trkpt lat="47.604550" lon="7.611678"><ele>262.0</ele></trkpt>
<trkpt lat="47.604639" lon="7.612129"><ele>262.25</ele></trkpt>
<trkpt lat="47.604674" lon="7.612369"><ele>262.5</ele></trkpt>
<trkpt lat="47.604731" lon="7.612926"><ele>263.0</ele></trkpt>
<trkpt lat="47.604744" lon="7.613188"><ele>263.25</ele></trkpt>
<trkpt lat="47.604752" lon="7.613462"><ele>263.5</ele></trkpt>
<trkpt lat="47.604746" lon="7.613796"><ele>264.0</ele></trkpt>
<trkpt lat="47.604732" lon="7.614129"><ele>264.25</ele></trkpt>
<trkpt lat="47.604706" lon="7.614433"><ele>264.5</ele></trkpt>
<trkpt lat="47.604670" lon="7.614729"><ele>264.75</ele></trkpt>
<trkpt lat="47.604627" lon="7.615023"><ele>265.0</ele></trkpt>
<trkpt lat="47.604560" lon="7.615359"><ele>265.5</ele></trkpt>
<trkpt lat="47.604481" lon="7.615691"><ele>265.75</ele></trkpt>
<trkpt lat="47.604342" lon="7.616169"><ele>266.25</ele></trkpt>
<trkpt lat="47.604294" lon="7.616305"><ele>266.25</ele></trkpt>
<trkpt lat="47.604246" lon="7.616436"><ele>266.5</ele></trkpt>
<trkpt lat="47.604154" lon="7.616674"><ele>267.0</ele></trkpt>
<trkpt lat="47.604054" lon="7.616907"><ele>267.25</ele></trkpt>
<trkpt lat="47.603919" lon="7.617181"><ele>267.75</ele></trkpt>
<trkpt lat="47.603801" lon="7.617394"><ele>268.0</ele></trkpt>
<trkpt lat="47.603685" lon="7.617589"><ele>268.0</ele></trkpt>
<trkpt lat="47.603512" lon="7.617858"><ele>268.0</ele></trkpt>
<trkpt lat="47.603224" lon="7.618222"><ele>269.0</ele></trkpt>
<trkpt lat="47.603014" lon="7.618464"><ele>269.0</ele></trkpt>
<trkpt lat="47.602906" lon="7.618577"><ele>269.0</ele></trkpt>
<trkpt lat="47.602804" lon="7.618685"><ele>269.0</ele></trkpt>
<trkpt lat="47.602613" lon="7.618895"><ele>269.5</ele></trkpt>
<trkpt lat="47.602511" lon="7.619006"><ele>269.75</ele></trkpt>
<trkpt lat="47.602395" lon="7.619138"><ele>270.25</ele></trkpt>
<trkpt lat="47.601835" lon="7.619799"><ele>271.25</ele></trkpt>
<trkpt lat="47.601558" lon="7.620153"><ele>272.0</ele></trkpt>
<trkpt lat="47.601300" lon="7.620501"><ele>272.0</ele></trkpt>
<trkpt lat="47.600924" lon="7.621048"><ele>272.0</ele></trkpt>
<trkpt lat="47.600880" lon="7.621116"><ele>272.0</ele></trkpt>
<trkpt lat="47.599782" lon="7.622779"><ele>274.0</ele></trkpt>
<trkpt lat="47.599756" lon="7.622818"><ele>274.0</ele></trkpt>
<trkpt lat="47.599733" lon="7.622853"><ele>274.0</ele></trkpt>
<trkpt lat="47.599520" lon="7.623176"><ele>274.0</ele></trkpt>
<trkpt lat="47.599346" lon="7.623440"><ele>274.0</ele></trkpt>
<trkpt lat="47.599132" lon="7.623749"><ele>274.0</ele></trkpt>
<trkpt lat="47.599016" lon="7.623925"><ele>274.0</ele></trkpt>
<trkpt lat="47.598718" lon="7.624382"><ele>274.25</ele></trkpt>
<trkpt lat="47.598493" lon="7.624731"><ele>275.0</ele></trkpt>
<trkpt lat="47.598398" lon="7.624880"><ele>275.0</ele></trkpt>
<trkpt lat="47.598378" lon="7.624911"><ele>275.0</ele></trkpt>
<trkpt lat="47.598275" lon="7.625067"><ele>275.0</ele></trkpt>
<trkpt lat="47.598161" lon="7.625241"><ele>275.75</ele></trkpt>
<trkpt lat="47.598140" lon="7.625274"><ele>275.75</ele></trkpt>
<trkpt lat="47.598083" lon="7.625362"><ele>276.0</ele></trkpt>
<trkpt lat="47.598040" lon="7.625429"><ele>276.0</ele></trkpt>
<trkpt lat="47.597950" lon="7.625569"><ele>276.0</ele></trkpt>
<trkpt lat="47.597925" lon="7.625609"><ele>276.0</ele></trkpt>
<trkpt lat="47.597726" lon="7.625931"><ele>276.0</ele></trkpt>
<trkpt lat="47.597306" lon="7.626666"><ele>276.0</ele></trkpt>
<trkpt lat="47.597166" lon="7.626886"><ele>276.0</ele></trkpt>
<trkpt lat="47.597038" lon="7.627038"><ele>276.0</ele></trkpt>
<trkpt lat="47.596850" lon="7.627259"><ele>276.0</ele></trkpt>
<trkpt lat="47.596745" lon="7.627382"><ele>276.25</ele></trkpt>
<trkpt lat="47.596629" lon="7.627526"><ele>277.0</ele></trkpt>
<trkpt lat="47.596520" lon="7.627653"><ele>277.0</ele></trkpt>
<trkpt lat="47.596487" lon="7.627691"><ele>277.0</ele></trkpt>
<trkpt lat="47.596305" lon="7.627900"><ele>277.0</ele></trkpt>
<trkpt lat="47.596071" lon="7.628171"><ele>277.0</ele></trkpt>
<trkpt lat="47.595834" lon="7.628443"><ele>277.0</ele></trkpt>
<trkpt lat="47.595623" lon="7.628709"><ele>277.0</ele></trkpt>
<trkpt lat="47.595457" lon="7.628883"><ele>277.0</ele></trkpt>
<trkpt lat="47.595143" lon="7.629127"><ele>277.25</ele></trkpt>
<trkpt lat="47.594892" lon="7.629329"><ele>278.0</ele></trkpt>
<trkpt lat="47.594658" lon="7.629505"><ele>278.0</ele></trkpt>
<trkpt lat="47.594622" lon="7.629531"><ele>278.0</ele></trkpt>
<trkpt lat="47.594567" lon="7.629572"><ele>278.0</ele></trkpt>
<trkpt lat="47.594449" lon="7.629661"><ele>278.0</ele></trkpt>
<trkpt lat="47.594370" lon="7.629725"><ele>278.0</ele></trkpt>
<trkpt lat="47.594402" lon="7.629944"><ele>278.0</ele></trkpt>
<trkpt lat="47.594503" lon="7.630263"><ele>278.0</ele></trkpt>
<trkpt lat="47.594523" lon="7.630366"><ele>278.0</ele></trkpt>
<trkpt lat="47.594527" lon="7.630455"><ele>278.0</ele></trkpt>
<trkpt lat="47.594510" lon="7.630554"><ele>278.0</ele></trkpt>
<trkpt lat="47.594341" lon="7.630948"><ele>278.25</ele></trkpt>
<trkpt lat="47.594290" lon="7.631099"><ele>278.25</ele></trkpt>
<trkpt lat="47.594244" lon="7.631268"><ele>278.5</ele></trkpt>
<trkpt lat="47.594170" lon="7.631619"><ele>279.0</ele></trkpt>
<trkpt lat="47.594129" lon="7.631776"><ele>279.0</ele></trkpt>
<trkpt lat="47.594067" lon="7.631905"><ele>279.0</ele></trkpt>
<trkpt lat="47.593945" lon="7.632160"><ele>279.0</ele></trkpt>
<trkpt lat="47.593669" lon="7.632732"><ele>279.0</ele></trkpt>
<trkpt lat="47.593570" lon="7.632922"><ele>279.0</ele></trkpt>
<trkpt lat="47.593357" lon="7.633366"><ele>279.75</ele></trkpt>
<trkpt lat="47.593264" lon="7.633642"><ele>280.0</ele></trkpt>
<trkpt lat="47.593191" lon="7.633915"><ele>280.0</ele></trkpt>
<trkpt lat="47.593147" lon="7.634554"><ele>280.0</ele></trkpt>
<trkpt lat="47.593107" lon="7.634881"><ele>280.5</ele></trkpt>
<trkpt lat="47.593058" lon="7.635149"><ele>281.0</ele></trkpt>
<trkpt lat="47.593020" lon="7.635250"><ele>281.0</ele></trkpt>
<trkpt lat="47.592945" lon="7.635295"><ele>281.0</ele></trkpt>
<trkpt lat="47.592524" lon="7.635317"><ele>281.0</ele></trkpt>
<trkpt lat="47.592477" lon="7.635333"><ele>281.0</ele></trkpt>
<trkpt lat="47.592405" lon="7.635387"><ele>281.0</ele></trkpt>
<trkpt lat="47.592364" lon="7.635505"><ele>281.0</ele></trkpt>
<trkpt lat="47.592152" lon="7.636264"><ele>281.75</ele></trkpt>
<trkpt lat="47.592004" lon="7.636793"><ele>282.0</ele></trkpt>
<trkpt lat="47.591939" lon="7.636981"><ele>281.75</ele></trkpt>
<trkpt lat="47.591826" lon="7.637265"><ele>281.5</ele></trkpt>
<trkpt lat="47.591793" lon="7.637341"><ele>281.25</ele></trkpt>
<trkpt lat="47.591687" lon="7.637606"><ele>281.0</ele></trkpt>
<trkpt lat="47.591591" lon="7.637870"><ele>281.0</ele></trkpt>
<trkpt lat="47.591568" lon="7.637986"><ele>281.0</ele></trkpt>
<trkpt lat="47.591560" lon="7.638083"><ele>280.75</ele></trkpt>
<trkpt lat="47.591561" lon="7.638177"><ele>281.0</ele></trkpt>
<trkpt lat="47.591609" lon="7.638432"><ele>281.0</ele></trkpt>
<trkpt lat="47.591669" lon="7.638617"><ele>281.0</ele></trkpt>
<trkpt lat="47.591795" lon="7.638948"><ele>280.75</ele></trkpt>
<trkpt lat="47.592042" lon="7.639591"><ele>280.75</ele></trkpt>
<trkpt lat="47.592082" lon="7.639698"><ele>280.5</ele></trkpt>
<trkpt lat="47.592111" lon="7.639788"><ele>280.0</ele></trkpt>
<trkpt lat="47.592130" lon="7.639963"><ele>279.0</ele></trkpt>
<trkpt lat="47.592141" lon="7.640219"><ele>277.5</ele></trkpt>
<trkpt lat="47.592180" lon="7.640409"><ele>277.75</ele></trkpt>
<trkpt lat="47.592197" lon="7.640454"><ele>277.75</ele></trkpt>
<trkpt lat="47.592231" lon="7.640536"><ele>278.0</ele></trkpt>
<trkpt lat="47.592272" lon="7.640612"><ele>277.75</ele></trkpt>
<trkpt lat="47.592302" lon="7.640687"><ele>277.75</ele></trkpt>
<trkpt lat="47.592339" lon="7.640861"><ele>277.0</ele></trkpt>
<trkpt lat="47.592342" lon="7.641133"><ele>276.75</ele></trkpt>
<trkpt lat="47.592329" lon="7.641301"><ele>277.0</ele></trkpt>
<trkpt lat="47.592291" lon="7.641581"><ele>276.25</ele></trkpt>
<trkpt lat="47.592277" lon="7.641676"><ele>275.75</ele></trkpt>
<trkpt lat="47.592210" lon="7.641856"><ele>274.0</ele></trkpt>
<trkpt lat="47.592199" lon="7.641891"><ele>274.0</ele></trkpt>
<trkpt lat="47.592142" lon="7.642236"><ele>273.5</ele></trkpt>
<trkpt lat="47.592138" lon="7.642302"><ele>273.5</ele></trkpt>
<trkpt lat="47.592144" lon="7.642395"><ele>273.5</ele></trkpt>
<trkpt lat="47.592147" lon="7.642526"><ele>273.5</ele></trkpt>
<trkpt lat="47.592139" lon="7.642591"><ele>273.5</ele></trkpt>
<trkpt lat="47.592109" lon="7.642817"><ele>273.5</ele></trkpt>
<trkpt lat="47.592097" lon="7.642889"><ele>273.25</ele></trkpt>
<trkpt lat="47.592075" lon="7.643002"><ele>273.0</ele></trkpt>
<trkpt lat="47.592059" lon="7.643114"><ele>272.75</ele></trkpt>
<trkpt lat="47.592040" lon="7.643345"><ele>272.75</ele></trkpt>
<trkpt lat="47.592040" lon="7.643441"><ele>272.5</ele></trkpt>
<trkpt lat="47.592052" lon="7.643610"><ele>272.0</ele></trkpt>
<trkpt lat="47.592070" lon="7.643725"><ele>272.0</ele></trkpt>
<trkpt lat="47.592107" lon="7.643876"><ele>272.0</ele></trkpt>
<trkpt lat="47.592160" lon="7.644024"><ele>272.0</ele></trkpt>
<trkpt lat="47.592387" lon="7.644561"><ele>272.5</ele></trkpt>
<trkpt lat="47.592440" lon="7.644683"><ele>272.0</ele></trkpt>
<trkpt lat="47.592571" lon="7.645014"><ele>272.0</ele></trkpt>
<trkpt lat="47.592604" lon="7.645155"><ele>272.0</ele></trkpt>
<trkpt lat="47.592615" lon="7.645321"><ele>272.0</ele></trkpt>
<trkpt lat="47.592608" lon="7.645397"><ele>272.0</ele></trkpt>
<trkpt lat="47.592575" lon="7.645573"><ele>271.75</ele></trkpt>
<trkpt lat="47.592558" lon="7.645627"><ele>271.0</ele></trkpt>
<trkpt lat="47.592527" lon="7.645695"><ele>270.0</ele></trkpt>
<trkpt lat="47.592507" lon="7.645734"><ele>269.25</ele></trkpt>
<trkpt lat="47.592240" lon="7.646268"><ele>270.0</ele></trkpt>
<trkpt lat="47.592219" lon="7.646307"><ele>270.75</ele></trkpt>
<trkpt lat="47.592279" lon="7.646350"><ele>270.5</ele></trkpt>
<trkpt lat="47.592449" lon="7.646546"><ele>269.75</ele></trkpt>
<trkpt lat="47.593500" lon="7.647637"><ele>270.0</ele></trkpt>
<trkpt lat="47.593995" lon="7.648158"><ele>270.5</ele></trkpt>
<trkpt lat="47.594565" lon="7.648666"><ele>270.75</ele></trkpt>
<trkpt lat="47.594904" lon="7.648928"><ele>270.75</ele></trkpt>
<trkpt lat="47.595258" lon="7.649180"><ele>272.0</ele></trkpt>
<trkpt lat="47.595471" lon="7.649348"><ele>271.5</ele></trkpt>
<trkpt lat="47.595518" lon="7.649401"><ele>272.25</ele></trkpt>
<trkpt lat="47.595561" lon="7.649468"><ele>272.75</ele></trkpt>
<trkpt lat="47.595804" lon="7.649917"><ele>272.75</ele></trkpt>
<trkpt lat="47.595901" lon="7.650061"><ele>272.25</ele></trkpt>
<trkpt lat="47.595947" lon="7.650108"><ele>272.5</ele></trkpt>
<trkpt lat="47.595980" lon="7.650130"><ele>272.5</ele></trkpt>
<trkpt lat="47.596024" lon="7.650178"><ele>272.25</ele></trkpt>
<trkpt lat="47.596104" lon="7.650270"><ele>272.0</ele></trkpt>
<trkpt lat="47.596138" lon="7.650291"><ele>271.75</ele></trkpt>
<trkpt lat="47.596193" lon="7.650301"><ele>271.75</ele></trkpt>
<trkpt lat="47.596326" lon="7.650289"><ele>271.75</ele></trkpt>
<trkpt lat="47.596424" lon="7.650316"><ele>272.25</ele></trkpt>
<trkpt lat="47.596795" lon="7.650525"><ele>275.0</ele></trkpt>
<trkpt lat="47.596821" lon="7.650557"><ele>275.0</ele></trkpt>
<trkpt lat="47.596839" lon="7.650600"><ele>275.0</ele></trkpt>
<trkpt lat="47.596855" lon="7.650693"><ele>275.0</ele></trkpt>
<trkpt lat="47.596868" lon="7.650730"><ele>275.0</ele></trkpt>
<trkpt lat="47.596901" lon="7.650779"><ele>275.0</ele></trkpt>
<trkpt lat="47.596969" lon="7.650854"><ele>275.0</ele></trkpt>
<trkpt lat="47.596967" lon="7.650879"><ele>275.0</ele></trkpt>
<trkpt lat="47.596940" lon="7.651321"><ele>275.0</ele></trkpt>
<trkpt lat="47.596894" lon="7.652243"><ele>275.0</ele></trkpt>
<trkpt lat="47.596813" lon="7.653683"><ele>275.5</ele></trkpt>
<trkpt lat="47.596801" lon="7.653897"><ele>276.0</ele></trkpt>
<trkpt lat="47.596774" lon="7.654112"><ele>276.25</ele></trkpt>
<trkpt lat="47.596735" lon="7.654292"><ele>276.5</ele></trkpt>
<trkpt lat="47.596725" lon="7.654333"><ele>276.75</ele></trkpt>
<trkpt lat="47.596698" lon="7.654438"><ele>277.0</ele></trkpt>
<trkpt lat="47.596600" lon="7.654867"><ele>278.5</ele></trkpt>
<trkpt lat="47.596551" lon="7.655065"><ele>279.0</ele></trkpt>
<trkpt lat="47.596331" lon="7.656002"><ele>281.0</ele></trkpt>
<trkpt lat="47.596264" lon="7.655980"><ele>281.0</ele></trkpt>
<trkpt lat="47.596169" lon="7.655952"><ele>281.0</ele></trkpt>
<trkpt lat="47.596135" lon="7.655943"><ele>281.0</ele></trkpt>
<trkpt lat="47.596062" lon="7.656311"><ele>281.5</ele></trkpt>
<trkpt lat="47.596042" lon="7.656434"><ele>282.0</ele></trkpt>
<trkpt lat="47.595889" lon="7.657189"><ele>282.75</ele></trkpt>
<trkpt lat="47.595843" lon="7.657185"><ele>282.75</ele></trkpt>
<trkpt lat="47.595835" lon="7.657193"><ele>282.75</ele></trkpt>
<trkpt lat="47.595825" lon="7.657244"><ele>283.0</ele></trkpt>
<trkpt lat="47.595816" lon="7.657299"><ele>283.0</ele></trkpt>
<trkpt lat="47.595807" lon="7.657349"><ele>283.0</ele></trkpt>
<trkpt lat="47.595804" lon="7.657370"><ele>283.0</ele></trkpt>
<trkpt lat="47.595800" lon="7.657404"><ele>283.0</ele></trkpt>
<trkpt lat="47.595173" lon="7.657205"><ele>285.0</ele></trkpt>
<trkpt lat="47.594890" lon="7.657104"><ele>285.5</ele></trkpt>
<trkpt lat="47.593907" lon="7.656793"><ele>285.0</ele></trkpt>
<trkpt lat="47.593564" lon="7.658269"><ele>285.75</ele></trkpt>
<trkpt lat="47.593490" lon="7.658587"><ele>285.5</ele></trkpt>
<trkpt lat="47.593384" lon="7.658998"><ele>285.25</ele></trkpt>
<trkpt lat="47.593061" lon="7.660064"><ele>287.0</ele></trkpt>
<trkpt lat="47.593011" lon="7.660210"><ele>287.75</ele></trkpt>
<trkpt lat="47.592917" lon="7.660168"><ele>287.5</ele></trkpt>
<trkpt lat="47.592559" lon="7.659977"><ele>286.75</ele></trkpt>
<trkpt lat="47.591236" lon="7.659251"><ele>286.75</ele></trkpt>
<trkpt lat="47.590868" lon="7.659063"><ele>287.5</ele></trkpt>
<trkpt lat="47.590164" lon="7.658754"><ele>287.0</ele></trkpt>
<trkpt lat="47.589336" lon="7.658419"><ele>288.25</ele></trkpt>
<trkpt lat="47.588938" lon="7.658245"><ele>288.5</ele></trkpt>
<trkpt lat="47.589017" lon="7.657751"><ele>287.75</ele></trkpt>
<trkpt lat="47.589058" lon="7.657515"><ele>287.25</ele></trkpt>
<trkpt lat="47.589075" lon="7.657420"><ele>287.0</ele></trkpt>
<trkpt lat="47.589085" lon="7.657361"><ele>287.0</ele></trkpt>
<trkpt lat="47.589101" lon="7.657128"><ele>287.0</ele></trkpt>
<trkpt lat="47.589099" lon="7.656929"><ele>286.75</ele></trkpt>
<trkpt lat="47.589089" lon="7.656811"><ele>286.25</ele></trkpt>
<trkpt lat="47.589076" lon="7.656709"><ele>285.75</ele></trkpt>
<trkpt lat="47.589023" lon="7.656489"><ele>285.75</ele></trkpt>
<trkpt lat="47.588890" lon="7.656150"><ele>286.0</ele></trkpt>
<trkpt lat="47.588860" lon="7.656181"><ele>285.75</ele></trkpt>
<trkpt lat="47.588833" lon="7.656192"><ele>285.75</ele></trkpt>
<trkpt lat="47.588805" lon="7.656194"><ele>285.5</ele></trkpt>
<trkpt lat="47.588732" lon="7.656173"><ele>285.25</ele></trkpt>
<trkpt lat="47.587780" lon="7.655905"><ele>284.75</ele></trkpt>
<trkpt lat="47.587319" lon="7.655706"><ele>286.25</ele></trkpt>
<trkpt lat="47.587289" lon="7.655691"><ele>286.25</ele></trkpt>
<trkpt lat="47.587229" lon="7.655659"><ele>286.25</ele></trkpt>
<trkpt lat="47.587127" lon="7.655604"><ele>286.0</ele></trkpt>
<trkpt lat="47.587018" lon="7.655546"><ele>285.75</ele></trkpt>
<trkpt lat="47.586653" lon="7.655335"><ele>284.0</ele></trkpt>
<trkpt lat="47.586482" lon="7.655236"><ele>284.0</ele></trkpt>
<trkpt lat="47.586397" lon="7.655187"><ele>284.0</ele></trkpt>
<trkpt lat="47.586289" lon="7.655149"><ele>284.25</ele></trkpt>
<trkpt lat="47.585650" lon="7.654947"><ele>285.0</ele></trkpt>
<trkpt lat="47.585596" lon="7.654928"><ele>285.0</ele></trkpt>
<trkpt lat="47.585489" lon="7.654889"><ele>285.0</ele></trkpt>
<trkpt lat="47.585354" lon="7.654841"><ele>285.25</ele></trkpt>
<trkpt lat="47.585208" lon="7.654766"><ele>285.0</ele></trkpt>
<trkpt lat="47.585111" lon="7.654721"><ele>284.75</ele></trkpt>
<trkpt lat="47.584894" lon="7.654608"><ele>284.25</ele></trkpt>
<trkpt lat="47.584644" lon="7.654482"><ele>284.0</ele></trkpt>
<trkpt lat="47.584105" lon="7.654212"><ele>284.0</ele></trkpt>
<trkpt lat="47.584017" lon="7.654154"><ele>283.75</ele></trkpt>
<trkpt lat="47.583950" lon="7.654073"><ele>283.5</ele></trkpt>
<trkpt lat="47.583866" lon="7.653953"><ele>283.25</ele></trkpt>
<trkpt lat="47.583793" lon="7.653809"><ele>283.5</ele></trkpt>
<trkpt lat="47.583779" lon="7.653769"><ele>283.5</ele></trkpt>
<trkpt lat="47.583620" lon="7.653317"><ele>283.75</ele></trkpt>
<trkpt lat="47.583580" lon="7.653203"><ele>283.75</ele></trkpt>
<trkpt lat="47.583407" lon="7.652704"><ele>283.0</ele></trkpt>
<trkpt lat="47.583295" lon="7.652481"><ele>283.0</ele></trkpt>
<trkpt lat="47.583222" lon="7.652372"><ele>283.0</ele></trkpt>
<trkpt lat="47.583121" lon="7.652248"><ele>283.0</ele></trkpt>
<trkpt lat="47.582925" lon="7.652092"><ele>282.75</ele></trkpt>
<trkpt lat="47.582649" lon="7.651865"><ele>283.25</ele></trkpt>
<trkpt lat="47.582569" lon="7.651788"><ele>283.25</ele></trkpt>
<trkpt lat="47.582386" lon="7.651596"><ele>283.0</ele></trkpt>
<trkpt lat="47.582139" lon="7.651252"><ele>283.0</ele></trkpt>
<trkpt lat="47.581664" lon="7.650574"><ele>282.0</ele></trkpt>
<trkpt lat="47.581330" lon="7.650129"><ele>282.0</ele></trkpt>
<trkpt lat="47.580923" lon="7.649586"><ele>282.0</ele></trkpt>
<trkpt lat="47.580690" lon="7.649276"><ele>281.75</ele></trkpt>
<trkpt lat="47.580638" lon="7.649212"><ele>281.75</ele></trkpt>
<trkpt lat="47.580600" lon="7.649166"><ele>281.75</ele></trkpt>
<trkpt lat="47.580575" lon="7.649136"><ele>281.75</ele></trkpt>
<trkpt lat="47.580497" lon="7.649043"><ele>281.75</ele></trkpt>
<trkpt lat="47.580390" lon="7.648947"><ele>281.75</ele></trkpt>
<trkpt lat="47.580196" lon="7.648842"><ele>281.75</ele></trkpt>
<trkpt lat="47.579842" lon="7.648645"><ele>281.0</ele></trkpt>
<trkpt lat="47.579401" lon="7.648402"><ele>281.0</ele></trkpt>
<trkpt lat="47.578549" lon="7.647926"><ele>281.0</ele></trkpt>
<trkpt lat="47.578355" lon="7.647814"><ele>281.75</ele></trkpt>
<trkpt lat="47.578240" lon="7.647750"><ele>281.75</ele></trkpt>
<trkpt lat="47.578231" lon="7.647702"><ele>281.75</ele></trkpt>
<trkpt lat="47.578212" lon="7.647592"><ele>281.75</ele></trkpt>
<trkpt lat="47.578172" lon="7.647371"><ele>281.75</ele></trkpt>
<trkpt lat="47.578114" lon="7.647072"><ele>281.75</ele></trkpt>
<trkpt lat="47.578017" lon="7.646569"><ele>281.0</ele></trkpt>
<trkpt lat="47.577955" lon="7.646248"><ele>281.25</ele></trkpt>
<trkpt lat="47.577871" lon="7.645828"><ele>280.5</ele></trkpt>
<trkpt lat="47.577819" lon="7.645640"><ele>280.5</ele></trkpt>
<trkpt lat="47.577778" lon="7.645521"><ele>280.75</ele></trkpt>
<trkpt lat="47.577688" lon="7.645322"><ele>280.75</ele></trkpt>
<trkpt lat="47.577584" lon="7.645153"><ele>281.25</ele></trkpt>
<trkpt lat="47.577094" lon="7.644524"><ele>281.0</ele></trkpt>
<trkpt lat="47.577068" lon="7.644471"><ele>280.75</ele></trkpt>
<trkpt lat="47.577053" lon="7.644408"><ele>281.0</ele></trkpt>
<trkpt lat="47.577040" lon="7.644345"><ele>281.0</ele></trkpt>
<trkpt lat="47.577039" lon="7.644284"><ele>281.0</ele></trkpt>
<trkpt lat="47.577082" lon="7.643912"><ele>280.5</ele></trkpt>
<trkpt lat="47.577090" lon="7.643839"><ele>280.75</ele></trkpt>
<trkpt lat="47.577084" lon="7.643633"><ele>281.75</ele></trkpt>
<trkpt lat="47.576932" lon="7.642148"><ele>279.5</ele></trkpt>
<trkpt lat="47.576872" lon="7.641623"><ele>279.25</ele></trkpt>
<trkpt lat="47.576712" lon="7.640018"><ele>278.0</ele></trkpt>
<trkpt lat="47.576694" lon="7.639839"><ele>277.75</ele></trkpt>
<trkpt lat="47.576683" lon="7.639649"><ele>277.5</ele></trkpt>
<trkpt lat="47.576678" lon="7.639448"><ele>277.0</ele></trkpt>
<trkpt lat="47.576675" lon="7.639270"><ele>277.0</ele></trkpt>
<trkpt lat="47.576648" lon="7.638408"><ele>275.25</ele></trkpt>
<trkpt lat="47.576615" lon="7.637512"><ele>274.25</ele></trkpt>
<trkpt lat="47.576633" lon="7.637360"><ele>273.25</ele></trkpt>
<trkpt lat="47.576687" lon="7.637250"><ele>272.0</ele></trkpt>
<trkpt lat="47.576443" lon="7.636723"><ele>272.25</ele></trkpt>
<trkpt lat="47.576142" lon="7.635862"><ele>269.0</ele></trkpt>
<trkpt lat="47.576083" lon="7.635708"><ele>269.0</ele></trkpt>
<trkpt lat="47.576022" lon="7.635536"><ele>268.75</ele></trkpt>
<trkpt lat="47.575995" lon="7.635464"><ele>268.5</ele></trkpt>
<trkpt lat="47.575978" lon="7.635417"><ele>268.5</ele></trkpt>
<trkpt lat="47.575916" lon="7.635242"><ele>267.75</ele></trkpt>
<trkpt lat="47.575853" lon="7.635070"><ele>267.25</ele></trkpt>
<trkpt lat="47.575671" lon="7.634597"><ele>265.75</ele></trkpt>
<trkpt lat="47.575484" lon="7.634257"><ele>265.75</ele></trkpt>
<trkpt lat="47.575190" lon="7.633917"><ele>265.0</ele></trkpt>
<trkpt lat="47.574953" lon="7.633705"><ele>264.0</ele></trkpt>
<trkpt lat="47.574153" lon="7.632945"><ele>263.0</ele></trkpt>
<trkpt lat="47.573934" lon="7.632752"><ele>262.75</ele></trkpt>
<trkpt lat="47.573865" lon="7.632677"><ele>262.5</ele></trkpt>
<trkpt lat="47.573770" lon="7.632543"><ele>262.5</ele></trkpt>
<trkpt lat="47.573685" lon="7.632392"><ele>262.25</ele></trkpt>
<trkpt lat="47.573619" lon="7.632235"><ele>262.0</ele></trkpt>
<trkpt lat="47.573543" lon="7.631988"><ele>262.0</ele></trkpt>
<trkpt lat="47.573393" lon="7.631286"><ele>262.0</ele></trkpt>
<trkpt lat="47.573121" lon="7.630225"><ele>261.0</ele></trkpt>
<trkpt lat="47.573009" lon="7.629841"><ele>261.0</ele></trkpt>
<trkpt lat="47.572952" lon="7.629654"><ele>261.0</ele></trkpt>
<trkpt lat="47.572934" lon="7.629581"><ele>261.0</ele></trkpt>
<trkpt lat="47.572859" lon="7.629271"><ele>261.25</ele></trkpt>
<trkpt lat="47.572822" lon="7.629089"><ele>261.0</ele></trkpt>
<trkpt lat="47.572800" lon="7.628893"><ele>261.0</ele></trkpt>
<trkpt lat="47.572796" lon="7.628769"><ele>261.0</ele></trkpt>
<trkpt lat="47.572810" lon="7.628318"><ele>260.75</ele></trkpt>
<trkpt lat="47.572822" lon="7.627702"><ele>260.75</ele></trkpt>
<trkpt lat="47.572802" lon="7.627424"><ele>260.5</ele></trkpt>
<trkpt lat="47.572565" lon="7.625894"><ele>260.5</ele></trkpt>
<trkpt lat="47.572281" lon="7.623909"><ele>259.75</ele></trkpt>
<trkpt lat="47.572009" lon="7.622362"><ele>259.0</ele></trkpt>
<trkpt lat="47.571862" lon="7.621477"><ele>259.0</ele></trkpt>
<trkpt lat="47.571800" lon="7.621181"><ele>258.5</ele></trkpt>
<trkpt lat="47.571698" lon="7.620701"><ele>258.0</ele></trkpt>
<trkpt lat="47.571358" lon="7.618947"><ele>258.0</ele></trkpt>
<trkpt lat="47.571251" lon="7.618636"><ele>258.0</ele></trkpt>
<trkpt lat="47.570989" lon="7.618133"><ele>258.0</ele></trkpt>
<trkpt lat="47.570748" lon="7.617719"><ele>258.0</ele></trkpt>
<trkpt lat="47.570429" lon="7.617171"><ele>258.0</ele></trkpt>
<trkpt lat="47.570396" lon="7.617114"><ele>258.25</ele></trkpt>
<trkpt lat="47.570309" lon="7.616910"><ele>258.75</ele></trkpt>
<trkpt lat="47.570365" lon="7.616868"><ele>258.75</ele></trkpt>
<trkpt lat="47.570394" lon="7.616846"><ele>258.75</ele></trkpt>
<trkpt lat="47.570470" lon="7.616761"><ele>258.5</ele></trkpt>
<trkpt lat="47.570511" lon="7.616713"><ele>258.25</ele></trkpt>
<trkpt lat="47.570532" lon="7.616688"><ele>258.0</ele></trkpt>
<trkpt lat="47.570622" lon="7.616579"><ele>257.75</ele></trkpt>
<trkpt lat="47.570747" lon="7.616429"><ele>257.75</ele></trkpt>
<trkpt lat="47.570807" lon="7.616335"><ele>258.0</ele></trkpt>
<trkpt lat="47.570793" lon="7.616295"><ele>258.0</ele></trkpt>
<trkpt lat="47.570749" lon="7.616165"><ele>258.0</ele></trkpt>
<trkpt lat="47.570714" lon="7.616045"><ele>258.0</ele></trkpt>
<trkpt lat="47.570562" lon="7.615510"><ele>257.0</ele></trkpt>
<trkpt lat="47.570468" lon="7.615154"><ele>257.75</ele></trkpt>
<trkpt lat="47.570397" lon="7.614871"><ele>257.5</ele></trkpt>
<trkpt lat="47.570377" lon="7.614785"><ele>257.75</ele></trkpt>
<trkpt lat="47.570254" lon="7.614204"><ele>257.0</ele></trkpt>
<trkpt lat="47.570074" lon="7.613372"><ele>257.25</ele></trkpt>
<trkpt lat="47.569913" lon="7.612338"><ele>257.0</ele></trkpt>
<trkpt lat="47.569898" lon="7.612225"><ele>257.0</ele></trkpt>
<trkpt lat="47.569793" lon="7.611343"><ele>256.5</ele></trkpt>
<trkpt lat="47.569728" lon="7.610513"><ele>256.75</ele></trkpt>
<trkpt lat="47.569688" lon="7.609844"><ele>256.0</ele></trkpt>
<trkpt lat="47.569690" lon="7.609783"><ele>256.0</ele></trkpt>
<trkpt lat="47.569698" lon="7.609742"><ele>256.0</ele></trkpt>
<trkpt lat="47.569733" lon="7.609679"><ele>256.0</ele></trkpt>
<trkpt lat="47.569753" lon="7.609650"><ele>256.0</ele></trkpt>
<trkpt lat="47.569731" lon="7.609607"><ele>256.0</ele></trkpt>
<trkpt lat="47.569716" lon="7.609548"><ele>256.0</ele></trkpt>
<trkpt lat="47.569656" lon="7.609161"><ele>256.0</ele></trkpt>
<trkpt lat="47.569631" lon="7.609032"><ele>256.25</ele></trkpt>
<trkpt lat="47.569605" lon="7.608941"><ele>256.25</ele></trkpt>
<trkpt lat="47.569482" lon="7.608501"><ele>256.5</ele></trkpt>
<trkpt lat="47.569419" lon="7.608287"><ele>257.5</ele></trkpt>
<trkpt lat="47.569382" lon="7.608171"><ele>260.25</ele></trkpt>
<trkpt lat="47.569367" lon="7.608128"><ele>261.0</ele></trkpt>
<trkpt lat="47.569254" lon="7.607813"><ele>261.75</ele></trkpt>
<trkpt lat="47.569232" lon="7.607750"><ele>261.5</ele></trkpt>
<trkpt lat="47.569187" lon="7.607625"><ele>261.0</ele></trkpt>
<trkpt lat="47.568656" lon="7.606158"><ele>257.0</ele></trkpt>
<trkpt lat="47.568561" lon="7.605895"><ele>257.0</ele></trkpt>
<trkpt lat="47.568536" lon="7.605824"><ele>257.0</ele></trkpt>
<trkpt lat="47.568518" lon="7.605775"><ele>257.0</ele></trkpt>
<trkpt lat="47.568490" lon="7.605695"><ele>257.0</ele></trkpt>
<trkpt lat="47.568437" lon="7.605552"><ele>257.0</ele></trkpt>
<trkpt lat="47.568387" lon="7.605411"><ele>257.0</ele></trkpt>
<trkpt lat="47.568147" lon="7.604587"><ele>256.0</ele></trkpt>
<trkpt lat="47.567606" lon="7.602738"><ele>256.0</ele></trkpt>
<trkpt lat="47.567574" lon="7.602624"><ele>256.0</ele></trkpt>
<trkpt lat="47.567538" lon="7.602504"><ele>256.0</ele></trkpt>
<trkpt lat="47.567104" lon="7.600989"><ele>255.25</ele></trkpt>
<trkpt lat="47.566574" lon="7.599109"><ele>256.0</ele></trkpt>
<trkpt lat="47.566474" lon="7.598759"><ele>257.0</ele></trkpt>
<trkpt lat="47.566225" lon="7.597887"><ele>256.5</ele></trkpt>
<trkpt lat="47.566179" lon="7.597755"><ele>256.0</ele></trkpt>
<trkpt lat="47.566173" lon="7.597738"><ele>256.0</ele></trkpt>
<trkpt lat="47.566168" lon="7.597722"><ele>256.0</ele></trkpt>
<trkpt lat="47.566135" lon="7.597614"><ele>256.0</ele></trkpt>
<trkpt lat="47.565500" lon="7.595557"><ele>256.0</ele></trkpt>
<trkpt lat="47.565103" lon="7.594265"><ele>255.25</ele></trkpt>
<trkpt lat="47.565029" lon="7.594021"><ele>255.0</ele></trkpt>
<trkpt lat="47.564664" lon="7.592723"><ele>254.75</ele></trkpt>
<trkpt lat="47.564632" lon="7.592619"><ele>254.75</ele></trkpt>
<trkpt lat="47.564319" lon="7.591567"><ele>254.25</ele></trkpt>
<trkpt lat="47.564318" lon="7.591489"><ele>254.0</ele></trkpt>
<trkpt lat="47.564319" lon="7.591471"><ele>254.0</ele></trkpt>
<trkpt lat="47.564093" lon="7.591445"><ele>254.0</ele></trkpt>
<trkpt lat="47.564000" lon="7.591452"><ele>254.0</ele></trkpt>
<trkpt lat="47.563905" lon="7.591484"><ele>254.0</ele></trkpt>
<trkpt lat="47.563314" lon="7.591803"><ele>254.0</ele></trkpt>
<trkpt lat="47.563129" lon="7.591913"><ele>254.0</ele></trkpt>
<trkpt lat="47.563031" lon="7.591973"><ele>254.0</ele></trkpt>
<trkpt lat="47.562938" lon="7.592034"><ele>254.0</ele></trkpt>
<trkpt lat="47.562691" lon="7.592192"><ele>253.75</ele></trkpt>
<trkpt lat="47.562556" lon="7.592293"><ele>254.0</ele></trkpt>
<trkpt lat="47.562449" lon="7.592399"><ele>254.0</ele></trkpt>
<trkpt lat="47.562325" lon="7.592551"><ele>253.75</ele></trkpt>
<trkpt lat="47.562113" lon="7.592833"><ele>254.0</ele></trkpt>
<trkpt lat="47.561785" lon="7.593227"><ele>254.0</ele></trkpt>
<trkpt lat="47.561713" lon="7.593276"><ele>254.0</ele></trkpt>
<trkpt lat="47.561670" lon="7.593306"><ele>254.0</ele></trkpt>
<trkpt lat="47.561602" lon="7.593354"><ele>254.0</ele></trkpt>
<trkpt lat="47.561579" lon="7.593371"><ele>254.0</ele></trkpt>
<trkpt lat="47.561568" lon="7.593410"><ele>254.0</ele></trkpt>
<trkpt lat="47.561526" lon="7.593227"><ele>254.0</ele></trkpt>
<trkpt lat="47.561518" lon="7.593181"><ele>254.0</ele></trkpt>
<trkpt lat="47.561501" lon="7.593090"><ele>254.0</ele></trkpt>
<trkpt lat="47.561417" lon="7.592802"><ele>253.0</ele></trkpt>
<trkpt lat="47.561303" lon="7.592435"><ele>253.0</ele></trkpt>
<trkpt lat="47.561176" lon="7.592072"><ele>253.0</ele></trkpt>
<trkpt lat="47.561144" lon="7.591975"><ele>253.0</ele></trkpt>
<trkpt lat="47.560910" lon="7.591313"><ele>252.0</ele></trkpt>
<trkpt lat="47.560864" lon="7.591177"><ele>252.0</ele></trkpt>
<trkpt lat="47.560694" lon="7.590808"><ele>252.5</ele></trkpt>
<trkpt lat="47.560638" lon="7.590693"><ele>250.0</ele></trkpt>
<trkpt lat="47.560580" lon="7.590754"><ele>250.75</ele></trkpt>
<trkpt lat="47.560569" lon="7.590732"><ele>250.0</ele></trkpt>
<trkpt lat="47.560132" lon="7.589853"><ele>247.5</ele></trkpt>
</trkseg></trk></gpx>
