<?xml version="1.0" encoding="UTF-8"?>
<gpx version="1.1" creator="BRouter paired review" xmlns="http://www.topografix.com/GPX/1/1">
<trk><name>Route A</name><trkseg>
<trkpt lat="47.560133" lon="7.589854"><ele>248.75</ele></trkpt>
<trkpt lat="47.560569" lon="7.590732"><ele>250.0</ele></trkpt>
<trkpt lat="47.560580" lon="7.590754"><ele>250.75</ele></trkpt>
<trkpt lat="47.560638" lon="7.590693"><ele>250.0</ele></trkpt>
<trkpt lat="47.559653" lon="7.588712"><ele>249.75</ele></trkpt>
<trkpt lat="47.559632" lon="7.588624"><ele>252.0</ele></trkpt>
<trkpt lat="47.559629" lon="7.588560"><ele>252.25</ele></trkpt>
<trkpt lat="47.559631" lon="7.588516"><ele>252.5</ele></trkpt>
<trkpt lat="47.559647" lon="7.588443"><ele>252.5</ele></trkpt>
<trkpt lat="47.559694" lon="7.588340"><ele>252.75</ele></trkpt>
<trkpt lat="47.559834" lon="7.588131"><ele>251.75</ele></trkpt>
<trkpt lat="47.559883" lon="7.588026"><ele>252.25</ele></trkpt>
<trkpt lat="47.559911" lon="7.587947"><ele>252.0</ele></trkpt>
<trkpt lat="47.559946" lon="7.587849"><ele>252.0</ele></trkpt>
<trkpt lat="47.559956" lon="7.587828"><ele>252.0</ele></trkpt>
<trkpt lat="47.560022" lon="7.587709"><ele>252.0</ele></trkpt>
<trkpt lat="47.560076" lon="7.587652"><ele>252.0</ele></trkpt>
<trkpt lat="47.560314" lon="7.587456"><ele>252.75</ele></trkpt>
<trkpt lat="47.560343" lon="7.587433"><ele>252.75</ele></trkpt>
<trkpt lat="47.560570" lon="7.587271"><ele>252.75</ele></trkpt>
<trkpt lat="47.560664" lon="7.587210"><ele>253.25</ele></trkpt>
<trkpt lat="47.560783" lon="7.587099"><ele>254.25</ele></trkpt>
<trkpt lat="47.560855" lon="7.587017"><ele>254.5</ele></trkpt>
<trkpt lat="47.560981" lon="7.586837"><ele>255.5</ele></trkpt>
<trkpt lat="47.561012" lon="7.586791"><ele>255.75</ele></trkpt>
<trkpt lat="47.561166" lon="7.586552"><ele>256.0</ele></trkpt>
<trkpt lat="47.561283" lon="7.586387"><ele>257.0</ele></trkpt>
<trkpt lat="47.561372" lon="7.586286"><ele>257.25</ele></trkpt>
<trkpt lat="47.561403" lon="7.586255"><ele>257.25</ele></trkpt>
<trkpt lat="47.561427" lon="7.586234"><ele>257.25</ele></trkpt>
<trkpt lat="47.561473" lon="7.586191"><ele>257.5</ele></trkpt>
<trkpt lat="47.561486" lon="7.586180"><ele>257.5</ele></trkpt>
<trkpt lat="47.561547" lon="7.586131"><ele>257.75</ele></trkpt>
<trkpt lat="47.561542" lon="7.586111"><ele>258.0</ele></trkpt>
<trkpt lat="47.561528" lon="7.586042"><ele>258.0</ele></trkpt>
<trkpt lat="47.561523" lon="7.585957"><ele>258.0</ele></trkpt>
<trkpt lat="47.561529" lon="7.585899"><ele>258.0</ele></trkpt>
<trkpt lat="47.561558" lon="7.585792"><ele>258.0</ele></trkpt>
<trkpt lat="47.561596" lon="7.585686"><ele>258.0</ele></trkpt>
<trkpt lat="47.561631" lon="7.585600"><ele>258.0</ele></trkpt>
<trkpt lat="47.561786" lon="7.585275"><ele>258.0</ele></trkpt>
<trkpt lat="47.561837" lon="7.585147"><ele>258.0</ele></trkpt>
<trkpt lat="47.561862" lon="7.585020"><ele>258.0</ele></trkpt>
<trkpt lat="47.561889" lon="7.584889"><ele>257.75</ele></trkpt>
<trkpt lat="47.561910" lon="7.584787"><ele>257.75</ele></trkpt>
<trkpt lat="47.561933" lon="7.584709"><ele>257.75</ele></trkpt>
<trkpt lat="47.561950" lon="7.584677"><ele>258.0</ele></trkpt>
<trkpt lat="47.562033" lon="7.584515"><ele>258.0</ele></trkpt>
<trkpt lat="47.562590" lon="7.583704"><ele>258.25</ele></trkpt>
<trkpt lat="47.562915" lon="7.583340"><ele>258.25</ele></trkpt>
<trkpt lat="47.563030" lon="7.583209"><ele>258.25</ele></trkpt>
<trkpt lat="47.563121" lon="7.583104"><ele>258.5</ele></trkpt>
<trkpt lat="47.563378" lon="7.582809"><ele>258.0</ele></trkpt>
<trkpt lat="47.563401" lon="7.582783"><ele>258.0</ele></trkpt>
<trkpt lat="47.563477" lon="7.582696"><ele>258.0</ele></trkpt>
<trkpt lat="47.563566" lon="7.582587"><ele>258.0</ele></trkpt>
<trkpt lat="47.563586" lon="7.582560"><ele>258.0</ele></trkpt>
<trkpt lat="47.563888" lon="7.582164"><ele>258.0</ele></trkpt>
<trkpt lat="47.563983" lon="7.582045"><ele>258.0</ele></trkpt>
<trkpt lat="47.564021" lon="7.581999"><ele>258.0</ele></trkpt>
<trkpt lat="47.564275" lon="7.581673"><ele>258.0</ele></trkpt>
<trkpt lat="47.564550" lon="7.581319"><ele>258.0</ele></trkpt>
<trkpt lat="47.564915" lon="7.580852"><ele>258.0</ele></trkpt>
<trkpt lat="47.564937" lon="7.580765"><ele>258.0</ele></trkpt>
<trkpt lat="47.565008" lon="7.580734"><ele>258.0</ele></trkpt>
<trkpt lat="47.565022" lon="7.580717"><ele>258.0</ele></trkpt>
<trkpt lat="47.565076" lon="7.580653"><ele>258.0</ele></trkpt>
<trkpt lat="47.565651" lon="7.579925"><ele>258.0</ele></trkpt>
<trkpt lat="47.565727" lon="7.579873"><ele>258.0</ele></trkpt>
<trkpt lat="47.565785" lon="7.579987"><ele>258.0</ele></trkpt>
<trkpt lat="47.566267" lon="7.579514"><ele>258.0</ele></trkpt>
<trkpt lat="47.566750" lon="7.579027"><ele>258.0</ele></trkpt>
<trkpt lat="47.567148" lon="7.578610"><ele>258.0</ele></trkpt>
<trkpt lat="47.567596" lon="7.578157"><ele>257.75</ele></trkpt>
<trkpt lat="47.567648" lon="7.578104"><ele>257.75</ele></trkpt>
<trkpt lat="47.567683" lon="7.578067"><ele>257.75</ele></trkpt>
<trkpt lat="47.568112" lon="7.577650"><ele>258.0</ele></trkpt>
<trkpt lat="47.568156" lon="7.577605"><ele>258.0</ele></trkpt>
<trkpt lat="47.568516" lon="7.577240"><ele>258.0</ele></trkpt>
<trkpt lat="47.568556" lon="7.577199"><ele>258.0</ele></trkpt>
<trkpt lat="47.569072" lon="7.576694"><ele>257.5</ele></trkpt>
<trkpt lat="47.569694" lon="7.576070"><ele>258.0</ele></trkpt>
<trkpt lat="47.570775" lon="7.575113"><ele>259.0</ele></trkpt>
<trkpt lat="47.570878" lon="7.574993"><ele>259.0</ele></trkpt>
<trkpt lat="47.570922" lon="7.574950"><ele>259.0</ele></trkpt>
<trkpt lat="47.570943" lon="7.574937"><ele>259.0</ele></trkpt>
<trkpt lat="47.570959" lon="7.574974"><ele>259.0</ele></trkpt>
<trkpt lat="47.571004" lon="7.575019"><ele>259.0</ele></trkpt>
<trkpt lat="47.571012" lon="7.575025"><ele>259.0</ele></trkpt>
<trkpt lat="47.571040" lon="7.575037"><ele>259.0</ele></trkpt>
<trkpt lat="47.571076" lon="7.575039"><ele>259.0</ele></trkpt>
<trkpt lat="47.571114" lon="7.575024"><ele>259.0</ele></trkpt>
<trkpt lat="47.571154" lon="7.574990"><ele>259.0</ele></trkpt>
<trkpt lat="47.571172" lon="7.574964"><ele>259.0</ele></trkpt>
<trkpt lat="47.571202" lon="7.574881"><ele>259.0</ele></trkpt>
<trkpt lat="47.571214" lon="7.574830"><ele>259.0</ele></trkpt>
<trkpt lat="47.571218" lon="7.574778"><ele>259.0</ele></trkpt>
<trkpt lat="47.571211" lon="7.574678"><ele>259.0</ele></trkpt>
<trkpt lat="47.571234" lon="7.574668"><ele>259.0</ele></trkpt>
<trkpt lat="47.571294" lon="7.574640"><ele>259.0</ele></trkpt>
<trkpt lat="47.571835" lon="7.574170"><ele>260.5</ele></trkpt>
<trkpt lat="47.572564" lon="7.573540"><ele>261.25</ele></trkpt>
<trkpt lat="47.572839" lon="7.574225"><ele>259.25</ele></trkpt>
<trkpt lat="47.572886" lon="7.574343"><ele>259.75</ele></trkpt>
<trkpt lat="47.573322" lon="7.575429"><ele>259.0</ele></trkpt>
<trkpt lat="47.573437" lon="7.575311"><ele>259.0</ele></trkpt>
<trkpt lat="47.573837" lon="7.574899"><ele>259.0</ele></trkpt>
<trkpt lat="47.574062" lon="7.574667"><ele>258.5</ele></trkpt>
<trkpt lat="47.574939" lon="7.573766"><ele>259.0</ele></trkpt>
<trkpt lat="47.575096" lon="7.573592"><ele>259.0</ele></trkpt>
<trkpt lat="47.575179" lon="7.573472"><ele>259.0</ele></trkpt>
<trkpt lat="47.575345" lon="7.573324"><ele>259.0</ele></trkpt>
<trkpt lat="47.576035" lon="7.572711"><ele>259.0</ele></trkpt>
<trkpt lat="47.576091" lon="7.572671"><ele>259.0</ele></trkpt>
<trkpt lat="47.576223" lon="7.572612"><ele>259.0</ele></trkpt>
<trkpt lat="47.576229" lon="7.572578"><ele>259.0</ele></trkpt>
<trkpt lat="47.576231" lon="7.572568"><ele>259.0</ele></trkpt>
<trkpt lat="47.576264" lon="7.572376"><ele>259.0</ele></trkpt>
<trkpt lat="47.576378" lon="7.571784"><ele>259.0</ele></trkpt>
<trkpt lat="47.576464" lon="7.571556"><ele>259.0</ele></trkpt>
<trkpt lat="47.576607" lon="7.570792"><ele>259.75</ele></trkpt>
<trkpt lat="47.576718" lon="7.570263"><ele>259.75</ele></trkpt>
<trkpt lat="47.577043" lon="7.568976"><ele>258.0</ele></trkpt>
<trkpt lat="47.577081" lon="7.568730"><ele>259.25</ele></trkpt>
<trkpt lat="47.577102" lon="7.568532"><ele>259.75</ele></trkpt>
<trkpt lat="47.577112" lon="7.568232"><ele>259.5</ele></trkpt>
<trkpt lat="47.577102" lon="7.568092"><ele>259.75</ele></trkpt>
<trkpt lat="47.577054" lon="7.567772"><ele>256.5</ele></trkpt>
<trkpt lat="47.576983" lon="7.567501"><ele>256.25</ele></trkpt>
<trkpt lat="47.576410" lon="7.565959"><ele>260.75</ele></trkpt>
<trkpt lat="47.576342" lon="7.565813"><ele>261.0</ele></trkpt>
<trkpt lat="47.576232" lon="7.565557"><ele>261.0</ele></trkpt>
<trkpt lat="47.576106" lon="7.565244"><ele>261.0</ele></trkpt>
<trkpt lat="47.575980" lon="7.564967"><ele>261.0</ele></trkpt>
<trkpt lat="47.575903" lon="7.564799"><ele>261.0</ele></trkpt>
<trkpt lat="47.575836" lon="7.564647"><ele>260.5</ele></trkpt>
<trkpt lat="47.575578" lon="7.564061"><ele>261.25</ele></trkpt>
<trkpt lat="47.575469" lon="7.563833"></trkpt>
<trkpt lat="47.575361" lon="7.563679"></trkpt>
<trkpt lat="47.574843" lon="7.563235"></trkpt>
<trkpt lat="47.574788" lon="7.563178"></trkpt>
<trkpt lat="47.574760" lon="7.563137"></trkpt>
<trkpt lat="47.574733" lon="7.563062"></trkpt>
<trkpt lat="47.574721" lon="7.563005"><ele>264.25</ele></trkpt>
<trkpt lat="47.574713" lon="7.562928"><ele>264.75</ele></trkpt>
<trkpt lat="47.574713" lon="7.562862"><ele>265.25</ele></trkpt>
<trkpt lat="47.574722" lon="7.562808"><ele>265.75</ele></trkpt>
<trkpt lat="47.574772" lon="7.562610"><ele>265.0</ele></trkpt>
<trkpt lat="47.574837" lon="7.562425"><ele>264.5</ele></trkpt>
<trkpt lat="47.575088" lon="7.561779"><ele>264.75</ele></trkpt>
<trkpt lat="47.575379" lon="7.561101"><ele>263.75</ele></trkpt>
<trkpt lat="47.575852" lon="7.560198"><ele>262.5</ele></trkpt>
<trkpt lat="47.576204" lon="7.559655"><ele>262.25</ele></trkpt>
<trkpt lat="47.576516" lon="7.559196"><ele>262.25</ele></trkpt>
<trkpt lat="47.576724" lon="7.558934"><ele>261.5</ele></trkpt>
<trkpt lat="47.578063" lon="7.557428"><ele>261.75</ele></trkpt>
<trkpt lat="47.578283" lon="7.557206"><ele>261.75</ele></trkpt>
<trkpt lat="47.580314" lon="7.554937"><ele>258.75</ele></trkpt>
<trkpt lat="47.584168" lon="7.550694"><ele>260.75</ele></trkpt>
<trkpt lat="47.585300" lon="7.549426"><ele>260.75</ele></trkpt>
<trkpt lat="47.585802" lon="7.548853"><ele>261.0</ele></trkpt>
<trkpt lat="47.586185" lon="7.548362"><ele>260.5</ele></trkpt>
<trkpt lat="47.586412" lon="7.548016"><ele>260.0</ele></trkpt>
<trkpt lat="47.586654" lon="7.547551"><ele>260.5</ele></trkpt>
<trkpt lat="47.587148" lon="7.546330"><ele>261.75</ele></trkpt>
<trkpt lat="47.587277" lon="7.546031"><ele>261.5</ele></trkpt>
<trkpt lat="47.587388" lon="7.545799"><ele>262.0</ele></trkpt>
<trkpt lat="47.587572" lon="7.545480"><ele>262.25</ele></trkpt>
<trkpt lat="47.587757" lon="7.545189"><ele>262.25</ele></trkpt>
<trkpt lat="47.587951" lon="7.544961"><ele>261.5</ele></trkpt>
<trkpt lat="47.588115" lon="7.544799"><ele>261.0</ele></trkpt>
<trkpt lat="47.588366" lon="7.544588"><ele>260.25</ele></trkpt>
<trkpt lat="47.588419" lon="7.544553"><ele>260.25</ele></trkpt>
<trkpt lat="47.588697" lon="7.544377"><ele>260.5</ele></trkpt>
<trkpt lat="47.589046" lon="7.544229"><ele>260.25</ele></trkpt>
<trkpt lat="47.589228" lon="7.544178"><ele>260.5</ele></trkpt>
<trkpt lat="47.589545" lon="7.544144"><ele>259.5</ele></trkpt>
<trkpt lat="47.589735" lon="7.544133"><ele>259.0</ele></trkpt>
<trkpt lat="47.589879" lon="7.544147"><ele>259.0</ele></trkpt>
<trkpt lat="47.590886" lon="7.544375"><ele>258.0</ele></trkpt>
<trkpt lat="47.591044" lon="7.544389"><ele>258.0</ele></trkpt>
<trkpt lat="47.591201" lon="7.544389"><ele>258.0</ele></trkpt>
<trkpt lat="47.591380" lon="7.544374"><ele>258.25</ele></trkpt>
<trkpt lat="47.591672" lon="7.544331"><ele>258.0</ele></trkpt>
<trkpt lat="47.591938" lon="7.544252"><ele>258.0</ele></trkpt>
<trkpt lat="47.592085" lon="7.544185"><ele>258.0</ele></trkpt>
<trkpt lat="47.592347" lon="7.544048"><ele>258.0</ele></trkpt>
<trkpt lat="47.592607" lon="7.543892"><ele>257.75</ele></trkpt>
<trkpt lat="47.593899" lon="7.543000"><ele>256.75</ele></trkpt>
<trkpt lat="47.594228" lon="7.542744"><ele>257.0</ele></trkpt>
<trkpt lat="47.594700" lon="7.542401"><ele>257.0</ele></trkpt>
<trkpt lat="47.594859" lon="7.542236"><ele>256.75</ele></trkpt>
<trkpt lat="47.594930" lon="7.542142"><ele>257.0</ele></trkpt>
<trkpt lat="47.594992" lon="7.542052"><ele>257.0</ele></trkpt>
<trkpt lat="47.595131" lon="7.541818"><ele>256.75</ele></trkpt>
<trkpt lat="47.595179" lon="7.541756"><ele>256.5</ele></trkpt>
<trkpt lat="47.595259" lon="7.541692"><ele>256.0</ele></trkpt>
<trkpt lat="47.595386" lon="7.541647"><ele>256.0</ele></trkpt>
<trkpt lat="47.595400" lon="7.541592"><ele>256.0</ele></trkpt>
<trkpt lat="47.595426" lon="7.541499"><ele>256.25</ele></trkpt>
<trkpt lat="47.595442" lon="7.541441"><ele>256.25</ele></trkpt>
<trkpt lat="47.595406" lon="7.541262"><ele>256.75</ele></trkpt>
<trkpt lat="47.595393" lon="7.541138"><ele>257.0</ele></trkpt>
<trkpt lat="47.595472" lon="7.540842"><ele>256.75</ele></trkpt>
<trkpt lat="47.595610" lon="7.540403"><ele>257.5</ele></trkpt>
<trkpt lat="47.595677" lon="7.540148"><ele>257.75</ele></trkpt>
<trkpt lat="47.595770" lon="7.539934"><ele>258.0</ele></trkpt>
<trkpt lat="47.595810" lon="7.539772"><ele>258.0</ele></trkpt>
<trkpt lat="47.595825" lon="7.539582"><ele>258.0</ele></trkpt>
<trkpt lat="47.596128" lon="7.538481"><ele>258.25</ele></trkpt>
<trkpt lat="47.596248" lon="7.538158"><ele>258.25</ele></trkpt>
<trkpt lat="47.596467" lon="7.537642"><ele>259.0</ele></trkpt>
<trkpt lat="47.596649" lon="7.537267"><ele>259.75</ele></trkpt>
<trkpt lat="47.596733" lon="7.537054"><ele>260.5</ele></trkpt>
<trkpt lat="47.596778" lon="7.537078"><ele>260.25</ele></trkpt>
<trkpt lat="47.596807" lon="7.537117"><ele>260.0</ele></trkpt>
<trkpt lat="47.596833" lon="7.537089"><ele>260.0</ele></trkpt>
<trkpt lat="47.596879" lon="7.537039"><ele>260.25</ele></trkpt>
<trkpt lat="47.596900" lon="7.537013"><ele>260.5</ele></trkpt>
<trkpt lat="47.596946" lon="7.536867"><ele>260.5</ele></trkpt>
<trkpt lat="47.596985" lon="7.536779"><ele>260.0</ele></trkpt>
<trkpt lat="47.597376" lon="7.536283"><ele>259.0</ele></trkpt>
<trkpt lat="47.597692" lon="7.535916"><ele>259.25</ele></trkpt>
<trkpt lat="47.598291" lon="7.535427"><ele>259.5</ele></trkpt>
<trkpt lat="47.598931" lon="7.534935"><ele>260.0</ele></trkpt>
<trkpt lat="47.599518" lon="7.534552"><ele>258.5</ele></trkpt>
<trkpt lat="47.599757" lon="7.534366"><ele>260.25</ele></trkpt>
<trkpt lat="47.599836" lon="7.534265"><ele>261.0</ele></trkpt>
<trkpt lat="47.599862" lon="7.534229"><ele>261.25</ele></trkpt>
<trkpt lat="47.599932" lon="7.534217"><ele>261.5</ele></trkpt>
<trkpt lat="47.600209" lon="7.534177"><ele>260.25</ele></trkpt>
<trkpt lat="47.600375" lon="7.534173"><ele>260.0</ele></trkpt>
<trkpt lat="47.600408" lon="7.534167"><ele>260.0</ele></trkpt>
<trkpt lat="47.600415" lon="7.534117"><ele>260.25</ele></trkpt>
<trkpt lat="47.600467" lon="7.533999"><ele>260.75</ele></trkpt>
<trkpt lat="47.600490" lon="7.533917"><ele>261.0</ele></trkpt>
<trkpt lat="47.600509" lon="7.533876"><ele>260.75</ele></trkpt>
<trkpt lat="47.600567" lon="7.533840"><ele>260.0</ele></trkpt>
<trkpt lat="47.600615" lon="7.533812"><ele>260.0</ele></trkpt>
<trkpt lat="47.600660" lon="7.533844"><ele>260.0</ele></trkpt>
<trkpt lat="47.600696" lon="7.533849"><ele>260.0</ele></trkpt>
<trkpt lat="47.600733" lon="7.533832"><ele>260.25</ele></trkpt>
<trkpt lat="47.600756" lon="7.533811"><ele>260.5</ele></trkpt>
<trkpt lat="47.600886" lon="7.533908"><ele>259.5</ele></trkpt>
<trkpt lat="47.601101" lon="7.534127"><ele>258.0</ele></trkpt>
<trkpt lat="47.601124" lon="7.534177"><ele>257.75</ele></trkpt>
<trkpt lat="47.601145" lon="7.534242"><ele>257.5</ele></trkpt>
<trkpt lat="47.601179" lon="7.534264"><ele>257.25</ele></trkpt>
<trkpt lat="47.601225" lon="7.534248"><ele>257.0</ele></trkpt>
<trkpt lat="47.601411" lon="7.534094"><ele>255.75</ele></trkpt>
<trkpt lat="47.601913" lon="7.533752"><ele>255.5</ele></trkpt>
<trkpt lat="47.602501" lon="7.533416"><ele>255.25</ele></trkpt>
<trkpt lat="47.602921" lon="7.532879"><ele>255.0</ele></trkpt>
<trkpt lat="47.603602" lon="7.531850"><ele>255.0</ele></trkpt>
<trkpt lat="47.603992" lon="7.531296"><ele>255.0</ele></trkpt>
<trkpt lat="47.604076" lon="7.531114"><ele>254.5</ele></trkpt>
<trkpt lat="47.604135" lon="7.530944"><ele>255.25</ele></trkpt>
<trkpt lat="47.604257" lon="7.530800"><ele>255.0</ele></trkpt>
<trkpt lat="47.604308" lon="7.530658"><ele>255.25</ele></trkpt>
<trkpt lat="47.604329" lon="7.530571"><ele>255.75</ele></trkpt>
<trkpt lat="47.604351" lon="7.530474"><ele>255.75</ele></trkpt>
<trkpt lat="47.604339" lon="7.530403"><ele>255.5</ele></trkpt>
<trkpt lat="47.604288" lon="7.530297"><ele>255.5</ele></trkpt>
<trkpt lat="47.604285" lon="7.530122"><ele>255.75</ele></trkpt>
<trkpt lat="47.604376" lon="7.529955"><ele>256.0</ele></trkpt>
<trkpt lat="47.604423" lon="7.529905"><ele>254.75</ele></trkpt>
<trkpt lat="47.604999" lon="7.529307"><ele>254.75</ele></trkpt>
<trkpt lat="47.605480" lon="7.528591"><ele>255.5</ele></trkpt>
<trkpt lat="47.605842" lon="7.527909"><ele>257.75</ele></trkpt>
<trkpt lat="47.606097" lon="7.527507"><ele>258.0</ele></trkpt>
<trkpt lat="47.606269" lon="7.527123"><ele>257.75</ele></trkpt>
<trkpt lat="47.606479" lon="7.526403"><ele>258.75</ele></trkpt>
<trkpt lat="47.606597" lon="7.525976"><ele>259.5</ele></trkpt>
<trkpt lat="47.606633" lon="7.525928"><ele>259.5</ele></trkpt>
<trkpt lat="47.606670" lon="7.525911"><ele>259.5</ele></trkpt>
<trkpt lat="47.606719" lon="7.525906"><ele>259.5</ele></trkpt>
<trkpt lat="47.606765" lon="7.525930"><ele>259.25</ele></trkpt>
<trkpt lat="47.606806" lon="7.525972"><ele>259.0</ele></trkpt>
<trkpt lat="47.606832" lon="7.526025"><ele>259.0</ele></trkpt>
<trkpt lat="47.606848" lon="7.526084"><ele>259.0</ele></trkpt>
<trkpt lat="47.606871" lon="7.526293"><ele>259.0</ele></trkpt>
<trkpt lat="47.606914" lon="7.526520"><ele>258.25</ele></trkpt>
<trkpt lat="47.607036" lon="7.526781"><ele>256.0</ele></trkpt>
<trkpt lat="47.607087" lon="7.526863"><ele>254.75</ele></trkpt>
<trkpt lat="47.607392" lon="7.527345"><ele>255.25</ele></trkpt>
<trkpt lat="47.607448" lon="7.527433"><ele>256.0</ele></trkpt>
<trkpt lat="47.607479" lon="7.527491"><ele>256.5</ele></trkpt>
<trkpt lat="47.607559" lon="7.527642"><ele>256.0</ele></trkpt>
<trkpt lat="47.607607" lon="7.527730"><ele>255.5</ele></trkpt>
<trkpt lat="47.607634" lon="7.527776"><ele>255.5</ele></trkpt>
<trkpt lat="47.607888" lon="7.528195"><ele>254.0</ele></trkpt>
<trkpt lat="47.607987" lon="7.528403"><ele>254.0</ele></trkpt>
<trkpt lat="47.608019" lon="7.528369"><ele>254.0</ele></trkpt>
<trkpt lat="47.608065" lon="7.528323"><ele>254.0</ele></trkpt>
<trkpt lat="47.608152" lon="7.528507"><ele>254.0</ele></trkpt>
<trkpt lat="47.608195" lon="7.528593"><ele>254.0</ele></trkpt>
<trkpt lat="47.608438" lon="7.528256"><ele>253.5</ele></trkpt>
<trkpt lat="47.608649" lon="7.527940"><ele>253.0</ele></trkpt>
<trkpt lat="47.608707" lon="7.527966"><ele>253.0</ele></trkpt>
<trkpt lat="47.608880" lon="7.528268"><ele>253.5</ele></trkpt>
<trkpt lat="47.608974" lon="7.528541"><ele>253.75</ele></trkpt>
<trkpt lat="47.609061" lon="7.528738"><ele>254.0</ele></trkpt>
<trkpt lat="47.609248" lon="7.529010"><ele>253.75</ele></trkpt>
<trkpt lat="47.609652" lon="7.528443"><ele>254.0</ele></trkpt>
<trkpt lat="47.609972" lon="7.528027"><ele>253.0</ele></trkpt>
<trkpt lat="47.610119" lon="7.527953"><ele>252.5</ele></trkpt>
<trkpt lat="47.610095" lon="7.528091"><ele>252.25</ele></trkpt>
<trkpt lat="47.610150" lon="7.528125"><ele>251.75</ele></trkpt>
<trkpt lat="47.610189" lon="7.527996"><ele>251.75</ele></trkpt>
<trkpt lat="47.610263" lon="7.527751"><ele>253.0</ele></trkpt>
<trkpt lat="47.610305" lon="7.527686"><ele>252.75</ele></trkpt>
<trkpt lat="47.611655" lon="7.526330"><ele>253.0</ele></trkpt>
<trkpt lat="47.611721" lon="7.526244"><ele>253.0</ele></trkpt>
<trkpt lat="47.611773" lon="7.526159"><ele>252.5</ele></trkpt>
<trkpt lat="47.611800" lon="7.526078"><ele>252.0</ele></trkpt>
<trkpt lat="47.611810" lon="7.526006"><ele>252.25</ele></trkpt>
<trkpt lat="47.611805" lon="7.525887"><ele>252.75</ele></trkpt>
<trkpt lat="47.611409" lon="7.524688"><ele>252.0</ele></trkpt>
<trkpt lat="47.611407" lon="7.524543"><ele>252.0</ele></trkpt>
<trkpt lat="47.611419" lon="7.524468"><ele>251.75</ele></trkpt>
<trkpt lat="47.611448" lon="7.524394"><ele>252.0</ele></trkpt>
<trkpt lat="47.612514" lon="7.523080"><ele>252.75</ele></trkpt>
<trkpt lat="47.612554" lon="7.522996"><ele>253.25</ele></trkpt>
<trkpt lat="47.612576" lon="7.522924"><ele>253.75</ele></trkpt>
<trkpt lat="47.612586" lon="7.522836"><ele>254.5</ele></trkpt>
<trkpt lat="47.612861" lon="7.522947"><ele>253.5</ele></trkpt>
<trkpt lat="47.613105" lon="7.523010"><ele>252.25</ele></trkpt>
<trkpt lat="47.613416" lon="7.523039"><ele>252.25</ele></trkpt>
<trkpt lat="47.613548" lon="7.523096"><ele>252.5</ele></trkpt>
<trkpt lat="47.613874" lon="7.523208"><ele>253.75</ele></trkpt>
<trkpt lat="47.613927" lon="7.523243"><ele>254.0</ele></trkpt>
<trkpt lat="47.614000" lon="7.523308"><ele>254.0</ele></trkpt>
<trkpt lat="47.614077" lon="7.523411"><ele>254.0</ele></trkpt>
<trkpt lat="47.614156" lon="7.523527"><ele>253.25</ele></trkpt>
<trkpt lat="47.614168" lon="7.523579"><ele>253.0</ele></trkpt>
<trkpt lat="47.614157" lon="7.523638"><ele>253.0</ele></trkpt>
<trkpt lat="47.614116" lon="7.523718"><ele>253.0</ele></trkpt>
<trkpt lat="47.613920" lon="7.524048"><ele>253.25</ele></trkpt>
<trkpt lat="47.613882" lon="7.524164"><ele>253.0</ele></trkpt>
<trkpt lat="47.613891" lon="7.524314"><ele>252.75</ele></trkpt>
<trkpt lat="47.613970" lon="7.524759"><ele>253.0</ele></trkpt>
<trkpt lat="47.613958" lon="7.524833"><ele>253.0</ele></trkpt>
<trkpt lat="47.614017" lon="7.524858"><ele>253.0</ele></trkpt>
<trkpt lat="47.614072" lon="7.524903"><ele>253.0</ele></trkpt>
<trkpt lat="47.614101" lon="7.524956"><ele>253.0</ele></trkpt>
<trkpt lat="47.614122" lon="7.525025"><ele>252.75</ele></trkpt>
<trkpt lat="47.614143" lon="7.525153"><ele>252.25</ele></trkpt>
<trkpt lat="47.614219" lon="7.525934"><ele>253.0</ele></trkpt>
<trkpt lat="47.614337" lon="7.527595"><ele>253.0</ele></trkpt>
<trkpt lat="47.614370" lon="7.528099"><ele>252.75</ele></trkpt>
<trkpt lat="47.614372" lon="7.528166"><ele>252.75</ele></trkpt>
<trkpt lat="47.614426" lon="7.528235"><ele>252.75</ele></trkpt>
<trkpt lat="47.614525" lon="7.528528"><ele>253.0</ele></trkpt>
<trkpt lat="47.615101" lon="7.528098"><ele>253.0</ele></trkpt>
<trkpt lat="47.615120" lon="7.528084"><ele>253.0</ele></trkpt>
<trkpt lat="47.615831" lon="7.527909"><ele>252.75</ele></trkpt>
<trkpt lat="47.616136" lon="7.527885"><ele>252.75</ele></trkpt>
<trkpt lat="47.616183" lon="7.527919"><ele>252.75</ele></trkpt>
<trkpt lat="47.616211" lon="7.527980"><ele>252.5</ele></trkpt>
<trkpt lat="47.616220" lon="7.528021"><ele>252.5</ele></trkpt>
<trkpt lat="47.616218" lon="7.528199"><ele>252.25</ele></trkpt>
<trkpt lat="47.616212" lon="7.528385"><ele>252.0</ele></trkpt>
<trkpt lat="47.616203" lon="7.528438"><ele>252.0</ele></trkpt>
<trkpt lat="47.616246" lon="7.528451"><ele>252.0</ele></trkpt>
<trkpt lat="47.616446" lon="7.528462"><ele>252.0</ele></trkpt>
<trkpt lat="47.616474" lon="7.528466"><ele>252.0</ele></trkpt>
<trkpt lat="47.616500" lon="7.527867"><ele>252.25</ele></trkpt>
<trkpt lat="47.616538" lon="7.527712"><ele>252.25</ele></trkpt>
<trkpt lat="47.616603" lon="7.527604"><ele>252.5</ele></trkpt>
<trkpt lat="47.616706" lon="7.527568"><ele>252.75</ele></trkpt>
<trkpt lat="47.618257" lon="7.527821"><ele>252.0</ele></trkpt>
<trkpt lat="47.618394" lon="7.527800"><ele>252.0</ele></trkpt>
<trkpt lat="47.618561" lon="7.527757"><ele>252.0</ele></trkpt>
<trkpt lat="47.620521" lon="7.526615"><ele>251.0</ele></trkpt>
<trkpt lat="47.620860" lon="7.527322"><ele>251.0</ele></trkpt>
<trkpt lat="47.621245" lon="7.528015"><ele>251.0</ele></trkpt>
<trkpt lat="47.621532" lon="7.528407"><ele>251.75</ele></trkpt>
<trkpt lat="47.621631" lon="7.528664"><ele>251.5</ele></trkpt>
<trkpt lat="47.621735" lon="7.529091"><ele>251.0</ele></trkpt>
<trkpt lat="47.621922" lon="7.529878"><ele>252.5</ele></trkpt>
<trkpt lat="47.621947" lon="7.529920"><ele>252.5</ele></trkpt>
<trkpt lat="47.621980" lon="7.529971"><ele>252.75</ele></trkpt>
<trkpt lat="47.622770" lon="7.529471"><ele>251.75</ele></trkpt>
<trkpt lat="47.623274" lon="7.529171"><ele>251.75</ele></trkpt>
<trkpt lat="47.623570" lon="7.529012"><ele>251.75</ele></trkpt>
<trkpt lat="47.623658" lon="7.528965"><ele>251.75</ele></trkpt>
<trkpt lat="47.623722" lon="7.529013"><ele>251.75</ele></trkpt>
<trkpt lat="47.623758" lon="7.528991"><ele>251.75</ele></trkpt>
<trkpt lat="47.623798" lon="7.528963"><ele>251.75</ele></trkpt>
<trkpt lat="47.623807" lon="7.528879"><ele>251.75</ele></trkpt>
<trkpt lat="47.623899" lon="7.528822"><ele>251.5</ele></trkpt>
<trkpt lat="47.624118" lon="7.528686"><ele>251.5</ele></trkpt>
<trkpt lat="47.624230" lon="7.528602"><ele>251.75</ele></trkpt>
<trkpt lat="47.624359" lon="7.528510"><ele>252.0</ele></trkpt>
<trkpt lat="47.624621" lon="7.528300"><ele>252.25</ele></trkpt>
<trkpt lat="47.625206" lon="7.527838"><ele>252.5</ele></trkpt>
<trkpt lat="47.625840" lon="7.527414"><ele>252.75</ele></trkpt>
<trkpt lat="47.625894" lon="7.527475"><ele>252.75</ele></trkpt>
<trkpt lat="47.625938" lon="7.527498"><ele>252.5</ele></trkpt>
<trkpt lat="47.626000" lon="7.527501"><ele>252.25</ele></trkpt>
<trkpt lat="47.626048" lon="7.527475"><ele>252.25</ele></trkpt>
<trkpt lat="47.626086" lon="7.527433"><ele>252.25</ele></trkpt>
<trkpt lat="47.626109" lon="7.527397"><ele>252.25</ele></trkpt>
<trkpt lat="47.626145" lon="7.527303"><ele>252.5</ele></trkpt>
<trkpt lat="47.626152" lon="7.527178"><ele>252.5</ele></trkpt>
<trkpt lat="47.626327" lon="7.527005"><ele>252.5</ele></trkpt>
<trkpt lat="47.626518" lon="7.526857"><ele>252.5</ele></trkpt>
<trkpt lat="47.626625" lon="7.526774"><ele>252.5</ele></trkpt>
<trkpt lat="47.626760" lon="7.526678"><ele>252.75</ele></trkpt>
<trkpt lat="47.627031" lon="7.526470"><ele>252.25</ele></trkpt>
<trkpt lat="47.627294" lon="7.526270"><ele>252.25</ele></trkpt>
<trkpt lat="47.627587" lon="7.526071"><ele>251.25</ele></trkpt>
<trkpt lat="47.627570" lon="7.526009"><ele>251.5</ele></trkpt>
<trkpt lat="47.629256" lon="7.524808"><ele>251.25</ele></trkpt>
<trkpt lat="47.629391" lon="7.524710"><ele>251.0</ele></trkpt>
<trkpt lat="47.631244" lon="7.523549"><ele>248.25</ele></trkpt>
<trkpt lat="47.631407" lon="7.523481"><ele>247.25</ele></trkpt>
<trkpt lat="47.631486" lon="7.523459"><ele>247.25</ele></trkpt>
<trkpt lat="47.631568" lon="7.523440"><ele>247.5</ele></trkpt>
<trkpt lat="47.631880" lon="7.523394"><ele>248.0</ele></trkpt>
<trkpt lat="47.632099" lon="7.523345"><ele>248.75</ele></trkpt>
<trkpt lat="47.632334" lon="7.523267"><ele>248.0</ele></trkpt>
<trkpt lat="47.632729" lon="7.523073"><ele>248.25</ele></trkpt>
<trkpt lat="47.632941" lon="7.522925"><ele>247.5</ele></trkpt>
<trkpt lat="47.633057" lon="7.522810"><ele>248.5</ele></trkpt>
<trkpt lat="47.633150" lon="7.522698"><ele>247.5</ele></trkpt>
<trkpt lat="47.633235" lon="7.522566"><ele>247.75</ele></trkpt>
<trkpt lat="47.633332" lon="7.522385"><ele>248.5</ele></trkpt>
<trkpt lat="47.633431" lon="7.522170"><ele>247.25</ele></trkpt>
<trkpt lat="47.634327" lon="7.519993"><ele>247.0</ele></trkpt>
<trkpt lat="47.634414" lon="7.519798"><ele>248.25</ele></trkpt>
<trkpt lat="47.634499" lon="7.519627"><ele>248.25</ele></trkpt>
<trkpt lat="47.634658" lon="7.519325"><ele>248.5</ele></trkpt>
<trkpt lat="47.634724" lon="7.519216"><ele>249.5</ele></trkpt>
<trkpt lat="47.635210" lon="7.518407"><ele>250.75</ele></trkpt>
<trkpt lat="47.635503" lon="7.517951"><ele>250.75</ele></trkpt>
<trkpt lat="47.635720" lon="7.517640"><ele>250.75</ele></trkpt>
<trkpt lat="47.635923" lon="7.517380"><ele>250.75</ele></trkpt>
<trkpt lat="47.636197" lon="7.517043"><ele>251.0</ele></trkpt>
<trkpt lat="47.636443" lon="7.516705"><ele>250.75</ele></trkpt>
<trkpt lat="47.636527" lon="7.516574"><ele>250.75</ele></trkpt>
<trkpt lat="47.636666" lon="7.516311"><ele>250.75</ele></trkpt>
<trkpt lat="47.636752" lon="7.516090"><ele>250.5</ele></trkpt>
<trkpt lat="47.636792" lon="7.515965"><ele>250.25</ele></trkpt>
<trkpt lat="47.636958" lon="7.515355"><ele>250.75</ele></trkpt>
<trkpt lat="47.637028" lon="7.515159"><ele>250.25</ele></trkpt>
<trkpt lat="47.637085" lon="7.515049"><ele>250.0</ele></trkpt>
<trkpt lat="47.637161" lon="7.514939"><ele>249.75</ele></trkpt>
<trkpt lat="47.637292" lon="7.514802"><ele>250.0</ele></trkpt>
<trkpt lat="47.637777" lon="7.514444"><ele>249.0</ele></trkpt>
<trkpt lat="47.637865" lon="7.514371"><ele>249.0</ele></trkpt>
<trkpt lat="47.638009" lon="7.514222"><ele>249.0</ele></trkpt>
<trkpt lat="47.638105" lon="7.514102"><ele>249.0</ele></trkpt>
<trkpt lat="47.638156" lon="7.514045"><ele>249.0</ele></trkpt>
<trkpt lat="47.638326" lon="7.513863"><ele>249.0</ele></trkpt>
<trkpt lat="47.638470" lon="7.513688"><ele>249.25</ele></trkpt>
<trkpt lat="47.638523" lon="7.513755"><ele>249.25</ele></trkpt>
<trkpt lat="47.638601" lon="7.513801"><ele>249.25</ele></trkpt>
<trkpt lat="47.638687" lon="7.513987"><ele>248.0</ele></trkpt>
<trkpt lat="47.638785" lon="7.514239"><ele>245.75</ele></trkpt>
<trkpt lat="47.638891" lon="7.514531"><ele>244.25</ele></trkpt>
<trkpt lat="47.638940" lon="7.514664"><ele>242.25</ele></trkpt>
<trkpt lat="47.639020" lon="7.514878"><ele>240.25</ele></trkpt>
<trkpt lat="47.639394" lon="7.515861"><ele>239.5</ele></trkpt>
<trkpt lat="47.639713" lon="7.515814"><ele>238.75</ele></trkpt>
<trkpt lat="47.639767" lon="7.515768"><ele>238.75</ele></trkpt>
<trkpt lat="47.639781" lon="7.515664"><ele>238.25</ele></trkpt>
<trkpt lat="47.639757" lon="7.515533"><ele>238.0</ele></trkpt>
<trkpt lat="47.639616" lon="7.515152"><ele>238.0</ele></trkpt>
<trkpt lat="47.639366" lon="7.514577"><ele>238.0</ele></trkpt>
<trkpt lat="47.639326" lon="7.514450"><ele>238.25</ele></trkpt>
<trkpt lat="47.639342" lon="7.514348"><ele>238.0</ele></trkpt>
<trkpt lat="47.639389" lon="7.514277"><ele>238.0</ele></trkpt>
<trkpt lat="47.639497" lon="7.514207"><ele>238.0</ele></trkpt>
<trkpt lat="47.640000" lon="7.514012"><ele>238.0</ele></trkpt>
<trkpt lat="47.640367" lon="7.513914"><ele>238.0</ele></trkpt>
<trkpt lat="47.640560" lon="7.513889"><ele>238.0</ele></trkpt>
<trkpt lat="47.640803" lon="7.513911"><ele>238.0</ele></trkpt>
<trkpt lat="47.641021" lon="7.513955"><ele>238.0</ele></trkpt>
<trkpt lat="47.641138" lon="7.513951"><ele>238.0</ele></trkpt>
<trkpt lat="47.641256" lon="7.513892"><ele>238.0</ele></trkpt>
<trkpt lat="47.641600" lon="7.513652"><ele>237.75</ele></trkpt>
<trkpt lat="47.641694" lon="7.513583"><ele>238.25</ele></trkpt>
<trkpt lat="47.641820" lon="7.513512"><ele>238.5</ele></trkpt>
<trkpt lat="47.641938" lon="7.513414"><ele>238.0</ele></trkpt>
<trkpt lat="47.642299" lon="7.512962"><ele>239.0</ele></trkpt>
<trkpt lat="47.642370" lon="7.512932"><ele>239.0</ele></trkpt>
<trkpt lat="47.642422" lon="7.512960"><ele>238.25</ele></trkpt>
<trkpt lat="47.643734" lon="7.515027"><ele>238.25</ele></trkpt>
<trkpt lat="47.643824" lon="7.515095"><ele>238.75</ele></trkpt>
<trkpt lat="47.644741" lon="7.514537"><ele>238.5</ele></trkpt>
<trkpt lat="47.645141" lon="7.514409"><ele>238.75</ele></trkpt>
<trkpt lat="47.645595" lon="7.514182"><ele>238.0</ele></trkpt>
<trkpt lat="47.645698" lon="7.514166"><ele>238.0</ele></trkpt>
<trkpt lat="47.646040" lon="7.514058"><ele>238.25</ele></trkpt>
<trkpt lat="47.646255" lon="7.513953"><ele>238.0</ele></trkpt>
<trkpt lat="47.646368" lon="7.513932"><ele>238.0</ele></trkpt>
<trkpt lat="47.646478" lon="7.513961"><ele>238.0</ele></trkpt>
<trkpt lat="47.646532" lon="7.514049"><ele>238.0</ele></trkpt>
<trkpt lat="47.646955" lon="7.515202"><ele>237.75</ele></trkpt>
<trkpt lat="47.647066" lon="7.515467"><ele>238.0</ele></trkpt>
<trkpt lat="47.647688" lon="7.516817"><ele>237.0</ele></trkpt>
<trkpt lat="47.647792" lon="7.516965"><ele>237.0</ele></trkpt>
<trkpt lat="47.647816" lon="7.517075"><ele>237.0</ele></trkpt>
<trkpt lat="47.648108" lon="7.517747"><ele>236.75</ele></trkpt>
<trkpt lat="47.648895" lon="7.519456"><ele>238.75</ele></trkpt>
<trkpt lat="47.646938" lon="7.521094"><ele>238.75</ele></trkpt>
<trkpt lat="47.645794" lon="7.522021"><ele>238.25</ele></trkpt>
<trkpt lat="47.645486" lon="7.522273"><ele>238.25</ele></trkpt>
<trkpt lat="47.644624" lon="7.522994"><ele>238.0</ele></trkpt>
<trkpt lat="47.641052" lon="7.525974"><ele>238.0</ele></trkpt>
<trkpt lat="47.638698" lon="7.527919"><ele>238.25</ele></trkpt>
<trkpt lat="47.638661" lon="7.527956"><ele>238.25</ele></trkpt>
<trkpt lat="47.638566" lon="7.528112"><ele>238.5</ele></trkpt>
<trkpt lat="47.638482" lon="7.528175"><ele>239.0</ele></trkpt>
<trkpt lat="47.638367" lon="7.528212"><ele>238.25</ele></trkpt>
<trkpt lat="47.638277" lon="7.528269"><ele>237.75</ele></trkpt>
<trkpt lat="47.637938" lon="7.528539"><ele>238.25</ele></trkpt>
<trkpt lat="47.637435" lon="7.528917"><ele>239.0</ele></trkpt>
<trkpt lat="47.636823" lon="7.529409"><ele>239.25</ele></trkpt>
<trkpt lat="47.636862" lon="7.529533"><ele>239.5</ele></trkpt>
<trkpt lat="47.636909" lon="7.529650"><ele>240.25</ele></trkpt>
<trkpt lat="47.636916" lon="7.529673"><ele>240.5</ele></trkpt>
<trkpt lat="47.636932" lon="7.529716"><ele>240.75</ele></trkpt>
<trkpt lat="47.637047" lon="7.529967"><ele>240.0</ele></trkpt>
<trkpt lat="47.637008" lon="7.530057"><ele>240.0</ele></trkpt>
<trkpt lat="47.637000" lon="7.530260"><ele>240.0</ele></trkpt>
<trkpt lat="47.636925" lon="7.530947"><ele>240.0</ele></trkpt>
<trkpt lat="47.636915" lon="7.531197"><ele>240.0</ele></trkpt>
<trkpt lat="47.636917" lon="7.531358"><ele>240.0</ele></trkpt>
<trkpt lat="47.636926" lon="7.532186"><ele>240.0</ele></trkpt>
<trkpt lat="47.636923" lon="7.532336"><ele>240.25</ele></trkpt>
<trkpt lat="47.636898" lon="7.532760"><ele>240.0</ele></trkpt>
<trkpt lat="47.636877" lon="7.532902"><ele>240.0</ele></trkpt>
<trkpt lat="47.636831" lon="7.533123"><ele>240.0</ele></trkpt>
<trkpt lat="47.636666" lon="7.533743"><ele>240.0</ele></trkpt>
<trkpt lat="47.636645" lon="7.533852"><ele>240.0</ele></trkpt>
<trkpt lat="47.636644" lon="7.533962"><ele>239.5</ele></trkpt>
<trkpt lat="47.636671" lon="7.534081"><ele>239.25</ele></trkpt>
<trkpt lat="47.636690" lon="7.534130"><ele>239.0</ele></trkpt>
<trkpt lat="47.636707" lon="7.534163"><ele>239.0</ele></trkpt>
<trkpt lat="47.636734" lon="7.534194"><ele>238.75</ele></trkpt>
<trkpt lat="47.636806" lon="7.534241"><ele>239.0</ele></trkpt>
<trkpt lat="47.636993" lon="7.534316"><ele>239.0</ele></trkpt>
<trkpt lat="47.637031" lon="7.534408"><ele>239.0</ele></trkpt>
<trkpt lat="47.637046" lon="7.534469"><ele>239.0</ele></trkpt>
<trkpt lat="47.637058" lon="7.534604"><ele>239.0</ele></trkpt>
<trkpt lat="47.637062" lon="7.534665"><ele>239.0</ele></trkpt>
<trkpt lat="47.636997" lon="7.534737"><ele>239.0</ele></trkpt>
<trkpt lat="47.636593" lon="7.535186"><ele>239.0</ele></trkpt>
<trkpt lat="47.636521" lon="7.535260"><ele>239.0</ele></trkpt>
<trkpt lat="47.636379" lon="7.535395"><ele>239.25</ele></trkpt>
<trkpt lat="47.636285" lon="7.535440"><ele>239.5</ele></trkpt>
<trkpt lat="47.636044" lon="7.535474"><ele>239.75</ele></trkpt>
<trkpt lat="47.635770" lon="7.535485"><ele>239.5</ele></trkpt>
<trkpt lat="47.635784" lon="7.535535"><ele>239.75</ele></trkpt>
<trkpt lat="47.635836" lon="7.535693"><ele>239.5</ele></trkpt>
<trkpt lat="47.636196" lon="7.536568"><ele>239.75</ele></trkpt>
<trkpt lat="47.636203" lon="7.536630"><ele>239.75</ele></trkpt>
<trkpt lat="47.636057" lon="7.536866"><ele>239.75</ele></trkpt>
<trkpt lat="47.635965" lon="7.537139"><ele>239.25</ele></trkpt>
<trkpt lat="47.635948" lon="7.537221"><ele>239.25</ele></trkpt>
<trkpt lat="47.635951" lon="7.537269"><ele>239.25</ele></trkpt>
<trkpt lat="47.635977" lon="7.537385"><ele>239.0</ele></trkpt>
<trkpt lat="47.636004" lon="7.537459"><ele>239.0</ele></trkpt>
<trkpt lat="47.636046" lon="7.537548"><ele>238.75</ele></trkpt>
<trkpt lat="47.636753" lon="7.538818"><ele>239.0</ele></trkpt>
<trkpt lat="47.637028" lon="7.539332"><ele>239.0</ele></trkpt>
<trkpt lat="47.636629" lon="7.539972"><ele>239.0</ele></trkpt>
<trkpt lat="47.636549" lon="7.540087"><ele>239.0</ele></trkpt>
<trkpt lat="47.636388" lon="7.540288"><ele>238.75</ele></trkpt>
<trkpt lat="47.636294" lon="7.540382"><ele>238.75</ele></trkpt>
<trkpt lat="47.636263" lon="7.540412"><ele>238.75</ele></trkpt>
<trkpt lat="47.636273" lon="7.540436"><ele>238.75</ele></trkpt>
<trkpt lat="47.636248" lon="7.540457"><ele>238.75</ele></trkpt>
<trkpt lat="47.635539" lon="7.541072"><ele>239.0</ele></trkpt>
<trkpt lat="47.634531" lon="7.541925"><ele>239.0</ele></trkpt>
<trkpt lat="47.633941" lon="7.542428"><ele>239.75</ele></trkpt>
<trkpt lat="47.633842" lon="7.542512"><ele>239.75</ele></trkpt>
<trkpt lat="47.633462" lon="7.542830"><ele>240.0</ele></trkpt>
<trkpt lat="47.633376" lon="7.542893"><ele>240.0</ele></trkpt>
<trkpt lat="47.633141" lon="7.543093"><ele>240.0</ele></trkpt>
<trkpt lat="47.632321" lon="7.543776"><ele>239.5</ele></trkpt>
<trkpt lat="47.632867" lon="7.545321"><ele>240.0</ele></trkpt>
<trkpt lat="47.632877" lon="7.545432"><ele>240.0</ele></trkpt>
<trkpt lat="47.632942" lon="7.545629"><ele>239.75</ele></trkpt>
<trkpt lat="47.632980" lon="7.545884"><ele>239.25</ele></trkpt>
<trkpt lat="47.632975" lon="7.546008"><ele>239.5</ele></trkpt>
<trkpt lat="47.632960" lon="7.546061"><ele>239.5</ele></trkpt>
<trkpt lat="47.632954" lon="7.546118"><ele>239.5</ele></trkpt>
<trkpt lat="47.632958" lon="7.546176"><ele>239.5</ele></trkpt>
<trkpt lat="47.632972" lon="7.546230"><ele>239.5</ele></trkpt>
<trkpt lat="47.632909" lon="7.546409"><ele>239.25</ele></trkpt>
<trkpt lat="47.632799" lon="7.546608"><ele>239.0</ele></trkpt>
<trkpt lat="47.632548" lon="7.546996"><ele>239.0</ele></trkpt>
<trkpt lat="47.632378" lon="7.547229"><ele>239.0</ele></trkpt>
<trkpt lat="47.632020" lon="7.547695"><ele>239.0</ele></trkpt>
<trkpt lat="47.631850" lon="7.547936"><ele>239.0</ele></trkpt>
<trkpt lat="47.631062" lon="7.548931"><ele>239.75</ele></trkpt>
<trkpt lat="47.630028" lon="7.550209"><ele>239.0</ele></trkpt>
<trkpt lat="47.629865" lon="7.550453"><ele>239.0</ele></trkpt>
<trkpt lat="47.626186" lon="7.555157"><ele>239.75</ele></trkpt>
<trkpt lat="47.625880" lon="7.555492"><ele>240.0</ele></trkpt>
<trkpt lat="47.625736" lon="7.555635"><ele>240.0</ele></trkpt>
<trkpt lat="47.625180" lon="7.556067"><ele>240.0</ele></trkpt>
<trkpt lat="47.624998" lon="7.556209"><ele>240.0</ele></trkpt>
<trkpt lat="47.624609" lon="7.556620"><ele>240.0</ele></trkpt>
<trkpt lat="47.623436" lon="7.558094"><ele>240.5</ele></trkpt>
<trkpt lat="47.619985" lon="7.562454"><ele>241.0</ele></trkpt>
<trkpt lat="47.619835" lon="7.562612"><ele>241.0</ele></trkpt>
<trkpt lat="47.619729" lon="7.562710"><ele>241.0</ele></trkpt>
<trkpt lat="47.619400" lon="7.562969"><ele>240.5</ele></trkpt>
<trkpt lat="47.618794" lon="7.563354"><ele>240.0</ele></trkpt>
<trkpt lat="47.618701" lon="7.563423"><ele>240.0</ele></trkpt>
<trkpt lat="47.618498" lon="7.563587"><ele>240.25</ele></trkpt>
<trkpt lat="47.618402" lon="7.563676"><ele>240.5</ele></trkpt>
<trkpt lat="47.618263" lon="7.563829"><ele>241.0</ele></trkpt>
<trkpt lat="47.618070" lon="7.564102"><ele>240.75</ele></trkpt>
<trkpt lat="47.617112" lon="7.565678"><ele>241.5</ele></trkpt>
<trkpt lat="47.616525" lon="7.565027"><ele>242.0</ele></trkpt>
<trkpt lat="47.616155" lon="7.564622"><ele>242.0</ele></trkpt>
<trkpt lat="47.616154" lon="7.564621"><ele>242.0</ele></trkpt>
<trkpt lat="47.615966" lon="7.564414"><ele>242.0</ele></trkpt>
<trkpt lat="47.615786" lon="7.564257"><ele>241.75</ele></trkpt>
<trkpt lat="47.615761" lon="7.564309"><ele>241.75</ele></trkpt>
<trkpt lat="47.615603" lon="7.564636"><ele>242.0</ele></trkpt>
<trkpt lat="47.615495" lon="7.564778"><ele>241.75</ele></trkpt>
<trkpt lat="47.615320" lon="7.564971"><ele>241.0</ele></trkpt>
<trkpt lat="47.615111" lon="7.565151"><ele>241.75</ele></trkpt>
<trkpt lat="47.614700" lon="7.565477"><ele>241.75</ele></trkpt>
<trkpt lat="47.614608" lon="7.565572"><ele>241.5</ele></trkpt>
<trkpt lat="47.614411" lon="7.565941"><ele>241.25</ele></trkpt>
<trkpt lat="47.614041" lon="7.566688"><ele>241.25</ele></trkpt>
<trkpt lat="47.613908" lon="7.566937"><ele>241.75</ele></trkpt>
<trkpt lat="47.613842" lon="7.567036"><ele>241.75</ele></trkpt>
<trkpt lat="47.613714" lon="7.567168"><ele>241.75</ele></trkpt>
<trkpt lat="47.613521" lon="7.567305"><ele>242.0</ele></trkpt>
<trkpt lat="47.613444" lon="7.567387"><ele>242.0</ele></trkpt>
<trkpt lat="47.613383" lon="7.567558"><ele>242.0</ele></trkpt>
<trkpt lat="47.613072" lon="7.567886"><ele>243.0</ele></trkpt>
<trkpt lat="47.612624" lon="7.568282"><ele>243.0</ele></trkpt>
<trkpt lat="47.611945" lon="7.568915"><ele>243.75</ele></trkpt>
<trkpt lat="47.611554" lon="7.569268"><ele>243.5</ele></trkpt>
<trkpt lat="47.611268" lon="7.569542"><ele>243.5</ele></trkpt>
<trkpt lat="47.610658" lon="7.570068"><ele>244.0</ele></trkpt>
<trkpt lat="47.608444" lon="7.572045"><ele>244.25</ele></trkpt>
<trkpt lat="47.607706" lon="7.572692"><ele>244.5</ele></trkpt>
<trkpt lat="47.606591" lon="7.573762"><ele>244.0</ele></trkpt>
<trkpt lat="47.604929" lon="7.575576"><ele>244.75</ele></trkpt>
<trkpt lat="47.604379" lon="7.576194"><ele>245.0</ele></trkpt>
<trkpt lat="47.603881" lon="7.576666"><ele>245.0</ele></trkpt>
<trkpt lat="47.603476" lon="7.576966"><ele>244.75</ele></trkpt>
<trkpt lat="47.602420" lon="7.577691"><ele>245.0</ele></trkpt>
<trkpt lat="47.602122" lon="7.577910"><ele>244.75</ele></trkpt>
<trkpt lat="47.601716" lon="7.578138"><ele>244.5</ele></trkpt>
<trkpt lat="47.601427" lon="7.578277"><ele>244.75</ele></trkpt>
<trkpt lat="47.601272" lon="7.578322"><ele>245.0</ele></trkpt>
<trkpt lat="47.600930" lon="7.578449"><ele>245.0</ele></trkpt>
<trkpt lat="47.600514" lon="7.578548"><ele>245.0</ele></trkpt>
<trkpt lat="47.600324" lon="7.578588"><ele>245.0</ele></trkpt>
<trkpt lat="47.600275" lon="7.578596"><ele>245.0</ele></trkpt>
<trkpt lat="47.600236" lon="7.578649"><ele>245.0</ele></trkpt>
<trkpt lat="47.600082" lon="7.578692"><ele>245.5</ele></trkpt>
<trkpt lat="47.600066" lon="7.578767"><ele>245.75</ele></trkpt>
<trkpt lat="47.600052" lon="7.578877"><ele>245.75</ele></trkpt>
<trkpt lat="47.600003" lon="7.578945"><ele>245.75</ele></trkpt>
<trkpt lat="47.599954" lon="7.578954"><ele>246.0</ele></trkpt>
<trkpt lat="47.599886" lon="7.578966"><ele>246.0</ele></trkpt>
<trkpt lat="47.599846" lon="7.578969"><ele>246.0</ele></trkpt>
<trkpt lat="47.599839" lon="7.578861"><ele>246.0</ele></trkpt>
<trkpt lat="47.599780" lon="7.578809"><ele>246.0</ele></trkpt>
<trkpt lat="47.599308" lon="7.579031"><ele>246.75</ele></trkpt>
<trkpt lat="47.599269" lon="7.578989"><ele>246.5</ele></trkpt>
<trkpt lat="47.599037" lon="7.579096"><ele>246.5</ele></trkpt>
<trkpt lat="47.598712" lon="7.579221"><ele>246.25</ele></trkpt>
<trkpt lat="47.598171" lon="7.579429"><ele>245.75</ele></trkpt>
<trkpt lat="47.598124" lon="7.579485"><ele>246.0</ele></trkpt>
<trkpt lat="47.598065" lon="7.579472"><ele>246.0</ele></trkpt>
<trkpt lat="47.598006" lon="7.579512"><ele>246.0</ele></trkpt>
<trkpt lat="47.597690" lon="7.579734"><ele>246.0</ele></trkpt>
<trkpt lat="47.597240" lon="7.580035"><ele>246.0</ele></trkpt>
<trkpt lat="47.596833" lon="7.580295"><ele>245.5</ele></trkpt>
<trkpt lat="47.596768" lon="7.580336"><ele>245.25</ele></trkpt>
<trkpt lat="47.596730" lon="7.580359"><ele>245.25</ele></trkpt>
<trkpt lat="47.596043" lon="7.580809"><ele>245.75</ele></trkpt>
<trkpt lat="47.595981" lon="7.580824"><ele>246.0</ele></trkpt>
<trkpt lat="47.595904" lon="7.580723"><ele>245.75</ele></trkpt>
<trkpt lat="47.595788" lon="7.580623"><ele>246.0</ele></trkpt>
<trkpt lat="47.595212" lon="7.580125"><ele>247.0</ele></trkpt>
<trkpt lat="47.595193" lon="7.580104"><ele>247.0</ele></trkpt>
<trkpt lat="47.595169" lon="7.580025"><ele>247.0</ele></trkpt>
<trkpt lat="47.595086" lon="7.580047"><ele>247.0</ele></trkpt>
<trkpt lat="47.594685" lon="7.580018"><ele>248.0</ele></trkpt>
<trkpt lat="47.593980" lon="7.579963"><ele>248.0</ele></trkpt>
<trkpt lat="47.593904" lon="7.579964"><ele>248.0</ele></trkpt>
<trkpt lat="47.593902" lon="7.579908"><ele>248.0</ele></trkpt>
<trkpt lat="47.593884" lon="7.579859"><ele>248.0</ele></trkpt>
<trkpt lat="47.593844" lon="7.579819"><ele>248.0</ele></trkpt>
<trkpt lat="47.593808" lon="7.579813"><ele>248.0</ele></trkpt>
<trkpt lat="47.593784" lon="7.579817"><ele>248.0</ele></trkpt>
<trkpt lat="47.593755" lon="7.579841"><ele>248.0</ele></trkpt>
<trkpt lat="47.593734" lon="7.579879"><ele>248.0</ele></trkpt>
<trkpt lat="47.593723" lon="7.579926"><ele>248.0</ele></trkpt>
<trkpt lat="47.593724" lon="7.579975"><ele>248.0</ele></trkpt>
<trkpt lat="47.593737" lon="7.580021"><ele>248.0</ele></trkpt>
<trkpt lat="47.593760" lon="7.580056"><ele>248.0</ele></trkpt>
<trkpt lat="47.593790" lon="7.580078"><ele>248.0</ele></trkpt>
<trkpt lat="47.593744" lon="7.580243"><ele>248.0</ele></trkpt>
<trkpt lat="47.593671" lon="7.580210"><ele>248.0</ele></trkpt>
<trkpt lat="47.593653" lon="7.580407"><ele>248.0</ele></trkpt>
<trkpt lat="47.593645" lon="7.580434"><ele>248.0</ele></trkpt>
<trkpt lat="47.593627" lon="7.580507"><ele>248.0</ele></trkpt>
<trkpt lat="47.593599" lon="7.580502"><ele>248.0</ele></trkpt>
<trkpt lat="47.593241" lon="7.580188"><ele>248.0</ele></trkpt>
<trkpt lat="47.592940" lon="7.579939"><ele>247.75</ele></trkpt>
<trkpt lat="47.592759" lon="7.579806"><ele>248.0</ele></trkpt>
<trkpt lat="47.592590" lon="7.579666"><ele>248.0</ele></trkpt>
<trkpt lat="47.592418" lon="7.579533"><ele>248.0</ele></trkpt>
<trkpt lat="47.592018" lon="7.579224"><ele>246.75</ele></trkpt>
<trkpt lat="47.591950" lon="7.579192"><ele>246.0</ele></trkpt>
<trkpt lat="47.591910" lon="7.579171"><ele>245.5</ele></trkpt>
<trkpt lat="47.591614" lon="7.579017"><ele>245.5</ele></trkpt>
<trkpt lat="47.591588" lon="7.579003"><ele>246.0</ele></trkpt>
<trkpt lat="47.591476" lon="7.579137"><ele>245.5</ele></trkpt>
<trkpt lat="47.591257" lon="7.579265"><ele>246.25</ele></trkpt>
<trkpt lat="47.591048" lon="7.579383"><ele>246.75</ele></trkpt>
<trkpt lat="47.590963" lon="7.579419"><ele>247.0</ele></trkpt>
<trkpt lat="47.590935" lon="7.579409"><ele>247.25</ele></trkpt>
<trkpt lat="47.590888" lon="7.579395"><ele>247.75</ele></trkpt>
<trkpt lat="47.590529" lon="7.579595"><ele>248.0</ele></trkpt>
<trkpt lat="47.590402" lon="7.579726"><ele>247.75</ele></trkpt>
<trkpt lat="47.590299" lon="7.579938"><ele>247.75</ele></trkpt>
<trkpt lat="47.590183" lon="7.580253"><ele>247.25</ele></trkpt>
<trkpt lat="47.590080" lon="7.580632"><ele>246.75</ele></trkpt>
<trkpt lat="47.590005" lon="7.580866"><ele>247.5</ele></trkpt>
<trkpt lat="47.589919" lon="7.581095"><ele>246.5</ele></trkpt>
<trkpt lat="47.589827" lon="7.581219"><ele>246.5</ele></trkpt>
<trkpt lat="47.589194" lon="7.581775"><ele>248.75</ele></trkpt>
<trkpt lat="47.589105" lon="7.581930"><ele>249.0</ele></trkpt>
<trkpt lat="47.588908" lon="7.582486"><ele>248.75</ele></trkpt>
<trkpt lat="47.588818" lon="7.582678"><ele>248.5</ele></trkpt>
<trkpt lat="47.588802" lon="7.582714"><ele>248.25</ele></trkpt>
<trkpt lat="47.588789" lon="7.582737"><ele>248.25</ele></trkpt>
<trkpt lat="47.588719" lon="7.582865"><ele>248.25</ele></trkpt>
<trkpt lat="47.588678" lon="7.582943"><ele>248.0</ele></trkpt>
<trkpt lat="47.588573" lon="7.583195"><ele>248.0</ele></trkpt>
<trkpt lat="47.588461" lon="7.583356"><ele>247.75</ele></trkpt>
<trkpt lat="47.588400" lon="7.583458"><ele>247.75</ele></trkpt>
<trkpt lat="47.588284" lon="7.583688"><ele>248.0</ele></trkpt>
<trkpt lat="47.588066" lon="7.584105"><ele>248.5</ele></trkpt>
<trkpt lat="47.588004" lon="7.584183"><ele>248.75</ele></trkpt>
<trkpt lat="47.587877" lon="7.584190"><ele>248.75</ele></trkpt>
<trkpt lat="47.587831" lon="7.584208"><ele>248.75</ele></trkpt>
<trkpt lat="47.587865" lon="7.584427"><ele>248.5</ele></trkpt>
<trkpt lat="47.587880" lon="7.584553"><ele>248.25</ele></trkpt>
<trkpt lat="47.587841" lon="7.584572"><ele>248.5</ele></trkpt>
<trkpt lat="47.587808" lon="7.584603"><ele>248.75</ele></trkpt>
<trkpt lat="47.587564" lon="7.584944"><ele>248.75</ele></trkpt>
<trkpt lat="47.587123" lon="7.585586"><ele>248.25</ele></trkpt>
<trkpt lat="47.587045" lon="7.585645"><ele>247.5</ele></trkpt>
<trkpt lat="47.586986" lon="7.585626"><ele>247.25</ele></trkpt>
<trkpt lat="47.586308" lon="7.585299"><ele>247.5</ele></trkpt>
<trkpt lat="47.585704" lon="7.585007"><ele>247.25</ele></trkpt>
<trkpt lat="47.585114" lon="7.584739"><ele>247.25</ele></trkpt>
<trkpt lat="47.584123" lon="7.584321"><ele>246.5</ele></trkpt>
<trkpt lat="47.584060" lon="7.584303"><ele>246.5</ele></trkpt>
<trkpt lat="47.583989" lon="7.584266"><ele>246.5</ele></trkpt>
<trkpt lat="47.583110" lon="7.583813"><ele>247.25</ele></trkpt>
<trkpt lat="47.583034" lon="7.583789"><ele>247.25</ele></trkpt>
<trkpt lat="47.582302" lon="7.583637"><ele>247.5</ele></trkpt>
<trkpt lat="47.582082" lon="7.583601"><ele>247.5</ele></trkpt>
<trkpt lat="47.581434" lon="7.583447"><ele>247.75</ele></trkpt>
<trkpt lat="47.581361" lon="7.583440"><ele>247.5</ele></trkpt>
<trkpt lat="47.581043" lon="7.583345"></trkpt>
<trkpt lat="47.580761" lon="7.583273"></trkpt>
<trkpt lat="47.580440" lon="7.583214"></trkpt>
<trkpt lat="47.580116" lon="7.583178"></trkpt>
<trkpt lat="47.579731" lon="7.583123"><ele>248.0</ele></trkpt>
<trkpt lat="47.579676" lon="7.583111"><ele>248.0</ele></trkpt>
<trkpt lat="47.579544" lon="7.583036"><ele>248.75</ele></trkpt>
<trkpt lat="47.579448" lon="7.583005"><ele>249.25</ele></trkpt>
<trkpt lat="47.578788" lon="7.582908"><ele>251.0</ele></trkpt>
<trkpt lat="47.578232" lon="7.582886"><ele>251.75</ele></trkpt>
<trkpt lat="47.576211" lon="7.582993"><ele>251.0</ele></trkpt>
<trkpt lat="47.575965" lon="7.582988"><ele>250.25</ele></trkpt>
<trkpt lat="47.575829" lon="7.583000"><ele>250.0</ele></trkpt>
<trkpt lat="47.575788" lon="7.583011"><ele>250.0</ele></trkpt>
<trkpt lat="47.575695" lon="7.583066"><ele>249.75</ele></trkpt>
<trkpt lat="47.575589" lon="7.583109"><ele>249.5</ele></trkpt>
<trkpt lat="47.575494" lon="7.583118"><ele>249.75</ele></trkpt>
<trkpt lat="47.575403" lon="7.583116"><ele>250.0</ele></trkpt>
<trkpt lat="47.575269" lon="7.583139"><ele>250.25</ele></trkpt>
<trkpt lat="47.575138" lon="7.583196"><ele>249.5</ele></trkpt>
<trkpt lat="47.574909" lon="7.583246"><ele>249.5</ele></trkpt>
<trkpt lat="47.574501" lon="7.583358"><ele>247.5</ele></trkpt>
<trkpt lat="47.574366" lon="7.583359"><ele>249.0</ele></trkpt>
<trkpt lat="47.574254" lon="7.583404"><ele>249.75</ele></trkpt>
<trkpt lat="47.574101" lon="7.583470"><ele>249.25</ele></trkpt>
<trkpt lat="47.573915" lon="7.583430"><ele>251.0</ele></trkpt>
<trkpt lat="47.573653" lon="7.583563"><ele>248.25</ele></trkpt>
<trkpt lat="47.573459" lon="7.583568"><ele>248.75</ele></trkpt>
<trkpt lat="47.573302" lon="7.583620"><ele>247.75</ele></trkpt>
<trkpt lat="47.573178" lon="7.583597"><ele>248.25</ele></trkpt>
<trkpt lat="47.572981" lon="7.583598"><ele>248.5</ele></trkpt>
<trkpt lat="47.572858" lon="7.583626"><ele>248.5</ele></trkpt>
<trkpt lat="47.572596" lon="7.583668"><ele>248.5</ele></trkpt>
<trkpt lat="47.572410" lon="7.583625"><ele>249.25</ele></trkpt>
<trkpt lat="47.572176" lon="7.583627"><ele>248.75</ele></trkpt>
<trkpt lat="47.571972" lon="7.583601"><ele>249.0</ele></trkpt>
<trkpt lat="47.571655" lon="7.583608"><ele>249.75</ele></trkpt>
<trkpt lat="47.571366" lon="7.583556"><ele>248.5</ele></trkpt>
<trkpt lat="47.571009" lon="7.583497"><ele>250.0</ele></trkpt>
<trkpt lat="47.570510" lon="7.583415"><ele>249.5</ele></trkpt>
<trkpt lat="47.570029" lon="7.583336"><ele>247.0</ele></trkpt>
<trkpt lat="47.569906" lon="7.583359"><ele>247.0</ele></trkpt>
<trkpt lat="47.569580" lon="7.583306"><ele>248.0</ele></trkpt>
<trkpt lat="47.569392" lon="7.583182"><ele>248.5</ele></trkpt>
<trkpt lat="47.569339" lon="7.583141"><ele>249.0</ele></trkpt>
<trkpt lat="47.569297" lon="7.583128"><ele>249.25</ele></trkpt>
<trkpt lat="47.569236" lon="7.583127"><ele>249.5</ele></trkpt>
<trkpt lat="47.568726" lon="7.583115"><ele>249.75</ele></trkpt>
<trkpt lat="47.568312" lon="7.583118"><ele>250.5</ele></trkpt>
<trkpt lat="47.567827" lon="7.583025"><ele>253.75</ele></trkpt>
<trkpt lat="47.567670" lon="7.583036"><ele>254.0</ele></trkpt>
<trkpt lat="47.567642" lon="7.582982"><ele>254.0</ele></trkpt>
<trkpt lat="47.567632" lon="7.582937"><ele>254.0</ele></trkpt>
<trkpt lat="47.567653" lon="7.582926"><ele>254.0</ele></trkpt>
<trkpt lat="47.567685" lon="7.582881"><ele>254.0</ele></trkpt>
<trkpt lat="47.567695" lon="7.582851"><ele>254.0</ele></trkpt>
<trkpt lat="47.567700" lon="7.582816"><ele>254.0</ele></trkpt>
<trkpt lat="47.567697" lon="7.582785"><ele>254.0</ele></trkpt>
<trkpt lat="47.567676" lon="7.582733"><ele>254.0</ele></trkpt>
<trkpt lat="47.567657" lon="7.582715"><ele>254.0</ele></trkpt>
<trkpt lat="47.567630" lon="7.582704"><ele>254.0</ele></trkpt>
<trkpt lat="47.567581" lon="7.582721"><ele>254.0</ele></trkpt>
<trkpt lat="47.567479" lon="7.582827"><ele>254.0</ele></trkpt>
<trkpt lat="47.567454" lon="7.582843"><ele>254.0</ele></trkpt>
<trkpt lat="47.567423" lon="7.582855"><ele>254.0</ele></trkpt>
<trkpt lat="47.567273" lon="7.582865"><ele>254.0</ele></trkpt>
<trkpt lat="47.567233" lon="7.582875"><ele>254.0</ele></trkpt>
<trkpt lat="47.567043" lon="7.582980"><ele>253.5</ele></trkpt>
<trkpt lat="47.566984" lon="7.583019"><ele>253.25</ele></trkpt>
<trkpt lat="47.566866" lon="7.583047"><ele>253.5</ele></trkpt>
<trkpt lat="47.566659" lon="7.583125"><ele>253.75</ele></trkpt>
<trkpt lat="47.566511" lon="7.583190"><ele>253.0</ele></trkpt>
<trkpt lat="47.566463" lon="7.583219"><ele>252.75</ele></trkpt>
<trkpt lat="47.565827" lon="7.583499"><ele>251.0</ele></trkpt>
<trkpt lat="47.565449" lon="7.583666"><ele>250.25</ele></trkpt>
<trkpt lat="47.565358" lon="7.583709"><ele>249.75</ele></trkpt>
<trkpt lat="47.564838" lon="7.583969"><ele>248.5</ele></trkpt>
<trkpt lat="47.564683" lon="7.584070"><ele>248.0</ele></trkpt>
<trkpt lat="47.564572" lon="7.584144"><ele>249.0</ele></trkpt>
<trkpt lat="47.564341" lon="7.584298"><ele>249.25</ele></trkpt>
<trkpt lat="47.564264" lon="7.584351"><ele>249.25</ele></trkpt>
<trkpt lat="47.563838" lon="7.584648"><ele>248.75</ele></trkpt>
<trkpt lat="47.563746" lon="7.584719"><ele>248.5</ele></trkpt>
<trkpt lat="47.563290" lon="7.585094"><ele>248.25</ele></trkpt>
<trkpt lat="47.562664" lon="7.585659"><ele>248.75</ele></trkpt>
<trkpt lat="47.561898" lon="7.586345"><ele>249.75</ele></trkpt>
<trkpt lat="47.561772" lon="7.586445"><ele>251.0</ele></trkpt>
<trkpt lat="47.561719" lon="7.586495"><ele>251.25</ele></trkpt>
<trkpt lat="47.561681" lon="7.586512"><ele>251.5</ele></trkpt>
<trkpt lat="47.561648" lon="7.586499"><ele>252.25</ele></trkpt>
<trkpt lat="47.561632" lon="7.586479"><ele>253.0</ele></trkpt>
<trkpt lat="47.561618" lon="7.586414"><ele>254.75</ele></trkpt>
<trkpt lat="47.561610" lon="7.586257"><ele>256.5</ele></trkpt>
<trkpt lat="47.561589" lon="7.586194"><ele>257.25</ele></trkpt>
<trkpt lat="47.561557" lon="7.586146"><ele>257.5</ele></trkpt>
<trkpt lat="47.561547" lon="7.586131"><ele>257.75</ele></trkpt>
<trkpt lat="47.561486" lon="7.586180"><ele>257.5</ele></trkpt>
<trkpt lat="47.561473" lon="7.586191"><ele>257.5</ele></trkpt>
<trkpt lat="47.561427" lon="7.586234"><ele>257.25</ele></trkpt>
<trkpt lat="47.561403" lon="7.586255"><ele>257.25</ele></trkpt>
<trkpt lat="47.561372" lon="7.586286"><ele>257.25</ele></trkpt>
<trkpt lat="47.561283" lon="7.586387"><ele>257.0</ele></trkpt>
<trkpt lat="47.561166" lon="7.586552"><ele>256.0</ele></trkpt>
<trkpt lat="47.561012" lon="7.586791"><ele>255.75</ele></trkpt>
<trkpt lat="47.560981" lon="7.586837"><ele>255.5</ele></trkpt>
<trkpt lat="47.560855" lon="7.587017"><ele>254.5</ele></trkpt>
<trkpt lat="47.560783" lon="7.587099"><ele>254.25</ele></trkpt>
<trkpt lat="47.560664" lon="7.587210"><ele>253.25</ele></trkpt>
<trkpt lat="47.560570" lon="7.587271"><ele>252.75</ele></trkpt>
<trkpt lat="47.560343" lon="7.587433"><ele>252.75</ele></trkpt>
<trkpt lat="47.560314" lon="7.587456"><ele>252.75</ele></trkpt>
<trkpt lat="47.560076" lon="7.587652"><ele>252.0</ele></trkpt>
<trkpt lat="47.560022" lon="7.587709"><ele>252.0</ele></trkpt>
<trkpt lat="47.559956" lon="7.587828"><ele>252.0</ele></trkpt>
<trkpt lat="47.559946" lon="7.587849"><ele>252.0</ele></trkpt>
<trkpt lat="47.559911" lon="7.587947"><ele>252.0</ele></trkpt>
<trkpt lat="47.559883" lon="7.588026"><ele>252.25</ele></trkpt>
<trkpt lat="47.559834" lon="7.588131"><ele>251.75</ele></trkpt>
<trkpt lat="47.559694" lon="7.588340"><ele>252.75</ele></trkpt>
<trkpt lat="47.559647" lon="7.588443"><ele>252.5</ele></trkpt>
<trkpt lat="47.559631" lon="7.588516"><ele>252.5</ele></trkpt>
<trkpt lat="47.559620" lon="7.588510"><ele>252.5</ele></trkpt>
<trkpt lat="47.559543" lon="7.588447"><ele>252.75</ele></trkpt>
<trkpt lat="47.559518" lon="7.588423"><ele>252.75</ele></trkpt>
<trkpt lat="47.559301" lon="7.588030"><ele>254.25</ele></trkpt>
<trkpt lat="47.559249" lon="7.587937"><ele>254.5</ele></trkpt>
<trkpt lat="47.559173" lon="7.587839"><ele>254.25</ele></trkpt>
<trkpt lat="47.559143" lon="7.587909"><ele>255.0</ele></trkpt>
<trkpt lat="47.559222" lon="7.588019"><ele>255.0</ele></trkpt>
<trkpt lat="47.559367" lon="7.588352"><ele>255.5</ele></trkpt>
<trkpt lat="47.559448" lon="7.588591"><ele>252.75</ele></trkpt>
<trkpt lat="47.559562" lon="7.588787"><ele>249.0</ele></trkpt>
<trkpt lat="47.559624" lon="7.588828"><ele>247.5</ele></trkpt>
<trkpt lat="47.560133" lon="7.589854"><ele>250.0</ele></trkpt>
</trkseg></trk></gpx>
