<?xml version="1.0" encoding="UTF-8"?>
<!-- track-length = 27355 filtered ascend = 160 plain-ascend = 0 cost=62152 energy=.0kwh time=7m 53s AUTO selected ISO_GREEDY (score 0.907) after 1 candidate(s) in 510ms. short shared stem near start/end: 277m -->
<gpx
 xmlns="http://www.topografix.com/GPX/1/1"
 xmlns:xsi="http://www.w3.org/2001/XMLSchema-instance"
 xsi:schemaLocation="http://www.topografix.com/GPX/1/1 http://www.topografix.com/GPX/1/1/gpx.xsd"
 creator="BRouter-null" version="1.1">
 <trk>
  <name>unset</name>
  <trkseg>
   <trkpt lon="8.719237" lat="50.000027"><ele>159.75</ele></trkpt>
   <trkpt lon="8.719398" lat="49.999959"><ele>160.0</ele></trkpt>
   <trkpt lon="8.719543" lat="49.999936"><ele>160.0</ele></trkpt>
   <trkpt lon="8.719562" lat="49.999871"><ele>160.25</ele></trkpt>
   <trkpt lon="8.719442" lat="49.999407"><ele>163.0</ele></trkpt>
   <trkpt lon="8.719572" lat="49.999318"><ele>163.75</ele></trkpt>
   <trkpt lon="8.719680" lat="49.999189"><ele>164.75</ele></trkpt>
   <trkpt lon="8.719802" lat="49.999031"><ele>165.25</ele></trkpt>
   <trkpt lon="8.720006" lat="49.998738"><ele>167.0</ele></trkpt>
   <trkpt lon="8.720168" lat="49.998489"><ele>168.75</ele></trkpt>
   <trkpt lon="8.721220" lat="49.998744"><ele>167.25</ele></trkpt>
   <trkpt lon="8.721529" lat="49.998831"><ele>165.75</ele></trkpt>
   <trkpt lon="8.722466" lat="49.998975"><ele>162.5</ele></trkpt>
   <trkpt lon="8.722547" lat="49.998975"><ele>162.5</ele></trkpt>
   <trkpt lon="8.722474" lat="49.999038"><ele>162.25</ele></trkpt>
   <trkpt lon="8.722416" lat="49.999100"><ele>162.0</ele></trkpt>
   <trkpt lon="8.722176" lat="49.999309"><ele>162.25</ele></trkpt>
   <trkpt lon="8.723027" lat="49.999239"><ele>166.5</ele></trkpt>
   <trkpt lon="8.723437" lat="49.999141"><ele>167.25</ele></trkpt>
   <trkpt lon="8.723888" lat="49.999052"><ele>168.5</ele></trkpt>
   <trkpt lon="8.724075" lat="49.999048"><ele>169.0</ele></trkpt>
   <trkpt lon="8.724462" lat="49.999239"><ele>171.5</ele></trkpt>
   <trkpt lon="8.724741" lat="49.999320"><ele>172.0</ele></trkpt>
   <trkpt lon="8.724986" lat="49.999449"><ele>173.75</ele></trkpt>
   <trkpt lon="8.725213" lat="49.999600"><ele>174.0</ele></trkpt>
   <trkpt lon="8.725235" lat="49.999645"><ele>174.25</ele></trkpt>
   <trkpt lon="8.725199" lat="49.999764"><ele>175.0</ele></trkpt>
   <trkpt lon="8.725119" lat="50.000023"><ele>176.0</ele></trkpt>
   <trkpt lon="8.725093" lat="50.000457"><ele>177.25</ele></trkpt>
   <trkpt lon="8.725140" lat="50.000528"><ele>177.75</ele></trkpt>
   <trkpt lon="8.725389" lat="50.000378"><ele>177.5</ele></trkpt>
   <trkpt lon="8.725561" lat="50.000283"><ele>177.0</ele></trkpt>
   <trkpt lon="8.725750" lat="50.000389"><ele>177.75</ele></trkpt>
   <trkpt lon="8.725857" lat="50.000464"><ele>178.25</ele></trkpt>
   <trkpt lon="8.725869" lat="50.000640"><ele>179.25</ele></trkpt>
   <trkpt lon="8.725821" lat="50.000766"><ele>179.75</ele></trkpt>
   <trkpt lon="8.726146" lat="50.000848"><ele>180.0</ele></trkpt>
   <trkpt lon="8.727843" lat="50.001196"><ele>182.75</ele></trkpt>
   <trkpt lon="8.727871" lat="50.001216"><ele>183.0</ele></trkpt>
   <trkpt lon="8.727907" lat="50.001325"><ele>184.25</ele></trkpt>
   <trkpt lon="8.727993" lat="50.001481"><ele>185.25</ele></trkpt>
   <trkpt lon="8.728088" lat="50.001557"><ele>185.5</ele></trkpt>
   <trkpt lon="8.728182" lat="50.001587"><ele>185.5</ele></trkpt>
   <trkpt lon="8.728285" lat="50.001616"><ele>185.5</ele></trkpt>
   <trkpt lon="8.728476" lat="50.001641"><ele>185.75</ele></trkpt>
   <trkpt lon="8.728968" lat="50.001629"><ele>184.5</ele></trkpt>
   <trkpt lon="8.729680" lat="50.001602"><ele>184.5</ele></trkpt>
   <trkpt lon="8.729952" lat="50.001594"><ele>184.25</ele></trkpt>
   <trkpt lon="8.730574" lat="50.001654"><ele>183.75</ele></trkpt>
   <trkpt lon="8.730872" lat="50.001653"><ele>184.0</ele></trkpt>
   <trkpt lon="8.730882" lat="50.001584"><ele>183.75</ele></trkpt>
   <trkpt lon="8.731624" lat="50.001636"><ele>184.75</ele></trkpt>
   <trkpt lon="8.732563" lat="50.001726"><ele>186.0</ele></trkpt>
   <trkpt lon="8.732645" lat="50.001238"><ele>184.25</ele></trkpt>
   <trkpt lon="8.732672" lat="50.001055"><ele>183.75</ele></trkpt>
   <trkpt lon="8.732834" lat="50.000698"><ele>183.0</ele></trkpt>
   <trkpt lon="8.733062" lat="50.000363"><ele>183.0</ele></trkpt>
   <trkpt lon="8.733289" lat="50.000091"><ele>182.75</ele></trkpt>
   <trkpt lon="8.733477" lat="49.999983"><ele>182.5</ele></trkpt>
   <trkpt lon="8.733598" lat="49.999982"><ele>182.0</ele></trkpt>
   <trkpt lon="8.733811" lat="49.999584"><ele>183.0</ele></trkpt>
   <trkpt lon="8.734320" lat="49.998869"><ele>183.0</ele></trkpt>
   <trkpt lon="8.734746" lat="49.998144"><ele>183.25</ele></trkpt>
   <trkpt lon="8.734764" lat="49.998060"><ele>183.0</ele></trkpt>
   <trkpt lon="8.734772" lat="49.998003"><ele>183.0</ele></trkpt>
   <trkpt lon="8.735192" lat="49.997445"><ele>181.5</ele></trkpt>
   <trkpt lon="8.735666" lat="49.997060"><ele>181.0</ele></trkpt>
   <trkpt lon="8.735987" lat="49.996794"><ele>180.25</ele></trkpt>
   <trkpt lon="8.736279" lat="49.996598"><ele>180.25</ele></trkpt>
   <trkpt lon="8.736434" lat="49.996659"><ele>180.75</ele></trkpt>
   <trkpt lon="8.736695" lat="49.996743"><ele>181.25</ele></trkpt>
   <trkpt lon="8.737266" lat="49.996836"><ele>182.0</ele></trkpt>
   <trkpt lon="8.737579" lat="49.996842"><ele>182.0</ele></trkpt>
   <trkpt lon="8.737854" lat="49.996811"><ele>181.75</ele></trkpt>
   <trkpt lon="8.737878" lat="49.996809"><ele>181.75</ele></trkpt>
   <trkpt lon="8.738156" lat="49.996821"><ele>181.25</ele></trkpt>
   <trkpt lon="8.738463" lat="49.996897"><ele>180.75</ele></trkpt>
   <trkpt lon="8.738766" lat="49.996964"><ele>180.5</ele></trkpt>
   <trkpt lon="8.740046" lat="49.997195"><ele>180.0</ele></trkpt>
   <trkpt lon="8.740066" lat="49.997199"><ele>180.0</ele></trkpt>
   <trkpt lon="8.740422" lat="49.997270"><ele>180.0</ele></trkpt>
   <trkpt lon="8.744401" lat="49.998039"><ele>177.0</ele></trkpt>
   <trkpt lon="8.744987" lat="49.998142"><ele>177.25</ele></trkpt>
   <trkpt lon="8.746112" lat="49.998356"><ele>176.75</ele></trkpt>
   <trkpt lon="8.746752" lat="49.998468"><ele>176.25</ele></trkpt>
   <trkpt lon="8.749194" lat="49.998952"><ele>177.0</ele></trkpt>
   <trkpt lon="8.751566" lat="49.999399"><ele>177.75</ele></trkpt>
   <trkpt lon="8.755002" lat="49.999979"><ele>179.75</ele></trkpt>
   <trkpt lon="8.757845" lat="50.000477"><ele>181.0</ele></trkpt>
   <trkpt lon="8.761751" lat="49.999757"><ele>182.0</ele></trkpt>
   <trkpt lon="8.763555" lat="49.999399"><ele>180.75</ele></trkpt>
   <trkpt lon="8.763721" lat="49.999871"><ele>183.25</ele></trkpt>
   <trkpt lon="8.763850" lat="49.999849"><ele>182.75</ele></trkpt>
   <trkpt lon="8.764064" lat="49.999866"><ele>183.25</ele></trkpt>
   <trkpt lon="8.764605" lat="49.999916"><ele>183.0</ele></trkpt>
   <trkpt lon="8.764899" lat="49.999890"><ele>182.25</ele></trkpt>
   <trkpt lon="8.765216" lat="49.999940"><ele>181.75</ele></trkpt>
   <trkpt lon="8.765748" lat="50.000041"><ele>181.25</ele></trkpt>
   <trkpt lon="8.766192" lat="50.000105"><ele>180.5</ele></trkpt>
   <trkpt lon="8.766367" lat="50.000145"><ele>180.5</ele></trkpt>
   <trkpt lon="8.766750" lat="50.000255"><ele>180.5</ele></trkpt>
   <trkpt lon="8.767637" lat="50.000606"><ele>178.5</ele></trkpt>
   <trkpt lon="8.768515" lat="50.000974"><ele>177.0</ele></trkpt>
   <trkpt lon="8.768688" lat="50.001058"><ele>176.5</ele></trkpt>
   <trkpt lon="8.769118" lat="50.001342"><ele>176.0</ele></trkpt>
   <trkpt lon="8.769448" lat="50.001584"><ele>175.5</ele></trkpt>
   <trkpt lon="8.769588" lat="50.001488"><ele>175.0</ele></trkpt>
   <trkpt lon="8.769720" lat="50.001348"><ele>175.0</ele></trkpt>
   <trkpt lon="8.770079" lat="50.000996"><ele>173.25</ele></trkpt>
   <trkpt lon="8.770993" lat="50.001332"><ele>170.75</ele></trkpt>
   <trkpt lon="8.771339" lat="50.001222"><ele>169.5</ele></trkpt>
   <trkpt lon="8.771671" lat="50.001092"><ele>167.75</ele></trkpt>
   <trkpt lon="8.772248" lat="50.000765"><ele>167.25</ele></trkpt>
   <trkpt lon="8.772293" lat="50.000796"><ele>167.0</ele></trkpt>
   <trkpt lon="8.772293" lat="50.000832"><ele>167.0</ele></trkpt>
   <trkpt lon="8.772354" lat="50.000864"><ele>167.0</ele></trkpt>
   <trkpt lon="8.772463" lat="50.000932"><ele>167.0</ele></trkpt>
   <trkpt lon="8.772533" lat="50.000978"><ele>166.75</ele></trkpt>
   <trkpt lon="8.772649" lat="50.000934"><ele>166.75</ele></trkpt>
   <trkpt lon="8.772782" lat="50.000890"><ele>166.75</ele></trkpt>
   <trkpt lon="8.772947" lat="50.000823"><ele>167.0</ele></trkpt>
   <trkpt lon="8.773084" lat="50.000782"><ele>167.25</ele></trkpt>
   <trkpt lon="8.773253" lat="50.000749"><ele>167.25</ele></trkpt>
   <trkpt lon="8.773440" lat="50.000727"><ele>167.25</ele></trkpt>
   <trkpt lon="8.773676" lat="50.000711"><ele>166.75</ele></trkpt>
   <trkpt lon="8.774208" lat="50.000711"><ele>166.0</ele></trkpt>
   <trkpt lon="8.779735" lat="50.000866"><ele>155.75</ele></trkpt>
   <trkpt lon="8.780121" lat="50.000911"><ele>155.25</ele></trkpt>
   <trkpt lon="8.784776" lat="50.001036"><ele>151.25</ele></trkpt>
   <trkpt lon="8.785339" lat="50.001044"><ele>151.25</ele></trkpt>
   <trkpt lon="8.786392" lat="50.001098"><ele>152.0</ele></trkpt>
   <trkpt lon="8.787060" lat="50.001184"><ele>150.75</ele></trkpt>
   <trkpt lon="8.787081" lat="50.001086"><ele>151.0</ele></trkpt>
   <trkpt lon="8.787112" lat="50.000954"><ele>151.5</ele></trkpt>
   <trkpt lon="8.787439" lat="50.001024"><ele>151.25</ele></trkpt>
   <trkpt lon="8.788703" lat="50.001256"><ele>150.25</ele></trkpt>
   <trkpt lon="8.789477" lat="50.001456"><ele>149.75</ele></trkpt>
   <trkpt lon="8.789888" lat="50.001578"><ele>149.25</ele></trkpt>
   <trkpt lon="8.790233" lat="50.001685"><ele>148.75</ele></trkpt>
   <trkpt lon="8.790537" lat="50.001730"><ele>148.75</ele></trkpt>
   <trkpt lon="8.790682" lat="50.001758"><ele>148.5</ele></trkpt>
   <trkpt lon="8.790823" lat="50.001741"><ele>148.5</ele></trkpt>
   <trkpt lon="8.791276" lat="50.001513"><ele>149.0</ele></trkpt>
   <trkpt lon="8.792289" lat="50.000786"><ele>150.0</ele></trkpt>
   <trkpt lon="8.792468" lat="50.000628"><ele>150.5</ele></trkpt>
   <trkpt lon="8.792771" lat="50.000362"><ele>150.5</ele></trkpt>
   <trkpt lon="8.793448" lat="49.999829"><ele>151.0</ele></trkpt>
   <trkpt lon="8.794364" lat="49.999109"><ele>150.0</ele></trkpt>
   <trkpt lon="8.794842" lat="49.998699"><ele>149.25</ele></trkpt>
   <trkpt lon="8.795118" lat="49.998463"><ele>148.25</ele></trkpt>
   <trkpt lon="8.795278" lat="49.998326"><ele>148.75</ele></trkpt>
   <trkpt lon="8.795381" lat="49.998238"><ele>148.25</ele></trkpt>
   <trkpt lon="8.795984" lat="49.997725"><ele>147.0</ele></trkpt>
   <trkpt lon="8.796288" lat="49.997491"><ele>148.0</ele></trkpt>
   <trkpt lon="8.797480" lat="49.996504"><ele>150.5</ele></trkpt>
   <trkpt lon="8.798864" lat="49.995376"><ele>151.5</ele></trkpt>
   <trkpt lon="8.799392" lat="49.995988"><ele>150.75</ele></trkpt>
   <trkpt lon="8.800444" lat="49.997176"><ele>149.0</ele></trkpt>
   <trkpt lon="8.801861" lat="49.998849"><ele>146.0</ele></trkpt>
   <trkpt lon="8.802197" lat="49.999165"><ele>146.0</ele></trkpt>
   <trkpt lon="8.802287" lat="49.999192"><ele>145.75</ele></trkpt>
   <trkpt lon="8.802380" lat="49.999185"><ele>145.75</ele></trkpt>
   <trkpt lon="8.803976" lat="49.998730"><ele>147.0</ele></trkpt>
   <trkpt lon="8.805032" lat="49.998394"><ele>149.75</ele></trkpt>
   <trkpt lon="8.805704" lat="49.998195"><ele>152.25</ele></trkpt>
   <trkpt lon="8.808487" lat="49.997341"><ele>162.0</ele></trkpt>
   <trkpt lon="8.810206" lat="49.996813"><ele>170.5</ele></trkpt>
   <trkpt lon="8.808664" lat="49.994553"><ele>164.75</ele></trkpt>
   <trkpt lon="8.807972" lat="49.993692"><ele>164.0</ele></trkpt>
   <trkpt lon="8.806416" lat="49.994117"><ele>163.0</ele></trkpt>
   <trkpt lon="8.805883" lat="49.993474"><ele>162.0</ele></trkpt>
   <trkpt lon="8.805826" lat="49.993443"><ele>162.0</ele></trkpt>
   <trkpt lon="8.805015" lat="49.992449"><ele>161.0</ele></trkpt>
   <trkpt lon="8.804760" lat="49.992144"><ele>161.0</ele></trkpt>
   <trkpt lon="8.804484" lat="49.991812"><ele>160.5</ele></trkpt>
   <trkpt lon="8.804221" lat="49.991506"><ele>160.0</ele></trkpt>
   <trkpt lon="8.803789" lat="49.991044"><ele>158.75</ele></trkpt>
   <trkpt lon="8.803359" lat="49.990614"><ele>157.75</ele></trkpt>
   <trkpt lon="8.803148" lat="49.990390"><ele>158.25</ele></trkpt>
   <trkpt lon="8.803026" lat="49.990264"><ele>158.0</ele></trkpt>
   <trkpt lon="8.802960" lat="49.990235"><ele>158.25</ele></trkpt>
   <trkpt lon="8.802811" lat="49.990208"><ele>158.75</ele></trkpt>
   <trkpt lon="8.802795" lat="49.990082"><ele>158.75</ele></trkpt>
   <trkpt lon="8.802776" lat="49.989823"><ele>159.0</ele></trkpt>
   <trkpt lon="8.802776" lat="49.989626"><ele>158.5</ele></trkpt>
   <trkpt lon="8.802809" lat="49.989092"><ele>158.0</ele></trkpt>
   <trkpt lon="8.802751" lat="49.989104"><ele>158.0</ele></trkpt>
   <trkpt lon="8.802706" lat="49.989106"><ele>158.25</ele></trkpt>
   <trkpt lon="8.802243" lat="49.989080"><ele>159.75</ele></trkpt>
   <trkpt lon="8.802058" lat="49.989080"><ele>160.25</ele></trkpt>
   <trkpt lon="8.801588" lat="49.989109"><ele>161.25</ele></trkpt>
   <trkpt lon="8.801356" lat="49.989130"><ele>162.0</ele></trkpt>
   <trkpt lon="8.800904" lat="49.989171"><ele>163.0</ele></trkpt>
   <trkpt lon="8.800502" lat="49.989188"><ele>164.25</ele></trkpt>
   <trkpt lon="8.800205" lat="49.989197"><ele>165.0</ele></trkpt>
   <trkpt lon="8.799548" lat="49.989205"><ele>166.0</ele></trkpt>
   <trkpt lon="8.799132" lat="49.989185"><ele>167.0</ele></trkpt>
   <trkpt lon="8.797900" lat="49.989049"><ele>169.25</ele></trkpt>
   <trkpt lon="8.797862" lat="49.989027"><ele>169.25</ele></trkpt>
   <trkpt lon="8.797322" lat="49.988750"><ele>169.25</ele></trkpt>
   <trkpt lon="8.796143" lat="49.988038"><ele>171.0</ele></trkpt>
   <trkpt lon="8.793487" lat="49.987509"><ele>176.75</ele></trkpt>
   <trkpt lon="8.791708" lat="49.987052"><ele>177.0</ele></trkpt>
   <trkpt lon="8.791065" lat="49.986866"><ele>179.25</ele></trkpt>
   <trkpt lon="8.787741" lat="49.986015"><ele>188.0</ele></trkpt>
   <trkpt lon="8.785399" lat="49.985416"><ele>190.25</ele></trkpt>
   <trkpt lon="8.786121" lat="49.984588"><ele>188.75</ele></trkpt>
   <trkpt lon="8.786701" lat="49.983922"><ele>185.0</ele></trkpt>
   <trkpt lon="8.787004" lat="49.983551"><ele>182.5</ele></trkpt>
   <trkpt lon="8.787028" lat="49.983510"><ele>182.25</ele></trkpt>
   <trkpt lon="8.787110" lat="49.983297"><ele>180.75</ele></trkpt>
   <trkpt lon="8.787337" lat="49.982658"><ele>177.5</ele></trkpt>
   <trkpt lon="8.787591" lat="49.981947"><ele>174.0</ele></trkpt>
   <trkpt lon="8.787757" lat="49.981487"><ele>172.25</ele></trkpt>
   <trkpt lon="8.788153" lat="49.980397"><ele>167.25</ele></trkpt>
   <trkpt lon="8.788343" lat="49.979840"><ele>165.25</ele></trkpt>
   <trkpt lon="8.788747" lat="49.978741"><ele>162.0</ele></trkpt>
   <trkpt lon="8.789013" lat="49.978172"><ele>160.5</ele></trkpt>
   <trkpt lon="8.789086" lat="49.977929"><ele>159.75</ele></trkpt>
   <trkpt lon="8.789100" lat="49.977850"><ele>159.5</ele></trkpt>
   <trkpt lon="8.789305" lat="49.976842"><ele>155.75</ele></trkpt>
   <trkpt lon="8.789374" lat="49.976562"><ele>154.5</ele></trkpt>
   <trkpt lon="8.789415" lat="49.976467"><ele>154.25</ele></trkpt>
   <trkpt lon="8.789563" lat="49.976246"><ele>153.25</ele></trkpt>
   <trkpt lon="8.789672" lat="49.976024"><ele>153.0</ele></trkpt>
   <trkpt lon="8.789729" lat="49.975911"><ele>153.0</ele></trkpt>
   <trkpt lon="8.789810" lat="49.975778"><ele>152.75</ele></trkpt>
   <trkpt lon="8.790010" lat="49.975559"><ele>152.0</ele></trkpt>
   <trkpt lon="8.790130" lat="49.975328"><ele>152.75</ele></trkpt>
   <trkpt lon="8.790122" lat="49.975233"><ele>153.0</ele></trkpt>
   <trkpt lon="8.790176" lat="49.975137"><ele>153.0</ele></trkpt>
   <trkpt lon="8.790213" lat="49.974920"><ele>153.25</ele></trkpt>
   <trkpt lon="8.790449" lat="49.974939"><ele>153.0</ele></trkpt>
   <trkpt lon="8.790554" lat="49.974937"><ele>153.0</ele></trkpt>
   <trkpt lon="8.791670" lat="49.974725"><ele>152.75</ele></trkpt>
   <trkpt lon="8.792278" lat="49.974702"><ele>153.0</ele></trkpt>
   <trkpt lon="8.792396" lat="49.974706"><ele>153.0</ele></trkpt>
   <trkpt lon="8.793748" lat="49.974824"><ele>152.75</ele></trkpt>
   <trkpt lon="8.793983" lat="49.974139"><ele>155.0</ele></trkpt>
   <trkpt lon="8.794059" lat="49.973939"><ele>155.25</ele></trkpt>
   <trkpt lon="8.794266" lat="49.973362"><ele>155.0</ele></trkpt>
   <trkpt lon="8.793488" lat="49.973315"><ele>156.0</ele></trkpt>
   <trkpt lon="8.792417" lat="49.973258"><ele>157.0</ele></trkpt>
   <trkpt lon="8.792286" lat="49.973250"><ele>157.0</ele></trkpt>
   <trkpt lon="8.791976" lat="49.973227"><ele>157.0</ele></trkpt>
   <trkpt lon="8.790893" lat="49.973204"><ele>158.25</ele></trkpt>
   <trkpt lon="8.790742" lat="49.973195"><ele>158.25</ele></trkpt>
   <trkpt lon="8.790585" lat="49.973173"><ele>158.5</ele></trkpt>
   <trkpt lon="8.790233" lat="49.973094"><ele>158.75</ele></trkpt>
   <trkpt lon="8.789158" lat="49.972809"><ele>161.0</ele></trkpt>
   <trkpt lon="8.789622" lat="49.972088"><ele>160.0</ele></trkpt>
   <trkpt lon="8.789747" lat="49.971897"><ele>160.0</ele></trkpt>
   <trkpt lon="8.789972" lat="49.971535"><ele>160.0</ele></trkpt>
   <trkpt lon="8.790095" lat="49.971282"><ele>159.75</ele></trkpt>
   <trkpt lon="8.790140" lat="49.971151"><ele>159.5</ele></trkpt>
   <trkpt lon="8.790188" lat="49.970969"><ele>159.25</ele></trkpt>
   <trkpt lon="8.790223" lat="49.970725"><ele>159.5</ele></trkpt>
   <trkpt lon="8.790224" lat="49.970681"><ele>159.5</ele></trkpt>
   <trkpt lon="8.790150" lat="49.970399"><ele>160.25</ele></trkpt>
   <trkpt lon="8.790107" lat="49.970254"><ele>160.25</ele></trkpt>
   <trkpt lon="8.790067" lat="49.970163"><ele>160.0</ele></trkpt>
   <trkpt lon="8.789819" lat="49.969742"><ele>160.75</ele></trkpt>
   <trkpt lon="8.789652" lat="49.969502"><ele>161.0</ele></trkpt>
   <trkpt lon="8.789575" lat="49.969402"><ele>161.0</ele></trkpt>
   <trkpt lon="8.789505" lat="49.969333"><ele>161.25</ele></trkpt>
   <trkpt lon="8.789376" lat="49.969255"><ele>161.75</ele></trkpt>
   <trkpt lon="8.789197" lat="49.969172"><ele>161.75</ele></trkpt>
   <trkpt lon="8.789077" lat="49.969127"><ele>162.0</ele></trkpt>
   <trkpt lon="8.789064" lat="49.969059"><ele>162.0</ele></trkpt>
   <trkpt lon="8.788538" lat="49.968748"><ele>162.0</ele></trkpt>
   <trkpt lon="8.788617" lat="49.968689"><ele>162.0</ele></trkpt>
   <trkpt lon="8.788590" lat="49.968631"><ele>162.0</ele></trkpt>
   <trkpt lon="8.787188" lat="49.967938"><ele>162.25</ele></trkpt>
   <trkpt lon="8.786405" lat="49.967469"><ele>163.0</ele></trkpt>
   <trkpt lon="8.786278" lat="49.967355"><ele>162.75</ele></trkpt>
   <trkpt lon="8.786082" lat="49.967040"><ele>163.5</ele></trkpt>
   <trkpt lon="8.785967" lat="49.966940"><ele>163.25</ele></trkpt>
   <trkpt lon="8.785909" lat="49.966914"><ele>163.25</ele></trkpt>
   <trkpt lon="8.785156" lat="49.967305"><ele>163.0</ele></trkpt>
   <trkpt lon="8.782795" lat="49.968482"><ele>165.5</ele></trkpt>
   <trkpt lon="8.780465" lat="49.969651"><ele>167.0</ele></trkpt>
   <trkpt lon="8.778308" lat="49.970728"><ele>167.0</ele></trkpt>
   <trkpt lon="8.778129" lat="49.970841"><ele>166.75</ele></trkpt>
   <trkpt lon="8.777676" lat="49.970626"><ele>168.0</ele></trkpt>
   <trkpt lon="8.775395" lat="49.969508"><ele>172.0</ele></trkpt>
   <trkpt lon="8.774461" lat="49.969054"><ele>170.25</ele></trkpt>
   <trkpt lon="8.773220" lat="49.968895"><ele>169.75</ele></trkpt>
   <trkpt lon="8.771254" lat="49.968630"><ele>170.0</ele></trkpt>
   <trkpt lon="8.770506" lat="49.968450"><ele>170.5</ele></trkpt>
   <trkpt lon="8.767811" lat="49.967843"><ele>174.25</ele></trkpt>
   <trkpt lon="8.762407" lat="49.966640"><ele>178.0</ele></trkpt>
   <trkpt lon="8.760833" lat="49.966285"><ele>177.25</ele></trkpt>
   <trkpt lon="8.758620" lat="49.965794"><ele>178.75</ele></trkpt>
   <trkpt lon="8.757175" lat="49.965780"><ele>179.75</ele></trkpt>
   <trkpt lon="8.753945" lat="49.965803"><ele>181.0</ele></trkpt>
   <trkpt lon="8.753842" lat="49.965832"><ele>181.0</ele></trkpt>
   <trkpt lon="8.753738" lat="49.965877"><ele>181.0</ele></trkpt>
   <trkpt lon="8.753637" lat="49.965938"><ele>181.0</ele></trkpt>
   <trkpt lon="8.753564" lat="49.966005"><ele>181.0</ele></trkpt>
   <trkpt lon="8.753506" lat="49.966079"><ele>181.0</ele></trkpt>
   <trkpt lon="8.753493" lat="49.966215"><ele>181.0</ele></trkpt>
   <trkpt lon="8.753494" lat="49.966757"><ele>181.25</ele></trkpt>
   <trkpt lon="8.753533" lat="49.967110"><ele>182.0</ele></trkpt>
   <trkpt lon="8.751836" lat="49.969282"><ele>187.5</ele></trkpt>
   <trkpt lon="8.750418" lat="49.971165"><ele>191.0</ele></trkpt>
   <trkpt lon="8.748300" lat="49.970055"><ele>186.75</ele></trkpt>
   <trkpt lon="8.747155" lat="49.969444"><ele>184.0</ele></trkpt>
   <trkpt lon="8.746558" lat="49.969136"><ele>182.75</ele></trkpt>
   <trkpt lon="8.746032" lat="49.969150"><ele>181.75</ele></trkpt>
   <trkpt lon="8.745576" lat="49.969127"><ele>181.0</ele></trkpt>
   <trkpt lon="8.745216" lat="49.969096"><ele>179.75</ele></trkpt>
   <trkpt lon="8.744991" lat="49.969048"><ele>178.75</ele></trkpt>
   <trkpt lon="8.744777" lat="49.969019"><ele>178.0</ele></trkpt>
   <trkpt lon="8.744506" lat="49.969036"><ele>176.75</ele></trkpt>
   <trkpt lon="8.744361" lat="49.969089"><ele>176.75</ele></trkpt>
   <trkpt lon="8.744160" lat="49.969124"><ele>177.0</ele></trkpt>
   <trkpt lon="8.743820" lat="49.969150"><ele>178.0</ele></trkpt>
   <trkpt lon="8.743718" lat="49.969128"><ele>178.25</ele></trkpt>
   <trkpt lon="8.742299" lat="49.968844"><ele>178.75</ele></trkpt>
   <trkpt lon="8.739354" lat="49.968244"><ele>174.5</ele></trkpt>
   <trkpt lon="8.738878" lat="49.968132"><ele>173.25</ele></trkpt>
   <trkpt lon="8.736647" lat="49.967582"><ele>170.75</ele></trkpt>
   <trkpt lon="8.735771" lat="49.967350"><ele>171.0</ele></trkpt>
   <trkpt lon="8.735428" lat="49.967243"><ele>171.0</ele></trkpt>
   <trkpt lon="8.735072" lat="49.967116"><ele>171.0</ele></trkpt>
   <trkpt lon="8.734806" lat="49.966981"><ele>170.75</ele></trkpt>
   <trkpt lon="8.733806" lat="49.966284"><ele>166.5</ele></trkpt>
   <trkpt lon="8.733740" lat="49.966249"><ele>166.25</ele></trkpt>
   <trkpt lon="8.733722" lat="49.966236"><ele>166.25</ele></trkpt>
   <trkpt lon="8.733339" lat="49.965965"><ele>165.5</ele></trkpt>
   <trkpt lon="8.732640" lat="49.965379"><ele>162.75</ele></trkpt>
   <trkpt lon="8.732308" lat="49.965059"><ele>162.25</ele></trkpt>
   <trkpt lon="8.732136" lat="49.964880"><ele>162.0</ele></trkpt>
   <trkpt lon="8.732064" lat="49.964830"><ele>162.0</ele></trkpt>
   <trkpt lon="8.731961" lat="49.964799"><ele>161.75</ele></trkpt>
   <trkpt lon="8.731862" lat="49.964785"><ele>161.5</ele></trkpt>
   <trkpt lon="8.731600" lat="49.964787"><ele>161.0</ele></trkpt>
   <trkpt lon="8.731480" lat="49.964785"><ele>161.0</ele></trkpt>
   <trkpt lon="8.731079" lat="49.964787"><ele>162.0</ele></trkpt>
   <trkpt lon="8.730846" lat="49.964807"><ele>162.75</ele></trkpt>
   <trkpt lon="8.729700" lat="49.965138"><ele>164.5</ele></trkpt>
   <trkpt lon="8.728645" lat="49.965480"><ele>165.5</ele></trkpt>
   <trkpt lon="8.727608" lat="49.965771"><ele>166.0</ele></trkpt>
   <trkpt lon="8.727242" lat="49.965777"><ele>165.0</ele></trkpt>
   <trkpt lon="8.727007" lat="49.965720"><ele>164.0</ele></trkpt>
   <trkpt lon="8.726848" lat="49.965704"><ele>163.75</ele></trkpt>
   <trkpt lon="8.726707" lat="49.965690"><ele>163.5</ele></trkpt>
   <trkpt lon="8.726122" lat="49.965677"><ele>163.25</ele></trkpt>
   <trkpt lon="8.725449" lat="49.965702"><ele>164.5</ele></trkpt>
   <trkpt lon="8.723857" lat="49.965820"><ele>165.75</ele></trkpt>
   <trkpt lon="8.723361" lat="49.966087"><ele>166.75</ele></trkpt>
   <trkpt lon="8.721321" lat="49.966712"><ele>170.0</ele></trkpt>
   <trkpt lon="8.721113" lat="49.967606"><ele>173.25</ele></trkpt>
   <trkpt lon="8.720939" lat="49.968346"><ele>176.25</ele></trkpt>
   <trkpt lon="8.720811" lat="49.968795"><ele>176.5</ele></trkpt>
   <trkpt lon="8.720662" lat="49.969456"><ele>178.0</ele></trkpt>
   <trkpt lon="8.720478" lat="49.970134"><ele>179.0</ele></trkpt>
   <trkpt lon="8.720335" lat="49.970815"><ele>179.75</ele></trkpt>
   <trkpt lon="8.719880" lat="49.972729"><ele>181.75</ele></trkpt>
   <trkpt lon="8.719467" lat="49.974142"><ele>185.75</ele></trkpt>
   <trkpt lon="8.719192" lat="49.975345"><ele>188.75</ele></trkpt>
   <trkpt lon="8.719064" lat="49.975900"><ele>190.0</ele></trkpt>
   <trkpt lon="8.719043" lat="49.975959"><ele>190.0</ele></trkpt>
   <trkpt lon="8.718520" lat="49.977944"><ele>192.25</ele></trkpt>
   <trkpt lon="8.718459" lat="49.978087"><ele>192.25</ele></trkpt>
   <trkpt lon="8.718229" lat="49.978587"><ele>191.75</ele></trkpt>
   <trkpt lon="8.717855" lat="49.979346"><ele>191.25</ele></trkpt>
   <trkpt lon="8.717123" lat="49.980711"><ele>192.25</ele></trkpt>
   <trkpt lon="8.715940" lat="49.982904"><ele>191.25</ele></trkpt>
   <trkpt lon="8.715313" lat="49.984175"><ele>195.0</ele></trkpt>
   <trkpt lon="8.715112" lat="49.984542"><ele>196.0</ele></trkpt>
   <trkpt lon="8.714866" lat="49.985081"><ele>196.25</ele></trkpt>
   <trkpt lon="8.712992" lat="49.985253"><ele>198.0</ele></trkpt>
   <trkpt lon="8.712905" lat="49.985293"><ele>197.75</ele></trkpt>
   <trkpt lon="8.713148" lat="49.986309"><ele>194.5</ele></trkpt>
   <trkpt lon="8.713161" lat="49.986392"><ele>194.25</ele></trkpt>
   <trkpt lon="8.713067" lat="49.986485"><ele>193.5</ele></trkpt>
   <trkpt lon="8.713144" lat="49.987155"><ele>189.25</ele></trkpt>
   <trkpt lon="8.713222" lat="49.987591"><ele>186.5</ele></trkpt>
   <trkpt lon="8.713318" lat="49.987912"><ele>185.5</ele></trkpt>
   <trkpt lon="8.713311" lat="49.987965"><ele>185.25</ele></trkpt>
   <trkpt lon="8.712992" lat="49.988322"><ele>184.75</ele></trkpt>
   <trkpt lon="8.711925" lat="49.989302"><ele>180.75</ele></trkpt>
   <trkpt lon="8.711297" lat="49.989860"><ele>178.5</ele></trkpt>
   <trkpt lon="8.710926" lat="49.990219"><ele>177.0</ele></trkpt>
   <trkpt lon="8.710691" lat="49.990143"><ele>176.5</ele></trkpt>
   <trkpt lon="8.710571" lat="49.990114"><ele>176.5</ele></trkpt>
   <trkpt lon="8.710407" lat="49.990082"><ele>176.25</ele></trkpt>
   <trkpt lon="8.710157" lat="49.990046"><ele>176.0</ele></trkpt>
   <trkpt lon="8.709823" lat="49.990034"><ele>175.25</ele></trkpt>
   <trkpt lon="8.709246" lat="49.990041"><ele>174.25</ele></trkpt>
   <trkpt lon="8.708627" lat="49.990062"><ele>173.25</ele></trkpt>
   <trkpt lon="8.707335" lat="49.990074"><ele>172.0</ele></trkpt>
   <trkpt lon="8.706513" lat="49.990155"><ele>171.75</ele></trkpt>
   <trkpt lon="8.705572" lat="49.990264"><ele>170.0</ele></trkpt>
   <trkpt lon="8.705463" lat="49.990273"><ele>170.0</ele></trkpt>
   <trkpt lon="8.705298" lat="49.990274"><ele>170.0</ele></trkpt>
   <trkpt lon="8.704470" lat="49.990236"><ele>169.0</ele></trkpt>
   <trkpt lon="8.703887" lat="49.990196"><ele>168.25</ele></trkpt>
   <trkpt lon="8.703142" lat="49.990114"><ele>167.5</ele></trkpt>
   <trkpt lon="8.702903" lat="49.990111"><ele>167.25</ele></trkpt>
   <trkpt lon="8.702638" lat="49.990141"><ele>167.0</ele></trkpt>
   <trkpt lon="8.702243" lat="49.990216"><ele>166.0</ele></trkpt>
   <trkpt lon="8.702156" lat="49.990231"><ele>166.0</ele></trkpt>
   <trkpt lon="8.701980" lat="49.990266"><ele>166.0</ele></trkpt>
   <trkpt lon="8.701836" lat="49.990302"><ele>165.75</ele></trkpt>
   <trkpt lon="8.701492" lat="49.990345"><ele>165.25</ele></trkpt>
   <trkpt lon="8.701052" lat="49.990388"><ele>164.25</ele></trkpt>
   <trkpt lon="8.700142" lat="49.990417"><ele>164.5</ele></trkpt>
   <trkpt lon="8.699240" lat="49.990346"><ele>164.0</ele></trkpt>
   <trkpt lon="8.698847" lat="49.990302"><ele>163.75</ele></trkpt>
   <trkpt lon="8.698555" lat="49.990252"><ele>162.75</ele></trkpt>
   <trkpt lon="8.698198" lat="49.990218"><ele>162.5</ele></trkpt>
   <trkpt lon="8.697951" lat="49.990224"><ele>162.5</ele></trkpt>
   <trkpt lon="8.696992" lat="49.990103"><ele>160.75</ele></trkpt>
   <trkpt lon="8.696305" lat="49.990009"><ele>161.0</ele></trkpt>
   <trkpt lon="8.695576" lat="49.989985"><ele>160.75</ele></trkpt>
   <trkpt lon="8.694531" lat="49.989928"><ele>160.5</ele></trkpt>
   <trkpt lon="8.694250" lat="49.989943"><ele>160.0</ele></trkpt>
   <trkpt lon="8.693828" lat="49.989921"><ele>159.75</ele></trkpt>
   <trkpt lon="8.693753" lat="49.989898"><ele>159.5</ele></trkpt>
   <trkpt lon="8.693548" lat="49.989851"><ele>158.75</ele></trkpt>
   <trkpt lon="8.693414" lat="49.989838"><ele>158.0</ele></trkpt>
   <trkpt lon="8.693431" lat="49.989882"><ele>158.25</ele></trkpt>
   <trkpt lon="8.693149" lat="49.990426"><ele>159.5</ele></trkpt>
   <trkpt lon="8.693041" lat="49.990749"><ele>161.25</ele></trkpt>
   <trkpt lon="8.692873" lat="49.991033"><ele>163.25</ele></trkpt>
   <trkpt lon="8.692779" lat="49.991127"><ele>164.0</ele></trkpt>
   <trkpt lon="8.692714" lat="49.991148"><ele>164.25</ele></trkpt>
   <trkpt lon="8.692597" lat="49.991136"><ele>164.0</ele></trkpt>
   <trkpt lon="8.692413" lat="49.991098"><ele>163.75</ele></trkpt>
   <trkpt lon="8.691948" lat="49.991641"><ele>167.75</ele></trkpt>
   <trkpt lon="8.691837" lat="49.991791"><ele>168.25</ele></trkpt>
   <trkpt lon="8.691711" lat="49.992001"><ele>169.0</ele></trkpt>
   <trkpt lon="8.691697" lat="49.992080"><ele>169.0</ele></trkpt>
   <trkpt lon="8.691726" lat="49.992179"><ele>169.0</ele></trkpt>
   <trkpt lon="8.691882" lat="49.992355"><ele>169.75</ele></trkpt>
   <trkpt lon="8.691943" lat="49.992494"><ele>170.75</ele></trkpt>
   <trkpt lon="8.692004" lat="49.992674"><ele>171.0</ele></trkpt>
   <trkpt lon="8.691815" lat="49.993206"><ele>169.75</ele></trkpt>
   <trkpt lon="8.691555" lat="49.993793"><ele>168.25</ele></trkpt>
   <trkpt lon="8.691291" lat="49.994187"><ele>166.5</ele></trkpt>
   <trkpt lon="8.691016" lat="49.994403"><ele>165.75</ele></trkpt>
   <trkpt lon="8.690914" lat="49.994512"><ele>165.75</ele></trkpt>
   <trkpt lon="8.690781" lat="49.994777"><ele>165.75</ele></trkpt>
   <trkpt lon="8.690588" lat="49.995057"><ele>165.0</ele></trkpt>
   <trkpt lon="8.689957" lat="49.995644"><ele>165.0</ele></trkpt>
   <trkpt lon="8.689818" lat="49.995825"><ele>165.0</ele></trkpt>
   <trkpt lon="8.689781" lat="49.995950"><ele>165.0</ele></trkpt>
   <trkpt lon="8.689951" lat="49.996040"><ele>165.0</ele></trkpt>
   <trkpt lon="8.690863" lat="49.996862"><ele>164.25</ele></trkpt>
   <trkpt lon="8.691288" lat="49.997263"><ele>164.75</ele></trkpt>
   <trkpt lon="8.692489" lat="49.998351"><ele>164.75</ele></trkpt>
   <trkpt lon="8.695399" lat="49.996263"><ele>173.25</ele></trkpt>
   <trkpt lon="8.695953" lat="49.996847"><ele>173.0</ele></trkpt>
   <trkpt lon="8.696751" lat="49.997691"><ele>171.25</ele></trkpt>
   <trkpt lon="8.698320" lat="49.998237"><ele>170.75</ele></trkpt>
   <trkpt lon="8.698920" lat="49.998466"><ele>170.5</ele></trkpt>
   <trkpt lon="8.699483" lat="49.998710"><ele>171.0</ele></trkpt>
   <trkpt lon="8.699939" lat="49.998880"><ele>171.0</ele></trkpt>
   <trkpt lon="8.700132" lat="49.998885"><ele>171.25</ele></trkpt>
   <trkpt lon="8.703012" lat="49.997580"><ele>177.0</ele></trkpt>
   <trkpt lon="8.703279" lat="49.997382"><ele>177.75</ele></trkpt>
   <trkpt lon="8.703435" lat="49.997267"><ele>178.5</ele></trkpt>
   <trkpt lon="8.703789" lat="49.997014"><ele>178.25</ele></trkpt>
   <trkpt lon="8.703822" lat="49.996999"><ele>178.0</ele></trkpt>
   <trkpt lon="8.703778" lat="49.996979"><ele>178.25</ele></trkpt>
   <trkpt lon="8.703822" lat="49.996949"><ele>178.0</ele></trkpt>
   <trkpt lon="8.703859" lat="49.996935"><ele>178.0</ele></trkpt>
   <trkpt lon="8.705933" lat="49.996463"><ele>174.25</ele></trkpt>
   <trkpt lon="8.706085" lat="49.996415"><ele>174.0</ele></trkpt>
   <trkpt lon="8.706224" lat="49.996378"><ele>174.0</ele></trkpt>
   <trkpt lon="8.706236" lat="49.996351"><ele>174.0</ele></trkpt>
   <trkpt lon="8.706284" lat="49.996296"><ele>174.25</ele></trkpt>
   <trkpt lon="8.706417" lat="49.996220"><ele>174.5</ele></trkpt>
   <trkpt lon="8.706618" lat="49.996146"><ele>174.75</ele></trkpt>
   <trkpt lon="8.706798" lat="49.996078"><ele>175.0</ele></trkpt>
   <trkpt lon="8.706988" lat="49.996006"><ele>174.75</ele></trkpt>
   <trkpt lon="8.707061" lat="49.996044"><ele>174.5</ele></trkpt>
   <trkpt lon="8.707211" lat="49.996230"><ele>174.0</ele></trkpt>
   <trkpt lon="8.707246" lat="49.996277"><ele>174.0</ele></trkpt>
   <trkpt lon="8.707515" lat="49.996588"><ele>173.25</ele></trkpt>
   <trkpt lon="8.707543" lat="49.996669"><ele>172.75</ele></trkpt>
   <trkpt lon="8.707786" lat="49.996944"><ele>171.0</ele></trkpt>
   <trkpt lon="8.708036" lat="49.997226"><ele>170.0</ele></trkpt>
   <trkpt lon="8.708253" lat="49.997149"><ele>170.25</ele></trkpt>
   <trkpt lon="8.708532" lat="49.997058"><ele>170.5</ele></trkpt>
   <trkpt lon="8.709015" lat="49.996879"><ele>171.0</ele></trkpt>
   <trkpt lon="8.709181" lat="49.996825"><ele>171.25</ele></trkpt>
   <trkpt lon="8.709625" lat="49.996681"><ele>170.75</ele></trkpt>
   <trkpt lon="8.710642" lat="49.996299"><ele>169.75</ele></trkpt>
   <trkpt lon="8.711062" lat="49.996088"><ele>170.0</ele></trkpt>
   <trkpt lon="8.711641" lat="49.995767"><ele>171.0</ele></trkpt>
   <trkpt lon="8.711842" lat="49.995657"><ele>171.0</ele></trkpt>
   <trkpt lon="8.712531" lat="49.995330"><ele>171.75</ele></trkpt>
   <trkpt lon="8.713398" lat="49.995608"><ele>169.75</ele></trkpt>
   <trkpt lon="8.715343" lat="49.996181"><ele>169.0</ele></trkpt>
   <trkpt lon="8.715314" lat="49.996271"><ele>169.0</ele></trkpt>
   <trkpt lon="8.715194" lat="49.996472"><ele>168.25</ele></trkpt>
   <trkpt lon="8.715130" lat="49.996602"><ele>167.5</ele></trkpt>
   <trkpt lon="8.715110" lat="49.996640"><ele>167.25</ele></trkpt>
   <trkpt lon="8.715087" lat="49.996740"><ele>167.0</ele></trkpt>
   <trkpt lon="8.715028" lat="49.997130"><ele>166.0</ele></trkpt>
   <trkpt lon="8.714989" lat="49.997286"><ele>165.5</ele></trkpt>
   <trkpt lon="8.714919" lat="49.997461"><ele>164.75</ele></trkpt>
   <trkpt lon="8.715028" lat="49.997460"><ele>165.0</ele></trkpt>
   <trkpt lon="8.715272" lat="49.997485"><ele>165.0</ele></trkpt>
   <trkpt lon="8.715757" lat="49.997554"><ele>165.75</ele></trkpt>
   <trkpt lon="8.716080" lat="49.997589"><ele>165.75</ele></trkpt>
   <trkpt lon="8.717617" lat="49.997874"><ele>166.25</ele></trkpt>
   <trkpt lon="8.718639" lat="49.998102"><ele>165.75</ele></trkpt>
   <trkpt lon="8.719152" lat="49.998254"><ele>167.5</ele></trkpt>
   <trkpt lon="8.720168" lat="49.998489"><ele>168.75</ele></trkpt>
   <trkpt lon="8.720006" lat="49.998738"><ele>167.0</ele></trkpt>
   <trkpt lon="8.719802" lat="49.999031"><ele>165.25</ele></trkpt>
   <trkpt lon="8.719680" lat="49.999189"><ele>164.75</ele></trkpt>
   <trkpt lon="8.719572" lat="49.999318"><ele>163.75</ele></trkpt>
   <trkpt lon="8.719442" lat="49.999407"><ele>163.0</ele></trkpt>
   <trkpt lon="8.719562" lat="49.999871"><ele>160.25</ele></trkpt>
   <trkpt lon="8.719543" lat="49.999936"><ele>160.0</ele></trkpt>
   <trkpt lon="8.719398" lat="49.999959"><ele>160.0</ele></trkpt>
   <trkpt lon="8.719237" lat="50.000027"><ele>159.75</ele></trkpt>
  </trkseg>
 </trk>
</gpx>
