<?xml version="1.0" encoding="UTF-8"?>
<gpx version="1.1" creator="BRouter paired review" xmlns="http://www.topografix.com/GPX/1/1">
<trk><name>Route B</name><trkseg>
<trkpt lat="50.000027" lon="8.719237"><ele>159.75</ele></trkpt>
<trkpt lat="49.999959" lon="8.719398"><ele>160.0</ele></trkpt>
<trkpt lat="49.999936" lon="8.719543"><ele>160.0</ele></trkpt>
<trkpt lat="49.999871" lon="8.719562"><ele>160.25</ele></trkpt>
<trkpt lat="49.999407" lon="8.719442"><ele>163.0</ele></trkpt>
<trkpt lat="49.999318" lon="8.719572"><ele>163.75</ele></trkpt>
<trkpt lat="49.999189" lon="8.719680"><ele>164.75</ele></trkpt>
<trkpt lat="49.999031" lon="8.719802"><ele>165.25</ele></trkpt>
<trkpt lat="49.998738" lon="8.720006"><ele>167.0</ele></trkpt>
<trkpt lat="49.998489" lon="8.720168"><ele>168.75</ele></trkpt>
<trkpt lat="49.998744" lon="8.721220"><ele>167.25</ele></trkpt>
<trkpt lat="49.998831" lon="8.721529"><ele>165.75</ele></trkpt>
<trkpt lat="49.998975" lon="8.722466"><ele>162.5</ele></trkpt>
<trkpt lat="49.998975" lon="8.722547"><ele>162.5</ele></trkpt>
<trkpt lat="49.999038" lon="8.722474"><ele>162.25</ele></trkpt>
<trkpt lat="49.999100" lon="8.722416"><ele>162.0</ele></trkpt>
<trkpt lat="49.999309" lon="8.722176"><ele>162.25</ele></trkpt>
<trkpt lat="49.999239" lon="8.723027"><ele>166.5</ele></trkpt>
<trkpt lat="49.999141" lon="8.723437"><ele>167.25</ele></trkpt>
<trkpt lat="49.999052" lon="8.723888"><ele>168.5</ele></trkpt>
<trkpt lat="49.999048" lon="8.724075"><ele>169.0</ele></trkpt>
<trkpt lat="49.999239" lon="8.724462"><ele>171.5</ele></trkpt>
<trkpt lat="49.999320" lon="8.724741"><ele>172.0</ele></trkpt>
<trkpt lat="49.999449" lon="8.724986"><ele>173.75</ele></trkpt>
<trkpt lat="49.999600" lon="8.725213"><ele>174.0</ele></trkpt>
<trkpt lat="49.999645" lon="8.725235"><ele>174.25</ele></trkpt>
<trkpt lat="49.999764" lon="8.725199"><ele>175.0</ele></trkpt>
<trkpt lat="50.000023" lon="8.725119"><ele>176.0</ele></trkpt>
<trkpt lat="50.000457" lon="8.725093"><ele>177.25</ele></trkpt>
<trkpt lat="50.000528" lon="8.725140"><ele>177.75</ele></trkpt>
<trkpt lat="50.000378" lon="8.725389"><ele>177.5</ele></trkpt>
<trkpt lat="50.000283" lon="8.725561"><ele>177.0</ele></trkpt>
<trkpt lat="50.000389" lon="8.725750"><ele>177.75</ele></trkpt>
<trkpt lat="50.000464" lon="8.725857"><ele>178.25</ele></trkpt>
<trkpt lat="50.000640" lon="8.725869"><ele>179.25</ele></trkpt>
<trkpt lat="50.000766" lon="8.725821"><ele>179.75</ele></trkpt>
<trkpt lat="50.000848" lon="8.726146"><ele>180.0</ele></trkpt>
<trkpt lat="50.001196" lon="8.727843"><ele>182.75</ele></trkpt>
<trkpt lat="50.001216" lon="8.727871"><ele>183.0</ele></trkpt>
<trkpt lat="50.001325" lon="8.727907"><ele>184.25</ele></trkpt>
<trkpt lat="50.001481" lon="8.727993"><ele>185.25</ele></trkpt>
<trkpt lat="50.001557" lon="8.728088"><ele>185.5</ele></trkpt>
<trkpt lat="50.001587" lon="8.728182"><ele>185.5</ele></trkpt>
<trkpt lat="50.001616" lon="8.728285"><ele>185.5</ele></trkpt>
<trkpt lat="50.001641" lon="8.728476"><ele>185.75</ele></trkpt>
<trkpt lat="50.001629" lon="8.728968"><ele>184.5</ele></trkpt>
<trkpt lat="50.001602" lon="8.729680"><ele>184.5</ele></trkpt>
<trkpt lat="50.001594" lon="8.729952"><ele>184.25</ele></trkpt>
<trkpt lat="50.001654" lon="8.730574"><ele>183.75</ele></trkpt>
<trkpt lat="50.001653" lon="8.730872"><ele>184.0</ele></trkpt>
<trkpt lat="50.001584" lon="8.730882"><ele>183.75</ele></trkpt>
<trkpt lat="50.001636" lon="8.731624"><ele>184.75</ele></trkpt>
<trkpt lat="50.001726" lon="8.732563"><ele>186.0</ele></trkpt>
<trkpt lat="50.001238" lon="8.732645"><ele>184.25</ele></trkpt>
<trkpt lat="50.001055" lon="8.732672"><ele>183.75</ele></trkpt>
<trkpt lat="50.000698" lon="8.732834"><ele>183.0</ele></trkpt>
<trkpt lat="50.000363" lon="8.733062"><ele>183.0</ele></trkpt>
<trkpt lat="50.000091" lon="8.733289"><ele>182.75</ele></trkpt>
<trkpt lat="49.999983" lon="8.733477"><ele>182.5</ele></trkpt>
<trkpt lat="49.999982" lon="8.733598"><ele>182.0</ele></trkpt>
<trkpt lat="49.999584" lon="8.733811"><ele>183.0</ele></trkpt>
<trkpt lat="49.998869" lon="8.734320"><ele>183.0</ele></trkpt>
<trkpt lat="49.998144" lon="8.734746"><ele>183.25</ele></trkpt>
<trkpt lat="49.998060" lon="8.734764"><ele>183.0</ele></trkpt>
<trkpt lat="49.998003" lon="8.734772"><ele>183.0</ele></trkpt>
<trkpt lat="49.997445" lon="8.735192"><ele>181.5</ele></trkpt>
<trkpt lat="49.997060" lon="8.735666"><ele>181.0</ele></trkpt>
<trkpt lat="49.996794" lon="8.735987"><ele>180.25</ele></trkpt>
<trkpt lat="49.996598" lon="8.736279"><ele>180.25</ele></trkpt>
<trkpt lat="49.996659" lon="8.736434"><ele>180.75</ele></trkpt>
<trkpt lat="49.996743" lon="8.736695"><ele>181.25</ele></trkpt>
<trkpt lat="49.996836" lon="8.737266"><ele>182.0</ele></trkpt>
<trkpt lat="49.996842" lon="8.737579"><ele>182.0</ele></trkpt>
<trkpt lat="49.996811" lon="8.737854"><ele>181.75</ele></trkpt>
<trkpt lat="49.996809" lon="8.737878"><ele>181.75</ele></trkpt>
<trkpt lat="49.996821" lon="8.738156"><ele>181.25</ele></trkpt>
<trkpt lat="49.996897" lon="8.738463"><ele>180.75</ele></trkpt>
<trkpt lat="49.996964" lon="8.738766"><ele>180.5</ele></trkpt>
<trkpt lat="49.997195" lon="8.740046"><ele>180.0</ele></trkpt>
<trkpt lat="49.997199" lon="8.740066"><ele>180.0</ele></trkpt>
<trkpt lat="49.997270" lon="8.740422"><ele>180.0</ele></trkpt>
<trkpt lat="49.998039" lon="8.744401"><ele>177.0</ele></trkpt>
<trkpt lat="49.998142" lon="8.744987"><ele>177.25</ele></trkpt>
<trkpt lat="49.998356" lon="8.746112"><ele>176.75</ele></trkpt>
<trkpt lat="49.998468" lon="8.746752"><ele>176.25</ele></trkpt>
<trkpt lat="49.998952" lon="8.749194"><ele>177.0</ele></trkpt>
<trkpt lat="49.999399" lon="8.751566"><ele>177.75</ele></trkpt>
<trkpt lat="49.999979" lon="8.755002"><ele>179.75</ele></trkpt>
<trkpt lat="50.000477" lon="8.757845"><ele>181.0</ele></trkpt>
<trkpt lat="49.999757" lon="8.761751"><ele>182.0</ele></trkpt>
<trkpt lat="49.999399" lon="8.763555"><ele>180.75</ele></trkpt>
<trkpt lat="49.999871" lon="8.763721"><ele>183.25</ele></trkpt>
<trkpt lat="49.999849" lon="8.763850"><ele>182.75</ele></trkpt>
<trkpt lat="49.999866" lon="8.764064"><ele>183.25</ele></trkpt>
<trkpt lat="49.999916" lon="8.764605"><ele>183.0</ele></trkpt>
<trkpt lat="49.999890" lon="8.764899"><ele>182.25</ele></trkpt>
<trkpt lat="49.999940" lon="8.765216"><ele>181.75</ele></trkpt>
<trkpt lat="50.000041" lon="8.765748"><ele>181.25</ele></trkpt>
<trkpt lat="50.000105" lon="8.766192"><ele>180.5</ele></trkpt>
<trkpt lat="50.000145" lon="8.766367"><ele>180.5</ele></trkpt>
<trkpt lat="50.000255" lon="8.766750"><ele>180.5</ele></trkpt>
<trkpt lat="50.000606" lon="8.767637"><ele>178.5</ele></trkpt>
<trkpt lat="50.000974" lon="8.768515"><ele>177.0</ele></trkpt>
<trkpt lat="50.001058" lon="8.768688"><ele>176.5</ele></trkpt>
<trkpt lat="50.001342" lon="8.769118"><ele>176.0</ele></trkpt>
<trkpt lat="50.001584" lon="8.769448"><ele>175.5</ele></trkpt>
<trkpt lat="50.001488" lon="8.769588"><ele>175.0</ele></trkpt>
<trkpt lat="50.001348" lon="8.769720"><ele>175.0</ele></trkpt>
<trkpt lat="50.000996" lon="8.770079"><ele>173.25</ele></trkpt>
<trkpt lat="50.001332" lon="8.770993"><ele>170.75</ele></trkpt>
<trkpt lat="50.001222" lon="8.771339"><ele>169.5</ele></trkpt>
<trkpt lat="50.001092" lon="8.771671"><ele>167.75</ele></trkpt>
<trkpt lat="50.000765" lon="8.772248"><ele>167.25</ele></trkpt>
<trkpt lat="50.000796" lon="8.772293"><ele>167.0</ele></trkpt>
<trkpt lat="50.000832" lon="8.772293"><ele>167.0</ele></trkpt>
<trkpt lat="50.000864" lon="8.772354"><ele>167.0</ele></trkpt>
<trkpt lat="50.000932" lon="8.772463"><ele>167.0</ele></trkpt>
<trkpt lat="50.000978" lon="8.772533"><ele>166.75</ele></trkpt>
<trkpt lat="50.000934" lon="8.772649"><ele>166.75</ele></trkpt>
<trkpt lat="50.000890" lon="8.772782"><ele>166.75</ele></trkpt>
<trkpt lat="50.000823" lon="8.772947"><ele>167.0</ele></trkpt>
<trkpt lat="50.000782" lon="8.773084"><ele>167.25</ele></trkpt>
<trkpt lat="50.000749" lon="8.773253"><ele>167.25</ele></trkpt>
<trkpt lat="50.000727" lon="8.773440"><ele>167.25</ele></trkpt>
<trkpt lat="50.000711" lon="8.773676"><ele>166.75</ele></trkpt>
<trkpt lat="50.000711" lon="8.774208"><ele>166.0</ele></trkpt>
<trkpt lat="50.000866" lon="8.779735"><ele>155.75</ele></trkpt>
<trkpt lat="50.000911" lon="8.780121"><ele>155.25</ele></trkpt>
<trkpt lat="50.001036" lon="8.784776"><ele>151.25</ele></trkpt>
<trkpt lat="50.001044" lon="8.785339"><ele>151.25</ele></trkpt>
<trkpt lat="50.001098" lon="8.786392"><ele>152.0</ele></trkpt>
<trkpt lat="50.001184" lon="8.787060"><ele>150.75</ele></trkpt>
<trkpt lat="50.001086" lon="8.787081"><ele>151.0</ele></trkpt>
<trkpt lat="50.000954" lon="8.787112"><ele>151.5</ele></trkpt>
<trkpt lat="50.001024" lon="8.787439"><ele>151.25</ele></trkpt>
<trkpt lat="50.001256" lon="8.788703"><ele>150.25</ele></trkpt>
<trkpt lat="50.001456" lon="8.789477"><ele>149.75</ele></trkpt>
<trkpt lat="50.001578" lon="8.789888"><ele>149.25</ele></trkpt>
<trkpt lat="50.001685" lon="8.790233"><ele>148.75</ele></trkpt>
<trkpt lat="50.001730" lon="8.790537"><ele>148.75</ele></trkpt>
<trkpt lat="50.001758" lon="8.790682"><ele>148.5</ele></trkpt>
<trkpt lat="50.001741" lon="8.790823"><ele>148.5</ele></trkpt>
<trkpt lat="50.001513" lon="8.791276"><ele>149.0</ele></trkpt>
<trkpt lat="50.000786" lon="8.792289"><ele>150.0</ele></trkpt>
<trkpt lat="50.000628" lon="8.792468"><ele>150.5</ele></trkpt>
<trkpt lat="50.000362" lon="8.792771"><ele>150.5</ele></trkpt>
<trkpt lat="49.999829" lon="8.793448"><ele>151.0</ele></trkpt>
<trkpt lat="49.999109" lon="8.794364"><ele>150.0</ele></trkpt>
<trkpt lat="49.998699" lon="8.794842"><ele>149.25</ele></trkpt>
<trkpt lat="49.998463" lon="8.795118"><ele>148.25</ele></trkpt>
<trkpt lat="49.998326" lon="8.795278"><ele>148.75</ele></trkpt>
<trkpt lat="49.998238" lon="8.795381"><ele>148.25</ele></trkpt>
<trkpt lat="49.997725" lon="8.795984"><ele>147.0</ele></trkpt>
<trkpt lat="49.997491" lon="8.796288"><ele>148.0</ele></trkpt>
<trkpt lat="49.996504" lon="8.797480"><ele>150.5</ele></trkpt>
<trkpt lat="49.995376" lon="8.798864"><ele>151.5</ele></trkpt>
<trkpt lat="49.995988" lon="8.799392"><ele>150.75</ele></trkpt>
<trkpt lat="49.997176" lon="8.800444"><ele>149.0</ele></trkpt>
<trkpt lat="49.998849" lon="8.801861"><ele>146.0</ele></trkpt>
<trkpt lat="49.999165" lon="8.802197"><ele>146.0</ele></trkpt>
<trkpt lat="49.999192" lon="8.802287"><ele>145.75</ele></trkpt>
<trkpt lat="49.999185" lon="8.802380"><ele>145.75</ele></trkpt>
<trkpt lat="49.998730" lon="8.803976"><ele>147.0</ele></trkpt>
<trkpt lat="49.998394" lon="8.805032"><ele>149.75</ele></trkpt>
<trkpt lat="49.998195" lon="8.805704"><ele>152.25</ele></trkpt>
<trkpt lat="49.997341" lon="8.808487"><ele>162.0</ele></trkpt>
<trkpt lat="49.996813" lon="8.810206"><ele>170.5</ele></trkpt>
<trkpt lat="49.994553" lon="8.808664"><ele>164.75</ele></trkpt>
<trkpt lat="49.993692" lon="8.807972"><ele>164.0</ele></trkpt>
<trkpt lat="49.991890" lon="8.809177"><ele>157.75</ele></trkpt>
<trkpt lat="49.991747" lon="8.809282"><ele>157.0</ele></trkpt>
<trkpt lat="49.990136" lon="8.810460"><ele>151.25</ele></trkpt>
<trkpt lat="49.990117" lon="8.810508"><ele>151.25</ele></trkpt>
<trkpt lat="49.990042" lon="8.811260"><ele>152.0</ele></trkpt>
<trkpt lat="49.990356" lon="8.812077"><ele>151.5</ele></trkpt>
<trkpt lat="49.989888" lon="8.812503"><ele>149.5</ele></trkpt>
<trkpt lat="49.989611" lon="8.812738"><ele>148.5</ele></trkpt>
<trkpt lat="49.989367" lon="8.812902"><ele>147.5</ele></trkpt>
<trkpt lat="49.988174" lon="8.812761"><ele>148.25</ele></trkpt>
<trkpt lat="49.987728" lon="8.812962"><ele>148.0</ele></trkpt>
<trkpt lat="49.987231" lon="8.813240"><ele>148.0</ele></trkpt>
<trkpt lat="49.986915" lon="8.813507"><ele>147.25</ele></trkpt>
<trkpt lat="49.986215" lon="8.813708"><ele>147.25</ele></trkpt>
<trkpt lat="49.986127" lon="8.813719"><ele>147.5</ele></trkpt>
<trkpt lat="49.986058" lon="8.813698"><ele>147.5</ele></trkpt>
<trkpt lat="49.985946" lon="8.814168"><ele>146.5</ele></trkpt>
<trkpt lat="49.985802" lon="8.814633"><ele>147.0</ele></trkpt>
<trkpt lat="49.985738" lon="8.814870"><ele>147.0</ele></trkpt>
<trkpt lat="49.985706" lon="8.815005"><ele>146.75</ele></trkpt>
<trkpt lat="49.985644" lon="8.814954"><ele>147.0</ele></trkpt>
<trkpt lat="49.985616" lon="8.814965"><ele>147.0</ele></trkpt>
<trkpt lat="49.985529" lon="8.815035"><ele>146.75</ele></trkpt>
<trkpt lat="49.985480" lon="8.814902"><ele>146.5</ele></trkpt>
<trkpt lat="49.985430" lon="8.814798"><ele>146.5</ele></trkpt>
<trkpt lat="49.985157" lon="8.814487"><ele>146.25</ele></trkpt>
<trkpt lat="49.984765" lon="8.814172"><ele>146.75</ele></trkpt>
<trkpt lat="49.984199" lon="8.813817"><ele>147.0</ele></trkpt>
<trkpt lat="49.983509" lon="8.813541"><ele>147.0</ele></trkpt>
<trkpt lat="49.982996" lon="8.813430"><ele>147.0</ele></trkpt>
<trkpt lat="49.982485" lon="8.813392"><ele>146.5</ele></trkpt>
<trkpt lat="49.981779" lon="8.813427"><ele>145.5</ele></trkpt>
<trkpt lat="49.981295" lon="8.813514"><ele>144.75</ele></trkpt>
<trkpt lat="49.981240" lon="8.813571"><ele>144.5</ele></trkpt>
<trkpt lat="49.981244" lon="8.813672"><ele>144.25</ele></trkpt>
<trkpt lat="49.981265" lon="8.813875"><ele>144.0</ele></trkpt>
<trkpt lat="49.981245" lon="8.813959"><ele>144.0</ele></trkpt>
<trkpt lat="49.981211" lon="8.814001"><ele>144.0</ele></trkpt>
<trkpt lat="49.981172" lon="8.814020"><ele>144.0</ele></trkpt>
<trkpt lat="49.981144" lon="8.814000"><ele>144.0</ele></trkpt>
<trkpt lat="49.981078" lon="8.813657"><ele>144.0</ele></trkpt>
<trkpt lat="49.981038" lon="8.813597"><ele>144.0</ele></trkpt>
<trkpt lat="49.980988" lon="8.813593"><ele>144.25</ele></trkpt>
<trkpt lat="49.980283" lon="8.813846"><ele>144.0</ele></trkpt>
<trkpt lat="49.979679" lon="8.814056"><ele>145.0</ele></trkpt>
<trkpt lat="49.979343" lon="8.814205"><ele>145.0</ele></trkpt>
<trkpt lat="49.979132" lon="8.814323"><ele>145.0</ele></trkpt>
<trkpt lat="49.979060" lon="8.814439"><ele>145.25</ele></trkpt>
<trkpt lat="49.978981" lon="8.814386"><ele>145.5</ele></trkpt>
<trkpt lat="49.978929" lon="8.814385"><ele>145.75</ele></trkpt>
<trkpt lat="49.978836" lon="8.814428"><ele>146.0</ele></trkpt>
<trkpt lat="49.978774" lon="8.814471"><ele>145.75</ele></trkpt>
<trkpt lat="49.978737" lon="8.814464"><ele>145.75</ele></trkpt>
<trkpt lat="49.978631" lon="8.814467"><ele>145.75</ele></trkpt>
<trkpt lat="49.978316" lon="8.814549"><ele>145.25</ele></trkpt>
<trkpt lat="49.978151" lon="8.814631"><ele>145.25</ele></trkpt>
<trkpt lat="49.977996" lon="8.814696"><ele>145.5</ele></trkpt>
<trkpt lat="49.977697" lon="8.814802"><ele>146.5</ele></trkpt>
<trkpt lat="49.977433" lon="8.814873"><ele>146.5</ele></trkpt>
<trkpt lat="49.977116" lon="8.814954"><ele>148.0</ele></trkpt>
<trkpt lat="49.977011" lon="8.814971"><ele>149.0</ele></trkpt>
<trkpt lat="49.976849" lon="8.814966"><ele>147.25</ele></trkpt>
<trkpt lat="49.976173" lon="8.815120"></trkpt>
<trkpt lat="49.975612" lon="8.815175"><ele>148.5</ele></trkpt>
<trkpt lat="49.975370" lon="8.815259"><ele>149.75</ele></trkpt>
<trkpt lat="49.975093" lon="8.815309"><ele>148.75</ele></trkpt>
<trkpt lat="49.974814" lon="8.815333"><ele>148.25</ele></trkpt>
<trkpt lat="49.974615" lon="8.815363"><ele>147.25</ele></trkpt>
<trkpt lat="49.974559" lon="8.815385"><ele>146.75</ele></trkpt>
<trkpt lat="49.974044" lon="8.815254"><ele>146.25</ele></trkpt>
<trkpt lat="49.973589" lon="8.815151"><ele>147.25</ele></trkpt>
<trkpt lat="49.973148" lon="8.815076"><ele>146.75</ele></trkpt>
<trkpt lat="49.972771" lon="8.815051"><ele>147.0</ele></trkpt>
<trkpt lat="49.972629" lon="8.815065"><ele>147.0</ele></trkpt>
<trkpt lat="49.972326" lon="8.815104"><ele>147.0</ele></trkpt>
<trkpt lat="49.971898" lon="8.815277"><ele>146.0</ele></trkpt>
<trkpt lat="49.971601" lon="8.815471"><ele>146.0</ele></trkpt>
<trkpt lat="49.971242" lon="8.815723"><ele>146.0</ele></trkpt>
<trkpt lat="49.970979" lon="8.816032"><ele>146.0</ele></trkpt>
<trkpt lat="49.970664" lon="8.816467"><ele>146.0</ele></trkpt>
<trkpt lat="49.970330" lon="8.816981"><ele>145.75</ele></trkpt>
<trkpt lat="49.969969" lon="8.817767"><ele>145.0</ele></trkpt>
<trkpt lat="49.969888" lon="8.817953"><ele>145.25</ele></trkpt>
<trkpt lat="49.969851" lon="8.818102"><ele>145.25</ele></trkpt>
<trkpt lat="49.969859" lon="8.818270"><ele>144.5</ele></trkpt>
<trkpt lat="49.969846" lon="8.818400"><ele>144.5</ele></trkpt>
<trkpt lat="49.969803" lon="8.818535"><ele>144.5</ele></trkpt>
<trkpt lat="49.969740" lon="8.818438"><ele>144.75</ele></trkpt>
<trkpt lat="49.969694" lon="8.818539"><ele>145.0</ele></trkpt>
<trkpt lat="49.969595" lon="8.818386"><ele>145.25</ele></trkpt>
<trkpt lat="49.969344" lon="8.818084"><ele>145.25</ele></trkpt>
<trkpt lat="49.969212" lon="8.817940"><ele>145.25</ele></trkpt>
<trkpt lat="49.968917" lon="8.817573"><ele>145.75</ele></trkpt>
<trkpt lat="49.968583" lon="8.817172"><ele>146.0</ele></trkpt>
<trkpt lat="49.967630" lon="8.815929"><ele>147.0</ele></trkpt>
<trkpt lat="49.967425" lon="8.815670"><ele>147.0</ele></trkpt>
<trkpt lat="49.967676" lon="8.815144"><ele>147.0</ele></trkpt>
<trkpt lat="49.967706" lon="8.815057"><ele>147.0</ele></trkpt>
<trkpt lat="49.967649" lon="8.814673"><ele>147.25</ele></trkpt>
<trkpt lat="49.967490" lon="8.814114"><ele>148.0</ele></trkpt>
<trkpt lat="49.967329" lon="8.813449"><ele>148.5</ele></trkpt>
<trkpt lat="49.967317" lon="8.813400"><ele>148.5</ele></trkpt>
<trkpt lat="49.967115" lon="8.812519"><ele>148.75</ele></trkpt>
<trkpt lat="49.966948" lon="8.811840"><ele>149.25</ele></trkpt>
<trkpt lat="49.966801" lon="8.811178"><ele>150.5</ele></trkpt>
<trkpt lat="49.966775" lon="8.811135"><ele>150.5</ele></trkpt>
<trkpt lat="49.966735" lon="8.811111"><ele>150.75</ele></trkpt>
<trkpt lat="49.966463" lon="8.811049"><ele>153.0</ele></trkpt>
<trkpt lat="49.966435" lon="8.811058"><ele>153.0</ele></trkpt>
<trkpt lat="49.966016" lon="8.811375"><ele>154.0</ele></trkpt>
<trkpt lat="49.964465" lon="8.813185"><ele>153.5</ele></trkpt>
<trkpt lat="49.963993" lon="8.810948"><ele>156.0</ele></trkpt>
<trkpt lat="49.963352" lon="8.808189"><ele>157.0</ele></trkpt>
<trkpt lat="49.963052" lon="8.808979"><ele>155.5</ele></trkpt>
<trkpt lat="49.962560" lon="8.810325"><ele>153.75</ele></trkpt>
<trkpt lat="49.962133" lon="8.811624"><ele>152.0</ele></trkpt>
<trkpt lat="49.961644" lon="8.812963"><ele>151.75</ele></trkpt>
<trkpt lat="49.961105" lon="8.814295"><ele>150.0</ele></trkpt>
<trkpt lat="49.960389" lon="8.813811"><ele>148.75</ele></trkpt>
<trkpt lat="49.960243" lon="8.813780"><ele>148.25</ele></trkpt>
<trkpt lat="49.960241" lon="8.813780"><ele>148.5</ele></trkpt>
<trkpt lat="49.960029" lon="8.813737"><ele>148.25</ele></trkpt>
<trkpt lat="49.959569" lon="8.813661"><ele>149.5</ele></trkpt>
<trkpt lat="49.959510" lon="8.813592"><ele>149.75</ele></trkpt>
<trkpt lat="49.959030" lon="8.812101"><ele>151.0</ele></trkpt>
<trkpt lat="49.958051" lon="8.809193"><ele>152.0</ele></trkpt>
<trkpt lat="49.957091" lon="8.806311"><ele>154.25</ele></trkpt>
<trkpt lat="49.955850" lon="8.802679"><ele>158.75</ele></trkpt>
<trkpt lat="49.953128" lon="8.805305"><ele>152.0</ele></trkpt>
<trkpt lat="49.953120" lon="8.805313"><ele>152.0</ele></trkpt>
<trkpt lat="49.952732" lon="8.805687"><ele>152.5</ele></trkpt>
<trkpt lat="49.950717" lon="8.804520"><ele>156.25</ele></trkpt>
<trkpt lat="49.951736" lon="8.800387"><ele>159.75</ele></trkpt>
<trkpt lat="49.952176" lon="8.798574"><ele>157.25</ele></trkpt>
<trkpt lat="49.953631" lon="8.792560"><ele>161.75</ele></trkpt>
<trkpt lat="49.953859" lon="8.791666"><ele>160.0</ele></trkpt>
<trkpt lat="49.955098" lon="8.786549"><ele>169.0</ele></trkpt>
<trkpt lat="49.956569" lon="8.780562"><ele>176.5</ele></trkpt>
<trkpt lat="49.954485" lon="8.779333"><ele>174.75</ele></trkpt>
<trkpt lat="49.955974" lon="8.773179"><ele>187.25</ele></trkpt>
<trkpt lat="49.956097" lon="8.773022"><ele>187.0</ele></trkpt>
<trkpt lat="49.956728" lon="8.772088"><ele>183.75</ele></trkpt>
<trkpt lat="49.954716" lon="8.766383"><ele>185.0</ele></trkpt>
<trkpt lat="49.952360" lon="8.759699"><ele>177.5</ele></trkpt>
<trkpt lat="49.950163" lon="8.753364"><ele>182.25</ele></trkpt>
<trkpt lat="49.950281" lon="8.753183"><ele>181.75</ele></trkpt>
<trkpt lat="49.950154" lon="8.752290"><ele>181.25</ele></trkpt>
<trkpt lat="49.949640" lon="8.750617"><ele>181.25</ele></trkpt>
<trkpt lat="49.949537" lon="8.750441"><ele>181.5</ele></trkpt>
<trkpt lat="49.948980" lon="8.749562"><ele>181.75</ele></trkpt>
<trkpt lat="49.948314" lon="8.748541"><ele>183.0</ele></trkpt>
<trkpt lat="49.949328" lon="8.748094"><ele>181.25</ele></trkpt>
<trkpt lat="49.949469" lon="8.748055"><ele>181.0</ele></trkpt>
<trkpt lat="49.949703" lon="8.748069"><ele>181.0</ele></trkpt>
<trkpt lat="49.950043" lon="8.748133"><ele>180.5</ele></trkpt>
<trkpt lat="49.950098" lon="8.746897"><ele>180.0</ele></trkpt>
<trkpt lat="49.950206" lon="8.744443"><ele>177.75</ele></trkpt>
<trkpt lat="49.950280" lon="8.742773"><ele>177.75</ele></trkpt>
<trkpt lat="49.950052" lon="8.742763"><ele>177.0</ele></trkpt>
<trkpt lat="49.950085" lon="8.742111"><ele>173.0</ele></trkpt>
<trkpt lat="49.950078" lon="8.741740"><ele>172.25</ele></trkpt>
<trkpt lat="49.951462" lon="8.741761"><ele>172.75</ele></trkpt>
<trkpt lat="49.951786" lon="8.741793"><ele>172.75</ele></trkpt>
<trkpt lat="49.952539" lon="8.742122"><ele>171.25</ele></trkpt>
<trkpt lat="49.953370" lon="8.742418"><ele>170.75</ele></trkpt>
<trkpt lat="49.953496" lon="8.742426"><ele>171.25</ele></trkpt>
<trkpt lat="49.953530" lon="8.742397"><ele>171.25</ele></trkpt>
<trkpt lat="49.955682" lon="8.740259"><ele>169.0</ele></trkpt>
<trkpt lat="49.957261" lon="8.738734"><ele>163.75</ele></trkpt>
<trkpt lat="49.957383" lon="8.738670"><ele>163.25</ele></trkpt>
<trkpt lat="49.957502" lon="8.738644"><ele>162.75</ele></trkpt>
<trkpt lat="49.958635" lon="8.738758"><ele>159.0</ele></trkpt>
<trkpt lat="49.958815" lon="8.738707"><ele>160.0</ele></trkpt>
<trkpt lat="49.958952" lon="8.738633"><ele>160.75</ele></trkpt>
<trkpt lat="49.959129" lon="8.738517"><ele>161.25</ele></trkpt>
<trkpt lat="49.959423" lon="8.738373"><ele>162.75</ele></trkpt>
<trkpt lat="49.960287" lon="8.737987"><ele>166.0</ele></trkpt>
<trkpt lat="49.961094" lon="8.737759"><ele>167.75</ele></trkpt>
<trkpt lat="49.961428" lon="8.737696"><ele>168.25</ele></trkpt>
<trkpt lat="49.962043" lon="8.737395"><ele>168.25</ele></trkpt>
<trkpt lat="49.962475" lon="8.737103"><ele>168.0</ele></trkpt>
<trkpt lat="49.962725" lon="8.736999"><ele>167.25</ele></trkpt>
<trkpt lat="49.963042" lon="8.736996"><ele>167.0</ele></trkpt>
<trkpt lat="49.963319" lon="8.736976"><ele>167.0</ele></trkpt>
<trkpt lat="49.963602" lon="8.736930"><ele>166.75</ele></trkpt>
<trkpt lat="49.963881" lon="8.736792"><ele>166.25</ele></trkpt>
<trkpt lat="49.964456" lon="8.736467"><ele>166.0</ele></trkpt>
<trkpt lat="49.964667" lon="8.736316"><ele>164.75</ele></trkpt>
<trkpt lat="49.965077" lon="8.736022"><ele>166.0</ele></trkpt>
<trkpt lat="49.965795" lon="8.735485"><ele>169.75</ele></trkpt>
<trkpt lat="49.965955" lon="8.735285"><ele>170.25</ele></trkpt>
<trkpt lat="49.965995" lon="8.735091"><ele>170.0</ele></trkpt>
<trkpt lat="49.966108" lon="8.734200"><ele>168.0</ele></trkpt>
<trkpt lat="49.966178" lon="8.733928"><ele>167.0</ele></trkpt>
<trkpt lat="49.966249" lon="8.733740"><ele>166.25</ele></trkpt>
<trkpt lat="49.966284" lon="8.733806"><ele>166.5</ele></trkpt>
<trkpt lat="49.966981" lon="8.734806"><ele>170.75</ele></trkpt>
<trkpt lat="49.967116" lon="8.735072"><ele>171.0</ele></trkpt>
<trkpt lat="49.967243" lon="8.735428"><ele>171.0</ele></trkpt>
<trkpt lat="49.967350" lon="8.735771"><ele>171.0</ele></trkpt>
<trkpt lat="49.967582" lon="8.736647"><ele>170.75</ele></trkpt>
<trkpt lat="49.968132" lon="8.738878"><ele>173.25</ele></trkpt>
<trkpt lat="49.968244" lon="8.739354"><ele>174.5</ele></trkpt>
<trkpt lat="49.969306" lon="8.738693"><ele>174.5</ele></trkpt>
<trkpt lat="49.970571" lon="8.737893"><ele>176.25</ele></trkpt>
<trkpt lat="49.970672" lon="8.737850"><ele>176.25</ele></trkpt>
<trkpt lat="49.970753" lon="8.737849"><ele>176.25</ele></trkpt>
<trkpt lat="49.971313" lon="8.738185"><ele>177.25</ele></trkpt>
<trkpt lat="49.971391" lon="8.738256"><ele>177.5</ele></trkpt>
<trkpt lat="49.971432" lon="8.738190"><ele>177.25</ele></trkpt>
<trkpt lat="49.971742" lon="8.737890"><ele>175.25</ele></trkpt>
<trkpt lat="49.972133" lon="8.737436"><ele>173.75</ele></trkpt>
<trkpt lat="49.972926" lon="8.736580"><ele>171.75</ele></trkpt>
<trkpt lat="49.974043" lon="8.735553"><ele>169.75</ele></trkpt>
<trkpt lat="49.974499" lon="8.735143"><ele>170.5</ele></trkpt>
<trkpt lat="49.974540" lon="8.735211"><ele>170.25</ele></trkpt>
<trkpt lat="49.975180" lon="8.736296"><ele>172.25</ele></trkpt>
<trkpt lat="49.975184" lon="8.736390"><ele>172.5</ele></trkpt>
<trkpt lat="49.975150" lon="8.736545"><ele>172.75</ele></trkpt>
<trkpt lat="49.974789" lon="8.737522"><ele>176.25</ele></trkpt>
<trkpt lat="49.974763" lon="8.737643"><ele>176.5</ele></trkpt>
<trkpt lat="49.974778" lon="8.737749"><ele>176.5</ele></trkpt>
<trkpt lat="49.974827" lon="8.737814"><ele>175.75</ele></trkpt>
<trkpt lat="49.974873" lon="8.737842"><ele>175.25</ele></trkpt>
<trkpt lat="49.975192" lon="8.737917"><ele>178.0</ele></trkpt>
<trkpt lat="49.975352" lon="8.737949"><ele>178.0</ele></trkpt>
<trkpt lat="49.975400" lon="8.737701"><ele>176.25</ele></trkpt>
<trkpt lat="49.975460" lon="8.737324"><ele>175.0</ele></trkpt>
<trkpt lat="49.975497" lon="8.737187"><ele>175.0</ele></trkpt>
<trkpt lat="49.975545" lon="8.737125"><ele>174.25</ele></trkpt>
<trkpt lat="49.975597" lon="8.737105"><ele>173.75</ele></trkpt>
<trkpt lat="49.975639" lon="8.737112"><ele>173.5</ele></trkpt>
<trkpt lat="49.975708" lon="8.737182"><ele>173.5</ele></trkpt>
<trkpt lat="49.975801" lon="8.737338"><ele>173.5</ele></trkpt>
<trkpt lat="49.976141" lon="8.737910"><ele>175.0</ele></trkpt>
<trkpt lat="49.977417" lon="8.740138"><ele>178.5</ele></trkpt>
<trkpt lat="49.977716" lon="8.740788"><ele>178.0</ele></trkpt>
<trkpt lat="49.977764" lon="8.740988"><ele>178.0</ele></trkpt>
<trkpt lat="49.978188" lon="8.740794"><ele>177.0</ele></trkpt>
<trkpt lat="49.978309" lon="8.740805"><ele>177.0</ele></trkpt>
<trkpt lat="49.978335" lon="8.740666"><ele>176.75</ele></trkpt>
<trkpt lat="49.978410" lon="8.740548"><ele>176.5</ele></trkpt>
<trkpt lat="49.978890" lon="8.739787"><ele>177.0</ele></trkpt>
<trkpt lat="49.979271" lon="8.739200"><ele>178.0</ele></trkpt>
<trkpt lat="49.979410" lon="8.738970"><ele>179.0</ele></trkpt>
<trkpt lat="49.980372" lon="8.737443"><ele>182.5</ele></trkpt>
<trkpt lat="49.980652" lon="8.737055"><ele>183.25</ele></trkpt>
<trkpt lat="49.980690" lon="8.737002"><ele>183.5</ele></trkpt>
<trkpt lat="49.980741" lon="8.736945"><ele>183.5</ele></trkpt>
<trkpt lat="49.980794" lon="8.736921"><ele>183.75</ele></trkpt>
<trkpt lat="49.980828" lon="8.736922"><ele>183.75</ele></trkpt>
<trkpt lat="49.980956" lon="8.737003"><ele>184.0</ele></trkpt>
<trkpt lat="49.981059" lon="8.737103"><ele>184.0</ele></trkpt>
<trkpt lat="49.981264" lon="8.737439"><ele>185.25</ele></trkpt>
<trkpt lat="49.981632" lon="8.737323"><ele>186.25</ele></trkpt>
<trkpt lat="49.982058" lon="8.737194"><ele>187.25</ele></trkpt>
<trkpt lat="49.982231" lon="8.737140"><ele>188.0</ele></trkpt>
<trkpt lat="49.982286" lon="8.737149"><ele>188.0</ele></trkpt>
<trkpt lat="49.982774" lon="8.737452"><ele>188.75</ele></trkpt>
<trkpt lat="49.982998" lon="8.737601"><ele>189.25</ele></trkpt>
<trkpt lat="49.983141" lon="8.737522"><ele>189.0</ele></trkpt>
<trkpt lat="49.983326" lon="8.737645"><ele>189.0</ele></trkpt>
<trkpt lat="49.983420" lon="8.737759"><ele>188.75</ele></trkpt>
<trkpt lat="49.983641" lon="8.738348"><ele>189.0</ele></trkpt>
<trkpt lat="49.983693" lon="8.738501"><ele>189.0</ele></trkpt>
<trkpt lat="49.983706" lon="8.738585"><ele>188.75</ele></trkpt>
<trkpt lat="49.983704" lon="8.738648"><ele>189.0</ele></trkpt>
<trkpt lat="49.983563" lon="8.739193"><ele>189.0</ele></trkpt>
<trkpt lat="49.983825" lon="8.739338"><ele>189.0</ele></trkpt>
<trkpt lat="49.984224" lon="8.739214"><ele>187.75</ele></trkpt>
<trkpt lat="49.984560" lon="8.739080"><ele>186.25</ele></trkpt>
<trkpt lat="49.984685" lon="8.739378"><ele>186.0</ele></trkpt>
<trkpt lat="49.984772" lon="8.739344"><ele>185.75</ele></trkpt>
<trkpt lat="49.984813" lon="8.739293"><ele>185.5</ele></trkpt>
<trkpt lat="49.984859" lon="8.739287"><ele>185.5</ele></trkpt>
<trkpt lat="49.985724" lon="8.739047"><ele>182.5</ele></trkpt>
<trkpt lat="49.986241" lon="8.738915"><ele>181.5</ele></trkpt>
<trkpt lat="49.986752" lon="8.738755"><ele>180.0</ele></trkpt>
<trkpt lat="49.986993" lon="8.738679"><ele>180.0</ele></trkpt>
<trkpt lat="49.987071" lon="8.738696"><ele>180.0</ele></trkpt>
<trkpt lat="49.987125" lon="8.738761"><ele>180.0</ele></trkpt>
<trkpt lat="49.987215" lon="8.739028"><ele>180.0</ele></trkpt>
<trkpt lat="49.987258" lon="8.739177"><ele>180.0</ele></trkpt>
<trkpt lat="49.987316" lon="8.739251"><ele>179.75</ele></trkpt>
<trkpt lat="49.987374" lon="8.739259"><ele>179.75</ele></trkpt>
<trkpt lat="49.987797" lon="8.738599"><ele>178.75</ele></trkpt>
<trkpt lat="49.988211" lon="8.737999"><ele>178.25</ele></trkpt>
<trkpt lat="49.988385" lon="8.737792"><ele>177.25</ele></trkpt>
<trkpt lat="49.988799" lon="8.737442"><ele>177.25</ele></trkpt>
<trkpt lat="49.989218" lon="8.737124"><ele>176.5</ele></trkpt>
<trkpt lat="49.989325" lon="8.737083"><ele>176.25</ele></trkpt>
<trkpt lat="49.990128" lon="8.736763"><ele>175.25</ele></trkpt>
<trkpt lat="49.990708" lon="8.736507"><ele>174.5</ele></trkpt>
<trkpt lat="49.991043" lon="8.736384"><ele>173.75</ele></trkpt>
<trkpt lat="49.991245" lon="8.736274"><ele>173.75</ele></trkpt>
<trkpt lat="49.991388" lon="8.736158"><ele>173.25</ele></trkpt>
<trkpt lat="49.991383" lon="8.735692"><ele>173.0</ele></trkpt>
<trkpt lat="49.991303" lon="8.728746"><ele>172.5</ele></trkpt>
<trkpt lat="49.991877" lon="8.728757"><ele>172.0</ele></trkpt>
<trkpt lat="49.992089" lon="8.728745"><ele>172.0</ele></trkpt>
<trkpt lat="49.992313" lon="8.728708"><ele>172.0</ele></trkpt>
<trkpt lat="49.992541" lon="8.728605"><ele>172.0</ele></trkpt>
<trkpt lat="49.992536" lon="8.728558"><ele>172.0</ele></trkpt>
<trkpt lat="49.992800" lon="8.728430"><ele>172.0</ele></trkpt>
<trkpt lat="49.992980" lon="8.728304"><ele>172.0</ele></trkpt>
<trkpt lat="49.993160" lon="8.728140"><ele>172.0</ele></trkpt>
<trkpt lat="49.993561" lon="8.727717"><ele>172.0</ele></trkpt>
<trkpt lat="49.993809" lon="8.727435"><ele>172.0</ele></trkpt>
<trkpt lat="49.993988" lon="8.727236"><ele>171.5</ele></trkpt>
<trkpt lat="49.993970" lon="8.727177"><ele>171.75</ele></trkpt>
<trkpt lat="49.993991" lon="8.727137"><ele>171.5</ele></trkpt>
<trkpt lat="49.995367" lon="8.725613"><ele>170.5</ele></trkpt>
<trkpt lat="49.995459" lon="8.725518"><ele>170.25</ele></trkpt>
<trkpt lat="49.995963" lon="8.724992"><ele>168.5</ele></trkpt>
<trkpt lat="49.996595" lon="8.724357"><ele>170.25</ele></trkpt>
<trkpt lat="49.996722" lon="8.724245"><ele>170.25</ele></trkpt>
<trkpt lat="49.997140" lon="8.723892"><ele>170.25</ele></trkpt>
<trkpt lat="49.997578" lon="8.723542"><ele>169.5</ele></trkpt>
<trkpt lat="49.998253" lon="8.723066"><ele>167.5</ele></trkpt>
<trkpt lat="49.998465" lon="8.722917"><ele>165.5</ele></trkpt>
<trkpt lat="49.998975" lon="8.722466"><ele>162.5</ele></trkpt>
<trkpt lat="49.998831" lon="8.721529"><ele>165.75</ele></trkpt>
<trkpt lat="49.998744" lon="8.721220"><ele>167.25</ele></trkpt>
<trkpt lat="49.998489" lon="8.720168"><ele>168.75</ele></trkpt>
<trkpt lat="49.998738" lon="8.720006"><ele>167.0</ele></trkpt>
<trkpt lat="49.999031" lon="8.719802"><ele>165.25</ele></trkpt>
<trkpt lat="49.999189" lon="8.719680"><ele>164.75</ele></trkpt>
<trkpt lat="49.999318" lon="8.719572"><ele>163.75</ele></trkpt>
<trkpt lat="49.999407" lon="8.719442"><ele>163.0</ele></trkpt>
<trkpt lat="49.999871" lon="8.719562"><ele>160.25</ele></trkpt>
<trkpt lat="49.999936" lon="8.719543"><ele>160.0</ele></trkpt>
<trkpt lat="49.999959" lon="8.719398"><ele>160.0</ele></trkpt>
<trkpt lat="50.000027" lon="8.719237"><ele>159.75</ele></trkpt>
</trkseg></trk></gpx>
