<?xml version="1.0" encoding="UTF-8"?>
<gpx version="1.1" creator="BRouter paired review" xmlns="http://www.topografix.com/GPX/1/1">
<trk><name>Route B</name><trkseg>
<trkpt lat="50.000027" lon="8.719237"><ele>159.75</ele></trkpt>
<trkpt lat="50.000567" lon="8.718603"><ele>156.75</ele></trkpt>
<trkpt lat="50.000599" lon="8.718525"><ele>156.75</ele></trkpt>
<trkpt lat="50.000614" lon="8.718470"><ele>156.75</ele></trkpt>
<trkpt lat="50.000673" lon="8.718605"><ele>156.5</ele></trkpt>
<trkpt lat="50.000828" lon="8.718770"><ele>155.25</ele></trkpt>
<trkpt lat="50.000892" lon="8.718875"><ele>155.25</ele></trkpt>
<trkpt lat="50.000918" lon="8.718993"><ele>155.0</ele></trkpt>
<trkpt lat="50.000994" lon="8.719058"><ele>155.0</ele></trkpt>
<trkpt lat="50.001076" lon="8.719003"><ele>155.5</ele></trkpt>
<trkpt lat="50.001169" lon="8.719018"><ele>155.5</ele></trkpt>
<trkpt lat="50.001545" lon="8.718811"><ele>155.75</ele></trkpt>
<trkpt lat="50.001729" lon="8.718789"><ele>155.25</ele></trkpt>
<trkpt lat="50.001784" lon="8.718712"><ele>155.0</ele></trkpt>
<trkpt lat="50.001767" lon="8.718870"><ele>155.25</ele></trkpt>
<trkpt lat="50.001753" lon="8.719000"><ele>155.75</ele></trkpt>
<trkpt lat="50.001749" lon="8.719039"><ele>156.0</ele></trkpt>
<trkpt lat="50.001721" lon="8.719260"><ele>156.75</ele></trkpt>
<trkpt lat="50.001715" lon="8.719387"><ele>156.75</ele></trkpt>
<trkpt lat="50.001717" lon="8.719520"><ele>157.25</ele></trkpt>
<trkpt lat="50.001690" lon="8.719523"><ele>157.25</ele></trkpt>
<trkpt lat="50.001655" lon="8.719554"><ele>157.25</ele></trkpt>
<trkpt lat="50.001633" lon="8.719603"><ele>157.5</ele></trkpt>
<trkpt lat="50.001628" lon="8.719644"><ele>157.75</ele></trkpt>
<trkpt lat="50.001633" lon="8.719686"><ele>157.75</ele></trkpt>
<trkpt lat="50.001646" lon="8.719722"><ele>157.75</ele></trkpt>
<trkpt lat="50.001662" lon="8.719746"><ele>158.0</ele></trkpt>
<trkpt lat="50.001704" lon="8.719769"><ele>158.25</ele></trkpt>
<trkpt lat="50.001747" lon="8.719754"><ele>158.0</ele></trkpt>
<trkpt lat="50.001779" lon="8.719705"><ele>157.75</ele></trkpt>
<trkpt lat="50.001864" lon="8.719759"><ele>158.0</ele></trkpt>
<trkpt lat="50.001948" lon="8.719838"><ele>158.25</ele></trkpt>
<trkpt lat="50.002051" lon="8.719973"><ele>158.75</ele></trkpt>
<trkpt lat="50.002110" lon="8.720068"><ele>159.0</ele></trkpt>
<trkpt lat="50.002251" lon="8.720339"><ele>159.5</ele></trkpt>
<trkpt lat="50.002342" lon="8.720553"><ele>160.75</ele></trkpt>
<trkpt lat="50.002377" lon="8.720682"><ele>161.25</ele></trkpt>
<trkpt lat="50.002408" lon="8.720803"><ele>161.75</ele></trkpt>
<trkpt lat="50.002385" lon="8.720824"><ele>161.75</ele></trkpt>
<trkpt lat="50.002368" lon="8.720856"><ele>162.0</ele></trkpt>
<trkpt lat="50.002358" lon="8.720895"><ele>162.0</ele></trkpt>
<trkpt lat="50.002358" lon="8.720937"><ele>162.25</ele></trkpt>
<trkpt lat="50.002366" lon="8.720977"><ele>162.5</ele></trkpt>
<trkpt lat="50.002382" lon="8.721010"><ele>162.5</ele></trkpt>
<trkpt lat="50.002404" lon="8.721033"><ele>162.5</ele></trkpt>
<trkpt lat="50.002364" lon="8.721146"><ele>163.0</ele></trkpt>
<trkpt lat="50.002332" lon="8.721229"><ele>163.25</ele></trkpt>
<trkpt lat="50.002265" lon="8.721359"><ele>163.75</ele></trkpt>
<trkpt lat="50.001865" lon="8.721982"><ele>168.0</ele></trkpt>
<trkpt lat="50.001834" lon="8.722027"><ele>168.25</ele></trkpt>
<trkpt lat="50.001312" lon="8.722781"><ele>172.25</ele></trkpt>
<trkpt lat="50.001194" lon="8.723041"><ele>173.75</ele></trkpt>
<trkpt lat="50.001028" lon="8.723553"><ele>174.5</ele></trkpt>
<trkpt lat="50.000939" lon="8.724003"><ele>176.0</ele></trkpt>
<trkpt lat="50.000856" lon="8.724437"><ele>176.75</ele></trkpt>
<trkpt lat="50.000810" lon="8.724590"><ele>177.0</ele></trkpt>
<trkpt lat="50.000741" lon="8.724778"><ele>177.5</ele></trkpt>
<trkpt lat="50.000698" lon="8.724853"><ele>177.5</ele></trkpt>
<trkpt lat="50.000528" lon="8.725140"><ele>177.75</ele></trkpt>
<trkpt lat="50.000378" lon="8.725389"><ele>177.5</ele></trkpt>
<trkpt lat="50.000283" lon="8.725561"><ele>177.0</ele></trkpt>
<trkpt lat="50.000192" lon="8.725751"><ele>176.5</ele></trkpt>
<trkpt lat="50.000061" lon="8.726024"><ele>176.25</ele></trkpt>
<trkpt lat="49.999884" lon="8.726515"><ele>175.5</ele></trkpt>
<trkpt lat="49.999821" lon="8.726734"><ele>175.25</ele></trkpt>
<trkpt lat="49.999386" lon="8.728362"><ele>177.0</ele></trkpt>
<trkpt lat="49.999031" lon="8.729729"><ele>180.5</ele></trkpt>
<trkpt lat="49.998990" lon="8.729947"><ele>180.75</ele></trkpt>
<trkpt lat="49.998924" lon="8.730386"><ele>181.75</ele></trkpt>
<trkpt lat="49.998814" lon="8.731269"><ele>183.0</ele></trkpt>
<trkpt lat="49.998815" lon="8.731406"><ele>183.0</ele></trkpt>
<trkpt lat="49.998817" lon="8.731582"><ele>183.0</ele></trkpt>
<trkpt lat="49.998827" lon="8.731679"><ele>183.0</ele></trkpt>
<trkpt lat="49.998843" lon="8.731737"><ele>183.0</ele></trkpt>
<trkpt lat="49.998868" lon="8.731783"><ele>183.0</ele></trkpt>
<trkpt lat="49.998897" lon="8.731817"><ele>182.75</ele></trkpt>
<trkpt lat="49.998936" lon="8.731831"><ele>182.75</ele></trkpt>
<trkpt lat="49.998868" lon="8.731876"><ele>183.0</ele></trkpt>
<trkpt lat="49.998547" lon="8.732094"><ele>184.0</ele></trkpt>
<trkpt lat="49.998404" lon="8.732228"><ele>184.0</ele></trkpt>
<trkpt lat="49.998302" lon="8.732340"><ele>184.0</ele></trkpt>
<trkpt lat="49.998090" lon="8.732676"><ele>184.0</ele></trkpt>
<trkpt lat="49.997922" lon="8.733034"><ele>183.5</ele></trkpt>
<trkpt lat="49.997860" lon="8.733212"><ele>183.25</ele></trkpt>
<trkpt lat="49.997831" lon="8.733361"><ele>183.0</ele></trkpt>
<trkpt lat="49.997828" lon="8.733373"><ele>183.0</ele></trkpt>
<trkpt lat="49.997821" lon="8.733402"><ele>183.0</ele></trkpt>
<trkpt lat="49.997870" lon="8.733719"><ele>183.0</ele></trkpt>
<trkpt lat="49.997994" lon="8.734367"><ele>182.75</ele></trkpt>
<trkpt lat="49.998060" lon="8.734764"><ele>183.0</ele></trkpt>
<trkpt lat="49.998228" lon="8.735566"><ele>184.0</ele></trkpt>
<trkpt lat="49.998306" lon="8.736065"><ele>184.75</ele></trkpt>
<trkpt lat="49.998335" lon="8.736279"><ele>185.0</ele></trkpt>
<trkpt lat="49.998407" lon="8.736792"><ele>185.0</ele></trkpt>
<trkpt lat="49.998483" lon="8.737332"><ele>184.25</ele></trkpt>
<trkpt lat="49.998566" lon="8.737838"><ele>183.75</ele></trkpt>
<trkpt lat="49.998636" lon="8.738116"><ele>183.75</ele></trkpt>
<trkpt lat="49.998813" lon="8.738601"><ele>183.5</ele></trkpt>
<trkpt lat="49.999449" lon="8.740076"><ele>183.5</ele></trkpt>
<trkpt lat="49.999785" lon="8.740760"><ele>183.0</ele></trkpt>
<trkpt lat="49.999910" lon="8.741004"><ele>183.0</ele></trkpt>
<trkpt lat="49.999992" lon="8.741142"><ele>182.75</ele></trkpt>
<trkpt lat="50.000084" lon="8.741258"><ele>183.0</ele></trkpt>
<trkpt lat="50.000189" lon="8.741352"><ele>183.0</ele></trkpt>
<trkpt lat="50.000253" lon="8.741392"><ele>183.0</ele></trkpt>
<trkpt lat="50.000394" lon="8.741504"><ele>183.0</ele></trkpt>
<trkpt lat="50.000488" lon="8.741667"><ele>182.75</ele></trkpt>
<trkpt lat="50.000515" lon="8.741732"><ele>182.75</ele></trkpt>
<trkpt lat="50.000537" lon="8.741807"><ele>182.75</ele></trkpt>
<trkpt lat="50.000573" lon="8.741963"><ele>183.0</ele></trkpt>
<trkpt lat="50.000563" lon="8.742187"><ele>183.0</ele></trkpt>
<trkpt lat="50.000568" lon="8.742599"><ele>182.75</ele></trkpt>
<trkpt lat="50.000588" lon="8.742858"><ele>183.0</ele></trkpt>
<trkpt lat="50.000625" lon="8.743089"><ele>183.0</ele></trkpt>
<trkpt lat="50.000632" lon="8.743142"><ele>183.0</ele></trkpt>
<trkpt lat="50.000659" lon="8.743303"><ele>183.0</ele></trkpt>
<trkpt lat="50.000707" lon="8.743516"><ele>182.5</ele></trkpt>
<trkpt lat="50.000912" lon="8.744539"><ele>183.25</ele></trkpt>
<trkpt lat="50.001058" lon="8.745377"><ele>183.25</ele></trkpt>
<trkpt lat="50.001198" lon="8.746061"><ele>183.25</ele></trkpt>
<trkpt lat="50.001576" lon="8.747575"><ele>184.25</ele></trkpt>
<trkpt lat="50.001729" lon="8.748262"><ele>184.0</ele></trkpt>
<trkpt lat="50.001928" lon="8.749299"><ele>184.0</ele></trkpt>
<trkpt lat="50.001980" lon="8.749611"><ele>183.75</ele></trkpt>
<trkpt lat="50.002087" lon="8.750217"><ele>183.0</ele></trkpt>
<trkpt lat="50.002195" lon="8.750986"><ele>182.0</ele></trkpt>
<trkpt lat="50.002307" lon="8.751902"><ele>181.25</ele></trkpt>
<trkpt lat="50.002367" lon="8.752299"><ele>180.25</ele></trkpt>
<trkpt lat="50.002514" lon="8.752921"><ele>180.75</ele></trkpt>
<trkpt lat="50.002595" lon="8.753195"><ele>180.25</ele></trkpt>
<trkpt lat="50.002837" lon="8.753863"><ele>180.75</ele></trkpt>
<trkpt lat="50.002977" lon="8.754188"><ele>181.25</ele></trkpt>
<trkpt lat="50.003090" lon="8.754584"><ele>181.25</ele></trkpt>
<trkpt lat="50.003148" lon="8.754782"><ele>181.75</ele></trkpt>
<trkpt lat="50.003264" lon="8.755344"><ele>181.25</ele></trkpt>
<trkpt lat="50.003304" lon="8.755643"><ele>181.0</ele></trkpt>
<trkpt lat="50.003318" lon="8.755922"><ele>181.0</ele></trkpt>
<trkpt lat="50.003320" lon="8.756190"><ele>181.0</ele></trkpt>
<trkpt lat="50.003313" lon="8.756483"><ele>181.0</ele></trkpt>
<trkpt lat="50.003292" lon="8.756935"><ele>181.25</ele></trkpt>
<trkpt lat="50.003270" lon="8.757223"><ele>182.0</ele></trkpt>
<trkpt lat="50.003165" lon="8.757594"><ele>182.0</ele></trkpt>
<trkpt lat="50.003053" lon="8.757892"><ele>182.25</ele></trkpt>
<trkpt lat="50.002800" lon="8.758543"><ele>183.75</ele></trkpt>
<trkpt lat="50.002731" lon="8.758756"><ele>183.75</ele></trkpt>
<trkpt lat="50.002702" lon="8.758890"><ele>184.0</ele></trkpt>
<trkpt lat="50.002672" lon="8.759086"><ele>184.25</ele></trkpt>
<trkpt lat="50.002621" lon="8.759734"><ele>185.25</ele></trkpt>
<trkpt lat="50.002586" lon="8.760096"><ele>186.25</ele></trkpt>
<trkpt lat="50.002526" lon="8.760469"><ele>186.0</ele></trkpt>
<trkpt lat="50.002417" lon="8.760973"><ele>187.0</ele></trkpt>
<trkpt lat="50.002328" lon="8.761292"><ele>187.5</ele></trkpt>
<trkpt lat="50.002290" lon="8.761458"><ele>188.0</ele></trkpt>
<trkpt lat="50.002265" lon="8.761636"><ele>188.75</ele></trkpt>
<trkpt lat="50.002213" lon="8.762086"><ele>188.75</ele></trkpt>
<trkpt lat="50.002122" lon="8.762915"><ele>189.75</ele></trkpt>
<trkpt lat="50.002055" lon="8.763634"><ele>190.25</ele></trkpt>
<trkpt lat="50.001993" lon="8.764611"><ele>189.25</ele></trkpt>
<trkpt lat="50.001911" lon="8.766639"><ele>184.75</ele></trkpt>
<trkpt lat="50.001858" lon="8.768110"><ele>180.25</ele></trkpt>
<trkpt lat="50.001828" lon="8.768772"><ele>178.0</ele></trkpt>
<trkpt lat="50.001800" lon="8.769154"><ele>176.75</ele></trkpt>
<trkpt lat="50.001752" lon="8.769604"><ele>175.75</ele></trkpt>
<trkpt lat="50.001702" lon="8.769958"><ele>174.25</ele></trkpt>
<trkpt lat="50.001620" lon="8.770395"><ele>173.25</ele></trkpt>
<trkpt lat="50.001543" lon="8.770730"><ele>172.25</ele></trkpt>
<trkpt lat="50.001426" lon="8.771165"><ele>170.75</ele></trkpt>
<trkpt lat="50.001295" lon="8.771542"><ele>169.0</ele></trkpt>
<trkpt lat="50.001166" lon="8.771866"><ele>168.0</ele></trkpt>
<trkpt lat="50.001120" lon="8.771975"><ele>167.75</ele></trkpt>
<trkpt lat="50.000972" lon="8.772189"><ele>167.0</ele></trkpt>
<trkpt lat="50.000886" lon="8.772318"><ele>166.75</ele></trkpt>
<trkpt lat="50.000864" lon="8.772354"><ele>167.0</ele></trkpt>
<trkpt lat="50.000799" lon="8.772469"><ele>167.0</ele></trkpt>
<trkpt lat="50.000747" lon="8.772586"><ele>167.5</ele></trkpt>
<trkpt lat="50.000689" lon="8.772747"><ele>168.5</ele></trkpt>
<trkpt lat="50.000667" lon="8.772890"><ele>168.5</ele></trkpt>
<trkpt lat="50.000652" lon="8.773191"><ele>167.75</ele></trkpt>
<trkpt lat="50.000640" lon="8.773335"><ele>167.5</ele></trkpt>
<trkpt lat="50.000626" lon="8.773808"><ele>165.75</ele></trkpt>
<trkpt lat="50.000626" lon="8.774119"><ele>165.5</ele></trkpt>
<trkpt lat="50.000636" lon="8.774635"><ele>165.0</ele></trkpt>
<trkpt lat="50.000691" lon="8.776748"><ele>159.25</ele></trkpt>
<trkpt lat="50.000786" lon="8.780176"><ele>156.0</ele></trkpt>
<trkpt lat="50.000933" lon="8.785299"><ele>151.5</ele></trkpt>
<trkpt lat="50.000969" lon="8.785947"><ele>152.0</ele></trkpt>
<trkpt lat="50.001013" lon="8.786497"><ele>152.0</ele></trkpt>
<trkpt lat="50.001086" lon="8.787081"><ele>151.0</ele></trkpt>
<trkpt lat="50.001176" lon="8.787736"><ele>150.75</ele></trkpt>
<trkpt lat="50.001249" lon="8.788156"><ele>150.5</ele></trkpt>
<trkpt lat="50.001375" lon="8.788724"><ele>150.0</ele></trkpt>
<trkpt lat="50.001523" lon="8.789288"><ele>149.5</ele></trkpt>
<trkpt lat="50.001679" lon="8.789797"><ele>148.75</ele></trkpt>
<trkpt lat="50.001749" lon="8.790017"><ele>148.5</ele></trkpt>
<trkpt lat="50.001846" lon="8.790324"><ele>148.75</ele></trkpt>
<trkpt lat="50.002117" lon="8.791169"><ele>148.25</ele></trkpt>
<trkpt lat="50.002400" lon="8.792059"><ele>148.0</ele></trkpt>
<trkpt lat="50.002676" lon="8.792925"><ele>147.0</ele></trkpt>
<trkpt lat="50.003003" lon="8.793950"><ele>147.0</ele></trkpt>
<trkpt lat="50.003042" lon="8.794072"><ele>147.0</ele></trkpt>
<trkpt lat="50.003081" lon="8.794195"><ele>147.0</ele></trkpt>
<trkpt lat="50.003115" lon="8.794303"><ele>147.0</ele></trkpt>
<trkpt lat="50.003225" lon="8.794190"><ele>147.0</ele></trkpt>
<trkpt lat="50.003246" lon="8.794168"><ele>147.0</ele></trkpt>
<trkpt lat="50.003359" lon="8.794052"><ele>146.75</ele></trkpt>
<trkpt lat="50.003432" lon="8.793954"><ele>146.5</ele></trkpt>
<trkpt lat="50.003886" lon="8.793593"><ele>146.0</ele></trkpt>
<trkpt lat="50.003974" lon="8.793525"><ele>146.0</ele></trkpt>
<trkpt lat="50.004016" lon="8.793492"><ele>146.0</ele></trkpt>
<trkpt lat="50.004153" lon="8.793386"><ele>146.0</ele></trkpt>
<trkpt lat="50.004346" lon="8.793236"><ele>146.0</ele></trkpt>
<trkpt lat="50.004407" lon="8.793189"><ele>146.0</ele></trkpt>
<trkpt lat="50.004693" lon="8.792966"><ele>145.0</ele></trkpt>
<trkpt lat="50.004741" lon="8.792929"><ele>145.0</ele></trkpt>
<trkpt lat="50.005035" lon="8.792780"><ele>145.0</ele></trkpt>
<trkpt lat="50.005306" lon="8.792679"><ele>144.75</ele></trkpt>
<trkpt lat="50.005418" lon="8.792637"><ele>144.75</ele></trkpt>
<trkpt lat="50.005504" lon="8.792622"><ele>144.5</ele></trkpt>
<trkpt lat="50.005886" lon="8.792556"><ele>144.0</ele></trkpt>
<trkpt lat="50.006248" lon="8.792494"><ele>144.0</ele></trkpt>
<trkpt lat="50.006759" lon="8.792416"><ele>144.0</ele></trkpt>
<trkpt lat="50.007230" lon="8.792328"><ele>145.0</ele></trkpt>
<trkpt lat="50.007655" lon="8.792246"><ele>145.0</ele></trkpt>
<trkpt lat="50.007849" lon="8.792217"><ele>145.0</ele></trkpt>
<trkpt lat="50.008449" lon="8.792109"><ele>145.0</ele></trkpt>
<trkpt lat="50.008488" lon="8.792099"><ele>145.0</ele></trkpt>
<trkpt lat="50.008525" lon="8.792093"><ele>145.0</ele></trkpt>
<trkpt lat="50.008543" lon="8.792091"><ele>145.0</ele></trkpt>
<trkpt lat="50.008616" lon="8.792101"><ele>145.0</ele></trkpt>
<trkpt lat="50.008705" lon="8.792113"><ele>145.0</ele></trkpt>
<trkpt lat="50.008807" lon="8.792134"><ele>145.0</ele></trkpt>
<trkpt lat="50.008829" lon="8.792176"><ele>145.0</ele></trkpt>
<trkpt lat="50.008857" lon="8.792206"><ele>145.0</ele></trkpt>
<trkpt lat="50.008890" lon="8.792223"><ele>144.75</ele></trkpt>
<trkpt lat="50.008924" lon="8.792225"><ele>144.75</ele></trkpt>
<trkpt lat="50.008958" lon="8.792211"><ele>144.75</ele></trkpt>
<trkpt lat="50.009001" lon="8.792163"><ele>144.5</ele></trkpt>
<trkpt lat="50.009027" lon="8.792090"><ele>144.5</ele></trkpt>
<trkpt lat="50.009124" lon="8.792047"><ele>144.5</ele></trkpt>
<trkpt lat="50.009285" lon="8.791987"><ele>144.25</ele></trkpt>
<trkpt lat="50.009493" lon="8.791968"><ele>144.0</ele></trkpt>
<trkpt lat="50.009680" lon="8.791966"><ele>144.0</ele></trkpt>
<trkpt lat="50.009869" lon="8.791942"><ele>144.0</ele></trkpt>
<trkpt lat="50.010172" lon="8.792009"><ele>143.25</ele></trkpt>
<trkpt lat="50.010251" lon="8.792028"><ele>143.0</ele></trkpt>
<trkpt lat="50.010705" lon="8.792178"><ele>142.75</ele></trkpt>
<trkpt lat="50.010928" lon="8.792299"><ele>142.25</ele></trkpt>
<trkpt lat="50.011196" lon="8.792466"><ele>142.0</ele></trkpt>
<trkpt lat="50.011585" lon="8.792732"><ele>141.75</ele></trkpt>
<trkpt lat="50.011686" lon="8.792802"><ele>141.75</ele></trkpt>
<trkpt lat="50.011896" lon="8.792941"><ele>141.0</ele></trkpt>
<trkpt lat="50.011993" lon="8.792999"><ele>141.0</ele></trkpt>
<trkpt lat="50.012084" lon="8.793053"><ele>141.0</ele></trkpt>
<trkpt lat="50.012509" lon="8.793326"><ele>141.0</ele></trkpt>
<trkpt lat="50.012633" lon="8.793387"><ele>140.75</ele></trkpt>
<trkpt lat="50.012906" lon="8.793523"><ele>140.5</ele></trkpt>
<trkpt lat="50.012974" lon="8.793555"><ele>140.75</ele></trkpt>
<trkpt lat="50.013036" lon="8.793585"><ele>140.75</ele></trkpt>
<trkpt lat="50.013033" lon="8.793647"><ele>140.75</ele></trkpt>
<trkpt lat="50.013040" lon="8.793694"><ele>140.5</ele></trkpt>
<trkpt lat="50.013059" lon="8.793742"><ele>140.5</ele></trkpt>
<trkpt lat="50.013068" lon="8.793753"><ele>140.25</ele></trkpt>
<trkpt lat="50.013113" lon="8.793784"><ele>140.25</ele></trkpt>
<trkpt lat="50.013148" lon="8.793786"><ele>140.25</ele></trkpt>
<trkpt lat="50.013176" lon="8.793774"><ele>140.25</ele></trkpt>
<trkpt lat="50.013212" lon="8.793729"><ele>140.5</ele></trkpt>
<trkpt lat="50.013286" lon="8.793755"><ele>140.25</ele></trkpt>
<trkpt lat="50.013363" lon="8.793795"><ele>140.25</ele></trkpt>
<trkpt lat="50.013802" lon="8.793993"><ele>140.0</ele></trkpt>
<trkpt lat="50.013874" lon="8.794027"><ele>140.0</ele></trkpt>
<trkpt lat="50.014119" lon="8.794145"><ele>140.0</ele></trkpt>
<trkpt lat="50.014407" lon="8.794278"><ele>140.0</ele></trkpt>
<trkpt lat="50.014836" lon="8.794506"><ele>139.0</ele></trkpt>
<trkpt lat="50.014862" lon="8.794520"><ele>139.0</ele></trkpt>
<trkpt lat="50.014948" lon="8.794568"><ele>139.0</ele></trkpt>
<trkpt lat="50.015047" lon="8.794619"><ele>138.75</ele></trkpt>
<trkpt lat="50.015165" lon="8.794675"><ele>138.5</ele></trkpt>
<trkpt lat="50.015776" lon="8.794849"><ele>138.0</ele></trkpt>
<trkpt lat="50.016193" lon="8.795012"><ele>138.0</ele></trkpt>
<trkpt lat="50.016826" lon="8.795259"><ele>137.75</ele></trkpt>
<trkpt lat="50.016952" lon="8.795336"><ele>137.75</ele></trkpt>
<trkpt lat="50.016968" lon="8.795392"><ele>137.5</ele></trkpt>
<trkpt lat="50.016995" lon="8.795434"><ele>137.5</ele></trkpt>
<trkpt lat="50.017033" lon="8.795460"><ele>137.5</ele></trkpt>
<trkpt lat="50.017070" lon="8.795462"><ele>137.5</ele></trkpt>
<trkpt lat="50.017095" lon="8.795451"><ele>137.5</ele></trkpt>
<trkpt lat="50.017126" lon="8.795420"><ele>137.75</ele></trkpt>
<trkpt lat="50.017149" lon="8.795374"><ele>137.75</ele></trkpt>
<trkpt lat="50.017156" lon="8.795345"><ele>137.75</ele></trkpt>
<trkpt lat="50.017280" lon="8.795409"><ele>138.0</ele></trkpt>
<trkpt lat="50.017481" lon="8.795497"><ele>138.0</ele></trkpt>
<trkpt lat="50.017714" lon="8.795614"><ele>138.0</ele></trkpt>
<trkpt lat="50.017851" lon="8.795709"><ele>138.0</ele></trkpt>
<trkpt lat="50.018008" lon="8.795838"><ele>138.0</ele></trkpt>
<trkpt lat="50.018172" lon="8.795999"><ele>138.0</ele></trkpt>
<trkpt lat="50.018235" lon="8.796076"><ele>138.0</ele></trkpt>
<trkpt lat="50.018315" lon="8.796174"><ele>138.0</ele></trkpt>
<trkpt lat="50.018533" lon="8.796516"><ele>138.0</ele></trkpt>
<trkpt lat="50.018766" lon="8.797049"><ele>138.0</ele></trkpt>
<trkpt lat="50.018854" lon="8.797313"><ele>138.0</ele></trkpt>
<trkpt lat="50.018905" lon="8.797477"><ele>138.0</ele></trkpt>
<trkpt lat="50.018877" lon="8.797513"><ele>138.0</ele></trkpt>
<trkpt lat="50.018858" lon="8.797562"><ele>138.0</ele></trkpt>
<trkpt lat="50.018850" lon="8.797617"><ele>138.0</ele></trkpt>
<trkpt lat="50.018855" lon="8.797673"><ele>138.0</ele></trkpt>
<trkpt lat="50.018869" lon="8.797721"><ele>138.0</ele></trkpt>
<trkpt lat="50.018893" lon="8.797759"><ele>138.0</ele></trkpt>
<trkpt lat="50.018922" lon="8.797785"><ele>138.0</ele></trkpt>
<trkpt lat="50.018956" lon="8.797795"><ele>138.0</ele></trkpt>
<trkpt lat="50.018990" lon="8.797788"><ele>138.0</ele></trkpt>
<trkpt lat="50.019020" lon="8.797766"><ele>138.0</ele></trkpt>
<trkpt lat="50.019044" lon="8.797731"><ele>138.0</ele></trkpt>
<trkpt lat="50.019061" lon="8.797687"><ele>138.0</ele></trkpt>
<trkpt lat="50.019068" lon="8.797638"><ele>138.0</ele></trkpt>
<trkpt lat="50.019066" lon="8.797587"><ele>138.0</ele></trkpt>
<trkpt lat="50.019054" lon="8.797540"><ele>138.0</ele></trkpt>
<trkpt lat="50.019161" lon="8.797439"><ele>138.0</ele></trkpt>
<trkpt lat="50.019187" lon="8.797416"><ele>138.0</ele></trkpt>
<trkpt lat="50.019340" lon="8.797278"><ele>138.0</ele></trkpt>
<trkpt lat="50.019965" lon="8.796714"><ele>138.0</ele></trkpt>
<trkpt lat="50.020798" lon="8.795979"><ele>139.0</ele></trkpt>
<trkpt lat="50.021723" lon="8.795255"><ele>137.0</ele></trkpt>
<trkpt lat="50.021773" lon="8.795216"><ele>137.0</ele></trkpt>
<trkpt lat="50.021858" lon="8.795149"><ele>137.0</ele></trkpt>
<trkpt lat="50.021980" lon="8.795054"><ele>137.0</ele></trkpt>
<trkpt lat="50.022942" lon="8.794216"><ele>137.75</ele></trkpt>
<trkpt lat="50.023004" lon="8.794160"><ele>138.0</ele></trkpt>
<trkpt lat="50.023552" lon="8.793659"><ele>138.0</ele></trkpt>
<trkpt lat="50.023666" lon="8.793552"><ele>137.75</ele></trkpt>
<trkpt lat="50.023779" lon="8.793446"><ele>137.75</ele></trkpt>
<trkpt lat="50.024015" lon="8.793216"><ele>137.75</ele></trkpt>
<trkpt lat="50.024103" lon="8.793130"><ele>137.75</ele></trkpt>
<trkpt lat="50.024242" lon="8.792996"><ele>137.75</ele></trkpt>
<trkpt lat="50.024528" lon="8.792702"><ele>135.75</ele></trkpt>
<trkpt lat="50.024617" lon="8.792590"><ele>135.25</ele></trkpt>
<trkpt lat="50.024826" lon="8.792311"><ele>135.5</ele></trkpt>
<trkpt lat="50.024961" lon="8.792089"><ele>136.0</ele></trkpt>
<trkpt lat="50.025413" lon="8.791540"><ele>137.0</ele></trkpt>
<trkpt lat="50.025562" lon="8.791386"><ele>136.75</ele></trkpt>
<trkpt lat="50.025703" lon="8.791187"><ele>136.75</ele></trkpt>
<trkpt lat="50.025975" lon="8.790734"><ele>137.0</ele></trkpt>
<trkpt lat="50.026106" lon="8.790489"><ele>137.0</ele></trkpt>
<trkpt lat="50.026161" lon="8.790384"><ele>136.75</ele></trkpt>
<trkpt lat="50.026242" lon="8.790478"><ele>136.5</ele></trkpt>
<trkpt lat="50.026321" lon="8.790569"><ele>136.0</ele></trkpt>
<trkpt lat="50.026365" lon="8.790598"><ele>136.0</ele></trkpt>
<trkpt lat="50.026390" lon="8.790604"><ele>136.0</ele></trkpt>
<trkpt lat="50.026456" lon="8.790582"><ele>135.75</ele></trkpt>
<trkpt lat="50.026717" lon="8.790386"><ele>136.25</ele></trkpt>
<trkpt lat="50.027034" lon="8.790112"><ele>136.5</ele></trkpt>
<trkpt lat="50.027384" lon="8.789805"><ele>137.0</ele></trkpt>
<trkpt lat="50.027649" lon="8.789573"><ele>137.0</ele></trkpt>
<trkpt lat="50.028401" lon="8.788989"><ele>137.0</ele></trkpt>
<trkpt lat="50.028464" lon="8.788942"><ele>137.0</ele></trkpt>
<trkpt lat="50.028507" lon="8.788906"><ele>137.0</ele></trkpt>
<trkpt lat="50.029204" lon="8.788335"><ele>137.0</ele></trkpt>
<trkpt lat="50.029747" lon="8.787890"><ele>137.5</ele></trkpt>
<trkpt lat="50.029857" lon="8.787800"><ele>137.75</ele></trkpt>
<trkpt lat="50.029889" lon="8.787772"><ele>138.0</ele></trkpt>
<trkpt lat="50.030188" lon="8.787524"><ele>138.0</ele></trkpt>
<trkpt lat="50.030141" lon="8.787374"><ele>138.0</ele></trkpt>
<trkpt lat="50.030114" lon="8.787352"><ele>138.0</ele></trkpt>
<trkpt lat="50.030067" lon="8.787266"><ele>138.0</ele></trkpt>
<trkpt lat="50.030111" lon="8.787196"><ele>138.0</ele></trkpt>
<trkpt lat="50.030116" lon="8.787186"><ele>138.0</ele></trkpt>
<trkpt lat="50.030168" lon="8.787079"><ele>138.0</ele></trkpt>
<trkpt lat="50.030228" lon="8.787110"><ele>138.0</ele></trkpt>
<trkpt lat="50.030477" lon="8.787241"><ele>138.0</ele></trkpt>
<trkpt lat="50.030499" lon="8.787253"><ele>138.0</ele></trkpt>
<trkpt lat="50.030530" lon="8.787269"><ele>138.0</ele></trkpt>
<trkpt lat="50.030670" lon="8.787338"><ele>138.0</ele></trkpt>
<trkpt lat="50.030976" lon="8.787506"><ele>138.0</ele></trkpt>
<trkpt lat="50.031552" lon="8.787809"><ele>137.25</ele></trkpt>
<trkpt lat="50.032156" lon="8.788138"><ele>137.0</ele></trkpt>
<trkpt lat="50.032444" lon="8.788297"><ele>137.0</ele></trkpt>
<trkpt lat="50.032910" lon="8.788551"><ele>137.0</ele></trkpt>
<trkpt lat="50.032941" lon="8.788566"><ele>137.0</ele></trkpt>
<trkpt lat="50.033071" lon="8.788633"><ele>136.75</ele></trkpt>
<trkpt lat="50.033188" lon="8.788708"><ele>136.25</ele></trkpt>
<trkpt lat="50.033220" lon="8.788727"><ele>136.0</ele></trkpt>
<trkpt lat="50.033326" lon="8.788790"><ele>136.0</ele></trkpt>
<trkpt lat="50.033704" lon="8.789018"><ele>136.0</ele></trkpt>
<trkpt lat="50.035095" lon="8.789778"><ele>134.5</ele></trkpt>
<trkpt lat="50.035734" lon="8.790049"><ele>134.0</ele></trkpt>
<trkpt lat="50.036187" lon="8.790247"><ele>133.75</ele></trkpt>
<trkpt lat="50.036428" lon="8.790340"><ele>132.75</ele></trkpt>
<trkpt lat="50.036762" lon="8.790408"><ele>133.0</ele></trkpt>
<trkpt lat="50.037087" lon="8.790453"><ele>132.75</ele></trkpt>
<trkpt lat="50.037298" lon="8.790458"><ele>132.5</ele></trkpt>
<trkpt lat="50.037603" lon="8.790441"><ele>132.25</ele></trkpt>
<trkpt lat="50.037751" lon="8.790427"><ele>132.0</ele></trkpt>
<trkpt lat="50.037964" lon="8.790382"><ele>132.0</ele></trkpt>
<trkpt lat="50.038245" lon="8.790299"><ele>132.5</ele></trkpt>
<trkpt lat="50.038536" lon="8.790194"><ele>132.0</ele></trkpt>
<trkpt lat="50.038832" lon="8.790059"><ele>132.0</ele></trkpt>
<trkpt lat="50.039582" lon="8.789634"><ele>132.0</ele></trkpt>
<trkpt lat="50.041091" lon="8.788760"><ele>132.5</ele></trkpt>
<trkpt lat="50.041609" lon="8.788434"><ele>132.0</ele></trkpt>
<trkpt lat="50.042698" lon="8.787811"><ele>131.75</ele></trkpt>
<trkpt lat="50.043117" lon="8.787534"><ele>131.75</ele></trkpt>
<trkpt lat="50.043739" lon="8.787165"><ele>131.5</ele></trkpt>
<trkpt lat="50.044649" lon="8.786600"><ele>132.0</ele></trkpt>
<trkpt lat="50.044717" lon="8.786558"><ele>132.0</ele></trkpt>
<trkpt lat="50.044901" lon="8.786458"><ele>132.0</ele></trkpt>
<trkpt lat="50.045825" lon="8.785971"><ele>131.5</ele></trkpt>
<trkpt lat="50.046282" lon="8.785789"><ele>131.75</ele></trkpt>
<trkpt lat="50.046558" lon="8.785661"><ele>131.75</ele></trkpt>
<trkpt lat="50.046701" lon="8.785579"><ele>131.75</ele></trkpt>
<trkpt lat="50.046793" lon="8.785515"><ele>132.0</ele></trkpt>
<trkpt lat="50.046862" lon="8.785464"><ele>132.0</ele></trkpt>
<trkpt lat="50.046914" lon="8.785418"><ele>132.0</ele></trkpt>
<trkpt lat="50.047061" lon="8.785275"><ele>132.0</ele></trkpt>
<trkpt lat="50.047137" lon="8.785184"><ele>132.0</ele></trkpt>
<trkpt lat="50.047207" lon="8.785085"><ele>132.0</ele></trkpt>
<trkpt lat="50.047253" lon="8.785017"><ele>132.0</ele></trkpt>
<trkpt lat="50.047296" lon="8.784940"><ele>132.0</ele></trkpt>
<trkpt lat="50.047309" lon="8.784914"><ele>132.0</ele></trkpt>
<trkpt lat="50.047560" lon="8.784392"><ele>132.0</ele></trkpt>
<trkpt lat="50.047671" lon="8.784148"><ele>132.5</ele></trkpt>
<trkpt lat="50.047697" lon="8.784092"><ele>132.5</ele></trkpt>
<trkpt lat="50.047724" lon="8.784031"><ele>132.75</ele></trkpt>
<trkpt lat="50.048211" lon="8.782950"><ele>133.25</ele></trkpt>
<trkpt lat="50.048317" lon="8.782720"><ele>133.0</ele></trkpt>
<trkpt lat="50.048531" lon="8.782287"><ele>133.0</ele></trkpt>
<trkpt lat="50.048692" lon="8.782006"><ele>133.0</ele></trkpt>
<trkpt lat="50.048907" lon="8.781677"><ele>132.0</ele></trkpt>
<trkpt lat="50.049037" lon="8.781504"><ele>132.0</ele></trkpt>
<trkpt lat="50.049522" lon="8.780904"><ele>131.75</ele></trkpt>
<trkpt lat="50.050710" lon="8.779464"><ele>131.0</ele></trkpt>
<trkpt lat="50.050828" lon="8.779321"><ele>131.0</ele></trkpt>
<trkpt lat="50.051515" lon="8.778486"><ele>130.75</ele></trkpt>
<trkpt lat="50.051651" lon="8.778332"><ele>130.75</ele></trkpt>
<trkpt lat="50.051847" lon="8.778136"><ele>130.0</ele></trkpt>
<trkpt lat="50.051957" lon="8.778048"><ele>130.0</ele></trkpt>
<trkpt lat="50.052151" lon="8.777923"><ele>130.0</ele></trkpt>
<trkpt lat="50.052385" lon="8.777828"><ele>130.0</ele></trkpt>
<trkpt lat="50.052555" lon="8.777781"><ele>129.75</ele></trkpt>
<trkpt lat="50.053326" lon="8.777602"><ele>129.0</ele></trkpt>
<trkpt lat="50.055273" lon="8.777156"><ele>128.0</ele></trkpt>
<trkpt lat="50.055501" lon="8.777107"><ele>128.0</ele></trkpt>
<trkpt lat="50.055818" lon="8.777057"><ele>128.0</ele></trkpt>
<trkpt lat="50.055961" lon="8.777040"><ele>128.0</ele></trkpt>
<trkpt lat="50.056260" lon="8.777040"><ele>127.25</ele></trkpt>
<trkpt lat="50.056541" lon="8.777051"><ele>127.0</ele></trkpt>
<trkpt lat="50.058171" lon="8.777158"><ele>126.0</ele></trkpt>
<trkpt lat="50.058352" lon="8.777162"><ele>126.0</ele></trkpt>
<trkpt lat="50.058630" lon="8.777153"><ele>126.0</ele></trkpt>
<trkpt lat="50.058836" lon="8.777127"><ele>126.0</ele></trkpt>
<trkpt lat="50.058931" lon="8.777105"><ele>126.0</ele></trkpt>
<trkpt lat="50.058974" lon="8.777093"><ele>126.0</ele></trkpt>
<trkpt lat="50.058926" lon="8.776782"><ele>125.75</ele></trkpt>
<trkpt lat="50.058917" lon="8.776726"><ele>125.75</ele></trkpt>
<trkpt lat="50.058820" lon="8.776075"><ele>126.0</ele></trkpt>
<trkpt lat="50.058758" lon="8.775668"><ele>126.0</ele></trkpt>
<trkpt lat="50.058668" lon="8.775110"><ele>125.75</ele></trkpt>
<trkpt lat="50.058608" lon="8.774744"><ele>126.0</ele></trkpt>
<trkpt lat="50.058503" lon="8.774100"><ele>126.0</ele></trkpt>
<trkpt lat="50.058216" lon="8.772481"><ele>126.0</ele></trkpt>
<trkpt lat="50.057371" lon="8.767621"><ele>127.0</ele></trkpt>
<trkpt lat="50.057330" lon="8.767396"><ele>127.0</ele></trkpt>
<trkpt lat="50.057201" lon="8.766688"><ele>126.75</ele></trkpt>
<trkpt lat="50.056987" lon="8.765407"><ele>128.0</ele></trkpt>
<trkpt lat="50.056560" lon="8.762981"><ele>129.0</ele></trkpt>
<trkpt lat="50.056493" lon="8.762581"><ele>129.75</ele></trkpt>
<trkpt lat="50.056320" lon="8.761555"><ele>130.0</ele></trkpt>
<trkpt lat="50.056317" lon="8.761535"><ele>130.0</ele></trkpt>
<trkpt lat="50.055947" lon="8.759431"><ele>131.0</ele></trkpt>
<trkpt lat="50.055576" lon="8.757336"><ele>130.75</ele></trkpt>
<trkpt lat="50.055399" lon="8.756373"><ele>130.0</ele></trkpt>
<trkpt lat="50.054903" lon="8.753700"><ele>130.0</ele></trkpt>
<trkpt lat="50.054464" lon="8.751306"><ele>129.75</ele></trkpt>
<trkpt lat="50.054458" lon="8.751270"><ele>130.0</ele></trkpt>
<trkpt lat="50.054337" lon="8.750475"><ele>130.5</ele></trkpt>
<trkpt lat="50.054231" lon="8.749714"><ele>130.0</ele></trkpt>
<trkpt lat="50.054139" lon="8.749097"><ele>130.75</ele></trkpt>
<trkpt lat="50.054151" lon="8.748945"><ele>130.75</ele></trkpt>
<trkpt lat="50.054181" lon="8.748701"><ele>130.75</ele></trkpt>
<trkpt lat="50.054190" lon="8.748655"><ele>130.75</ele></trkpt>
<trkpt lat="50.054215" lon="8.748549"><ele>130.75</ele></trkpt>
<trkpt lat="50.054299" lon="8.748336"><ele>130.5</ele></trkpt>
<trkpt lat="50.055071" lon="8.747693"><ele>130.0</ele></trkpt>
<trkpt lat="50.055516" lon="8.747320"><ele>129.75</ele></trkpt>
<trkpt lat="50.055760" lon="8.747116"><ele>129.0</ele></trkpt>
<trkpt lat="50.055783" lon="8.747096"><ele>129.0</ele></trkpt>
<trkpt lat="50.056535" lon="8.746455"><ele>129.0</ele></trkpt>
<trkpt lat="50.057836" lon="8.745352"><ele>129.0</ele></trkpt>
<trkpt lat="50.058094" lon="8.745105"><ele>129.0</ele></trkpt>
<trkpt lat="50.058450" lon="8.744712"><ele>128.75</ele></trkpt>
<trkpt lat="50.058580" lon="8.744544"><ele>128.75</ele></trkpt>
<trkpt lat="50.058762" lon="8.744289"><ele>128.5</ele></trkpt>
<trkpt lat="50.059010" lon="8.743905"><ele>128.25</ele></trkpt>
<trkpt lat="50.059292" lon="8.743464"><ele>128.75</ele></trkpt>
<trkpt lat="50.059616" lon="8.742910"><ele>129.0</ele></trkpt>
<trkpt lat="50.059736" lon="8.742684"><ele>129.0</ele></trkpt>
<trkpt lat="50.059757" lon="8.742645"><ele>129.0</ele></trkpt>
<trkpt lat="50.059810" lon="8.742547"><ele>129.0</ele></trkpt>
<trkpt lat="50.059854" lon="8.742462"><ele>129.0</ele></trkpt>
<trkpt lat="50.059892" lon="8.742395"><ele>129.0</ele></trkpt>
<trkpt lat="50.059914" lon="8.742356"><ele>129.0</ele></trkpt>
<trkpt lat="50.060062" lon="8.742095"><ele>129.0</ele></trkpt>
<trkpt lat="50.060223" lon="8.741810"><ele>129.25</ele></trkpt>
<trkpt lat="50.060308" lon="8.741651"><ele>129.75</ele></trkpt>
<trkpt lat="50.060387" lon="8.741507"><ele>129.75</ele></trkpt>
<trkpt lat="50.061461" lon="8.739523"><ele>130.0</ele></trkpt>
<trkpt lat="50.061610" lon="8.739213"><ele>130.0</ele></trkpt>
<trkpt lat="50.061708" lon="8.738986"><ele>130.0</ele></trkpt>
<trkpt lat="50.061885" lon="8.738551"><ele>130.0</ele></trkpt>
<trkpt lat="50.061989" lon="8.738232"><ele>129.75</ele></trkpt>
<trkpt lat="50.062022" lon="8.738122"><ele>129.75</ele></trkpt>
<trkpt lat="50.062120" lon="8.737624"><ele>129.5</ele></trkpt>
<trkpt lat="50.062187" lon="8.737105"><ele>129.75</ele></trkpt>
<trkpt lat="50.062208" lon="8.736859"><ele>129.75</ele></trkpt>
<trkpt lat="50.062221" lon="8.736615"><ele>129.75</ele></trkpt>
<trkpt lat="50.062230" lon="8.735962"><ele>130.0</ele></trkpt>
<trkpt lat="50.062092" lon="8.735965"><ele>129.5</ele></trkpt>
<trkpt lat="50.062069" lon="8.735612"><ele>129.25</ele></trkpt>
<trkpt lat="50.062023" lon="8.735398"><ele>129.25</ele></trkpt>
<trkpt lat="50.061899" lon="8.735292"><ele>129.0</ele></trkpt>
<trkpt lat="50.061458" lon="8.732245"><ele>128.0</ele></trkpt>
<trkpt lat="50.061045" lon="8.729894"><ele>128.75</ele></trkpt>
<trkpt lat="50.061041" lon="8.729808"><ele>128.5</ele></trkpt>
<trkpt lat="50.061114" lon="8.729390"><ele>128.75</ele></trkpt>
<trkpt lat="50.061115" lon="8.729349"><ele>128.75</ele></trkpt>
<trkpt lat="50.061057" lon="8.728929"><ele>128.75</ele></trkpt>
<trkpt lat="50.061059" lon="8.728869"><ele>128.75</ele></trkpt>
<trkpt lat="50.061070" lon="8.728812"><ele>128.75</ele></trkpt>
<trkpt lat="50.061189" lon="8.728451"><ele>129.0</ele></trkpt>
<trkpt lat="50.061252" lon="8.728330"><ele>129.0</ele></trkpt>
<trkpt lat="50.061340" lon="8.728272"><ele>129.0</ele></trkpt>
<trkpt lat="50.061371" lon="8.728251"><ele>129.0</ele></trkpt>
<trkpt lat="50.061387" lon="8.728225"><ele>129.0</ele></trkpt>
<trkpt lat="50.061409" lon="8.728157"><ele>129.0</ele></trkpt>
<trkpt lat="50.061431" lon="8.728085"><ele>129.0</ele></trkpt>
<trkpt lat="50.061441" lon="8.727973"><ele>129.0</ele></trkpt>
<trkpt lat="50.060977" lon="8.727621"><ele>129.0</ele></trkpt>
<trkpt lat="50.059742" lon="8.726690"><ele>129.0</ele></trkpt>
<trkpt lat="50.057973" lon="8.725357"><ele>129.0</ele></trkpt>
<trkpt lat="50.057749" lon="8.725204"><ele>129.0</ele></trkpt>
<trkpt lat="50.057441" lon="8.725074"><ele>129.0</ele></trkpt>
<trkpt lat="50.057268" lon="8.725023"><ele>129.75</ele></trkpt>
<trkpt lat="50.057186" lon="8.725031"><ele>129.75</ele></trkpt>
<trkpt lat="50.056831" lon="8.724932"><ele>130.0</ele></trkpt>
<trkpt lat="50.056005" lon="8.724808"><ele>132.0</ele></trkpt>
<trkpt lat="50.055610" lon="8.724700"><ele>133.5</ele></trkpt>
<trkpt lat="50.055403" lon="8.724624"><ele>133.0</ele></trkpt>
<trkpt lat="50.055226" lon="8.724535"><ele>133.5</ele></trkpt>
<trkpt lat="50.055024" lon="8.724424"><ele>135.25</ele></trkpt>
<trkpt lat="50.054858" lon="8.724311"><ele>131.75</ele></trkpt>
<trkpt lat="50.054738" lon="8.724222"></trkpt>
<trkpt lat="50.054583" lon="8.724091"></trkpt>
<trkpt lat="50.054444" lon="8.723960"></trkpt>
<trkpt lat="50.054255" lon="8.723761"></trkpt>
<trkpt lat="50.053978" lon="8.723412"></trkpt>
<trkpt lat="50.053823" lon="8.723184"></trkpt>
<trkpt lat="50.053628" lon="8.722837"><ele>133.5</ele></trkpt>
<trkpt lat="50.053365" lon="8.722401"><ele>133.5</ele></trkpt>
<trkpt lat="50.053035" lon="8.721918"><ele>132.25</ele></trkpt>
<trkpt lat="50.052919" lon="8.721772"><ele>130.5</ele></trkpt>
<trkpt lat="50.052797" lon="8.721634"><ele>131.25</ele></trkpt>
<trkpt lat="50.052617" lon="8.721461"><ele>130.0</ele></trkpt>
<trkpt lat="50.052434" lon="8.721304"><ele>129.75</ele></trkpt>
<trkpt lat="50.052093" lon="8.721040"><ele>129.25</ele></trkpt>
<trkpt lat="50.051979" lon="8.720952"><ele>129.0</ele></trkpt>
<trkpt lat="50.051638" lon="8.720690"><ele>129.0</ele></trkpt>
<trkpt lat="50.050303" lon="8.719680"><ele>128.75</ele></trkpt>
<trkpt lat="50.050135" lon="8.719553"><ele>130.0</ele></trkpt>
<trkpt lat="50.049025" lon="8.718703"><ele>129.5</ele></trkpt>
<trkpt lat="50.048506" lon="8.718313"><ele>129.75</ele></trkpt>
<trkpt lat="50.048234" lon="8.718114"><ele>130.0</ele></trkpt>
<trkpt lat="50.047034" lon="8.717191"><ele>130.0</ele></trkpt>
<trkpt lat="50.046715" lon="8.716943"><ele>130.75</ele></trkpt>
<trkpt lat="50.046525" lon="8.716799"><ele>130.75</ele></trkpt>
<trkpt lat="50.046412" lon="8.716712"><ele>130.75</ele></trkpt>
<trkpt lat="50.046319" lon="8.716640"><ele>131.0</ele></trkpt>
<trkpt lat="50.046284" lon="8.716613"><ele>131.0</ele></trkpt>
<trkpt lat="50.046211" lon="8.716557"><ele>131.0</ele></trkpt>
<trkpt lat="50.046128" lon="8.716504"><ele>131.0</ele></trkpt>
<trkpt lat="50.045911" lon="8.716325"><ele>131.0</ele></trkpt>
<trkpt lat="50.045786" lon="8.716229"><ele>131.0</ele></trkpt>
<trkpt lat="50.044302" lon="8.715114"><ele>131.25</ele></trkpt>
<trkpt lat="50.042352" lon="8.713644"><ele>132.0</ele></trkpt>
<trkpt lat="50.041115" lon="8.712705"><ele>132.75</ele></trkpt>
<trkpt lat="50.039681" lon="8.711616"><ele>134.0</ele></trkpt>
<trkpt lat="50.039288" lon="8.711294"><ele>134.0</ele></trkpt>
<trkpt lat="50.039053" lon="8.711103"><ele>134.75</ele></trkpt>
<trkpt lat="50.038931" lon="8.711003"><ele>134.75</ele></trkpt>
<trkpt lat="50.038552" lon="8.710694"><ele>135.0</ele></trkpt>
<trkpt lat="50.038498" lon="8.710653"><ele>135.0</ele></trkpt>
<trkpt lat="50.037317" lon="8.709760"><ele>136.0</ele></trkpt>
<trkpt lat="50.036168" lon="8.708906"><ele>137.0</ele></trkpt>
<trkpt lat="50.034287" lon="8.707469"><ele>138.0</ele></trkpt>
<trkpt lat="50.034137" lon="8.707357"><ele>138.0</ele></trkpt>
<trkpt lat="50.033991" lon="8.707246"><ele>138.0</ele></trkpt>
<trkpt lat="50.033946" lon="8.707215"><ele>138.0</ele></trkpt>
<trkpt lat="50.033915" lon="8.707190"><ele>138.0</ele></trkpt>
<trkpt lat="50.032500" lon="8.706176"><ele>137.75</ele></trkpt>
<trkpt lat="50.031798" lon="8.705636"><ele>137.75</ele></trkpt>
<trkpt lat="50.031694" lon="8.705556"><ele>137.75</ele></trkpt>
<trkpt lat="50.031642" lon="8.705516"><ele>137.75</ele></trkpt>
<trkpt lat="50.031592" lon="8.705478"><ele>137.5</ele></trkpt>
<trkpt lat="50.031512" lon="8.705415"><ele>137.5</ele></trkpt>
<trkpt lat="50.031453" lon="8.705367"><ele>137.5</ele></trkpt>
<trkpt lat="50.031423" lon="8.705345"><ele>137.5</ele></trkpt>
<trkpt lat="50.031314" lon="8.705265"><ele>137.5</ele></trkpt>
<trkpt lat="50.028981" lon="8.703440"><ele>137.0</ele></trkpt>
<trkpt lat="50.028937" lon="8.703407"><ele>136.75</ele></trkpt>
<trkpt lat="50.028597" lon="8.703160"><ele>136.75</ele></trkpt>
<trkpt lat="50.028111" lon="8.702811"><ele>136.0</ele></trkpt>
<trkpt lat="50.027952" lon="8.702690"><ele>136.0</ele></trkpt>
<trkpt lat="50.027813" lon="8.702583"><ele>135.75</ele></trkpt>
<trkpt lat="50.027699" lon="8.702496"><ele>136.0</ele></trkpt>
<trkpt lat="50.027659" lon="8.702465"><ele>136.0</ele></trkpt>
<trkpt lat="50.027502" lon="8.702345"><ele>136.0</ele></trkpt>
<trkpt lat="50.026886" lon="8.701859"><ele>136.0</ele></trkpt>
<trkpt lat="50.025412" lon="8.700731"><ele>135.0</ele></trkpt>
<trkpt lat="50.024725" lon="8.700205"><ele>134.0</ele></trkpt>
<trkpt lat="50.024253" lon="8.699851"><ele>134.0</ele></trkpt>
<trkpt lat="50.023982" lon="8.699647"><ele>133.75</ele></trkpt>
<trkpt lat="50.023878" lon="8.699565"><ele>134.0</ele></trkpt>
<trkpt lat="50.023766" lon="8.699486"><ele>134.0</ele></trkpt>
<trkpt lat="50.023498" lon="8.699297"><ele>133.5</ele></trkpt>
<trkpt lat="50.023353" lon="8.699184"><ele>133.75</ele></trkpt>
<trkpt lat="50.023136" lon="8.699019"><ele>134.0</ele></trkpt>
<trkpt lat="50.022613" lon="8.698601"><ele>133.5</ele></trkpt>
<trkpt lat="50.021633" lon="8.697850"><ele>133.0</ele></trkpt>
<trkpt lat="50.021033" lon="8.697391"><ele>133.0</ele></trkpt>
<trkpt lat="50.020965" lon="8.697338"><ele>133.0</ele></trkpt>
<trkpt lat="50.021275" lon="8.695570"><ele>131.0</ele></trkpt>
<trkpt lat="50.021283" lon="8.695522"><ele>131.0</ele></trkpt>
<trkpt lat="50.020434" lon="8.695531"><ele>131.0</ele></trkpt>
<trkpt lat="50.020152" lon="8.695537"><ele>131.0</ele></trkpt>
<trkpt lat="50.019274" lon="8.695543"><ele>132.0</ele></trkpt>
<trkpt lat="50.019084" lon="8.695540"><ele>132.0</ele></trkpt>
<trkpt lat="50.019058" lon="8.695540"><ele>132.0</ele></trkpt>
<trkpt lat="50.019037" lon="8.695539"><ele>132.0</ele></trkpt>
<trkpt lat="50.018835" lon="8.695535"><ele>132.0</ele></trkpt>
<trkpt lat="50.018752" lon="8.695523"><ele>132.0</ele></trkpt>
<trkpt lat="50.018406" lon="8.695469"><ele>132.0</ele></trkpt>
<trkpt lat="50.018273" lon="8.695452"><ele>132.0</ele></trkpt>
<trkpt lat="50.017989" lon="8.695400"><ele>132.0</ele></trkpt>
<trkpt lat="50.017970" lon="8.695396"><ele>132.0</ele></trkpt>
<trkpt lat="50.017899" lon="8.695383"><ele>132.0</ele></trkpt>
<trkpt lat="50.017726" lon="8.695350"><ele>132.25</ele></trkpt>
<trkpt lat="50.017458" lon="8.695286"><ele>133.0</ele></trkpt>
<trkpt lat="50.017395" lon="8.695284"><ele>133.0</ele></trkpt>
<trkpt lat="50.017317" lon="8.695296"><ele>133.0</ele></trkpt>
<trkpt lat="50.017231" lon="8.695316"><ele>133.0</ele></trkpt>
<trkpt lat="50.016957" lon="8.695429"><ele>133.0</ele></trkpt>
<trkpt lat="50.016929" lon="8.695443"><ele>133.0</ele></trkpt>
<trkpt lat="50.016811" lon="8.695501"><ele>133.0</ele></trkpt>
<trkpt lat="50.016733" lon="8.695541"><ele>133.0</ele></trkpt>
<trkpt lat="50.016711" lon="8.695553"><ele>133.0</ele></trkpt>
<trkpt lat="50.016638" lon="8.695591"><ele>133.0</ele></trkpt>
<trkpt lat="50.016415" lon="8.695711"><ele>133.75</ele></trkpt>
<trkpt lat="50.016356" lon="8.695743"><ele>134.0</ele></trkpt>
<trkpt lat="50.016012" lon="8.695918"><ele>134.0</ele></trkpt>
<trkpt lat="50.015775" lon="8.696040"><ele>133.75</ele></trkpt>
<trkpt lat="50.015659" lon="8.696084"><ele>133.25</ele></trkpt>
<trkpt lat="50.015620" lon="8.696091"><ele>133.25</ele></trkpt>
<trkpt lat="50.015579" lon="8.696078"><ele>133.0</ele></trkpt>
<trkpt lat="50.015545" lon="8.696052"><ele>133.0</ele></trkpt>
<trkpt lat="50.015464" lon="8.695905"><ele>133.75</ele></trkpt>
<trkpt lat="50.015322" lon="8.695566"><ele>133.0</ele></trkpt>
<trkpt lat="50.015122" lon="8.695056"><ele>133.0</ele></trkpt>
<trkpt lat="50.015093" lon="8.694981"><ele>133.0</ele></trkpt>
<trkpt lat="50.015065" lon="8.694916"><ele>133.0</ele></trkpt>
<trkpt lat="50.015060" lon="8.694903"><ele>133.0</ele></trkpt>
<trkpt lat="50.015027" lon="8.694826"><ele>133.0</ele></trkpt>
<trkpt lat="50.014981" lon="8.694714"><ele>133.0</ele></trkpt>
<trkpt lat="50.014782" lon="8.694264"><ele>132.25</ele></trkpt>
<trkpt lat="50.014669" lon="8.694022"><ele>132.0</ele></trkpt>
<trkpt lat="50.014607" lon="8.693906"><ele>132.0</ele></trkpt>
<trkpt lat="50.014547" lon="8.693806"><ele>132.0</ele></trkpt>
<trkpt lat="50.014432" lon="8.693642"><ele>132.0</ele></trkpt>
<trkpt lat="50.014366" lon="8.693564"><ele>132.0</ele></trkpt>
<trkpt lat="50.014212" lon="8.693379"><ele>132.0</ele></trkpt>
<trkpt lat="50.014023" lon="8.693159"><ele>132.0</ele></trkpt>
<trkpt lat="50.013971" lon="8.693099"><ele>132.0</ele></trkpt>
<trkpt lat="50.013865" lon="8.692977"><ele>132.0</ele></trkpt>
<trkpt lat="50.013727" lon="8.692817"><ele>132.0</ele></trkpt>
<trkpt lat="50.013593" lon="8.692667"><ele>132.0</ele></trkpt>
<trkpt lat="50.013316" lon="8.692443"><ele>133.0</ele></trkpt>
<trkpt lat="50.013225" lon="8.692370"><ele>133.0</ele></trkpt>
<trkpt lat="50.013186" lon="8.692338"><ele>133.0</ele></trkpt>
<trkpt lat="50.013086" lon="8.692258"><ele>133.0</ele></trkpt>
<trkpt lat="50.013000" lon="8.692391"><ele>133.0</ele></trkpt>
<trkpt lat="50.012943" lon="8.692478"><ele>133.0</ele></trkpt>
<trkpt lat="50.012915" lon="8.692522"><ele>133.0</ele></trkpt>
<trkpt lat="50.012221" lon="8.693596"><ele>135.0</ele></trkpt>
<trkpt lat="50.012024" lon="8.693901"><ele>135.0</ele></trkpt>
<trkpt lat="50.012010" lon="8.693923"><ele>135.0</ele></trkpt>
<trkpt lat="50.011658" lon="8.694454"><ele>136.0</ele></trkpt>
<trkpt lat="50.011069" lon="8.695330"><ele>137.0</ele></trkpt>
<trkpt lat="50.010951" lon="8.695528"><ele>137.5</ele></trkpt>
<trkpt lat="50.010677" lon="8.695944"><ele>138.5</ele></trkpt>
<trkpt lat="50.010291" lon="8.696545"><ele>139.75</ele></trkpt>
<trkpt lat="50.010204" lon="8.696682"><ele>140.5</ele></trkpt>
<trkpt lat="50.010166" lon="8.696740"><ele>140.5</ele></trkpt>
<trkpt lat="50.010137" lon="8.696785"><ele>140.75</ele></trkpt>
<trkpt lat="50.009951" lon="8.697063"><ele>141.0</ele></trkpt>
<trkpt lat="50.009451" lon="8.697825"><ele>142.75</ele></trkpt>
<trkpt lat="50.009288" lon="8.698077"><ele>143.5</ele></trkpt>
<trkpt lat="50.008759" lon="8.698899"><ele>145.25</ele></trkpt>
<trkpt lat="50.008271" lon="8.699656"><ele>147.0</ele></trkpt>
<trkpt lat="50.008144" lon="8.699856"><ele>147.5</ele></trkpt>
<trkpt lat="50.007700" lon="8.700551"><ele>149.25</ele></trkpt>
<trkpt lat="50.007616" lon="8.700672"><ele>149.5</ele></trkpt>
<trkpt lat="50.007372" lon="8.701013"><ele>150.0</ele></trkpt>
<trkpt lat="50.007344" lon="8.701055"><ele>150.0</ele></trkpt>
<trkpt lat="50.007312" lon="8.701104"><ele>150.0</ele></trkpt>
<trkpt lat="50.007055" lon="8.701481"><ele>150.5</ele></trkpt>
<trkpt lat="50.006907" lon="8.701705"><ele>151.0</ele></trkpt>
<trkpt lat="50.005289" lon="8.704186"><ele>153.75</ele></trkpt>
<trkpt lat="50.004927" lon="8.704743"><ele>154.25</ele></trkpt>
<trkpt lat="50.004349" lon="8.705623"><ele>155.25</ele></trkpt>
<trkpt lat="50.004129" lon="8.705958"><ele>155.5</ele></trkpt>
<trkpt lat="50.003915" lon="8.706276"><ele>155.75</ele></trkpt>
<trkpt lat="50.003711" lon="8.706578"><ele>155.75</ele></trkpt>
<trkpt lat="50.003442" lon="8.706988"><ele>156.5</ele></trkpt>
<trkpt lat="50.002878" lon="8.707876"><ele>157.5</ele></trkpt>
<trkpt lat="50.002666" lon="8.708204"><ele>158.25</ele></trkpt>
<trkpt lat="50.002560" lon="8.708366"><ele>158.75</ele></trkpt>
<trkpt lat="50.002528" lon="8.708446"><ele>158.75</ele></trkpt>
<trkpt lat="50.002348" lon="8.708698"><ele>159.25</ele></trkpt>
<trkpt lat="50.001784" lon="8.709576"><ele>160.0</ele></trkpt>
<trkpt lat="50.001711" lon="8.709688"><ele>160.0</ele></trkpt>
<trkpt lat="50.001646" lon="8.709588"><ele>160.0</ele></trkpt>
<trkpt lat="50.001594" lon="8.709528"><ele>160.25</ele></trkpt>
<trkpt lat="50.001530" lon="8.709470"><ele>160.25</ele></trkpt>
<trkpt lat="50.001373" lon="8.709358"><ele>161.25</ele></trkpt>
<trkpt lat="50.001134" lon="8.709236"><ele>161.75</ele></trkpt>
<trkpt lat="50.000346" lon="8.708872"><ele>163.75</ele></trkpt>
<trkpt lat="50.000247" lon="8.708842"><ele>164.0</ele></trkpt>
<trkpt lat="49.999187" lon="8.708884"><ele>165.0</ele></trkpt>
<trkpt lat="49.999328" lon="8.709536"><ele>164.75</ele></trkpt>
<trkpt lat="49.999334" lon="8.709611"><ele>164.5</ele></trkpt>
<trkpt lat="49.999325" lon="8.710451"><ele>163.5</ele></trkpt>
<trkpt lat="49.999334" lon="8.710525"><ele>163.25</ele></trkpt>
<trkpt lat="49.999347" lon="8.710589"><ele>163.25</ele></trkpt>
<trkpt lat="49.999634" lon="8.711656"><ele>163.0</ele></trkpt>
<trkpt lat="49.999639" lon="8.711674"><ele>162.75</ele></trkpt>
<trkpt lat="49.999666" lon="8.711773"><ele>162.5</ele></trkpt>
<trkpt lat="49.999702" lon="8.711897"><ele>162.0</ele></trkpt>
<trkpt lat="49.999736" lon="8.711957"><ele>162.0</ele></trkpt>
<trkpt lat="49.999769" lon="8.711988"><ele>162.0</ele></trkpt>
<trkpt lat="49.999749" lon="8.712106"><ele>161.75</ele></trkpt>
<trkpt lat="49.999752" lon="8.712152"><ele>162.0</ele></trkpt>
<trkpt lat="49.999843" lon="8.712652"><ele>162.25</ele></trkpt>
<trkpt lat="49.999855" lon="8.712720"><ele>162.25</ele></trkpt>
<trkpt lat="49.999876" lon="8.712876"><ele>162.0</ele></trkpt>
<trkpt lat="49.999906" lon="8.713060"><ele>161.25</ele></trkpt>
<trkpt lat="49.999918" lon="8.713137"><ele>161.0</ele></trkpt>
<trkpt lat="49.999959" lon="8.713393"><ele>161.0</ele></trkpt>
<trkpt lat="50.000042" lon="8.713889"><ele>161.0</ele></trkpt>
<trkpt lat="50.000126" lon="8.714359"><ele>161.0</ele></trkpt>
<trkpt lat="50.000164" lon="8.714573"><ele>160.5</ele></trkpt>
<trkpt lat="50.000219" lon="8.714883"><ele>160.0</ele></trkpt>
<trkpt lat="50.000271" lon="8.715134"><ele>159.5</ele></trkpt>
<trkpt lat="50.000318" lon="8.715282"><ele>159.0</ele></trkpt>
<trkpt lat="50.000352" lon="8.715350"><ele>159.0</ele></trkpt>
<trkpt lat="50.000455" lon="8.715506"><ele>159.0</ele></trkpt>
<trkpt lat="50.000638" lon="8.715743"><ele>158.25</ele></trkpt>
<trkpt lat="50.000678" lon="8.715782"><ele>158.0</ele></trkpt>
<trkpt lat="50.000768" lon="8.715865"><ele>158.0</ele></trkpt>
<trkpt lat="50.000921" lon="8.715964"><ele>157.75</ele></trkpt>
<trkpt lat="50.001144" lon="8.716057"><ele>156.75</ele></trkpt>
<trkpt lat="50.001124" lon="8.716169"><ele>156.75</ele></trkpt>
<trkpt lat="50.001122" lon="8.716260"><ele>156.75</ele></trkpt>
<trkpt lat="50.001131" lon="8.716371"><ele>156.75</ele></trkpt>
<trkpt lat="50.001156" lon="8.716490"><ele>156.75</ele></trkpt>
<trkpt lat="50.001188" lon="8.716588"><ele>156.75</ele></trkpt>
<trkpt lat="50.001214" lon="8.716644"><ele>156.5</ele></trkpt>
<trkpt lat="50.001368" lon="8.716988"><ele>155.0</ele></trkpt>
<trkpt lat="50.001436" lon="8.717142"><ele>155.5</ele></trkpt>
<trkpt lat="50.001446" lon="8.717161"><ele>155.5</ele></trkpt>
<trkpt lat="50.001478" lon="8.717226"><ele>155.25</ele></trkpt>
<trkpt lat="50.001494" lon="8.717259"><ele>155.0</ele></trkpt>
<trkpt lat="50.001526" lon="8.717340"><ele>154.5</ele></trkpt>
<trkpt lat="50.001571" lon="8.717489"><ele>153.5</ele></trkpt>
<trkpt lat="50.001625" lon="8.717662"><ele>154.25</ele></trkpt>
<trkpt lat="50.001766" lon="8.718141"><ele>154.5</ele></trkpt>
<trkpt lat="50.001795" lon="8.718229"><ele>154.5</ele></trkpt>
<trkpt lat="50.001878" lon="8.718325"><ele>154.0</ele></trkpt>
<trkpt lat="50.001846" lon="8.718417"><ele>154.5</ele></trkpt>
<trkpt lat="50.001811" lon="8.718548"><ele>154.75</ele></trkpt>
<trkpt lat="50.001784" lon="8.718712"><ele>155.0</ele></trkpt>
<trkpt lat="50.001729" lon="8.718789"><ele>155.25</ele></trkpt>
<trkpt lat="50.001545" lon="8.718811"><ele>155.75</ele></trkpt>
<trkpt lat="50.001169" lon="8.719018"><ele>155.5</ele></trkpt>
<trkpt lat="50.001076" lon="8.719003"><ele>155.5</ele></trkpt>
<trkpt lat="50.000994" lon="8.719058"><ele>155.0</ele></trkpt>
<trkpt lat="50.000918" lon="8.718993"><ele>155.0</ele></trkpt>
<trkpt lat="50.000892" lon="8.718875"><ele>155.25</ele></trkpt>
<trkpt lat="50.000828" lon="8.718770"><ele>155.25</ele></trkpt>
<trkpt lat="50.000673" lon="8.718605"><ele>156.5</ele></trkpt>
<trkpt lat="50.000614" lon="8.718470"><ele>156.75</ele></trkpt>
<trkpt lat="50.000599" lon="8.718525"><ele>156.75</ele></trkpt>
<trkpt lat="50.000567" lon="8.718603"><ele>156.75</ele></trkpt>
<trkpt lat="50.000027" lon="8.719237"><ele>159.75</ele></trkpt>
</trkseg></trk></gpx>
