<?xml version="1.0" encoding="UTF-8"?>
<!-- track-length = 26566 filtered ascend = 69 plain-ascend = 0 cost=51494 energy=.0kwh time=3m 3s AUTO selected ISO_GREEDY (score 0.892) after 1 candidate(s) in 1076ms. short shared stem near start/end: 289m -->
<gpx
 xmlns="http://www.topografix.com/GPX/1/1"
 xmlns:xsi="http://www.w3.org/2001/XMLSchema-instance"
 xsi:schemaLocation="http://www.topografix.com/GPX/1/1 http://www.topografix.com/GPX/1/1/gpx.xsd"
 creator="BRouter-null" version="1.1">
 <trk>
  <name>unset</name>
  <trkseg>
   <trkpt lon="8.719237" lat="50.000027"><ele>159.75</ele></trkpt>
   <trkpt lon="8.718603" lat="50.000567"><ele>156.75</ele></trkpt>
   <trkpt lon="8.718525" lat="50.000599"><ele>156.75</ele></trkpt>
   <trkpt lon="8.718470" lat="50.000614"><ele>156.75</ele></trkpt>
   <trkpt lon="8.718605" lat="50.000673"><ele>156.5</ele></trkpt>
   <trkpt lon="8.718770" lat="50.000828"><ele>155.25</ele></trkpt>
   <trkpt lon="8.718875" lat="50.000892"><ele>155.25</ele></trkpt>
   <trkpt lon="8.718993" lat="50.000918"><ele>155.0</ele></trkpt>
   <trkpt lon="8.719058" lat="50.000994"><ele>155.0</ele></trkpt>
   <trkpt lon="8.719003" lat="50.001076"><ele>155.5</ele></trkpt>
   <trkpt lon="8.719018" lat="50.001169"><ele>155.5</ele></trkpt>
   <trkpt lon="8.718811" lat="50.001545"><ele>155.75</ele></trkpt>
   <trkpt lon="8.718789" lat="50.001729"><ele>155.25</ele></trkpt>
   <trkpt lon="8.718712" lat="50.001784"><ele>155.0</ele></trkpt>
   <trkpt lon="8.718870" lat="50.001767"><ele>155.25</ele></trkpt>
   <trkpt lon="8.719000" lat="50.001753"><ele>155.75</ele></trkpt>
   <trkpt lon="8.719039" lat="50.001749"><ele>156.0</ele></trkpt>
   <trkpt lon="8.719260" lat="50.001721"><ele>156.75</ele></trkpt>
   <trkpt lon="8.719387" lat="50.001715"><ele>156.75</ele></trkpt>
   <trkpt lon="8.719520" lat="50.001717"><ele>157.25</ele></trkpt>
   <trkpt lon="8.719523" lat="50.001690"><ele>157.25</ele></trkpt>
   <trkpt lon="8.719554" lat="50.001655"><ele>157.25</ele></trkpt>
   <trkpt lon="8.719603" lat="50.001633"><ele>157.5</ele></trkpt>
   <trkpt lon="8.719644" lat="50.001628"><ele>157.75</ele></trkpt>
   <trkpt lon="8.719686" lat="50.001633"><ele>157.75</ele></trkpt>
   <trkpt lon="8.719722" lat="50.001646"><ele>157.75</ele></trkpt>
   <trkpt lon="8.719746" lat="50.001662"><ele>158.0</ele></trkpt>
   <trkpt lon="8.719769" lat="50.001704"><ele>158.25</ele></trkpt>
   <trkpt lon="8.719754" lat="50.001747"><ele>158.0</ele></trkpt>
   <trkpt lon="8.719705" lat="50.001779"><ele>157.75</ele></trkpt>
   <trkpt lon="8.719759" lat="50.001864"><ele>158.0</ele></trkpt>
   <trkpt lon="8.719838" lat="50.001948"><ele>158.25</ele></trkpt>
   <trkpt lon="8.719973" lat="50.002051"><ele>158.75</ele></trkpt>
   <trkpt lon="8.720068" lat="50.002110"><ele>159.0</ele></trkpt>
   <trkpt lon="8.720339" lat="50.002251"><ele>159.5</ele></trkpt>
   <trkpt lon="8.720553" lat="50.002342"><ele>160.75</ele></trkpt>
   <trkpt lon="8.720682" lat="50.002377"><ele>161.25</ele></trkpt>
   <trkpt lon="8.720803" lat="50.002408"><ele>161.75</ele></trkpt>
   <trkpt lon="8.720824" lat="50.002385"><ele>161.75</ele></trkpt>
   <trkpt lon="8.720856" lat="50.002368"><ele>162.0</ele></trkpt>
   <trkpt lon="8.720895" lat="50.002358"><ele>162.0</ele></trkpt>
   <trkpt lon="8.720937" lat="50.002358"><ele>162.25</ele></trkpt>
   <trkpt lon="8.720977" lat="50.002366"><ele>162.5</ele></trkpt>
   <trkpt lon="8.721010" lat="50.002382"><ele>162.5</ele></trkpt>
   <trkpt lon="8.721033" lat="50.002404"><ele>162.5</ele></trkpt>
   <trkpt lon="8.721146" lat="50.002364"><ele>163.0</ele></trkpt>
   <trkpt lon="8.721229" lat="50.002332"><ele>163.25</ele></trkpt>
   <trkpt lon="8.721359" lat="50.002265"><ele>163.75</ele></trkpt>
   <trkpt lon="8.721982" lat="50.001865"><ele>168.0</ele></trkpt>
   <trkpt lon="8.722027" lat="50.001834"><ele>168.25</ele></trkpt>
   <trkpt lon="8.722781" lat="50.001312"><ele>172.25</ele></trkpt>
   <trkpt lon="8.723041" lat="50.001194"><ele>173.75</ele></trkpt>
   <trkpt lon="8.723553" lat="50.001028"><ele>174.5</ele></trkpt>
   <trkpt lon="8.724003" lat="50.000939"><ele>176.0</ele></trkpt>
   <trkpt lon="8.724437" lat="50.000856"><ele>176.75</ele></trkpt>
   <trkpt lon="8.724590" lat="50.000810"><ele>177.0</ele></trkpt>
   <trkpt lon="8.724778" lat="50.000741"><ele>177.5</ele></trkpt>
   <trkpt lon="8.724853" lat="50.000698"><ele>177.5</ele></trkpt>
   <trkpt lon="8.725140" lat="50.000528"><ele>177.75</ele></trkpt>
   <trkpt lon="8.725389" lat="50.000378"><ele>177.5</ele></trkpt>
   <trkpt lon="8.725561" lat="50.000283"><ele>177.0</ele></trkpt>
   <trkpt lon="8.725751" lat="50.000192"><ele>176.5</ele></trkpt>
   <trkpt lon="8.726024" lat="50.000061"><ele>176.25</ele></trkpt>
   <trkpt lon="8.726515" lat="49.999884"><ele>175.5</ele></trkpt>
   <trkpt lon="8.726734" lat="49.999821"><ele>175.25</ele></trkpt>
   <trkpt lon="8.728362" lat="49.999386"><ele>177.0</ele></trkpt>
   <trkpt lon="8.729729" lat="49.999031"><ele>180.5</ele></trkpt>
   <trkpt lon="8.729947" lat="49.998990"><ele>180.75</ele></trkpt>
   <trkpt lon="8.730386" lat="49.998924"><ele>181.75</ele></trkpt>
   <trkpt lon="8.731269" lat="49.998814"><ele>183.0</ele></trkpt>
   <trkpt lon="8.731406" lat="49.998815"><ele>183.0</ele></trkpt>
   <trkpt lon="8.731582" lat="49.998817"><ele>183.0</ele></trkpt>
   <trkpt lon="8.731679" lat="49.998827"><ele>183.0</ele></trkpt>
   <trkpt lon="8.731737" lat="49.998843"><ele>183.0</ele></trkpt>
   <trkpt lon="8.731783" lat="49.998868"><ele>183.0</ele></trkpt>
   <trkpt lon="8.731817" lat="49.998897"><ele>182.75</ele></trkpt>
   <trkpt lon="8.731831" lat="49.998936"><ele>182.75</ele></trkpt>
   <trkpt lon="8.731876" lat="49.998868"><ele>183.0</ele></trkpt>
   <trkpt lon="8.732094" lat="49.998547"><ele>184.0</ele></trkpt>
   <trkpt lon="8.732228" lat="49.998404"><ele>184.0</ele></trkpt>
   <trkpt lon="8.732340" lat="49.998302"><ele>184.0</ele></trkpt>
   <trkpt lon="8.732676" lat="49.998090"><ele>184.0</ele></trkpt>
   <trkpt lon="8.733034" lat="49.997922"><ele>183.5</ele></trkpt>
   <trkpt lon="8.733212" lat="49.997860"><ele>183.25</ele></trkpt>
   <trkpt lon="8.733361" lat="49.997831"><ele>183.0</ele></trkpt>
   <trkpt lon="8.733373" lat="49.997828"><ele>183.0</ele></trkpt>
   <trkpt lon="8.733402" lat="49.997821"><ele>183.0</ele></trkpt>
   <trkpt lon="8.733719" lat="49.997870"><ele>183.0</ele></trkpt>
   <trkpt lon="8.734367" lat="49.997994"><ele>182.75</ele></trkpt>
   <trkpt lon="8.734764" lat="49.998060"><ele>183.0</ele></trkpt>
   <trkpt lon="8.735566" lat="49.998228"><ele>184.0</ele></trkpt>
   <trkpt lon="8.736065" lat="49.998306"><ele>184.75</ele></trkpt>
   <trkpt lon="8.736279" lat="49.998335"><ele>185.0</ele></trkpt>
   <trkpt lon="8.736792" lat="49.998407"><ele>185.0</ele></trkpt>
   <trkpt lon="8.737332" lat="49.998483"><ele>184.25</ele></trkpt>
   <trkpt lon="8.737838" lat="49.998566"><ele>183.75</ele></trkpt>
   <trkpt lon="8.738116" lat="49.998636"><ele>183.75</ele></trkpt>
   <trkpt lon="8.738601" lat="49.998813"><ele>183.5</ele></trkpt>
   <trkpt lon="8.740076" lat="49.999449"><ele>183.5</ele></trkpt>
   <trkpt lon="8.740760" lat="49.999785"><ele>183.0</ele></trkpt>
   <trkpt lon="8.741004" lat="49.999910"><ele>183.0</ele></trkpt>
   <trkpt lon="8.741142" lat="49.999992"><ele>182.75</ele></trkpt>
   <trkpt lon="8.741258" lat="50.000084"><ele>183.0</ele></trkpt>
   <trkpt lon="8.741352" lat="50.000189"><ele>183.0</ele></trkpt>
   <trkpt lon="8.741392" lat="50.000253"><ele>183.0</ele></trkpt>
   <trkpt lon="8.741504" lat="50.000394"><ele>183.0</ele></trkpt>
   <trkpt lon="8.741667" lat="50.000488"><ele>182.75</ele></trkpt>
   <trkpt lon="8.741732" lat="50.000515"><ele>182.75</ele></trkpt>
   <trkpt lon="8.741807" lat="50.000537"><ele>182.75</ele></trkpt>
   <trkpt lon="8.741963" lat="50.000573"><ele>183.0</ele></trkpt>
   <trkpt lon="8.742187" lat="50.000563"><ele>183.0</ele></trkpt>
   <trkpt lon="8.742599" lat="50.000568"><ele>182.75</ele></trkpt>
   <trkpt lon="8.742858" lat="50.000588"><ele>183.0</ele></trkpt>
   <trkpt lon="8.743089" lat="50.000625"><ele>183.0</ele></trkpt>
   <trkpt lon="8.743142" lat="50.000632"><ele>183.0</ele></trkpt>
   <trkpt lon="8.743303" lat="50.000659"><ele>183.0</ele></trkpt>
   <trkpt lon="8.743516" lat="50.000707"><ele>182.5</ele></trkpt>
   <trkpt lon="8.744539" lat="50.000912"><ele>183.25</ele></trkpt>
   <trkpt lon="8.745377" lat="50.001058"><ele>183.25</ele></trkpt>
   <trkpt lon="8.746061" lat="50.001198"><ele>183.25</ele></trkpt>
   <trkpt lon="8.747575" lat="50.001576"><ele>184.25</ele></trkpt>
   <trkpt lon="8.748262" lat="50.001729"><ele>184.0</ele></trkpt>
   <trkpt lon="8.749299" lat="50.001928"><ele>184.0</ele></trkpt>
   <trkpt lon="8.749611" lat="50.001980"><ele>183.75</ele></trkpt>
   <trkpt lon="8.750217" lat="50.002087"><ele>183.0</ele></trkpt>
   <trkpt lon="8.750986" lat="50.002195"><ele>182.0</ele></trkpt>
   <trkpt lon="8.751902" lat="50.002307"><ele>181.25</ele></trkpt>
   <trkpt lon="8.752299" lat="50.002367"><ele>180.25</ele></trkpt>
   <trkpt lon="8.752921" lat="50.002514"><ele>180.75</ele></trkpt>
   <trkpt lon="8.753195" lat="50.002595"><ele>180.25</ele></trkpt>
   <trkpt lon="8.753863" lat="50.002837"><ele>180.75</ele></trkpt>
   <trkpt lon="8.754188" lat="50.002977"><ele>181.25</ele></trkpt>
   <trkpt lon="8.754584" lat="50.003090"><ele>181.25</ele></trkpt>
   <trkpt lon="8.754782" lat="50.003148"><ele>181.75</ele></trkpt>
   <trkpt lon="8.755344" lat="50.003264"><ele>181.25</ele></trkpt>
   <trkpt lon="8.755643" lat="50.003304"><ele>181.0</ele></trkpt>
   <trkpt lon="8.755922" lat="50.003318"><ele>181.0</ele></trkpt>
   <trkpt lon="8.756190" lat="50.003320"><ele>181.0</ele></trkpt>
   <trkpt lon="8.756483" lat="50.003313"><ele>181.0</ele></trkpt>
   <trkpt lon="8.756935" lat="50.003292"><ele>181.25</ele></trkpt>
   <trkpt lon="8.757223" lat="50.003270"><ele>182.0</ele></trkpt>
   <trkpt lon="8.757594" lat="50.003165"><ele>182.0</ele></trkpt>
   <trkpt lon="8.757892" lat="50.003053"><ele>182.25</ele></trkpt>
   <trkpt lon="8.758543" lat="50.002800"><ele>183.75</ele></trkpt>
   <trkpt lon="8.758756" lat="50.002731"><ele>183.75</ele></trkpt>
   <trkpt lon="8.758890" lat="50.002702"><ele>184.0</ele></trkpt>
   <trkpt lon="8.759086" lat="50.002672"><ele>184.25</ele></trkpt>
   <trkpt lon="8.759734" lat="50.002621"><ele>185.25</ele></trkpt>
   <trkpt lon="8.760096" lat="50.002586"><ele>186.25</ele></trkpt>
   <trkpt lon="8.760469" lat="50.002526"><ele>186.0</ele></trkpt>
   <trkpt lon="8.760973" lat="50.002417"><ele>187.0</ele></trkpt>
   <trkpt lon="8.761292" lat="50.002328"><ele>187.5</ele></trkpt>
   <trkpt lon="8.761458" lat="50.002290"><ele>188.0</ele></trkpt>
   <trkpt lon="8.761636" lat="50.002265"><ele>188.75</ele></trkpt>
   <trkpt lon="8.762086" lat="50.002213"><ele>188.75</ele></trkpt>
   <trkpt lon="8.762915" lat="50.002122"><ele>189.75</ele></trkpt>
   <trkpt lon="8.763634" lat="50.002055"><ele>190.25</ele></trkpt>
   <trkpt lon="8.764611" lat="50.001993"><ele>189.25</ele></trkpt>
   <trkpt lon="8.766639" lat="50.001911"><ele>184.75</ele></trkpt>
   <trkpt lon="8.768110" lat="50.001858"><ele>180.25</ele></trkpt>
   <trkpt lon="8.768772" lat="50.001828"><ele>178.0</ele></trkpt>
   <trkpt lon="8.769154" lat="50.001800"><ele>176.75</ele></trkpt>
   <trkpt lon="8.769604" lat="50.001752"><ele>175.75</ele></trkpt>
   <trkpt lon="8.769958" lat="50.001702"><ele>174.25</ele></trkpt>
   <trkpt lon="8.770395" lat="50.001620"><ele>173.25</ele></trkpt>
   <trkpt lon="8.770730" lat="50.001543"><ele>172.25</ele></trkpt>
   <trkpt lon="8.771165" lat="50.001426"><ele>170.75</ele></trkpt>
   <trkpt lon="8.771542" lat="50.001295"><ele>169.0</ele></trkpt>
   <trkpt lon="8.771866" lat="50.001166"><ele>168.0</ele></trkpt>
   <trkpt lon="8.771975" lat="50.001120"><ele>167.75</ele></trkpt>
   <trkpt lon="8.772189" lat="50.000972"><ele>167.0</ele></trkpt>
   <trkpt lon="8.772318" lat="50.000886"><ele>166.75</ele></trkpt>
   <trkpt lon="8.772354" lat="50.000864"><ele>167.0</ele></trkpt>
   <trkpt lon="8.772469" lat="50.000799"><ele>167.0</ele></trkpt>
   <trkpt lon="8.772586" lat="50.000747"><ele>167.5</ele></trkpt>
   <trkpt lon="8.772747" lat="50.000689"><ele>168.5</ele></trkpt>
   <trkpt lon="8.772890" lat="50.000667"><ele>168.5</ele></trkpt>
   <trkpt lon="8.773191" lat="50.000652"><ele>167.75</ele></trkpt>
   <trkpt lon="8.773335" lat="50.000640"><ele>167.5</ele></trkpt>
   <trkpt lon="8.773808" lat="50.000626"><ele>165.75</ele></trkpt>
   <trkpt lon="8.774119" lat="50.000626"><ele>165.5</ele></trkpt>
   <trkpt lon="8.774635" lat="50.000636"><ele>165.0</ele></trkpt>
   <trkpt lon="8.776748" lat="50.000691"><ele>159.25</ele></trkpt>
   <trkpt lon="8.780176" lat="50.000786"><ele>156.0</ele></trkpt>
   <trkpt lon="8.785299" lat="50.000933"><ele>151.5</ele></trkpt>
   <trkpt lon="8.785947" lat="50.000969"><ele>152.0</ele></trkpt>
   <trkpt lon="8.786497" lat="50.001013"><ele>152.0</ele></trkpt>
   <trkpt lon="8.787081" lat="50.001086"><ele>151.0</ele></trkpt>
   <trkpt lon="8.787736" lat="50.001176"><ele>150.75</ele></trkpt>
   <trkpt lon="8.788156" lat="50.001249"><ele>150.5</ele></trkpt>
   <trkpt lon="8.788724" lat="50.001375"><ele>150.0</ele></trkpt>
   <trkpt lon="8.789288" lat="50.001523"><ele>149.5</ele></trkpt>
   <trkpt lon="8.789797" lat="50.001679"><ele>148.75</ele></trkpt>
   <trkpt lon="8.790017" lat="50.001749"><ele>148.5</ele></trkpt>
   <trkpt lon="8.790324" lat="50.001846"><ele>148.75</ele></trkpt>
   <trkpt lon="8.791169" lat="50.002117"><ele>148.25</ele></trkpt>
   <trkpt lon="8.792059" lat="50.002400"><ele>148.0</ele></trkpt>
   <trkpt lon="8.792925" lat="50.002676"><ele>147.0</ele></trkpt>
   <trkpt lon="8.793950" lat="50.003003"><ele>147.0</ele></trkpt>
   <trkpt lon="8.794072" lat="50.003042"><ele>147.0</ele></trkpt>
   <trkpt lon="8.794195" lat="50.003081"><ele>147.0</ele></trkpt>
   <trkpt lon="8.794303" lat="50.003115"><ele>147.0</ele></trkpt>
   <trkpt lon="8.794190" lat="50.003225"><ele>147.0</ele></trkpt>
   <trkpt lon="8.794168" lat="50.003246"><ele>147.0</ele></trkpt>
   <trkpt lon="8.794052" lat="50.003359"><ele>146.75</ele></trkpt>
   <trkpt lon="8.793954" lat="50.003432"><ele>146.5</ele></trkpt>
   <trkpt lon="8.793593" lat="50.003886"><ele>146.0</ele></trkpt>
   <trkpt lon="8.793525" lat="50.003974"><ele>146.0</ele></trkpt>
   <trkpt lon="8.793492" lat="50.004016"><ele>146.0</ele></trkpt>
   <trkpt lon="8.793386" lat="50.004153"><ele>146.0</ele></trkpt>
   <trkpt lon="8.793236" lat="50.004346"><ele>146.0</ele></trkpt>
   <trkpt lon="8.793189" lat="50.004407"><ele>146.0</ele></trkpt>
   <trkpt lon="8.792966" lat="50.004693"><ele>145.0</ele></trkpt>
   <trkpt lon="8.792929" lat="50.004741"><ele>145.0</ele></trkpt>
   <trkpt lon="8.792780" lat="50.005035"><ele>145.0</ele></trkpt>
   <trkpt lon="8.792679" lat="50.005306"><ele>144.75</ele></trkpt>
   <trkpt lon="8.792637" lat="50.005418"><ele>144.75</ele></trkpt>
   <trkpt lon="8.792622" lat="50.005504"><ele>144.5</ele></trkpt>
   <trkpt lon="8.792556" lat="50.005886"><ele>144.0</ele></trkpt>
   <trkpt lon="8.792494" lat="50.006248"><ele>144.0</ele></trkpt>
   <trkpt lon="8.792416" lat="50.006759"><ele>144.0</ele></trkpt>
   <trkpt lon="8.792328" lat="50.007230"><ele>145.0</ele></trkpt>
   <trkpt lon="8.792246" lat="50.007655"><ele>145.0</ele></trkpt>
   <trkpt lon="8.792217" lat="50.007849"><ele>145.0</ele></trkpt>
   <trkpt lon="8.792109" lat="50.008449"><ele>145.0</ele></trkpt>
   <trkpt lon="8.792099" lat="50.008488"><ele>145.0</ele></trkpt>
   <trkpt lon="8.792093" lat="50.008525"><ele>145.0</ele></trkpt>
   <trkpt lon="8.792091" lat="50.008543"><ele>145.0</ele></trkpt>
   <trkpt lon="8.792101" lat="50.008616"><ele>145.0</ele></trkpt>
   <trkpt lon="8.792113" lat="50.008705"><ele>145.0</ele></trkpt>
   <trkpt lon="8.792134" lat="50.008807"><ele>145.0</ele></trkpt>
   <trkpt lon="8.792176" lat="50.008829"><ele>145.0</ele></trkpt>
   <trkpt lon="8.792206" lat="50.008857"><ele>145.0</ele></trkpt>
   <trkpt lon="8.792223" lat="50.008890"><ele>144.75</ele></trkpt>
   <trkpt lon="8.792225" lat="50.008924"><ele>144.75</ele></trkpt>
   <trkpt lon="8.792211" lat="50.008958"><ele>144.75</ele></trkpt>
   <trkpt lon="8.792163" lat="50.009001"><ele>144.5</ele></trkpt>
   <trkpt lon="8.792090" lat="50.009027"><ele>144.5</ele></trkpt>
   <trkpt lon="8.792047" lat="50.009124"><ele>144.5</ele></trkpt>
   <trkpt lon="8.791987" lat="50.009285"><ele>144.25</ele></trkpt>
   <trkpt lon="8.791968" lat="50.009493"><ele>144.0</ele></trkpt>
   <trkpt lon="8.791966" lat="50.009680"><ele>144.0</ele></trkpt>
   <trkpt lon="8.791942" lat="50.009869"><ele>144.0</ele></trkpt>
   <trkpt lon="8.792009" lat="50.010172"><ele>143.25</ele></trkpt>
   <trkpt lon="8.792028" lat="50.010251"><ele>143.0</ele></trkpt>
   <trkpt lon="8.792178" lat="50.010705"><ele>142.75</ele></trkpt>
   <trkpt lon="8.792299" lat="50.010928"><ele>142.25</ele></trkpt>
   <trkpt lon="8.792466" lat="50.011196"><ele>142.0</ele></trkpt>
   <trkpt lon="8.792732" lat="50.011585"><ele>141.75</ele></trkpt>
   <trkpt lon="8.792802" lat="50.011686"><ele>141.75</ele></trkpt>
   <trkpt lon="8.792941" lat="50.011896"><ele>141.0</ele></trkpt>
   <trkpt lon="8.792999" lat="50.011993"><ele>141.0</ele></trkpt>
   <trkpt lon="8.793053" lat="50.012084"><ele>141.0</ele></trkpt>
   <trkpt lon="8.793326" lat="50.012509"><ele>141.0</ele></trkpt>
   <trkpt lon="8.793387" lat="50.012633"><ele>140.75</ele></trkpt>
   <trkpt lon="8.793523" lat="50.012906"><ele>140.5</ele></trkpt>
   <trkpt lon="8.793555" lat="50.012974"><ele>140.75</ele></trkpt>
   <trkpt lon="8.793585" lat="50.013036"><ele>140.75</ele></trkpt>
   <trkpt lon="8.793647" lat="50.013033"><ele>140.75</ele></trkpt>
   <trkpt lon="8.793694" lat="50.013040"><ele>140.5</ele></trkpt>
   <trkpt lon="8.793742" lat="50.013059"><ele>140.5</ele></trkpt>
   <trkpt lon="8.793753" lat="50.013068"><ele>140.25</ele></trkpt>
   <trkpt lon="8.793784" lat="50.013113"><ele>140.25</ele></trkpt>
   <trkpt lon="8.793786" lat="50.013148"><ele>140.25</ele></trkpt>
   <trkpt lon="8.793774" lat="50.013176"><ele>140.25</ele></trkpt>
   <trkpt lon="8.793729" lat="50.013212"><ele>140.5</ele></trkpt>
   <trkpt lon="8.793755" lat="50.013286"><ele>140.25</ele></trkpt>
   <trkpt lon="8.793795" lat="50.013363"><ele>140.25</ele></trkpt>
   <trkpt lon="8.793993" lat="50.013802"><ele>140.0</ele></trkpt>
   <trkpt lon="8.794027" lat="50.013874"><ele>140.0</ele></trkpt>
   <trkpt lon="8.794145" lat="50.014119"><ele>140.0</ele></trkpt>
   <trkpt lon="8.794278" lat="50.014407"><ele>140.0</ele></trkpt>
   <trkpt lon="8.794506" lat="50.014836"><ele>139.0</ele></trkpt>
   <trkpt lon="8.794520" lat="50.014862"><ele>139.0</ele></trkpt>
   <trkpt lon="8.794568" lat="50.014948"><ele>139.0</ele></trkpt>
   <trkpt lon="8.794619" lat="50.015047"><ele>138.75</ele></trkpt>
   <trkpt lon="8.794675" lat="50.015165"><ele>138.5</ele></trkpt>
   <trkpt lon="8.794849" lat="50.015776"><ele>138.0</ele></trkpt>
   <trkpt lon="8.795012" lat="50.016193"><ele>138.0</ele></trkpt>
   <trkpt lon="8.795259" lat="50.016826"><ele>137.75</ele></trkpt>
   <trkpt lon="8.795336" lat="50.016952"><ele>137.75</ele></trkpt>
   <trkpt lon="8.795392" lat="50.016968"><ele>137.5</ele></trkpt>
   <trkpt lon="8.795434" lat="50.016995"><ele>137.5</ele></trkpt>
   <trkpt lon="8.795460" lat="50.017033"><ele>137.5</ele></trkpt>
   <trkpt lon="8.795462" lat="50.017070"><ele>137.5</ele></trkpt>
   <trkpt lon="8.795451" lat="50.017095"><ele>137.5</ele></trkpt>
   <trkpt lon="8.795420" lat="50.017126"><ele>137.75</ele></trkpt>
   <trkpt lon="8.795374" lat="50.017149"><ele>137.75</ele></trkpt>
   <trkpt lon="8.795345" lat="50.017156"><ele>137.75</ele></trkpt>
   <trkpt lon="8.795409" lat="50.017280"><ele>138.0</ele></trkpt>
   <trkpt lon="8.795497" lat="50.017481"><ele>138.0</ele></trkpt>
   <trkpt lon="8.795614" lat="50.017714"><ele>138.0</ele></trkpt>
   <trkpt lon="8.795709" lat="50.017851"><ele>138.0</ele></trkpt>
   <trkpt lon="8.795838" lat="50.018008"><ele>138.0</ele></trkpt>
   <trkpt lon="8.795999" lat="50.018172"><ele>138.0</ele></trkpt>
   <trkpt lon="8.796076" lat="50.018235"><ele>138.0</ele></trkpt>
   <trkpt lon="8.796174" lat="50.018315"><ele>138.0</ele></trkpt>
   <trkpt lon="8.796516" lat="50.018533"><ele>138.0</ele></trkpt>
   <trkpt lon="8.797049" lat="50.018766"><ele>138.0</ele></trkpt>
   <trkpt lon="8.797313" lat="50.018854"><ele>138.0</ele></trkpt>
   <trkpt lon="8.797477" lat="50.018905"><ele>138.0</ele></trkpt>
   <trkpt lon="8.797513" lat="50.018877"><ele>138.0</ele></trkpt>
   <trkpt lon="8.797562" lat="50.018858"><ele>138.0</ele></trkpt>
   <trkpt lon="8.797617" lat="50.018850"><ele>138.0</ele></trkpt>
   <trkpt lon="8.797673" lat="50.018855"><ele>138.0</ele></trkpt>
   <trkpt lon="8.797721" lat="50.018869"><ele>138.0</ele></trkpt>
   <trkpt lon="8.797759" lat="50.018893"><ele>138.0</ele></trkpt>
   <trkpt lon="8.797785" lat="50.018922"><ele>138.0</ele></trkpt>
   <trkpt lon="8.797795" lat="50.018956"><ele>138.0</ele></trkpt>
   <trkpt lon="8.797788" lat="50.018990"><ele>138.0</ele></trkpt>
   <trkpt lon="8.797766" lat="50.019020"><ele>138.0</ele></trkpt>
   <trkpt lon="8.797731" lat="50.019044"><ele>138.0</ele></trkpt>
   <trkpt lon="8.797687" lat="50.019061"><ele>138.0</ele></trkpt>
   <trkpt lon="8.797638" lat="50.019068"><ele>138.0</ele></trkpt>
   <trkpt lon="8.797587" lat="50.019066"><ele>138.0</ele></trkpt>
   <trkpt lon="8.797540" lat="50.019054"><ele>138.0</ele></trkpt>
   <trkpt lon="8.797439" lat="50.019161"><ele>138.0</ele></trkpt>
   <trkpt lon="8.797416" lat="50.019187"><ele>138.0</ele></trkpt>
   <trkpt lon="8.797278" lat="50.019340"><ele>138.0</ele></trkpt>
   <trkpt lon="8.796714" lat="50.019965"><ele>138.0</ele></trkpt>
   <trkpt lon="8.795979" lat="50.020798"><ele>139.0</ele></trkpt>
   <trkpt lon="8.795255" lat="50.021723"><ele>137.0</ele></trkpt>
   <trkpt lon="8.795216" lat="50.021773"><ele>137.0</ele></trkpt>
   <trkpt lon="8.795149" lat="50.021858"><ele>137.0</ele></trkpt>
   <trkpt lon="8.795054" lat="50.021980"><ele>137.0</ele></trkpt>
   <trkpt lon="8.794216" lat="50.022942"><ele>137.75</ele></trkpt>
   <trkpt lon="8.794160" lat="50.023004"><ele>138.0</ele></trkpt>
   <trkpt lon="8.793659" lat="50.023552"><ele>138.0</ele></trkpt>
   <trkpt lon="8.793552" lat="50.023666"><ele>137.75</ele></trkpt>
   <trkpt lon="8.793446" lat="50.023779"><ele>137.75</ele></trkpt>
   <trkpt lon="8.793216" lat="50.024015"><ele>137.75</ele></trkpt>
   <trkpt lon="8.793130" lat="50.024103"><ele>137.75</ele></trkpt>
   <trkpt lon="8.792996" lat="50.024242"><ele>137.75</ele></trkpt>
   <trkpt lon="8.792702" lat="50.024528"><ele>135.75</ele></trkpt>
   <trkpt lon="8.792590" lat="50.024617"><ele>135.25</ele></trkpt>
   <trkpt lon="8.792311" lat="50.024826"><ele>135.5</ele></trkpt>
   <trkpt lon="8.792089" lat="50.024961"><ele>136.0</ele></trkpt>
   <trkpt lon="8.791540" lat="50.025413"><ele>137.0</ele></trkpt>
   <trkpt lon="8.791386" lat="50.025562"><ele>136.75</ele></trkpt>
   <trkpt lon="8.791187" lat="50.025703"><ele>136.75</ele></trkpt>
   <trkpt lon="8.790734" lat="50.025975"><ele>137.0</ele></trkpt>
   <trkpt lon="8.790489" lat="50.026106"><ele>137.0</ele></trkpt>
   <trkpt lon="8.790384" lat="50.026161"><ele>136.75</ele></trkpt>
   <trkpt lon="8.790478" lat="50.026242"><ele>136.5</ele></trkpt>
   <trkpt lon="8.790569" lat="50.026321"><ele>136.0</ele></trkpt>
   <trkpt lon="8.790598" lat="50.026365"><ele>136.0</ele></trkpt>
   <trkpt lon="8.790604" lat="50.026390"><ele>136.0</ele></trkpt>
   <trkpt lon="8.790582" lat="50.026456"><ele>135.75</ele></trkpt>
   <trkpt lon="8.790386" lat="50.026717"><ele>136.25</ele></trkpt>
   <trkpt lon="8.790112" lat="50.027034"><ele>136.5</ele></trkpt>
   <trkpt lon="8.789805" lat="50.027384"><ele>137.0</ele></trkpt>
   <trkpt lon="8.789573" lat="50.027649"><ele>137.0</ele></trkpt>
   <trkpt lon="8.788989" lat="50.028401"><ele>137.0</ele></trkpt>
   <trkpt lon="8.788942" lat="50.028464"><ele>137.0</ele></trkpt>
   <trkpt lon="8.788906" lat="50.028507"><ele>137.0</ele></trkpt>
   <trkpt lon="8.788335" lat="50.029204"><ele>137.0</ele></trkpt>
   <trkpt lon="8.787890" lat="50.029747"><ele>137.5</ele></trkpt>
   <trkpt lon="8.787800" lat="50.029857"><ele>137.75</ele></trkpt>
   <trkpt lon="8.787772" lat="50.029889"><ele>138.0</ele></trkpt>
   <trkpt lon="8.787524" lat="50.030188"><ele>138.0</ele></trkpt>
   <trkpt lon="8.787374" lat="50.030141"><ele>138.0</ele></trkpt>
   <trkpt lon="8.787352" lat="50.030114"><ele>138.0</ele></trkpt>
   <trkpt lon="8.787266" lat="50.030067"><ele>138.0</ele></trkpt>
   <trkpt lon="8.787196" lat="50.030111"><ele>138.0</ele></trkpt>
   <trkpt lon="8.787186" lat="50.030116"><ele>138.0</ele></trkpt>
   <trkpt lon="8.787079" lat="50.030168"><ele>138.0</ele></trkpt>
   <trkpt lon="8.787110" lat="50.030228"><ele>138.0</ele></trkpt>
   <trkpt lon="8.787241" lat="50.030477"><ele>138.0</ele></trkpt>
   <trkpt lon="8.787253" lat="50.030499"><ele>138.0</ele></trkpt>
   <trkpt lon="8.787269" lat="50.030530"><ele>138.0</ele></trkpt>
   <trkpt lon="8.787338" lat="50.030670"><ele>138.0</ele></trkpt>
   <trkpt lon="8.787506" lat="50.030976"><ele>138.0</ele></trkpt>
   <trkpt lon="8.787809" lat="50.031552"><ele>137.25</ele></trkpt>
   <trkpt lon="8.788138" lat="50.032156"><ele>137.0</ele></trkpt>
   <trkpt lon="8.788297" lat="50.032444"><ele>137.0</ele></trkpt>
   <trkpt lon="8.788551" lat="50.032910"><ele>137.0</ele></trkpt>
   <trkpt lon="8.788566" lat="50.032941"><ele>137.0</ele></trkpt>
   <trkpt lon="8.788633" lat="50.033071"><ele>136.75</ele></trkpt>
   <trkpt lon="8.788708" lat="50.033188"><ele>136.25</ele></trkpt>
   <trkpt lon="8.788727" lat="50.033220"><ele>136.0</ele></trkpt>
   <trkpt lon="8.788790" lat="50.033326"><ele>136.0</ele></trkpt>
   <trkpt lon="8.789018" lat="50.033704"><ele>136.0</ele></trkpt>
   <trkpt lon="8.789778" lat="50.035095"><ele>134.5</ele></trkpt>
   <trkpt lon="8.790049" lat="50.035734"><ele>134.0</ele></trkpt>
   <trkpt lon="8.790247" lat="50.036187"><ele>133.75</ele></trkpt>
   <trkpt lon="8.790340" lat="50.036428"><ele>132.75</ele></trkpt>
   <trkpt lon="8.790408" lat="50.036762"><ele>133.0</ele></trkpt>
   <trkpt lon="8.790453" lat="50.037087"><ele>132.75</ele></trkpt>
   <trkpt lon="8.790458" lat="50.037298"><ele>132.5</ele></trkpt>
   <trkpt lon="8.790441" lat="50.037603"><ele>132.25</ele></trkpt>
   <trkpt lon="8.790427" lat="50.037751"><ele>132.0</ele></trkpt>
   <trkpt lon="8.790382" lat="50.037964"><ele>132.0</ele></trkpt>
   <trkpt lon="8.790299" lat="50.038245"><ele>132.5</ele></trkpt>
   <trkpt lon="8.790194" lat="50.038536"><ele>132.0</ele></trkpt>
   <trkpt lon="8.790059" lat="50.038832"><ele>132.0</ele></trkpt>
   <trkpt lon="8.789634" lat="50.039582"><ele>132.0</ele></trkpt>
   <trkpt lon="8.788760" lat="50.041091"><ele>132.5</ele></trkpt>
   <trkpt lon="8.788434" lat="50.041609"><ele>132.0</ele></trkpt>
   <trkpt lon="8.787811" lat="50.042698"><ele>131.75</ele></trkpt>
   <trkpt lon="8.787534" lat="50.043117"><ele>131.75</ele></trkpt>
   <trkpt lon="8.787165" lat="50.043739"><ele>131.5</ele></trkpt>
   <trkpt lon="8.786600" lat="50.044649"><ele>132.0</ele></trkpt>
   <trkpt lon="8.786558" lat="50.044717"><ele>132.0</ele></trkpt>
   <trkpt lon="8.786458" lat="50.044901"><ele>132.0</ele></trkpt>
   <trkpt lon="8.785971" lat="50.045825"><ele>131.5</ele></trkpt>
   <trkpt lon="8.785789" lat="50.046282"><ele>131.75</ele></trkpt>
   <trkpt lon="8.785661" lat="50.046558"><ele>131.75</ele></trkpt>
   <trkpt lon="8.785579" lat="50.046701"><ele>131.75</ele></trkpt>
   <trkpt lon="8.785515" lat="50.046793"><ele>132.0</ele></trkpt>
   <trkpt lon="8.785464" lat="50.046862"><ele>132.0</ele></trkpt>
   <trkpt lon="8.785418" lat="50.046914"><ele>132.0</ele></trkpt>
   <trkpt lon="8.785275" lat="50.047061"><ele>132.0</ele></trkpt>
   <trkpt lon="8.785184" lat="50.047137"><ele>132.0</ele></trkpt>
   <trkpt lon="8.785085" lat="50.047207"><ele>132.0</ele></trkpt>
   <trkpt lon="8.785017" lat="50.047253"><ele>132.0</ele></trkpt>
   <trkpt lon="8.784940" lat="50.047296"><ele>132.0</ele></trkpt>
   <trkpt lon="8.784914" lat="50.047309"><ele>132.0</ele></trkpt>
   <trkpt lon="8.784392" lat="50.047560"><ele>132.0</ele></trkpt>
   <trkpt lon="8.784148" lat="50.047671"><ele>132.5</ele></trkpt>
   <trkpt lon="8.784092" lat="50.047697"><ele>132.5</ele></trkpt>
   <trkpt lon="8.784031" lat="50.047724"><ele>132.75</ele></trkpt>
   <trkpt lon="8.782950" lat="50.048211"><ele>133.25</ele></trkpt>
   <trkpt lon="8.782720" lat="50.048317"><ele>133.0</ele></trkpt>
   <trkpt lon="8.782287" lat="50.048531"><ele>133.0</ele></trkpt>
   <trkpt lon="8.782006" lat="50.048692"><ele>133.0</ele></trkpt>
   <trkpt lon="8.781677" lat="50.048907"><ele>132.0</ele></trkpt>
   <trkpt lon="8.781504" lat="50.049037"><ele>132.0</ele></trkpt>
   <trkpt lon="8.780904" lat="50.049522"><ele>131.75</ele></trkpt>
   <trkpt lon="8.779464" lat="50.050710"><ele>131.0</ele></trkpt>
   <trkpt lon="8.779321" lat="50.050828"><ele>131.0</ele></trkpt>
   <trkpt lon="8.778486" lat="50.051515"><ele>130.75</ele></trkpt>
   <trkpt lon="8.778332" lat="50.051651"><ele>130.75</ele></trkpt>
   <trkpt lon="8.778136" lat="50.051847"><ele>130.0</ele></trkpt>
   <trkpt lon="8.778048" lat="50.051957"><ele>130.0</ele></trkpt>
   <trkpt lon="8.777923" lat="50.052151"><ele>130.0</ele></trkpt>
   <trkpt lon="8.777828" lat="50.052385"><ele>130.0</ele></trkpt>
   <trkpt lon="8.777781" lat="50.052555"><ele>129.75</ele></trkpt>
   <trkpt lon="8.777602" lat="50.053326"><ele>129.0</ele></trkpt>
   <trkpt lon="8.777156" lat="50.055273"><ele>128.0</ele></trkpt>
   <trkpt lon="8.777107" lat="50.055501"><ele>128.0</ele></trkpt>
   <trkpt lon="8.777057" lat="50.055818"><ele>128.0</ele></trkpt>
   <trkpt lon="8.777040" lat="50.055961"><ele>128.0</ele></trkpt>
   <trkpt lon="8.777040" lat="50.056260"><ele>127.25</ele></trkpt>
   <trkpt lon="8.777051" lat="50.056541"><ele>127.0</ele></trkpt>
   <trkpt lon="8.777158" lat="50.058171"><ele>126.0</ele></trkpt>
   <trkpt lon="8.777162" lat="50.058352"><ele>126.0</ele></trkpt>
   <trkpt lon="8.777153" lat="50.058630"><ele>126.0</ele></trkpt>
   <trkpt lon="8.777127" lat="50.058836"><ele>126.0</ele></trkpt>
   <trkpt lon="8.777105" lat="50.058931"><ele>126.0</ele></trkpt>
   <trkpt lon="8.777093" lat="50.058974"><ele>126.0</ele></trkpt>
   <trkpt lon="8.776782" lat="50.058926"><ele>125.75</ele></trkpt>
   <trkpt lon="8.776726" lat="50.058917"><ele>125.75</ele></trkpt>
   <trkpt lon="8.776075" lat="50.058820"><ele>126.0</ele></trkpt>
   <trkpt lon="8.775668" lat="50.058758"><ele>126.0</ele></trkpt>
   <trkpt lon="8.775110" lat="50.058668"><ele>125.75</ele></trkpt>
   <trkpt lon="8.774744" lat="50.058608"><ele>126.0</ele></trkpt>
   <trkpt lon="8.774100" lat="50.058503"><ele>126.0</ele></trkpt>
   <trkpt lon="8.772481" lat="50.058216"><ele>126.0</ele></trkpt>
   <trkpt lon="8.767621" lat="50.057371"><ele>127.0</ele></trkpt>
   <trkpt lon="8.767396" lat="50.057330"><ele>127.0</ele></trkpt>
   <trkpt lon="8.766688" lat="50.057201"><ele>126.75</ele></trkpt>
   <trkpt lon="8.765407" lat="50.056987"><ele>128.0</ele></trkpt>
   <trkpt lon="8.762981" lat="50.056560"><ele>129.0</ele></trkpt>
   <trkpt lon="8.762581" lat="50.056493"><ele>129.75</ele></trkpt>
   <trkpt lon="8.761555" lat="50.056320"><ele>130.0</ele></trkpt>
   <trkpt lon="8.761535" lat="50.056317"><ele>130.0</ele></trkpt>
   <trkpt lon="8.759431" lat="50.055947"><ele>131.0</ele></trkpt>
   <trkpt lon="8.757336" lat="50.055576"><ele>130.75</ele></trkpt>
   <trkpt lon="8.756373" lat="50.055399"><ele>130.0</ele></trkpt>
   <trkpt lon="8.753700" lat="50.054903"><ele>130.0</ele></trkpt>
   <trkpt lon="8.751306" lat="50.054464"><ele>129.75</ele></trkpt>
   <trkpt lon="8.751270" lat="50.054458"><ele>130.0</ele></trkpt>
   <trkpt lon="8.750475" lat="50.054337"><ele>130.5</ele></trkpt>
   <trkpt lon="8.749714" lat="50.054231"><ele>130.0</ele></trkpt>
   <trkpt lon="8.749097" lat="50.054139"><ele>130.75</ele></trkpt>
   <trkpt lon="8.748945" lat="50.054151"><ele>130.75</ele></trkpt>
   <trkpt lon="8.748701" lat="50.054181"><ele>130.75</ele></trkpt>
   <trkpt lon="8.748655" lat="50.054190"><ele>130.75</ele></trkpt>
   <trkpt lon="8.748549" lat="50.054215"><ele>130.75</ele></trkpt>
   <trkpt lon="8.748336" lat="50.054299"><ele>130.5</ele></trkpt>
   <trkpt lon="8.747693" lat="50.055071"><ele>130.0</ele></trkpt>
   <trkpt lon="8.747320" lat="50.055516"><ele>129.75</ele></trkpt>
   <trkpt lon="8.747116" lat="50.055760"><ele>129.0</ele></trkpt>
   <trkpt lon="8.747096" lat="50.055783"><ele>129.0</ele></trkpt>
   <trkpt lon="8.746455" lat="50.056535"><ele>129.0</ele></trkpt>
   <trkpt lon="8.745352" lat="50.057836"><ele>129.0</ele></trkpt>
   <trkpt lon="8.745105" lat="50.058094"><ele>129.0</ele></trkpt>
   <trkpt lon="8.744712" lat="50.058450"><ele>128.75</ele></trkpt>
   <trkpt lon="8.744544" lat="50.058580"><ele>128.75</ele></trkpt>
   <trkpt lon="8.744289" lat="50.058762"><ele>128.5</ele></trkpt>
   <trkpt lon="8.743905" lat="50.059010"><ele>128.25</ele></trkpt>
   <trkpt lon="8.743464" lat="50.059292"><ele>128.75</ele></trkpt>
   <trkpt lon="8.742910" lat="50.059616"><ele>129.0</ele></trkpt>
   <trkpt lon="8.742684" lat="50.059736"><ele>129.0</ele></trkpt>
   <trkpt lon="8.742645" lat="50.059757"><ele>129.0</ele></trkpt>
   <trkpt lon="8.742547" lat="50.059810"><ele>129.0</ele></trkpt>
   <trkpt lon="8.742462" lat="50.059854"><ele>129.0</ele></trkpt>
   <trkpt lon="8.742395" lat="50.059892"><ele>129.0</ele></trkpt>
   <trkpt lon="8.742356" lat="50.059914"><ele>129.0</ele></trkpt>
   <trkpt lon="8.742095" lat="50.060062"><ele>129.0</ele></trkpt>
   <trkpt lon="8.741810" lat="50.060223"><ele>129.25</ele></trkpt>
   <trkpt lon="8.741651" lat="50.060308"><ele>129.75</ele></trkpt>
   <trkpt lon="8.741507" lat="50.060387"><ele>129.75</ele></trkpt>
   <trkpt lon="8.739523" lat="50.061461"><ele>130.0</ele></trkpt>
   <trkpt lon="8.739213" lat="50.061610"><ele>130.0</ele></trkpt>
   <trkpt lon="8.738986" lat="50.061708"><ele>130.0</ele></trkpt>
   <trkpt lon="8.738551" lat="50.061885"><ele>130.0</ele></trkpt>
   <trkpt lon="8.738232" lat="50.061989"><ele>129.75</ele></trkpt>
   <trkpt lon="8.738122" lat="50.062022"><ele>129.75</ele></trkpt>
   <trkpt lon="8.737624" lat="50.062120"><ele>129.5</ele></trkpt>
   <trkpt lon="8.737105" lat="50.062187"><ele>129.75</ele></trkpt>
   <trkpt lon="8.736859" lat="50.062208"><ele>129.75</ele></trkpt>
   <trkpt lon="8.736615" lat="50.062221"><ele>129.75</ele></trkpt>
   <trkpt lon="8.735962" lat="50.062230"><ele>130.0</ele></trkpt>
   <trkpt lon="8.735965" lat="50.062092"><ele>129.5</ele></trkpt>
   <trkpt lon="8.735612" lat="50.062069"><ele>129.25</ele></trkpt>
   <trkpt lon="8.735398" lat="50.062023"><ele>129.25</ele></trkpt>
   <trkpt lon="8.735292" lat="50.061899"><ele>129.0</ele></trkpt>
   <trkpt lon="8.732245" lat="50.061458"><ele>128.0</ele></trkpt>
   <trkpt lon="8.729894" lat="50.061045"><ele>128.75</ele></trkpt>
   <trkpt lon="8.729808" lat="50.061041"><ele>128.5</ele></trkpt>
   <trkpt lon="8.729390" lat="50.061114"><ele>128.75</ele></trkpt>
   <trkpt lon="8.729349" lat="50.061115"><ele>128.75</ele></trkpt>
   <trkpt lon="8.728929" lat="50.061057"><ele>128.75</ele></trkpt>
   <trkpt lon="8.728869" lat="50.061059"><ele>128.75</ele></trkpt>
   <trkpt lon="8.728812" lat="50.061070"><ele>128.75</ele></trkpt>
   <trkpt lon="8.728451" lat="50.061189"><ele>129.0</ele></trkpt>
   <trkpt lon="8.728330" lat="50.061252"><ele>129.0</ele></trkpt>
   <trkpt lon="8.728272" lat="50.061340"><ele>129.0</ele></trkpt>
   <trkpt lon="8.728251" lat="50.061371"><ele>129.0</ele></trkpt>
   <trkpt lon="8.728225" lat="50.061387"><ele>129.0</ele></trkpt>
   <trkpt lon="8.728157" lat="50.061409"><ele>129.0</ele></trkpt>
   <trkpt lon="8.728085" lat="50.061431"><ele>129.0</ele></trkpt>
   <trkpt lon="8.727973" lat="50.061441"><ele>129.0</ele></trkpt>
   <trkpt lon="8.727621" lat="50.060977"><ele>129.0</ele></trkpt>
   <trkpt lon="8.726690" lat="50.059742"><ele>129.0</ele></trkpt>
   <trkpt lon="8.725357" lat="50.057973"><ele>129.0</ele></trkpt>
   <trkpt lon="8.725204" lat="50.057749"><ele>129.0</ele></trkpt>
   <trkpt lon="8.725074" lat="50.057441"><ele>129.0</ele></trkpt>
   <trkpt lon="8.725023" lat="50.057268"><ele>129.75</ele></trkpt>
   <trkpt lon="8.725031" lat="50.057186"><ele>129.75</ele></trkpt>
   <trkpt lon="8.724932" lat="50.056831"><ele>130.0</ele></trkpt>
   <trkpt lon="8.724808" lat="50.056005"><ele>132.0</ele></trkpt>
   <trkpt lon="8.724700" lat="50.055610"><ele>133.5</ele></trkpt>
   <trkpt lon="8.724624" lat="50.055403"><ele>133.0</ele></trkpt>
   <trkpt lon="8.724535" lat="50.055226"><ele>133.5</ele></trkpt>
   <trkpt lon="8.724424" lat="50.055024"><ele>135.25</ele></trkpt>
   <trkpt lon="8.724311" lat="50.054858"><ele>131.75</ele></trkpt>
   <trkpt lon="8.724222" lat="50.054738"></trkpt>
   <trkpt lon="8.724091" lat="50.054583"></trkpt>
   <trkpt lon="8.723960" lat="50.054444"></trkpt>
   <trkpt lon="8.723761" lat="50.054255"></trkpt>
   <trkpt lon="8.723412" lat="50.053978"></trkpt>
   <trkpt lon="8.723184" lat="50.053823"></trkpt>
   <trkpt lon="8.722837" lat="50.053628"><ele>133.5</ele></trkpt>
   <trkpt lon="8.722401" lat="50.053365"><ele>133.5</ele></trkpt>
   <trkpt lon="8.721918" lat="50.053035"><ele>132.25</ele></trkpt>
   <trkpt lon="8.721772" lat="50.052919"><ele>130.5</ele></trkpt>
   <trkpt lon="8.721634" lat="50.052797"><ele>131.25</ele></trkpt>
   <trkpt lon="8.721461" lat="50.052617"><ele>130.0</ele></trkpt>
   <trkpt lon="8.721304" lat="50.052434"><ele>129.75</ele></trkpt>
   <trkpt lon="8.721040" lat="50.052093"><ele>129.25</ele></trkpt>
   <trkpt lon="8.720952" lat="50.051979"><ele>129.0</ele></trkpt>
   <trkpt lon="8.720690" lat="50.051638"><ele>129.0</ele></trkpt>
   <trkpt lon="8.719680" lat="50.050303"><ele>128.75</ele></trkpt>
   <trkpt lon="8.719553" lat="50.050135"><ele>130.0</ele></trkpt>
   <trkpt lon="8.718703" lat="50.049025"><ele>129.5</ele></trkpt>
   <trkpt lon="8.718313" lat="50.048506"><ele>129.75</ele></trkpt>
   <trkpt lon="8.718114" lat="50.048234"><ele>130.0</ele></trkpt>
   <trkpt lon="8.717191" lat="50.047034"><ele>130.0</ele></trkpt>
   <trkpt lon="8.716943" lat="50.046715"><ele>130.75</ele></trkpt>
   <trkpt lon="8.716799" lat="50.046525"><ele>130.75</ele></trkpt>
   <trkpt lon="8.716712" lat="50.046412"><ele>130.75</ele></trkpt>
   <trkpt lon="8.716640" lat="50.046319"><ele>131.0</ele></trkpt>
   <trkpt lon="8.716613" lat="50.046284"><ele>131.0</ele></trkpt>
   <trkpt lon="8.716557" lat="50.046211"><ele>131.0</ele></trkpt>
   <trkpt lon="8.716504" lat="50.046128"><ele>131.0</ele></trkpt>
   <trkpt lon="8.716325" lat="50.045911"><ele>131.0</ele></trkpt>
   <trkpt lon="8.716229" lat="50.045786"><ele>131.0</ele></trkpt>
   <trkpt lon="8.715114" lat="50.044302"><ele>131.25</ele></trkpt>
   <trkpt lon="8.713644" lat="50.042352"><ele>132.0</ele></trkpt>
   <trkpt lon="8.712705" lat="50.041115"><ele>132.75</ele></trkpt>
   <trkpt lon="8.711616" lat="50.039681"><ele>134.0</ele></trkpt>
   <trkpt lon="8.711294" lat="50.039288"><ele>134.0</ele></trkpt>
   <trkpt lon="8.711103" lat="50.039053"><ele>134.75</ele></trkpt>
   <trkpt lon="8.711003" lat="50.038931"><ele>134.75</ele></trkpt>
   <trkpt lon="8.710694" lat="50.038552"><ele>135.0</ele></trkpt>
   <trkpt lon="8.710653" lat="50.038498"><ele>135.0</ele></trkpt>
   <trkpt lon="8.709760" lat="50.037317"><ele>136.0</ele></trkpt>
   <trkpt lon="8.708906" lat="50.036168"><ele>137.0</ele></trkpt>
   <trkpt lon="8.707469" lat="50.034287"><ele>138.0</ele></trkpt>
   <trkpt lon="8.707357" lat="50.034137"><ele>138.0</ele></trkpt>
   <trkpt lon="8.707246" lat="50.033991"><ele>138.0</ele></trkpt>
   <trkpt lon="8.707215" lat="50.033946"><ele>138.0</ele></trkpt>
   <trkpt lon="8.707190" lat="50.033915"><ele>138.0</ele></trkpt>
   <trkpt lon="8.706176" lat="50.032500"><ele>137.75</ele></trkpt>
   <trkpt lon="8.705636" lat="50.031798"><ele>137.75</ele></trkpt>
   <trkpt lon="8.705556" lat="50.031694"><ele>137.75</ele></trkpt>
   <trkpt lon="8.705516" lat="50.031642"><ele>137.75</ele></trkpt>
   <trkpt lon="8.705478" lat="50.031592"><ele>137.5</ele></trkpt>
   <trkpt lon="8.705415" lat="50.031512"><ele>137.5</ele></trkpt>
   <trkpt lon="8.705367" lat="50.031453"><ele>137.5</ele></trkpt>
   <trkpt lon="8.705345" lat="50.031423"><ele>137.5</ele></trkpt>
   <trkpt lon="8.705265" lat="50.031314"><ele>137.5</ele></trkpt>
   <trkpt lon="8.703440" lat="50.028981"><ele>137.0</ele></trkpt>
   <trkpt lon="8.703407" lat="50.028937"><ele>136.75</ele></trkpt>
   <trkpt lon="8.703160" lat="50.028597"><ele>136.75</ele></trkpt>
   <trkpt lon="8.702811" lat="50.028111"><ele>136.0</ele></trkpt>
   <trkpt lon="8.702690" lat="50.027952"><ele>136.0</ele></trkpt>
   <trkpt lon="8.702583" lat="50.027813"><ele>135.75</ele></trkpt>
   <trkpt lon="8.702496" lat="50.027699"><ele>136.0</ele></trkpt>
   <trkpt lon="8.702465" lat="50.027659"><ele>136.0</ele></trkpt>
   <trkpt lon="8.702345" lat="50.027502"><ele>136.0</ele></trkpt>
   <trkpt lon="8.701859" lat="50.026886"><ele>136.0</ele></trkpt>
   <trkpt lon="8.700731" lat="50.025412"><ele>135.0</ele></trkpt>
   <trkpt lon="8.700205" lat="50.024725"><ele>134.0</ele></trkpt>
   <trkpt lon="8.699851" lat="50.024253"><ele>134.0</ele></trkpt>
   <trkpt lon="8.699647" lat="50.023982"><ele>133.75</ele></trkpt>
   <trkpt lon="8.699565" lat="50.023878"><ele>134.0</ele></trkpt>
   <trkpt lon="8.699486" lat="50.023766"><ele>134.0</ele></trkpt>
   <trkpt lon="8.699297" lat="50.023498"><ele>133.5</ele></trkpt>
   <trkpt lon="8.699184" lat="50.023353"><ele>133.75</ele></trkpt>
   <trkpt lon="8.699019" lat="50.023136"><ele>134.0</ele></trkpt>
   <trkpt lon="8.698601" lat="50.022613"><ele>133.5</ele></trkpt>
   <trkpt lon="8.697850" lat="50.021633"><ele>133.0</ele></trkpt>
   <trkpt lon="8.697391" lat="50.021033"><ele>133.0</ele></trkpt>
   <trkpt lon="8.697338" lat="50.020965"><ele>133.0</ele></trkpt>
   <trkpt lon="8.695570" lat="50.021275"><ele>131.0</ele></trkpt>
   <trkpt lon="8.695522" lat="50.021283"><ele>131.0</ele></trkpt>
   <trkpt lon="8.695531" lat="50.020434"><ele>131.0</ele></trkpt>
   <trkpt lon="8.695537" lat="50.020152"><ele>131.0</ele></trkpt>
   <trkpt lon="8.695543" lat="50.019274"><ele>132.0</ele></trkpt>
   <trkpt lon="8.695540" lat="50.019084"><ele>132.0</ele></trkpt>
   <trkpt lon="8.695540" lat="50.019058"><ele>132.0</ele></trkpt>
   <trkpt lon="8.695539" lat="50.019037"><ele>132.0</ele></trkpt>
   <trkpt lon="8.695535" lat="50.018835"><ele>132.0</ele></trkpt>
   <trkpt lon="8.695523" lat="50.018752"><ele>132.0</ele></trkpt>
   <trkpt lon="8.695469" lat="50.018406"><ele>132.0</ele></trkpt>
   <trkpt lon="8.695452" lat="50.018273"><ele>132.0</ele></trkpt>
   <trkpt lon="8.695400" lat="50.017989"><ele>132.0</ele></trkpt>
   <trkpt lon="8.695396" lat="50.017970"><ele>132.0</ele></trkpt>
   <trkpt lon="8.695383" lat="50.017899"><ele>132.0</ele></trkpt>
   <trkpt lon="8.695350" lat="50.017726"><ele>132.25</ele></trkpt>
   <trkpt lon="8.695286" lat="50.017458"><ele>133.0</ele></trkpt>
   <trkpt lon="8.695284" lat="50.017395"><ele>133.0</ele></trkpt>
   <trkpt lon="8.695296" lat="50.017317"><ele>133.0</ele></trkpt>
   <trkpt lon="8.695316" lat="50.017231"><ele>133.0</ele></trkpt>
   <trkpt lon="8.695429" lat="50.016957"><ele>133.0</ele></trkpt>
   <trkpt lon="8.695443" lat="50.016929"><ele>133.0</ele></trkpt>
   <trkpt lon="8.695501" lat="50.016811"><ele>133.0</ele></trkpt>
   <trkpt lon="8.695541" lat="50.016733"><ele>133.0</ele></trkpt>
   <trkpt lon="8.695553" lat="50.016711"><ele>133.0</ele></trkpt>
   <trkpt lon="8.695591" lat="50.016638"><ele>133.0</ele></trkpt>
   <trkpt lon="8.695711" lat="50.016415"><ele>133.75</ele></trkpt>
   <trkpt lon="8.695743" lat="50.016356"><ele>134.0</ele></trkpt>
   <trkpt lon="8.695918" lat="50.016012"><ele>134.0</ele></trkpt>
   <trkpt lon="8.696040" lat="50.015775"><ele>133.75</ele></trkpt>
   <trkpt lon="8.696084" lat="50.015659"><ele>133.25</ele></trkpt>
   <trkpt lon="8.696091" lat="50.015620"><ele>133.25</ele></trkpt>
   <trkpt lon="8.696078" lat="50.015579"><ele>133.0</ele></trkpt>
   <trkpt lon="8.696052" lat="50.015545"><ele>133.0</ele></trkpt>
   <trkpt lon="8.695905" lat="50.015464"><ele>133.75</ele></trkpt>
   <trkpt lon="8.695566" lat="50.015322"><ele>133.0</ele></trkpt>
   <trkpt lon="8.695056" lat="50.015122"><ele>133.0</ele></trkpt>
   <trkpt lon="8.694981" lat="50.015093"><ele>133.0</ele></trkpt>
   <trkpt lon="8.694916" lat="50.015065"><ele>133.0</ele></trkpt>
   <trkpt lon="8.694903" lat="50.015060"><ele>133.0</ele></trkpt>
   <trkpt lon="8.694826" lat="50.015027"><ele>133.0</ele></trkpt>
   <trkpt lon="8.694714" lat="50.014981"><ele>133.0</ele></trkpt>
   <trkpt lon="8.694264" lat="50.014782"><ele>132.25</ele></trkpt>
   <trkpt lon="8.694022" lat="50.014669"><ele>132.0</ele></trkpt>
   <trkpt lon="8.693906" lat="50.014607"><ele>132.0</ele></trkpt>
   <trkpt lon="8.693806" lat="50.014547"><ele>132.0</ele></trkpt>
   <trkpt lon="8.693642" lat="50.014432"><ele>132.0</ele></trkpt>
   <trkpt lon="8.693564" lat="50.014366"><ele>132.0</ele></trkpt>
   <trkpt lon="8.693379" lat="50.014212"><ele>132.0</ele></trkpt>
   <trkpt lon="8.693159" lat="50.014023"><ele>132.0</ele></trkpt>
   <trkpt lon="8.693099" lat="50.013971"><ele>132.0</ele></trkpt>
   <trkpt lon="8.692977" lat="50.013865"><ele>132.0</ele></trkpt>
   <trkpt lon="8.692817" lat="50.013727"><ele>132.0</ele></trkpt>
   <trkpt lon="8.692667" lat="50.013593"><ele>132.0</ele></trkpt>
   <trkpt lon="8.692443" lat="50.013316"><ele>133.0</ele></trkpt>
   <trkpt lon="8.692370" lat="50.013225"><ele>133.0</ele></trkpt>
   <trkpt lon="8.692338" lat="50.013186"><ele>133.0</ele></trkpt>
   <trkpt lon="8.692258" lat="50.013086"><ele>133.0</ele></trkpt>
   <trkpt lon="8.692391" lat="50.013000"><ele>133.0</ele></trkpt>
   <trkpt lon="8.692478" lat="50.012943"><ele>133.0</ele></trkpt>
   <trkpt lon="8.692522" lat="50.012915"><ele>133.0</ele></trkpt>
   <trkpt lon="8.693596" lat="50.012221"><ele>135.0</ele></trkpt>
   <trkpt lon="8.693901" lat="50.012024"><ele>135.0</ele></trkpt>
   <trkpt lon="8.693923" lat="50.012010"><ele>135.0</ele></trkpt>
   <trkpt lon="8.694454" lat="50.011658"><ele>136.0</ele></trkpt>
   <trkpt lon="8.695330" lat="50.011069"><ele>137.0</ele></trkpt>
   <trkpt lon="8.695528" lat="50.010951"><ele>137.5</ele></trkpt>
   <trkpt lon="8.695944" lat="50.010677"><ele>138.5</ele></trkpt>
   <trkpt lon="8.696545" lat="50.010291"><ele>139.75</ele></trkpt>
   <trkpt lon="8.696682" lat="50.010204"><ele>140.5</ele></trkpt>
   <trkpt lon="8.696740" lat="50.010166"><ele>140.5</ele></trkpt>
   <trkpt lon="8.696785" lat="50.010137"><ele>140.75</ele></trkpt>
   <trkpt lon="8.697063" lat="50.009951"><ele>141.0</ele></trkpt>
   <trkpt lon="8.697825" lat="50.009451"><ele>142.75</ele></trkpt>
   <trkpt lon="8.698077" lat="50.009288"><ele>143.5</ele></trkpt>
   <trkpt lon="8.698899" lat="50.008759"><ele>145.25</ele></trkpt>
   <trkpt lon="8.699656" lat="50.008271"><ele>147.0</ele></trkpt>
   <trkpt lon="8.699856" lat="50.008144"><ele>147.5</ele></trkpt>
   <trkpt lon="8.700551" lat="50.007700"><ele>149.25</ele></trkpt>
   <trkpt lon="8.700672" lat="50.007616"><ele>149.5</ele></trkpt>
   <trkpt lon="8.701013" lat="50.007372"><ele>150.0</ele></trkpt>
   <trkpt lon="8.701055" lat="50.007344"><ele>150.0</ele></trkpt>
   <trkpt lon="8.701104" lat="50.007312"><ele>150.0</ele></trkpt>
   <trkpt lon="8.701481" lat="50.007055"><ele>150.5</ele></trkpt>
   <trkpt lon="8.701705" lat="50.006907"><ele>151.0</ele></trkpt>
   <trkpt lon="8.704186" lat="50.005289"><ele>153.75</ele></trkpt>
   <trkpt lon="8.704743" lat="50.004927"><ele>154.25</ele></trkpt>
   <trkpt lon="8.705623" lat="50.004349"><ele>155.25</ele></trkpt>
   <trkpt lon="8.705958" lat="50.004129"><ele>155.5</ele></trkpt>
   <trkpt lon="8.706276" lat="50.003915"><ele>155.75</ele></trkpt>
   <trkpt lon="8.706578" lat="50.003711"><ele>155.75</ele></trkpt>
   <trkpt lon="8.706988" lat="50.003442"><ele>156.5</ele></trkpt>
   <trkpt lon="8.707876" lat="50.002878"><ele>157.5</ele></trkpt>
   <trkpt lon="8.708204" lat="50.002666"><ele>158.25</ele></trkpt>
   <trkpt lon="8.708366" lat="50.002560"><ele>158.75</ele></trkpt>
   <trkpt lon="8.708446" lat="50.002528"><ele>158.75</ele></trkpt>
   <trkpt lon="8.708698" lat="50.002348"><ele>159.25</ele></trkpt>
   <trkpt lon="8.709576" lat="50.001784"><ele>160.0</ele></trkpt>
   <trkpt lon="8.709688" lat="50.001711"><ele>160.0</ele></trkpt>
   <trkpt lon="8.709588" lat="50.001646"><ele>160.0</ele></trkpt>
   <trkpt lon="8.709528" lat="50.001594"><ele>160.25</ele></trkpt>
   <trkpt lon="8.709470" lat="50.001530"><ele>160.25</ele></trkpt>
   <trkpt lon="8.709358" lat="50.001373"><ele>161.25</ele></trkpt>
   <trkpt lon="8.709236" lat="50.001134"><ele>161.75</ele></trkpt>
   <trkpt lon="8.708872" lat="50.000346"><ele>163.75</ele></trkpt>
   <trkpt lon="8.708842" lat="50.000247"><ele>164.0</ele></trkpt>
   <trkpt lon="8.708884" lat="49.999187"><ele>165.0</ele></trkpt>
   <trkpt lon="8.709536" lat="49.999328"><ele>164.75</ele></trkpt>
   <trkpt lon="8.709611" lat="49.999334"><ele>164.5</ele></trkpt>
   <trkpt lon="8.710451" lat="49.999325"><ele>163.5</ele></trkpt>
   <trkpt lon="8.710525" lat="49.999334"><ele>163.25</ele></trkpt>
   <trkpt lon="8.710589" lat="49.999347"><ele>163.25</ele></trkpt>
   <trkpt lon="8.711656" lat="49.999634"><ele>163.0</ele></trkpt>
   <trkpt lon="8.711674" lat="49.999639"><ele>162.75</ele></trkpt>
   <trkpt lon="8.711773" lat="49.999666"><ele>162.5</ele></trkpt>
   <trkpt lon="8.711897" lat="49.999702"><ele>162.0</ele></trkpt>
   <trkpt lon="8.711957" lat="49.999736"><ele>162.0</ele></trkpt>
   <trkpt lon="8.711988" lat="49.999769"><ele>162.0</ele></trkpt>
   <trkpt lon="8.712106" lat="49.999749"><ele>161.75</ele></trkpt>
   <trkpt lon="8.712152" lat="49.999752"><ele>162.0</ele></trkpt>
   <trkpt lon="8.712652" lat="49.999843"><ele>162.25</ele></trkpt>
   <trkpt lon="8.712720" lat="49.999855"><ele>162.25</ele></trkpt>
   <trkpt lon="8.712876" lat="49.999876"><ele>162.0</ele></trkpt>
   <trkpt lon="8.713060" lat="49.999906"><ele>161.25</ele></trkpt>
   <trkpt lon="8.713137" lat="49.999918"><ele>161.0</ele></trkpt>
   <trkpt lon="8.713393" lat="49.999959"><ele>161.0</ele></trkpt>
   <trkpt lon="8.713889" lat="50.000042"><ele>161.0</ele></trkpt>
   <trkpt lon="8.714359" lat="50.000126"><ele>161.0</ele></trkpt>
   <trkpt lon="8.714573" lat="50.000164"><ele>160.5</ele></trkpt>
   <trkpt lon="8.714883" lat="50.000219"><ele>160.0</ele></trkpt>
   <trkpt lon="8.715134" lat="50.000271"><ele>159.5</ele></trkpt>
   <trkpt lon="8.715282" lat="50.000318"><ele>159.0</ele></trkpt>
   <trkpt lon="8.715350" lat="50.000352"><ele>159.0</ele></trkpt>
   <trkpt lon="8.715506" lat="50.000455"><ele>159.0</ele></trkpt>
   <trkpt lon="8.715743" lat="50.000638"><ele>158.25</ele></trkpt>
   <trkpt lon="8.715782" lat="50.000678"><ele>158.0</ele></trkpt>
   <trkpt lon="8.715865" lat="50.000768"><ele>158.0</ele></trkpt>
   <trkpt lon="8.715964" lat="50.000921"><ele>157.75</ele></trkpt>
   <trkpt lon="8.716057" lat="50.001144"><ele>156.75</ele></trkpt>
   <trkpt lon="8.716169" lat="50.001124"><ele>156.75</ele></trkpt>
   <trkpt lon="8.716260" lat="50.001122"><ele>156.75</ele></trkpt>
   <trkpt lon="8.716371" lat="50.001131"><ele>156.75</ele></trkpt>
   <trkpt lon="8.716490" lat="50.001156"><ele>156.75</ele></trkpt>
   <trkpt lon="8.716588" lat="50.001188"><ele>156.75</ele></trkpt>
   <trkpt lon="8.716644" lat="50.001214"><ele>156.5</ele></trkpt>
   <trkpt lon="8.716988" lat="50.001368"><ele>155.0</ele></trkpt>
   <trkpt lon="8.717142" lat="50.001436"><ele>155.5</ele></trkpt>
   <trkpt lon="8.717161" lat="50.001446"><ele>155.5</ele></trkpt>
   <trkpt lon="8.717226" lat="50.001478"><ele>155.25</ele></trkpt>
   <trkpt lon="8.717259" lat="50.001494"><ele>155.0</ele></trkpt>
   <trkpt lon="8.717340" lat="50.001526"><ele>154.5</ele></trkpt>
   <trkpt lon="8.717489" lat="50.001571"><ele>153.5</ele></trkpt>
   <trkpt lon="8.717662" lat="50.001625"><ele>154.25</ele></trkpt>
   <trkpt lon="8.718141" lat="50.001766"><ele>154.5</ele></trkpt>
   <trkpt lon="8.718229" lat="50.001795"><ele>154.5</ele></trkpt>
   <trkpt lon="8.718325" lat="50.001878"><ele>154.0</ele></trkpt>
   <trkpt lon="8.718417" lat="50.001846"><ele>154.5</ele></trkpt>
   <trkpt lon="8.718548" lat="50.001811"><ele>154.75</ele></trkpt>
   <trkpt lon="8.718712" lat="50.001784"><ele>155.0</ele></trkpt>
   <trkpt lon="8.718789" lat="50.001729"><ele>155.25</ele></trkpt>
   <trkpt lon="8.718811" lat="50.001545"><ele>155.75</ele></trkpt>
   <trkpt lon="8.719018" lat="50.001169"><ele>155.5</ele></trkpt>
   <trkpt lon="8.719003" lat="50.001076"><ele>155.5</ele></trkpt>
   <trkpt lon="8.719058" lat="50.000994"><ele>155.0</ele></trkpt>
   <trkpt lon="8.718993" lat="50.000918"><ele>155.0</ele></trkpt>
   <trkpt lon="8.718875" lat="50.000892"><ele>155.25</ele></trkpt>
   <trkpt lon="8.718770" lat="50.000828"><ele>155.25</ele></trkpt>
   <trkpt lon="8.718605" lat="50.000673"><ele>156.5</ele></trkpt>
   <trkpt lon="8.718470" lat="50.000614"><ele>156.75</ele></trkpt>
   <trkpt lon="8.718525" lat="50.000599"><ele>156.75</ele></trkpt>
   <trkpt lon="8.718603" lat="50.000567"><ele>156.75</ele></trkpt>
   <trkpt lon="8.719237" lat="50.000027"><ele>159.75</ele></trkpt>
  </trkseg>
 </trk>
</gpx>
