<?xml version="1.0" encoding="UTF-8"?>
<gpx version="1.1" creator="BRouter paired review" xmlns="http://www.topografix.com/GPX/1/1">
<trk><name>Route A</name><trkseg>
<trkpt lat="48.000089" lon="7.852207"><ele>270.0</ele></trkpt>
<trkpt lat="48.000395" lon="7.852234"><ele>270.0</ele></trkpt>
<trkpt lat="48.000426" lon="7.852080"><ele>270.0</ele></trkpt>
<trkpt lat="48.000450" lon="7.851948"><ele>270.0</ele></trkpt>
<trkpt lat="48.000486" lon="7.851754"><ele>270.0</ele></trkpt>
<trkpt lat="48.000585" lon="7.851217"><ele>270.0</ele></trkpt>
<trkpt lat="48.000591" lon="7.851185"><ele>270.0</ele></trkpt>
<trkpt lat="48.000608" lon="7.851090"><ele>270.0</ele></trkpt>
<trkpt lat="48.000693" lon="7.850632"><ele>270.0</ele></trkpt>
<trkpt lat="48.000720" lon="7.850491"><ele>270.0</ele></trkpt>
<trkpt lat="48.000785" lon="7.850140"><ele>270.0</ele></trkpt>
<trkpt lat="48.000791" lon="7.850106"><ele>270.0</ele></trkpt>
<trkpt lat="48.000847" lon="7.849805"><ele>269.75</ele></trkpt>
<trkpt lat="48.000905" lon="7.849494"><ele>269.75</ele></trkpt>
<trkpt lat="48.000912" lon="7.849452"><ele>269.5</ele></trkpt>
<trkpt lat="48.001089" lon="7.848489"><ele>269.0</ele></trkpt>
<trkpt lat="48.001236" lon="7.847675"><ele>268.0</ele></trkpt>
<trkpt lat="48.001293" lon="7.847367"><ele>268.0</ele></trkpt>
<trkpt lat="48.001419" lon="7.846687"><ele>267.0</ele></trkpt>
<trkpt lat="48.001438" lon="7.846598"><ele>267.0</ele></trkpt>
<trkpt lat="48.001475" lon="7.846503"><ele>267.0</ele></trkpt>
<trkpt lat="48.001495" lon="7.846452"><ele>267.0</ele></trkpt>
<trkpt lat="48.001722" lon="7.845872"><ele>266.0</ele></trkpt>
<trkpt lat="48.001767" lon="7.845764"><ele>266.0</ele></trkpt>
<trkpt lat="48.001755" lon="7.845753"><ele>266.0</ele></trkpt>
<trkpt lat="48.001442" lon="7.845470"><ele>266.5</ele></trkpt>
<trkpt lat="48.001203" lon="7.845268"><ele>266.5</ele></trkpt>
<trkpt lat="48.000681" lon="7.844839"><ele>267.0</ele></trkpt>
<trkpt lat="48.000643" lon="7.844814"><ele>267.0</ele></trkpt>
<trkpt lat="48.000518" lon="7.844712"><ele>267.0</ele></trkpt>
<trkpt lat="48.000458" lon="7.844665"><ele>267.25</ele></trkpt>
<trkpt lat="48.000103" lon="7.844393"><ele>267.75</ele></trkpt>
<trkpt lat="48.000003" lon="7.844322"><ele>267.75</ele></trkpt>
<trkpt lat="47.999974" lon="7.844298"><ele>268.0</ele></trkpt>
<trkpt lat="47.999900" lon="7.844178"><ele>268.0</ele></trkpt>
<trkpt lat="47.999850" lon="7.844108"><ele>268.0</ele></trkpt>
<trkpt lat="47.999756" lon="7.844006"><ele>268.0</ele></trkpt>
<trkpt lat="47.999724" lon="7.843862"><ele>267.75</ele></trkpt>
<trkpt lat="47.999691" lon="7.843837"><ele>268.0</ele></trkpt>
<trkpt lat="47.999623" lon="7.843787"><ele>268.0</ele></trkpt>
<trkpt lat="47.999512" lon="7.843720"><ele>268.0</ele></trkpt>
<trkpt lat="47.999393" lon="7.843630"><ele>268.0</ele></trkpt>
<trkpt lat="47.999449" lon="7.843437"><ele>268.0</ele></trkpt>
<trkpt lat="47.999460" lon="7.843395"><ele>268.0</ele></trkpt>
<trkpt lat="47.999521" lon="7.843061"><ele>268.0</ele></trkpt>
<trkpt lat="47.999602" lon="7.842560"><ele>267.0</ele></trkpt>
<trkpt lat="47.999606" lon="7.842530"><ele>267.0</ele></trkpt>
<trkpt lat="47.999687" lon="7.842110"><ele>267.0</ele></trkpt>
<trkpt lat="47.999726" lon="7.842018"><ele>266.75</ele></trkpt>
<trkpt lat="47.999680" lon="7.841987"><ele>267.0</ele></trkpt>
<trkpt lat="47.999073" lon="7.841520"><ele>267.0</ele></trkpt>
<trkpt lat="47.999041" lon="7.841496"><ele>267.0</ele></trkpt>
<trkpt lat="47.999016" lon="7.841477"><ele>267.0</ele></trkpt>
<trkpt lat="47.998827" lon="7.841333"><ele>267.0</ele></trkpt>
<trkpt lat="47.998663" lon="7.841210"><ele>267.25</ele></trkpt>
<trkpt lat="47.998579" lon="7.841135"><ele>267.0</ele></trkpt>
<trkpt lat="47.998527" lon="7.841095"><ele>267.25</ele></trkpt>
<trkpt lat="47.998248" lon="7.840877"><ele>267.0</ele></trkpt>
<trkpt lat="47.998158" lon="7.840801"><ele>267.0</ele></trkpt>
<trkpt lat="47.998101" lon="7.840727"><ele>267.0</ele></trkpt>
<trkpt lat="47.998042" lon="7.840604"><ele>267.0</ele></trkpt>
<trkpt lat="47.998035" lon="7.840590"><ele>267.0</ele></trkpt>
<trkpt lat="47.998032" lon="7.840584"><ele>267.0</ele></trkpt>
<trkpt lat="47.997791" lon="7.840093"><ele>267.0</ele></trkpt>
<trkpt lat="47.997708" lon="7.839923"><ele>267.0</ele></trkpt>
<trkpt lat="47.997701" lon="7.839907"><ele>267.0</ele></trkpt>
<trkpt lat="47.997619" lon="7.839777"><ele>267.0</ele></trkpt>
<trkpt lat="47.997590" lon="7.839742"><ele>267.0</ele></trkpt>
<trkpt lat="47.997459" lon="7.839635"><ele>266.5</ele></trkpt>
<trkpt lat="47.997159" lon="7.839416"><ele>266.75</ele></trkpt>
<trkpt lat="47.997093" lon="7.839361"><ele>266.5</ele></trkpt>
<trkpt lat="47.996997" lon="7.839286"><ele>266.25</ele></trkpt>
<trkpt lat="47.996909" lon="7.839215"><ele>266.0</ele></trkpt>
<trkpt lat="47.996889" lon="7.839201"><ele>266.0</ele></trkpt>
<trkpt lat="47.996765" lon="7.839112"><ele>266.0</ele></trkpt>
<trkpt lat="47.996530" lon="7.838931"><ele>266.0</ele></trkpt>
<trkpt lat="47.996505" lon="7.838913"><ele>266.0</ele></trkpt>
<trkpt lat="47.996483" lon="7.838897"><ele>266.0</ele></trkpt>
<trkpt lat="47.996420" lon="7.838851"><ele>266.0</ele></trkpt>
<trkpt lat="47.996373" lon="7.838814"><ele>266.0</ele></trkpt>
<trkpt lat="47.996345" lon="7.838791"><ele>266.0</ele></trkpt>
<trkpt lat="47.996097" lon="7.838604"><ele>266.0</ele></trkpt>
<trkpt lat="47.995992" lon="7.838526"><ele>266.0</ele></trkpt>
<trkpt lat="47.995936" lon="7.838484"><ele>266.0</ele></trkpt>
<trkpt lat="47.995903" lon="7.838453"><ele>266.0</ele></trkpt>
<trkpt lat="47.995875" lon="7.838388"><ele>266.0</ele></trkpt>
<trkpt lat="47.995877" lon="7.838286"><ele>265.75</ele></trkpt>
<trkpt lat="47.995889" lon="7.838215"><ele>265.5</ele></trkpt>
<trkpt lat="47.995915" lon="7.838144"><ele>265.25</ele></trkpt>
<trkpt lat="47.996017" lon="7.837842"><ele>265.0</ele></trkpt>
<trkpt lat="47.996037" lon="7.837780"><ele>265.0</ele></trkpt>
<trkpt lat="47.996060" lon="7.837711"><ele>265.0</ele></trkpt>
<trkpt lat="47.996082" lon="7.837648"><ele>265.0</ele></trkpt>
<trkpt lat="47.996096" lon="7.837605"><ele>265.0</ele></trkpt>
<trkpt lat="47.996226" lon="7.837228"><ele>264.0</ele></trkpt>
<trkpt lat="47.996244" lon="7.837174"><ele>264.0</ele></trkpt>
<trkpt lat="47.996255" lon="7.837144"><ele>264.0</ele></trkpt>
<trkpt lat="47.996270" lon="7.837098"><ele>264.0</ele></trkpt>
<trkpt lat="47.996284" lon="7.837058"><ele>264.0</ele></trkpt>
<trkpt lat="47.996310" lon="7.836979"><ele>264.0</ele></trkpt>
<trkpt lat="47.996464" lon="7.836525"><ele>264.0</ele></trkpt>
<trkpt lat="47.996473" lon="7.836498"><ele>264.0</ele></trkpt>
<trkpt lat="47.996503" lon="7.836408"><ele>264.0</ele></trkpt>
<trkpt lat="47.996537" lon="7.836309"><ele>263.5</ele></trkpt>
<trkpt lat="47.996671" lon="7.835940"><ele>263.0</ele></trkpt>
<trkpt lat="47.996727" lon="7.835776"><ele>263.0</ele></trkpt>
<trkpt lat="47.996795" lon="7.835574"><ele>263.0</ele></trkpt>
<trkpt lat="47.996871" lon="7.835353"><ele>263.0</ele></trkpt>
<trkpt lat="47.996904" lon="7.835256"><ele>262.75</ele></trkpt>
<trkpt lat="47.996922" lon="7.835204"><ele>262.5</ele></trkpt>
<trkpt lat="47.996966" lon="7.835080"><ele>262.25</ele></trkpt>
<trkpt lat="47.997009" lon="7.834959"><ele>262.0</ele></trkpt>
<trkpt lat="47.997023" lon="7.834913"><ele>262.0</ele></trkpt>
<trkpt lat="47.997041" lon="7.834842"><ele>262.0</ele></trkpt>
<trkpt lat="47.997099" lon="7.834621"><ele>262.0</ele></trkpt>
<trkpt lat="47.997121" lon="7.834496"><ele>262.0</ele></trkpt>
<trkpt lat="47.997136" lon="7.834429"><ele>262.0</ele></trkpt>
<trkpt lat="47.997200" lon="7.834189"><ele>262.0</ele></trkpt>
<trkpt lat="47.997274" lon="7.833916"><ele>262.0</ele></trkpt>
<trkpt lat="47.997277" lon="7.833904"><ele>262.0</ele></trkpt>
<trkpt lat="47.997337" lon="7.833694"><ele>261.5</ele></trkpt>
<trkpt lat="47.997360" lon="7.833612"><ele>261.25</ele></trkpt>
<trkpt lat="47.997377" lon="7.833553"><ele>261.25</ele></trkpt>
<trkpt lat="47.997416" lon="7.833410"><ele>261.0</ele></trkpt>
<trkpt lat="47.997439" lon="7.833325"><ele>261.0</ele></trkpt>
<trkpt lat="47.997498" lon="7.833121"><ele>261.0</ele></trkpt>
<trkpt lat="47.997659" lon="7.832558"><ele>261.0</ele></trkpt>
<trkpt lat="47.997688" lon="7.832460"><ele>261.0</ele></trkpt>
<trkpt lat="47.997710" lon="7.832382"><ele>261.0</ele></trkpt>
<trkpt lat="47.997745" lon="7.832255"><ele>261.0</ele></trkpt>
<trkpt lat="47.997804" lon="7.832054"><ele>260.75</ele></trkpt>
<trkpt lat="47.997828" lon="7.831970"><ele>261.0</ele></trkpt>
<trkpt lat="47.997869" lon="7.831819"><ele>260.5</ele></trkpt>
<trkpt lat="47.997911" lon="7.831670"><ele>260.25</ele></trkpt>
<trkpt lat="47.997923" lon="7.831629"><ele>260.5</ele></trkpt>
<trkpt lat="47.997932" lon="7.831597"><ele>260.5</ele></trkpt>
<trkpt lat="47.997965" lon="7.831480"><ele>260.5</ele></trkpt>
<trkpt lat="47.997995" lon="7.831372"><ele>260.75</ele></trkpt>
<trkpt lat="47.998080" lon="7.831092"><ele>260.75</ele></trkpt>
<trkpt lat="47.998115" lon="7.830951"><ele>260.25</ele></trkpt>
<trkpt lat="47.998390" lon="7.830164"><ele>260.0</ele></trkpt>
<trkpt lat="47.998610" lon="7.829471"><ele>259.0</ele></trkpt>
<trkpt lat="47.998755" lon="7.828949"><ele>258.0</ele></trkpt>
<trkpt lat="47.998794" lon="7.828784"><ele>258.0</ele></trkpt>
<trkpt lat="47.998831" lon="7.828647"><ele>258.0</ele></trkpt>
<trkpt lat="47.998857" lon="7.828574"><ele>258.0</ele></trkpt>
<trkpt lat="47.998878" lon="7.828538"><ele>258.0</ele></trkpt>
<trkpt lat="47.998939" lon="7.828322"><ele>257.75</ele></trkpt>
<trkpt lat="47.999228" lon="7.827275"><ele>256.25</ele></trkpt>
<trkpt lat="47.999417" lon="7.826727"><ele>256.0</ele></trkpt>
<trkpt lat="47.999442" lon="7.826663"><ele>255.75</ele></trkpt>
<trkpt lat="47.999724" lon="7.825917"><ele>256.0</ele></trkpt>
<trkpt lat="47.999743" lon="7.825874"><ele>256.0</ele></trkpt>
<trkpt lat="48.000075" lon="7.825018"><ele>255.0</ele></trkpt>
<trkpt lat="48.000097" lon="7.824961"><ele>255.0</ele></trkpt>
<trkpt lat="48.000235" lon="7.824602"><ele>255.0</ele></trkpt>
<trkpt lat="48.000325" lon="7.824366"><ele>254.5</ele></trkpt>
<trkpt lat="48.000417" lon="7.824126"><ele>253.25</ele></trkpt>
<trkpt lat="48.000697" lon="7.823439"><ele>251.5</ele></trkpt>
<trkpt lat="48.000809" lon="7.823162"><ele>251.0</ele></trkpt>
<trkpt lat="48.000924" lon="7.822914"><ele>251.0</ele></trkpt>
<trkpt lat="48.001029" lon="7.822673"><ele>250.75</ele></trkpt>
<trkpt lat="48.001138" lon="7.822429"><ele>250.75</ele></trkpt>
<trkpt lat="48.001314" lon="7.822085"><ele>250.25</ele></trkpt>
<trkpt lat="48.001373" lon="7.821972"><ele>250.0</ele></trkpt>
<trkpt lat="48.001487" lon="7.821802"><ele>250.0</ele></trkpt>
<trkpt lat="48.001532" lon="7.821747"><ele>250.0</ele></trkpt>
<trkpt lat="48.001649" lon="7.821594"><ele>250.0</ele></trkpt>
<trkpt lat="48.001839" lon="7.821376"><ele>250.0</ele></trkpt>
<trkpt lat="48.001983" lon="7.821214"><ele>250.0</ele></trkpt>
<trkpt lat="48.002294" lon="7.820901"><ele>250.0</ele></trkpt>
<trkpt lat="48.002294" lon="7.820855"><ele>250.0</ele></trkpt>
<trkpt lat="48.002301" lon="7.820827"><ele>250.0</ele></trkpt>
<trkpt lat="48.002317" lon="7.820770"><ele>250.0</ele></trkpt>
<trkpt lat="48.002321" lon="7.820758"><ele>250.0</ele></trkpt>
<trkpt lat="48.002338" lon="7.820732"><ele>250.0</ele></trkpt>
<trkpt lat="48.002356" lon="7.820700"><ele>250.0</ele></trkpt>
<trkpt lat="48.002363" lon="7.820686"><ele>250.0</ele></trkpt>
<trkpt lat="48.002386" lon="7.820628"><ele>250.0</ele></trkpt>
<trkpt lat="48.002397" lon="7.820568"><ele>250.0</ele></trkpt>
<trkpt lat="48.002404" lon="7.820499"><ele>250.0</ele></trkpt>
<trkpt lat="48.002405" lon="7.820435"><ele>250.0</ele></trkpt>
<trkpt lat="48.002403" lon="7.820399"><ele>250.0</ele></trkpt>
<trkpt lat="48.002383" lon="7.820302"><ele>250.0</ele></trkpt>
<trkpt lat="48.002336" lon="7.820157"><ele>250.0</ele></trkpt>
<trkpt lat="48.002153" lon="7.819613"><ele>249.25</ele></trkpt>
<trkpt lat="48.002117" lon="7.819522"><ele>249.0</ele></trkpt>
<trkpt lat="48.002078" lon="7.819388"><ele>249.0</ele></trkpt>
<trkpt lat="48.001893" lon="7.818647"><ele>248.0</ele></trkpt>
<trkpt lat="48.001822" lon="7.818338"><ele>248.0</ele></trkpt>
<trkpt lat="48.001629" lon="7.817277"><ele>247.0</ele></trkpt>
<trkpt lat="48.001610" lon="7.817118"><ele>247.0</ele></trkpt>
<trkpt lat="48.001577" lon="7.816919"><ele>246.75</ele></trkpt>
<trkpt lat="48.001535" lon="7.816735"><ele>246.0</ele></trkpt>
<trkpt lat="48.001258" lon="7.815142"><ele>245.0</ele></trkpt>
<trkpt lat="48.001252" lon="7.815026"><ele>245.0</ele></trkpt>
<trkpt lat="48.001242" lon="7.814958"><ele>245.0</ele></trkpt>
<trkpt lat="48.001241" lon="7.814860"><ele>245.0</ele></trkpt>
<trkpt lat="48.000817" lon="7.812437"><ele>242.0</ele></trkpt>
<trkpt lat="48.000779" lon="7.812226"><ele>242.0</ele></trkpt>
<trkpt lat="48.000746" lon="7.812175"><ele>242.0</ele></trkpt>
<trkpt lat="48.000719" lon="7.812143"><ele>242.0</ele></trkpt>
<trkpt lat="48.000582" lon="7.811755"><ele>241.25</ele></trkpt>
<trkpt lat="48.000543" lon="7.811692"><ele>241.0</ele></trkpt>
<trkpt lat="48.000491" lon="7.811676"><ele>241.25</ele></trkpt>
<trkpt lat="48.000410" lon="7.811670"><ele>241.5</ele></trkpt>
<trkpt lat="48.000389" lon="7.811647"><ele>241.5</ele></trkpt>
<trkpt lat="48.000341" lon="7.811641"><ele>241.75</ele></trkpt>
<trkpt lat="48.000295" lon="7.811593"><ele>241.75</ele></trkpt>
<trkpt lat="48.000216" lon="7.811494"><ele>242.0</ele></trkpt>
<trkpt lat="48.000105" lon="7.811365"><ele>241.75</ele></trkpt>
<trkpt lat="47.999986" lon="7.811188"><ele>242.0</ele></trkpt>
<trkpt lat="47.999898" lon="7.811024"><ele>242.5</ele></trkpt>
<trkpt lat="47.999844" lon="7.810917"><ele>242.75</ele></trkpt>
<trkpt lat="47.999820" lon="7.810859"><ele>242.75</ele></trkpt>
<trkpt lat="47.999793" lon="7.810804"><ele>243.0</ele></trkpt>
<trkpt lat="47.999734" lon="7.810638"><ele>243.75</ele></trkpt>
<trkpt lat="47.999536" lon="7.810199"><ele>243.5</ele></trkpt>
<trkpt lat="47.999515" lon="7.810171"><ele>243.5</ele></trkpt>
<trkpt lat="47.999447" lon="7.810052"><ele>243.0</ele></trkpt>
<trkpt lat="47.999415" lon="7.809972"><ele>243.0</ele></trkpt>
<trkpt lat="47.999155" lon="7.809502"><ele>243.0</ele></trkpt>
<trkpt lat="47.998981" lon="7.809238"><ele>243.0</ele></trkpt>
<trkpt lat="47.998923" lon="7.809154"><ele>243.0</ele></trkpt>
<trkpt lat="47.998731" lon="7.808864"><ele>243.0</ele></trkpt>
<trkpt lat="47.998622" lon="7.808626"><ele>243.0</ele></trkpt>
<trkpt lat="47.998600" lon="7.808576"></trkpt>
<trkpt lat="47.998515" lon="7.808373"><ele>242.0</ele></trkpt>
<trkpt lat="47.998479" lon="7.808300"><ele>242.0</ele></trkpt>
<trkpt lat="47.998370" lon="7.808083"><ele>241.75</ele></trkpt>
<trkpt lat="47.998290" lon="7.807939"><ele>242.0</ele></trkpt>
<trkpt lat="47.998219" lon="7.807834"><ele>242.0</ele></trkpt>
<trkpt lat="47.997820" lon="7.807344"><ele>242.0</ele></trkpt>
<trkpt lat="47.997743" lon="7.807246"><ele>242.0</ele></trkpt>
<trkpt lat="47.997677" lon="7.807158"><ele>242.0</ele></trkpt>
<trkpt lat="47.997510" lon="7.806950"><ele>242.0</ele></trkpt>
<trkpt lat="47.997342" lon="7.806735"><ele>242.0</ele></trkpt>
<trkpt lat="47.996911" lon="7.806203"><ele>242.0</ele></trkpt>
<trkpt lat="47.996851" lon="7.806134"><ele>242.25</ele></trkpt>
<trkpt lat="47.996438" lon="7.805711"><ele>242.25</ele></trkpt>
<trkpt lat="47.996086" lon="7.805333"><ele>242.0</ele></trkpt>
<trkpt lat="47.995524" lon="7.804768"><ele>242.0</ele></trkpt>
<trkpt lat="47.995446" lon="7.804699"><ele>242.0</ele></trkpt>
<trkpt lat="47.995358" lon="7.804623"><ele>242.0</ele></trkpt>
<trkpt lat="47.994944" lon="7.804274"><ele>242.0</ele></trkpt>
<trkpt lat="47.994715" lon="7.804093"><ele>242.5</ele></trkpt>
<trkpt lat="47.994640" lon="7.804017"><ele>242.5</ele></trkpt>
<trkpt lat="47.994586" lon="7.803933"><ele>242.5</ele></trkpt>
<trkpt lat="47.994555" lon="7.803837"><ele>242.25</ele></trkpt>
<trkpt lat="47.994539" lon="7.803766"><ele>242.25</ele></trkpt>
<trkpt lat="47.994529" lon="7.803678"><ele>242.0</ele></trkpt>
<trkpt lat="47.994537" lon="7.803570"><ele>242.0</ele></trkpt>
<trkpt lat="47.994560" lon="7.803479"><ele>242.0</ele></trkpt>
<trkpt lat="47.994690" lon="7.802917"><ele>242.0</ele></trkpt>
<trkpt lat="47.994783" lon="7.802503"><ele>241.0</ele></trkpt>
<trkpt lat="47.994817" lon="7.802324"><ele>241.0</ele></trkpt>
<trkpt lat="47.994868" lon="7.802061"><ele>241.0</ele></trkpt>
<trkpt lat="47.994895" lon="7.801996"><ele>241.0</ele></trkpt>
<trkpt lat="47.994999" lon="7.801610"><ele>240.75</ele></trkpt>
<trkpt lat="47.995071" lon="7.801213"><ele>240.0</ele></trkpt>
<trkpt lat="47.995180" lon="7.800727"><ele>240.0</ele></trkpt>
<trkpt lat="47.995229" lon="7.800545"><ele>239.75</ele></trkpt>
<trkpt lat="47.995247" lon="7.800458"><ele>239.5</ele></trkpt>
<trkpt lat="47.995351" lon="7.799926"><ele>239.0</ele></trkpt>
<trkpt lat="47.995378" lon="7.799696"><ele>238.75</ele></trkpt>
<trkpt lat="47.995402" lon="7.799405"><ele>239.0</ele></trkpt>
<trkpt lat="47.995364" lon="7.799357"><ele>239.0</ele></trkpt>
<trkpt lat="47.995337" lon="7.799319"><ele>239.0</ele></trkpt>
<trkpt lat="47.995325" lon="7.799303"><ele>239.0</ele></trkpt>
<trkpt lat="47.995278" lon="7.799257"><ele>239.0</ele></trkpt>
<trkpt lat="47.995223" lon="7.799251"><ele>239.0</ele></trkpt>
<trkpt lat="47.995144" lon="7.799234"><ele>239.0</ele></trkpt>
<trkpt lat="47.995069" lon="7.799215"><ele>239.0</ele></trkpt>
<trkpt lat="47.995076" lon="7.799095"><ele>238.75</ele></trkpt>
<trkpt lat="47.995089" lon="7.798913"><ele>239.0</ele></trkpt>
<trkpt lat="47.995093" lon="7.798801"><ele>238.75</ele></trkpt>
<trkpt lat="47.995105" lon="7.798677"><ele>238.5</ele></trkpt>
<trkpt lat="47.995087" lon="7.798487"><ele>238.25</ele></trkpt>
<trkpt lat="47.995069" lon="7.797200"><ele>237.75</ele></trkpt>
<trkpt lat="47.995074" lon="7.795591"><ele>237.0</ele></trkpt>
<trkpt lat="47.995020" lon="7.794668"><ele>236.0</ele></trkpt>
<trkpt lat="47.994997" lon="7.793956"><ele>236.0</ele></trkpt>
<trkpt lat="47.994985" lon="7.793786"><ele>236.0</ele></trkpt>
<trkpt lat="47.994980" lon="7.793650"><ele>235.75</ele></trkpt>
<trkpt lat="47.994866" lon="7.793617"><ele>236.0</ele></trkpt>
<trkpt lat="47.994758" lon="7.793636"><ele>236.0</ele></trkpt>
<trkpt lat="47.994696" lon="7.793613"><ele>236.0</ele></trkpt>
<trkpt lat="47.994609" lon="7.793580"><ele>235.75</ele></trkpt>
<trkpt lat="47.994191" lon="7.793407"><ele>235.25</ele></trkpt>
<trkpt lat="47.993673" lon="7.793180"><ele>234.75</ele></trkpt>
<trkpt lat="47.993083" lon="7.792952"><ele>235.5</ele></trkpt>
<trkpt lat="47.992773" lon="7.792820"><ele>235.0</ele></trkpt>
<trkpt lat="47.992464" lon="7.792694"><ele>235.0</ele></trkpt>
<trkpt lat="47.991912" lon="7.792451"><ele>235.0</ele></trkpt>
<trkpt lat="47.991433" lon="7.792249"><ele>235.0</ele></trkpt>
<trkpt lat="47.991349" lon="7.792213"><ele>234.75</ele></trkpt>
<trkpt lat="47.991273" lon="7.792179"><ele>234.75</ele></trkpt>
<trkpt lat="47.990625" lon="7.791907"><ele>234.75</ele></trkpt>
<trkpt lat="47.990532" lon="7.791869"><ele>235.0</ele></trkpt>
<trkpt lat="47.990151" lon="7.791710"><ele>235.0</ele></trkpt>
<trkpt lat="47.989991" lon="7.791643"><ele>235.0</ele></trkpt>
<trkpt lat="47.989756" lon="7.791567"><ele>235.0</ele></trkpt>
<trkpt lat="47.989344" lon="7.791493"><ele>235.0</ele></trkpt>
<trkpt lat="47.989352" lon="7.791969"><ele>235.0</ele></trkpt>
<trkpt lat="47.989349" lon="7.792271"><ele>235.0</ele></trkpt>
<trkpt lat="47.989342" lon="7.792628"><ele>236.0</ele></trkpt>
<trkpt lat="47.989339" lon="7.792802"><ele>236.0</ele></trkpt>
<trkpt lat="47.989318" lon="7.793352"><ele>236.0</ele></trkpt>
<trkpt lat="47.989296" lon="7.793723"><ele>236.0</ele></trkpt>
<trkpt lat="47.989231" lon="7.794384"><ele>237.0</ele></trkpt>
<trkpt lat="47.989213" lon="7.794516"><ele>237.0</ele></trkpt>
<trkpt lat="47.989161" lon="7.794919"><ele>237.0</ele></trkpt>
<trkpt lat="47.989129" lon="7.795160"><ele>237.5</ele></trkpt>
<trkpt lat="47.989112" lon="7.795277"><ele>237.75</ele></trkpt>
<trkpt lat="47.989106" lon="7.795316"><ele>238.0</ele></trkpt>
<trkpt lat="47.989034" lon="7.795794"><ele>238.0</ele></trkpt>
<trkpt lat="47.989005" lon="7.795950"><ele>238.0</ele></trkpt>
<trkpt lat="47.988953" lon="7.796053"><ele>238.0</ele></trkpt>
<trkpt lat="47.988933" lon="7.796157"><ele>238.0</ele></trkpt>
<trkpt lat="47.988787" lon="7.796421"><ele>238.0</ele></trkpt>
<trkpt lat="47.988731" lon="7.796524"><ele>238.0</ele></trkpt>
<trkpt lat="47.988690" lon="7.796569"><ele>238.0</ele></trkpt>
<trkpt lat="47.988628" lon="7.796619"><ele>238.0</ele></trkpt>
<trkpt lat="47.988562" lon="7.796603"><ele>238.0</ele></trkpt>
<trkpt lat="47.988531" lon="7.796599"><ele>238.0</ele></trkpt>
<trkpt lat="47.988403" lon="7.796576"><ele>238.5</ele></trkpt>
<trkpt lat="47.988107" lon="7.796493"><ele>238.0</ele></trkpt>
<trkpt lat="47.988082" lon="7.796486"><ele>238.0</ele></trkpt>
<trkpt lat="47.987622" lon="7.796367"><ele>238.0</ele></trkpt>
<trkpt lat="47.987502" lon="7.796363"><ele>238.0</ele></trkpt>
<trkpt lat="47.987430" lon="7.796348"><ele>238.0</ele></trkpt>
<trkpt lat="47.987352" lon="7.796307"><ele>238.0</ele></trkpt>
<trkpt lat="47.987122" lon="7.796246"><ele>238.0</ele></trkpt>
<trkpt lat="47.986936" lon="7.796177"><ele>238.0</ele></trkpt>
<trkpt lat="47.986278" lon="7.796019"><ele>238.0</ele></trkpt>
<trkpt lat="47.986185" lon="7.795965"><ele>238.0</ele></trkpt>
<trkpt lat="47.986117" lon="7.795974"><ele>238.0</ele></trkpt>
<trkpt lat="47.985997" lon="7.796003"><ele>238.0</ele></trkpt>
<trkpt lat="47.985868" lon="7.796011"><ele>238.0</ele></trkpt>
<trkpt lat="47.985447" lon="7.795910"><ele>238.0</ele></trkpt>
<trkpt lat="47.985317" lon="7.795875"><ele>238.0</ele></trkpt>
<trkpt lat="47.985173" lon="7.795842"><ele>238.0</ele></trkpt>
<trkpt lat="47.984908" lon="7.795762"><ele>238.0</ele></trkpt>
<trkpt lat="47.984847" lon="7.795745"><ele>238.0</ele></trkpt>
<trkpt lat="47.984361" lon="7.795607"><ele>238.0</ele></trkpt>
<trkpt lat="47.984234" lon="7.795715"><ele>238.0</ele></trkpt>
<trkpt lat="47.984164" lon="7.795700"><ele>238.0</ele></trkpt>
<trkpt lat="47.984098" lon="7.795686"><ele>238.0</ele></trkpt>
<trkpt lat="47.983972" lon="7.795660"><ele>238.25</ele></trkpt>
<trkpt lat="47.983884" lon="7.795642"><ele>238.25</ele></trkpt>
<trkpt lat="47.983875" lon="7.795595"><ele>238.0</ele></trkpt>
<trkpt lat="47.983856" lon="7.795556"><ele>238.0</ele></trkpt>
<trkpt lat="47.983836" lon="7.795533"><ele>238.0</ele></trkpt>
<trkpt lat="47.983788" lon="7.795514"><ele>238.0</ele></trkpt>
<trkpt lat="47.983764" lon="7.795519"><ele>238.0</ele></trkpt>
<trkpt lat="47.983721" lon="7.795556"><ele>238.0</ele></trkpt>
<trkpt lat="47.983607" lon="7.795580"><ele>238.0</ele></trkpt>
<trkpt lat="47.983444" lon="7.795562"><ele>238.5</ele></trkpt>
<trkpt lat="47.983391" lon="7.795549"><ele>238.75</ele></trkpt>
<trkpt lat="47.983333" lon="7.795535"><ele>238.75</ele></trkpt>
<trkpt lat="47.983253" lon="7.795516"><ele>238.5</ele></trkpt>
<trkpt lat="47.981866" lon="7.795207"><ele>238.0</ele></trkpt>
<trkpt lat="47.981788" lon="7.795182"><ele>238.0</ele></trkpt>
<trkpt lat="47.981405" lon="7.795061"><ele>238.0</ele></trkpt>
<trkpt lat="47.981333" lon="7.795038"><ele>238.0</ele></trkpt>
<trkpt lat="47.981283" lon="7.794880"><ele>238.0</ele></trkpt>
<trkpt lat="47.981216" lon="7.794685"><ele>238.0</ele></trkpt>
<trkpt lat="47.981111" lon="7.794371"><ele>237.75</ele></trkpt>
<trkpt lat="47.981068" lon="7.794229"><ele>237.75</ele></trkpt>
<trkpt lat="47.981010" lon="7.794025"><ele>237.25</ele></trkpt>
<trkpt lat="47.980969" lon="7.793874"><ele>237.0</ele></trkpt>
<trkpt lat="47.980925" lon="7.793719"><ele>237.0</ele></trkpt>
<trkpt lat="47.980890" lon="7.793598"><ele>237.0</ele></trkpt>
<trkpt lat="47.980751" lon="7.793118"><ele>236.75</ele></trkpt>
<trkpt lat="47.980660" lon="7.792781"><ele>236.0</ele></trkpt>
<trkpt lat="47.980619" lon="7.792662"><ele>235.75</ele></trkpt>
<trkpt lat="47.980585" lon="7.792505"><ele>236.0</ele></trkpt>
<trkpt lat="47.980520" lon="7.792413"><ele>236.0</ele></trkpt>
<trkpt lat="47.980478" lon="7.792339"><ele>236.0</ele></trkpt>
<trkpt lat="47.979989" lon="7.791153"><ele>235.0</ele></trkpt>
<trkpt lat="47.979978" lon="7.791126"><ele>235.0</ele></trkpt>
<trkpt lat="47.979950" lon="7.791055"><ele>234.75</ele></trkpt>
<trkpt lat="47.979754" lon="7.790561"><ele>235.0</ele></trkpt>
<trkpt lat="47.979641" lon="7.790306"><ele>235.0</ele></trkpt>
<trkpt lat="47.979445" lon="7.789929"><ele>234.5</ele></trkpt>
<trkpt lat="47.979547" lon="7.789774"><ele>234.25</ele></trkpt>
<trkpt lat="47.979533" lon="7.789704"><ele>234.25</ele></trkpt>
<trkpt lat="47.979509" lon="7.789645"><ele>234.0</ele></trkpt>
<trkpt lat="47.979473" lon="7.789589"><ele>234.0</ele></trkpt>
<trkpt lat="47.979334" lon="7.789487"><ele>234.0</ele></trkpt>
<trkpt lat="47.978223" lon="7.788377"><ele>233.0</ele></trkpt>
<trkpt lat="47.977984" lon="7.788144"><ele>233.0</ele></trkpt>
<trkpt lat="47.977655" lon="7.787803"><ele>233.0</ele></trkpt>
<trkpt lat="47.977542" lon="7.787635"><ele>233.0</ele></trkpt>
<trkpt lat="47.977490" lon="7.787596"><ele>233.0</ele></trkpt>
<trkpt lat="47.977408" lon="7.787552"><ele>233.0</ele></trkpt>
<trkpt lat="47.977347" lon="7.787524"><ele>233.0</ele></trkpt>
<trkpt lat="47.977264" lon="7.787466"><ele>233.0</ele></trkpt>
<trkpt lat="47.976978" lon="7.787178"><ele>233.0</ele></trkpt>
<trkpt lat="47.976765" lon="7.786921"><ele>233.0</ele></trkpt>
<trkpt lat="47.976325" lon="7.786432"><ele>232.75</ele></trkpt>
<trkpt lat="47.975843" lon="7.785893"><ele>232.0</ele></trkpt>
<trkpt lat="47.975298" lon="7.785259"><ele>230.75</ele></trkpt>
<trkpt lat="47.974402" lon="7.784185"><ele>231.0</ele></trkpt>
<trkpt lat="47.974315" lon="7.784104"><ele>230.75</ele></trkpt>
<trkpt lat="47.974149" lon="7.783952"><ele>231.0</ele></trkpt>
<trkpt lat="47.973444" lon="7.783005"><ele>230.0</ele></trkpt>
<trkpt lat="47.972995" lon="7.782349"><ele>230.0</ele></trkpt>
<trkpt lat="47.972837" lon="7.782090"><ele>229.75</ele></trkpt>
<trkpt lat="47.972693" lon="7.781941"><ele>229.75</ele></trkpt>
<trkpt lat="47.972597" lon="7.781872"><ele>229.75</ele></trkpt>
<trkpt lat="47.972493" lon="7.781805"><ele>230.0</ele></trkpt>
<trkpt lat="47.972333" lon="7.781641"><ele>229.75</ele></trkpt>
<trkpt lat="47.972059" lon="7.781389"><ele>230.0</ele></trkpt>
<trkpt lat="47.971665" lon="7.781056"><ele>231.75</ele></trkpt>
<trkpt lat="47.970721" lon="7.780301"><ele>232.5</ele></trkpt>
<trkpt lat="47.970188" lon="7.779864"><ele>233.0</ele></trkpt>
<trkpt lat="47.969724" lon="7.779443"><ele>233.75</ele></trkpt>
<trkpt lat="47.969391" lon="7.779105"><ele>234.25</ele></trkpt>
<trkpt lat="47.968326" lon="7.777978"><ele>236.5</ele></trkpt>
<trkpt lat="47.968300" lon="7.778023"><ele>237.0</ele></trkpt>
<trkpt lat="47.968266" lon="7.777985"><ele>237.0</ele></trkpt>
<trkpt lat="47.967920" lon="7.777606"><ele>237.0</ele></trkpt>
<trkpt lat="47.967612" lon="7.777245"><ele>236.75</ele></trkpt>
<trkpt lat="47.967391" lon="7.776967"><ele>235.75</ele></trkpt>
<trkpt lat="47.967247" lon="7.776768"><ele>235.5</ele></trkpt>
<trkpt lat="47.967093" lon="7.776532"><ele>235.25</ele></trkpt>
<trkpt lat="47.966987" lon="7.776667"><ele>236.5</ele></trkpt>
<trkpt lat="47.966919" lon="7.776828"><ele>237.75</ele></trkpt>
<trkpt lat="47.966858" lon="7.777076"><ele>240.0</ele></trkpt>
<trkpt lat="47.966817" lon="7.777262"><ele>242.0</ele></trkpt>
<trkpt lat="47.966794" lon="7.777434"><ele>243.5</ele></trkpt>
<trkpt lat="47.966802" lon="7.777518"><ele>244.0</ele></trkpt>
<trkpt lat="47.966828" lon="7.777606"><ele>244.25</ele></trkpt>
<trkpt lat="47.966859" lon="7.777663"><ele>244.5</ele></trkpt>
<trkpt lat="47.966972" lon="7.777765"><ele>244.5</ele></trkpt>
<trkpt lat="47.967167" lon="7.777909"><ele>243.75</ele></trkpt>
<trkpt lat="47.967238" lon="7.777973"><ele>243.5</ele></trkpt>
<trkpt lat="47.967295" lon="7.778041"><ele>243.5</ele></trkpt>
<trkpt lat="47.967315" lon="7.778081"><ele>243.75</ele></trkpt>
<trkpt lat="47.967349" lon="7.778161"><ele>244.25</ele></trkpt>
<trkpt lat="47.967358" lon="7.778221"><ele>244.5</ele></trkpt>
<trkpt lat="47.967348" lon="7.778339"><ele>245.5</ele></trkpt>
<trkpt lat="47.967314" lon="7.778492"><ele>246.0</ele></trkpt>
<trkpt lat="47.967129" lon="7.779220"><ele>250.75</ele></trkpt>
<trkpt lat="47.967069" lon="7.779500"><ele>253.25</ele></trkpt>
<trkpt lat="47.966968" lon="7.779871"><ele>256.0</ele></trkpt>
<trkpt lat="47.966801" lon="7.780366"><ele>259.25</ele></trkpt>
<trkpt lat="47.966632" lon="7.780960"><ele>265.75</ele></trkpt>
<trkpt lat="47.966497" lon="7.781472"><ele>270.25</ele></trkpt>
<trkpt lat="47.966366" lon="7.781935"><ele>274.75</ele></trkpt>
<trkpt lat="47.966287" lon="7.782106"><ele>276.5</ele></trkpt>
<trkpt lat="47.966239" lon="7.782212"><ele>277.25</ele></trkpt>
<trkpt lat="47.966093" lon="7.782094"><ele>277.25</ele></trkpt>
<trkpt lat="47.965941" lon="7.781949"><ele>277.75</ele></trkpt>
<trkpt lat="47.965660" lon="7.781748"><ele>280.0</ele></trkpt>
<trkpt lat="47.965225" lon="7.781515"><ele>286.5</ele></trkpt>
<trkpt lat="47.965168" lon="7.781489"><ele>287.5</ele></trkpt>
<trkpt lat="47.965038" lon="7.781336"><ele>289.5</ele></trkpt>
<trkpt lat="47.964744" lon="7.780966"><ele>292.0</ele></trkpt>
<trkpt lat="47.964178" lon="7.780285"><ele>292.75</ele></trkpt>
<trkpt lat="47.964080" lon="7.780196"><ele>293.25</ele></trkpt>
<trkpt lat="47.964182" lon="7.780506"><ele>296.0</ele></trkpt>
<trkpt lat="47.964673" lon="7.781725"><ele>301.75</ele></trkpt>
<trkpt lat="47.964681" lon="7.781807"><ele>302.75</ele></trkpt>
<trkpt lat="47.964671" lon="7.781874"><ele>304.0</ele></trkpt>
<trkpt lat="47.964645" lon="7.781940"><ele>305.5</ele></trkpt>
<trkpt lat="47.964609" lon="7.781965"><ele>306.5</ele></trkpt>
<trkpt lat="47.964522" lon="7.781926"><ele>308.0</ele></trkpt>
<trkpt lat="47.964307" lon="7.781737"><ele>309.25</ele></trkpt>
<trkpt lat="47.964199" lon="7.781663"><ele>310.25</ele></trkpt>
<trkpt lat="47.964083" lon="7.781599"><ele>311.75</ele></trkpt>
<trkpt lat="47.964015" lon="7.781594"><ele>313.0</ele></trkpt>
<trkpt lat="47.963619" lon="7.781466"><ele>318.75</ele></trkpt>
<trkpt lat="47.963468" lon="7.781423"><ele>321.5</ele></trkpt>
<trkpt lat="47.963383" lon="7.781408"><ele>323.0</ele></trkpt>
<trkpt lat="47.963271" lon="7.781376"><ele>324.5</ele></trkpt>
<trkpt lat="47.963130" lon="7.781334"><ele>325.75</ele></trkpt>
<trkpt lat="47.963104" lon="7.781328"><ele>326.0</ele></trkpt>
<trkpt lat="47.962672" lon="7.781104"><ele>330.0</ele></trkpt>
<trkpt lat="47.962184" lon="7.780831"><ele>332.25</ele></trkpt>
<trkpt lat="47.962016" lon="7.780774"><ele>333.0</ele></trkpt>
<trkpt lat="47.961727" lon="7.780730"><ele>335.5</ele></trkpt>
<trkpt lat="47.961644" lon="7.780769"><ele>336.0</ele></trkpt>
<trkpt lat="47.961537" lon="7.780863"><ele>335.0</ele></trkpt>
<trkpt lat="47.961415" lon="7.780946"><ele>333.75</ele></trkpt>
<trkpt lat="47.961273" lon="7.781119"><ele>332.25</ele></trkpt>
<trkpt lat="47.961118" lon="7.781265"><ele>331.0</ele></trkpt>
<trkpt lat="47.960996" lon="7.781392"><ele>329.75</ele></trkpt>
<trkpt lat="47.960871" lon="7.781562"><ele>328.75</ele></trkpt>
<trkpt lat="47.960785" lon="7.781745"><ele>328.0</ele></trkpt>
<trkpt lat="47.960685" lon="7.782046"><ele>326.75</ele></trkpt>
<trkpt lat="47.960605" lon="7.782405"><ele>326.5</ele></trkpt>
<trkpt lat="47.960564" lon="7.782502"><ele>326.0</ele></trkpt>
<trkpt lat="47.960420" lon="7.782887"><ele>324.0</ele></trkpt>
<trkpt lat="47.960134" lon="7.783327"><ele>322.25</ele></trkpt>
<trkpt lat="47.960076" lon="7.783450"><ele>322.25</ele></trkpt>
<trkpt lat="47.960029" lon="7.783589"><ele>323.25</ele></trkpt>
<trkpt lat="47.959898" lon="7.784141"><ele>324.0</ele></trkpt>
<trkpt lat="47.959812" lon="7.784708"><ele>324.5</ele></trkpt>
<trkpt lat="47.959779" lon="7.785066"><ele>324.5</ele></trkpt>
<trkpt lat="47.959752" lon="7.785227"><ele>324.25</ele></trkpt>
<trkpt lat="47.959730" lon="7.785294"><ele>324.25</ele></trkpt>
<trkpt lat="47.959703" lon="7.785349"><ele>323.75</ele></trkpt>
<trkpt lat="47.959666" lon="7.785392"><ele>323.0</ele></trkpt>
<trkpt lat="47.959523" lon="7.785519"><ele>319.25</ele></trkpt>
<trkpt lat="47.959443" lon="7.785633"><ele>318.0</ele></trkpt>
<trkpt lat="47.959392" lon="7.785724"><ele>317.75</ele></trkpt>
<trkpt lat="47.959281" lon="7.785976"><ele>317.0</ele></trkpt>
<trkpt lat="47.959225" lon="7.786064"><ele>316.25</ele></trkpt>
<trkpt lat="47.959193" lon="7.786094"><ele>315.5</ele></trkpt>
<trkpt lat="47.959129" lon="7.786132"><ele>314.25</ele></trkpt>
<trkpt lat="47.959047" lon="7.786121"><ele>312.75</ele></trkpt>
<trkpt lat="47.959017" lon="7.786057"><ele>311.75</ele></trkpt>
<trkpt lat="47.959011" lon="7.785971"><ele>310.75</ele></trkpt>
<trkpt lat="47.959026" lon="7.785783"><ele>309.5</ele></trkpt>
<trkpt lat="47.959082" lon="7.785301"><ele>307.25</ele></trkpt>
<trkpt lat="47.959079" lon="7.785160"><ele>306.5</ele></trkpt>
<trkpt lat="47.958815" lon="7.785075"><ele>303.25</ele></trkpt>
<trkpt lat="47.958695" lon="7.785048"><ele>302.0</ele></trkpt>
<trkpt lat="47.958717" lon="7.785155"><ele>302.5</ele></trkpt>
<trkpt lat="47.958723" lon="7.785437"><ele>304.25</ele></trkpt>
<trkpt lat="47.958719" lon="7.785703"><ele>306.0</ele></trkpt>
<trkpt lat="47.958701" lon="7.785891"><ele>306.75</ele></trkpt>
<trkpt lat="47.958637" lon="7.786220"><ele>308.0</ele></trkpt>
<trkpt lat="47.958541" lon="7.786562"><ele>311.0</ele></trkpt>
<trkpt lat="47.958507" lon="7.786657"><ele>312.0</ele></trkpt>
<trkpt lat="47.958436" lon="7.786869"><ele>314.25</ele></trkpt>
<trkpt lat="47.958348" lon="7.787077"><ele>316.0</ele></trkpt>
<trkpt lat="47.958132" lon="7.787457"><ele>317.75</ele></trkpt>
<trkpt lat="47.958103" lon="7.787506"><ele>318.0</ele></trkpt>
<trkpt lat="47.958031" lon="7.787571"><ele>318.5</ele></trkpt>
<trkpt lat="47.957752" lon="7.787723"><ele>321.25</ele></trkpt>
<trkpt lat="47.957534" lon="7.787917"><ele>325.5</ele></trkpt>
<trkpt lat="47.957408" lon="7.788057"><ele>327.5</ele></trkpt>
<trkpt lat="47.957312" lon="7.788189"><ele>328.75</ele></trkpt>
<trkpt lat="47.957253" lon="7.788293"><ele>329.5</ele></trkpt>
<trkpt lat="47.957134" lon="7.788523"><ele>332.0</ele></trkpt>
<trkpt lat="47.957068" lon="7.788735"><ele>334.0</ele></trkpt>
<trkpt lat="47.956988" lon="7.789049"><ele>336.25</ele></trkpt>
<trkpt lat="47.956895" lon="7.789521"><ele>341.0</ele></trkpt>
<trkpt lat="47.956800" lon="7.789975"><ele>345.75</ele></trkpt>
<trkpt lat="47.956777" lon="7.790157"><ele>347.5</ele></trkpt>
<trkpt lat="47.956773" lon="7.790269"><ele>348.5</ele></trkpt>
<trkpt lat="47.956957" lon="7.790553"><ele>350.75</ele></trkpt>
<trkpt lat="47.957118" lon="7.790763"><ele>352.5</ele></trkpt>
<trkpt lat="47.957193" lon="7.790879"><ele>353.25</ele></trkpt>
<trkpt lat="47.957203" lon="7.790940"><ele>353.75</ele></trkpt>
<trkpt lat="47.957207" lon="7.791024"><ele>354.5</ele></trkpt>
<trkpt lat="47.957189" lon="7.791097"><ele>355.0</ele></trkpt>
<trkpt lat="47.957131" lon="7.791181"><ele>357.25</ele></trkpt>
<trkpt lat="47.957077" lon="7.791204"><ele>358.75</ele></trkpt>
<trkpt lat="47.957033" lon="7.791196"><ele>359.25</ele></trkpt>
<trkpt lat="47.956969" lon="7.791170"><ele>359.5</ele></trkpt>
<trkpt lat="47.956875" lon="7.791123"><ele>358.25</ele></trkpt>
<trkpt lat="47.956807" lon="7.791079"><ele>357.5</ele></trkpt>
<trkpt lat="47.956723" lon="7.791051"><ele>357.25</ele></trkpt>
<trkpt lat="47.956654" lon="7.791063"><ele>357.25</ele></trkpt>
<trkpt lat="47.956380" lon="7.791318"><ele>360.25</ele></trkpt>
<trkpt lat="47.956243" lon="7.791409"><ele>363.0</ele></trkpt>
<trkpt lat="47.956178" lon="7.791415"><ele>363.75</ele></trkpt>
<trkpt lat="47.954851" lon="7.790582"><ele>385.25</ele></trkpt>
<trkpt lat="47.954757" lon="7.790523"><ele>386.25</ele></trkpt>
<trkpt lat="47.954264" lon="7.789980"><ele>393.75</ele></trkpt>
<trkpt lat="47.953981" lon="7.789687"><ele>397.25</ele></trkpt>
<trkpt lat="47.953550" lon="7.789340"><ele>401.75</ele></trkpt>
<trkpt lat="47.953134" lon="7.788922"><ele>403.0</ele></trkpt>
<trkpt lat="47.952348" lon="7.788078"><ele>407.0</ele></trkpt>
<trkpt lat="47.952264" lon="7.788000"><ele>407.25</ele></trkpt>
<trkpt lat="47.952033" lon="7.787831"><ele>408.5</ele></trkpt>
<trkpt lat="47.951921" lon="7.787772"><ele>409.5</ele></trkpt>
<trkpt lat="47.951743" lon="7.787698"><ele>413.5</ele></trkpt>
<trkpt lat="47.951642" lon="7.787447"><ele>416.0</ele></trkpt>
<trkpt lat="47.951337" lon="7.787617"><ele>418.0</ele></trkpt>
<trkpt lat="47.951166" lon="7.787691"><ele>417.0</ele></trkpt>
<trkpt lat="47.951001" lon="7.787783"><ele>415.25</ele></trkpt>
<trkpt lat="47.950820" lon="7.787898"><ele>414.0</ele></trkpt>
<trkpt lat="47.950666" lon="7.788026"><ele>413.25</ele></trkpt>
<trkpt lat="47.950512" lon="7.788222"><ele>413.0</ele></trkpt>
<trkpt lat="47.950133" lon="7.788822"><ele>414.0</ele></trkpt>
<trkpt lat="47.949946" lon="7.789062"><ele>414.25</ele></trkpt>
<trkpt lat="47.949686" lon="7.789316"><ele>414.0</ele></trkpt>
<trkpt lat="47.949284" lon="7.789587"><ele>415.75</ele></trkpt>
<trkpt lat="47.949105" lon="7.789681"><ele>416.25</ele></trkpt>
<trkpt lat="47.948848" lon="7.789872"><ele>417.0</ele></trkpt>
<trkpt lat="47.948626" lon="7.790091"><ele>417.0</ele></trkpt>
<trkpt lat="47.948480" lon="7.790270"><ele>417.0</ele></trkpt>
<trkpt lat="47.948390" lon="7.790425"><ele>416.75</ele></trkpt>
<trkpt lat="47.948299" lon="7.790611"><ele>416.75</ele></trkpt>
<trkpt lat="47.948137" lon="7.791022"><ele>417.0</ele></trkpt>
<trkpt lat="47.947863" lon="7.791743"><ele>415.5</ele></trkpt>
<trkpt lat="47.947660" lon="7.792161"><ele>415.75</ele></trkpt>
<trkpt lat="47.947548" lon="7.792350"><ele>415.25</ele></trkpt>
<trkpt lat="47.947411" lon="7.792543"><ele>415.0</ele></trkpt>
<trkpt lat="47.947259" lon="7.792692"><ele>413.75</ele></trkpt>
<trkpt lat="47.947183" lon="7.792746"><ele>413.5</ele></trkpt>
<trkpt lat="47.947095" lon="7.792805"><ele>413.75</ele></trkpt>
<trkpt lat="47.946940" lon="7.792890"><ele>414.0</ele></trkpt>
<trkpt lat="47.946739" lon="7.792993"><ele>414.0</ele></trkpt>
<trkpt lat="47.946480" lon="7.793071"><ele>412.75</ele></trkpt>
<trkpt lat="47.946267" lon="7.793114"><ele>412.5</ele></trkpt>
<trkpt lat="47.945784" lon="7.793139"><ele>415.0</ele></trkpt>
<trkpt lat="47.945612" lon="7.793157"><ele>415.75</ele></trkpt>
<trkpt lat="47.945462" lon="7.793191"><ele>416.75</ele></trkpt>
<trkpt lat="47.945341" lon="7.793242"><ele>418.25</ele></trkpt>
<trkpt lat="47.945209" lon="7.793311"><ele>419.75</ele></trkpt>
<trkpt lat="47.945112" lon="7.793397"><ele>421.5</ele></trkpt>
<trkpt lat="47.944969" lon="7.793550"><ele>423.75</ele></trkpt>
<trkpt lat="47.944831" lon="7.793775"><ele>425.0</ele></trkpt>
<trkpt lat="47.944714" lon="7.794046"><ele>425.25</ele></trkpt>
<trkpt lat="47.944648" lon="7.794287"><ele>424.75</ele></trkpt>
<trkpt lat="47.944612" lon="7.794508"><ele>423.75</ele></trkpt>
<trkpt lat="47.944594" lon="7.794709"><ele>423.25</ele></trkpt>
<trkpt lat="47.944571" lon="7.795574"><ele>421.75</ele></trkpt>
<trkpt lat="47.944516" lon="7.796079"><ele>422.75</ele></trkpt>
<trkpt lat="47.944461" lon="7.796324"><ele>423.5</ele></trkpt>
<trkpt lat="47.944438" lon="7.796406"><ele>424.0</ele></trkpt>
<trkpt lat="47.944319" lon="7.796839"><ele>427.25</ele></trkpt>
<trkpt lat="47.944172" lon="7.797287"><ele>430.5</ele></trkpt>
<trkpt lat="47.944078" lon="7.797697"><ele>434.5</ele></trkpt>
<trkpt lat="47.944005" lon="7.798061"><ele>436.75</ele></trkpt>
<trkpt lat="47.943982" lon="7.798273"><ele>437.25</ele></trkpt>
<trkpt lat="47.943967" lon="7.798490"><ele>437.25</ele></trkpt>
<trkpt lat="47.943955" lon="7.798707"><ele>436.5</ele></trkpt>
<trkpt lat="47.943955" lon="7.798938"><ele>435.75</ele></trkpt>
<trkpt lat="47.943994" lon="7.799383"><ele>435.5</ele></trkpt>
<trkpt lat="47.944075" lon="7.799803"><ele>435.25</ele></trkpt>
<trkpt lat="47.944178" lon="7.800190"><ele>435.25</ele></trkpt>
<trkpt lat="47.944400" lon="7.800859"><ele>435.0</ele></trkpt>
<trkpt lat="47.944734" lon="7.801757"><ele>430.0</ele></trkpt>
<trkpt lat="47.944950" lon="7.802237"><ele>426.75</ele></trkpt>
<trkpt lat="47.945056" lon="7.802434"><ele>426.25</ele></trkpt>
<trkpt lat="47.945430" lon="7.803009"><ele>426.25</ele></trkpt>
<trkpt lat="47.945503" lon="7.803155"><ele>426.0</ele></trkpt>
<trkpt lat="47.945562" lon="7.803290"><ele>426.0</ele></trkpt>
<trkpt lat="47.945631" lon="7.803494"><ele>425.5</ele></trkpt>
<trkpt lat="47.945678" lon="7.803682"><ele>424.75</ele></trkpt>
<trkpt lat="47.945724" lon="7.803933"><ele>424.0</ele></trkpt>
<trkpt lat="47.945732" lon="7.804142"><ele>423.0</ele></trkpt>
<trkpt lat="47.945730" lon="7.804306"><ele>422.25</ele></trkpt>
<trkpt lat="47.945722" lon="7.804409"><ele>421.75</ele></trkpt>
<trkpt lat="47.945693" lon="7.804621"><ele>421.25</ele></trkpt>
<trkpt lat="47.945644" lon="7.804817"><ele>421.25</ele></trkpt>
<trkpt lat="47.945545" lon="7.805135"><ele>420.75</ele></trkpt>
<trkpt lat="47.945440" lon="7.805358"><ele>419.25</ele></trkpt>
<trkpt lat="47.945333" lon="7.805535"><ele>417.75</ele></trkpt>
<trkpt lat="47.945172" lon="7.805772"><ele>417.25</ele></trkpt>
<trkpt lat="47.945073" lon="7.805876"><ele>417.25</ele></trkpt>
<trkpt lat="47.944675" lon="7.805942"><ele>413.0</ele></trkpt>
<trkpt lat="47.944341" lon="7.805934"><ele>409.5</ele></trkpt>
<trkpt lat="47.944101" lon="7.805964"><ele>407.5</ele></trkpt>
<trkpt lat="47.943801" lon="7.805993"><ele>404.75</ele></trkpt>
<trkpt lat="47.943514" lon="7.806061"><ele>402.75</ele></trkpt>
<trkpt lat="47.943319" lon="7.806079"><ele>401.0</ele></trkpt>
<trkpt lat="47.943076" lon="7.806053"><ele>398.0</ele></trkpt>
<trkpt lat="47.942821" lon="7.806060"><ele>396.25</ele></trkpt>
<trkpt lat="47.942657" lon="7.806120"><ele>395.75</ele></trkpt>
<trkpt lat="47.942455" lon="7.806245"><ele>395.5</ele></trkpt>
<trkpt lat="47.942408" lon="7.806269"><ele>395.0</ele></trkpt>
<trkpt lat="47.942182" lon="7.806467"><ele>394.5</ele></trkpt>
<trkpt lat="47.942113" lon="7.806580"><ele>394.75</ele></trkpt>
<trkpt lat="47.942061" lon="7.806692"><ele>395.0</ele></trkpt>
<trkpt lat="47.942033" lon="7.806820"><ele>394.75</ele></trkpt>
<trkpt lat="47.942024" lon="7.806927"><ele>394.5</ele></trkpt>
<trkpt lat="47.942027" lon="7.807134"><ele>393.5</ele></trkpt>
<trkpt lat="47.942030" lon="7.807248"><ele>392.75</ele></trkpt>
<trkpt lat="47.942049" lon="7.807382"><ele>392.25</ele></trkpt>
<trkpt lat="47.942078" lon="7.807517"><ele>391.5</ele></trkpt>
<trkpt lat="47.942149" lon="7.807818"><ele>390.5</ele></trkpt>
<trkpt lat="47.942455" lon="7.808957"><ele>384.75</ele></trkpt>
<trkpt lat="47.942532" lon="7.809321"><ele>383.0</ele></trkpt>
<trkpt lat="47.942562" lon="7.809425"><ele>382.75</ele></trkpt>
<trkpt lat="47.942602" lon="7.809650"><ele>380.75</ele></trkpt>
<trkpt lat="47.942670" lon="7.809690"><ele>381.0</ele></trkpt>
<trkpt lat="47.942875" lon="7.809882"><ele>382.5</ele></trkpt>
<trkpt lat="47.942949" lon="7.809959"><ele>383.0</ele></trkpt>
<trkpt lat="47.943117" lon="7.810132"><ele>384.0</ele></trkpt>
<trkpt lat="47.943386" lon="7.810391"><ele>386.25</ele></trkpt>
<trkpt lat="47.943513" lon="7.810523"><ele>387.5</ele></trkpt>
<trkpt lat="47.943781" lon="7.810890"><ele>390.0</ele></trkpt>
<trkpt lat="47.943977" lon="7.811168"><ele>391.25</ele></trkpt>
<trkpt lat="47.944139" lon="7.811354"><ele>391.75</ele></trkpt>
<trkpt lat="47.944293" lon="7.811531"><ele>392.25</ele></trkpt>
<trkpt lat="47.944346" lon="7.811588"><ele>392.5</ele></trkpt>
<trkpt lat="47.944707" lon="7.811981"><ele>394.5</ele></trkpt>
<trkpt lat="47.945274" lon="7.812529"><ele>397.75</ele></trkpt>
<trkpt lat="47.945663" lon="7.812953"><ele>398.25</ele></trkpt>
<trkpt lat="47.946084" lon="7.813396"><ele>399.5</ele></trkpt>
<trkpt lat="47.946492" lon="7.813826"><ele>399.75</ele></trkpt>
<trkpt lat="47.946581" lon="7.813893"><ele>400.25</ele></trkpt>
<trkpt lat="47.946628" lon="7.813972"><ele>400.25</ele></trkpt>
<trkpt lat="47.946652" lon="7.814082"><ele>400.0</ele></trkpt>
<trkpt lat="47.946657" lon="7.814308"><ele>399.25</ele></trkpt>
<trkpt lat="47.946639" lon="7.814526"><ele>398.5</ele></trkpt>
<trkpt lat="47.946609" lon="7.814690"><ele>397.75</ele></trkpt>
<trkpt lat="47.946574" lon="7.814885"><ele>397.25</ele></trkpt>
<trkpt lat="47.946476" lon="7.815320"><ele>396.25</ele></trkpt>
<trkpt lat="47.946330" lon="7.815909"><ele>395.5</ele></trkpt>
<trkpt lat="47.946240" lon="7.816283"><ele>395.0</ele></trkpt>
<trkpt lat="47.946174" lon="7.816589"><ele>395.0</ele></trkpt>
<trkpt lat="47.946161" lon="7.816720"><ele>395.0</ele></trkpt>
<trkpt lat="47.945917" lon="7.817064"><ele>394.25</ele></trkpt>
<trkpt lat="47.945777" lon="7.817313"><ele>391.75</ele></trkpt>
<trkpt lat="47.945663" lon="7.817574"><ele>388.0</ele></trkpt>
<trkpt lat="47.945573" lon="7.817925"><ele>383.5</ele></trkpt>
<trkpt lat="47.945541" lon="7.818222"><ele>379.75</ele></trkpt>
<trkpt lat="47.945535" lon="7.818368"><ele>378.25</ele></trkpt>
<trkpt lat="47.945566" lon="7.818771"><ele>375.25</ele></trkpt>
<trkpt lat="47.945599" lon="7.818959"><ele>373.25</ele></trkpt>
<trkpt lat="47.945628" lon="7.819054"><ele>372.25</ele></trkpt>
<trkpt lat="47.945700" lon="7.819203"><ele>371.0</ele></trkpt>
<trkpt lat="47.945795" lon="7.819343"><ele>369.75</ele></trkpt>
<trkpt lat="47.945851" lon="7.819394"><ele>369.25</ele></trkpt>
<trkpt lat="47.945923" lon="7.819433"><ele>368.75</ele></trkpt>
<trkpt lat="47.946145" lon="7.819521"><ele>367.25</ele></trkpt>
<trkpt lat="47.946279" lon="7.819556"><ele>367.0</ele></trkpt>
<trkpt lat="47.946420" lon="7.819572"><ele>367.0</ele></trkpt>
<trkpt lat="47.946504" lon="7.819616"><ele>366.75</ele></trkpt>
<trkpt lat="47.946573" lon="7.819699"><ele>366.0</ele></trkpt>
<trkpt lat="47.946593" lon="7.819779"><ele>365.25</ele></trkpt>
<trkpt lat="47.946597" lon="7.819876"><ele>364.25</ele></trkpt>
<trkpt lat="47.946582" lon="7.819937"><ele>363.5</ele></trkpt>
<trkpt lat="47.946554" lon="7.820009"><ele>362.75</ele></trkpt>
<trkpt lat="47.946502" lon="7.820145"><ele>361.75</ele></trkpt>
<trkpt lat="47.946622" lon="7.820242"><ele>361.25</ele></trkpt>
<trkpt lat="47.946908" lon="7.820474"><ele>359.75</ele></trkpt>
<trkpt lat="47.947343" lon="7.820870"><ele>356.25</ele></trkpt>
<trkpt lat="47.947625" lon="7.821155"><ele>355.25</ele></trkpt>
<trkpt lat="47.947842" lon="7.821396"><ele>353.5</ele></trkpt>
<trkpt lat="47.948029" lon="7.821647"><ele>351.75</ele></trkpt>
<trkpt lat="47.948252" lon="7.822004"><ele>349.25</ele></trkpt>
<trkpt lat="47.948423" lon="7.822337"><ele>347.25</ele></trkpt>
<trkpt lat="47.948532" lon="7.822584"><ele>346.0</ele></trkpt>
<trkpt lat="47.948638" lon="7.822897"><ele>344.5</ele></trkpt>
<trkpt lat="47.948692" lon="7.823093"><ele>344.25</ele></trkpt>
<trkpt lat="47.948770" lon="7.823336"><ele>344.5</ele></trkpt>
<trkpt lat="47.948896" lon="7.823616"><ele>343.0</ele></trkpt>
<trkpt lat="47.949131" lon="7.823986"><ele>341.25</ele></trkpt>
<trkpt lat="47.949165" lon="7.824028"><ele>340.75</ele></trkpt>
<trkpt lat="47.949491" lon="7.824536"><ele>336.5</ele></trkpt>
<trkpt lat="47.949592" lon="7.824725"><ele>335.5</ele></trkpt>
<trkpt lat="47.949876" lon="7.825448"><ele>332.5</ele></trkpt>
<trkpt lat="47.949945" lon="7.825617"><ele>331.75</ele></trkpt>
<trkpt lat="47.950097" lon="7.825948"><ele>330.25</ele></trkpt>
<trkpt lat="47.950248" lon="7.826214"><ele>329.0</ele></trkpt>
<trkpt lat="47.950373" lon="7.826394"><ele>328.25</ele></trkpt>
<trkpt lat="47.950577" lon="7.826616"><ele>327.0</ele></trkpt>
<trkpt lat="47.950924" lon="7.826951"><ele>325.0</ele></trkpt>
<trkpt lat="47.951183" lon="7.827217"><ele>322.75</ele></trkpt>
<trkpt lat="47.951395" lon="7.827414"><ele>320.75</ele></trkpt>
<trkpt lat="47.951528" lon="7.827514"><ele>319.25</ele></trkpt>
<trkpt lat="47.951614" lon="7.827569"><ele>319.0</ele></trkpt>
<trkpt lat="47.951709" lon="7.827616"><ele>318.75</ele></trkpt>
<trkpt lat="47.951924" lon="7.827692"><ele>317.5</ele></trkpt>
<trkpt lat="47.952003" lon="7.827716"><ele>316.75</ele></trkpt>
<trkpt lat="47.952252" lon="7.827777"><ele>314.75</ele></trkpt>
<trkpt lat="47.952374" lon="7.827810"><ele>313.25</ele></trkpt>
<trkpt lat="47.952600" lon="7.827867"><ele>311.25</ele></trkpt>
<trkpt lat="47.952716" lon="7.827928"><ele>310.25</ele></trkpt>
<trkpt lat="47.952845" lon="7.827979"><ele>309.75</ele></trkpt>
<trkpt lat="47.952947" lon="7.828042"><ele>309.0</ele></trkpt>
<trkpt lat="47.953238" lon="7.828250"><ele>309.0</ele></trkpt>
<trkpt lat="47.953379" lon="7.828349"><ele>309.0</ele></trkpt>
<trkpt lat="47.953491" lon="7.828417"><ele>309.0</ele></trkpt>
<trkpt lat="47.953628" lon="7.828456"><ele>308.75</ele></trkpt>
<trkpt lat="47.953970" lon="7.828494"><ele>306.75</ele></trkpt>
<trkpt lat="47.954267" lon="7.828561"><ele>302.75</ele></trkpt>
<trkpt lat="47.954362" lon="7.828571"><ele>301.25</ele></trkpt>
<trkpt lat="47.954452" lon="7.828568"><ele>300.25</ele></trkpt>
<trkpt lat="47.954535" lon="7.828557"><ele>300.25</ele></trkpt>
<trkpt lat="47.954713" lon="7.828543"><ele>300.25</ele></trkpt>
<trkpt lat="47.954859" lon="7.828554"><ele>300.0</ele></trkpt>
<trkpt lat="47.954981" lon="7.828590"><ele>300.0</ele></trkpt>
<trkpt lat="47.955066" lon="7.828630"><ele>299.75</ele></trkpt>
<trkpt lat="47.955168" lon="7.828665"><ele>299.75</ele></trkpt>
<trkpt lat="47.955289" lon="7.828708"><ele>299.5</ele></trkpt>
<trkpt lat="47.955604" lon="7.828827"><ele>299.0</ele></trkpt>
<trkpt lat="47.955651" lon="7.828846"><ele>299.0</ele></trkpt>
<trkpt lat="47.955733" lon="7.828879"><ele>299.0</ele></trkpt>
<trkpt lat="47.955872" lon="7.828966"><ele>299.0</ele></trkpt>
<trkpt lat="47.955958" lon="7.829042"><ele>299.0</ele></trkpt>
<trkpt lat="47.956046" lon="7.829137"><ele>299.0</ele></trkpt>
<trkpt lat="47.956299" lon="7.829412"><ele>299.0</ele></trkpt>
<trkpt lat="47.956430" lon="7.829534"><ele>299.0</ele></trkpt>
<trkpt lat="47.956514" lon="7.829589"><ele>299.0</ele></trkpt>
<trkpt lat="47.956787" lon="7.829740"><ele>298.0</ele></trkpt>
<trkpt lat="47.956946" lon="7.829817"><ele>296.75</ele></trkpt>
<trkpt lat="47.957509" lon="7.830072"><ele>294.0</ele></trkpt>
<trkpt lat="47.957741" lon="7.830196"><ele>294.0</ele></trkpt>
<trkpt lat="47.957907" lon="7.830304"><ele>293.5</ele></trkpt>
<trkpt lat="47.957984" lon="7.830359"><ele>293.25</ele></trkpt>
<trkpt lat="47.958104" lon="7.830481"><ele>292.75</ele></trkpt>
<trkpt lat="47.958139" lon="7.830526"><ele>292.5</ele></trkpt>
<trkpt lat="47.958189" lon="7.830594"><ele>292.5</ele></trkpt>
<trkpt lat="47.958292" lon="7.830742"><ele>292.75</ele></trkpt>
<trkpt lat="47.958354" lon="7.830833"><ele>292.75</ele></trkpt>
<trkpt lat="47.958398" lon="7.830896"><ele>292.5</ele></trkpt>
<trkpt lat="47.958448" lon="7.830974"><ele>292.25</ele></trkpt>
<trkpt lat="47.958480" lon="7.831061"><ele>292.25</ele></trkpt>
<trkpt lat="47.958517" lon="7.831132"><ele>292.25</ele></trkpt>
<trkpt lat="47.958549" lon="7.831177"><ele>292.25</ele></trkpt>
<trkpt lat="47.958661" lon="7.831277"><ele>291.5</ele></trkpt>
<trkpt lat="47.958749" lon="7.831335"><ele>291.0</ele></trkpt>
<trkpt lat="47.958843" lon="7.831353"><ele>290.25</ele></trkpt>
<trkpt lat="47.958909" lon="7.831379"><ele>289.75</ele></trkpt>
<trkpt lat="47.958900" lon="7.831434"><ele>289.75</ele></trkpt>
<trkpt lat="47.958894" lon="7.831556"><ele>289.75</ele></trkpt>
<trkpt lat="47.958897" lon="7.831631"><ele>289.75</ele></trkpt>
<trkpt lat="47.958900" lon="7.831711"><ele>290.25</ele></trkpt>
<trkpt lat="47.958961" lon="7.831767"><ele>290.25</ele></trkpt>
<trkpt lat="47.959810" lon="7.832586"><ele>291.25</ele></trkpt>
<trkpt lat="47.959895" lon="7.832641"><ele>291.5</ele></trkpt>
<trkpt lat="47.960181" lon="7.832697"><ele>291.5</ele></trkpt>
<trkpt lat="47.960286" lon="7.832699"><ele>291.5</ele></trkpt>
<trkpt lat="47.960605" lon="7.832701"><ele>291.25</ele></trkpt>
<trkpt lat="47.960655" lon="7.832702"><ele>291.0</ele></trkpt>
<trkpt lat="47.960964" lon="7.832698"><ele>290.5</ele></trkpt>
<trkpt lat="47.961057" lon="7.832679"><ele>290.25</ele></trkpt>
<trkpt lat="47.962154" lon="7.832461"><ele>287.25</ele></trkpt>
<trkpt lat="47.962651" lon="7.832345"><ele>288.25</ele></trkpt>
<trkpt lat="47.962665" lon="7.832341"><ele>288.25</ele></trkpt>
<trkpt lat="47.962976" lon="7.832247"><ele>288.75</ele></trkpt>
<trkpt lat="47.963029" lon="7.832200"><ele>288.5</ele></trkpt>
<trkpt lat="47.963086" lon="7.832133"><ele>288.5</ele></trkpt>
<trkpt lat="47.963341" lon="7.831837"><ele>287.0</ele></trkpt>
<trkpt lat="47.963456" lon="7.831696"><ele>286.75</ele></trkpt>
<trkpt lat="47.963589" lon="7.831532"><ele>285.75</ele></trkpt>
<trkpt lat="47.963849" lon="7.831351"><ele>285.75</ele></trkpt>
<trkpt lat="47.963876" lon="7.831341"><ele>286.0</ele></trkpt>
<trkpt lat="47.964202" lon="7.831125"><ele>284.5</ele></trkpt>
<trkpt lat="47.964395" lon="7.831009"><ele>283.5</ele></trkpt>
<trkpt lat="47.964615" lon="7.830921"><ele>283.25</ele></trkpt>
<trkpt lat="47.964810" lon="7.830863"><ele>283.25</ele></trkpt>
<trkpt lat="47.965100" lon="7.830739"><ele>283.0</ele></trkpt>
<trkpt lat="47.965330" lon="7.830610"><ele>282.5</ele></trkpt>
<trkpt lat="47.965829" lon="7.830245"><ele>282.25</ele></trkpt>
<trkpt lat="47.966001" lon="7.830099"><ele>281.5</ele></trkpt>
<trkpt lat="47.966022" lon="7.830091"><ele>281.5</ele></trkpt>
<trkpt lat="47.966041" lon="7.830084"><ele>281.5</ele></trkpt>
<trkpt lat="47.966169" lon="7.830038"><ele>281.75</ele></trkpt>
<trkpt lat="47.966358" lon="7.830047"><ele>283.25</ele></trkpt>
<trkpt lat="47.966393" lon="7.830024"><ele>283.25</ele></trkpt>
<trkpt lat="47.966442" lon="7.829977"><ele>282.75</ele></trkpt>
<trkpt lat="47.966550" lon="7.830044"><ele>284.0</ele></trkpt>
<trkpt lat="47.966692" lon="7.830135"><ele>285.75</ele></trkpt>
<trkpt lat="47.966826" lon="7.830221"><ele>287.25</ele></trkpt>
<trkpt lat="47.967215" lon="7.830465"><ele>290.75</ele></trkpt>
<trkpt lat="47.967357" lon="7.830585"><ele>292.75</ele></trkpt>
<trkpt lat="47.967536" lon="7.830795"><ele>295.5</ele></trkpt>
<trkpt lat="47.967921" lon="7.831313"><ele>301.5</ele></trkpt>
<trkpt lat="47.968128" lon="7.831710"><ele>305.0</ele></trkpt>
<trkpt lat="47.968240" lon="7.832042"><ele>308.5</ele></trkpt>
<trkpt lat="47.968572" lon="7.833092"><ele>319.0</ele></trkpt>
<trkpt lat="47.968689" lon="7.833322"><ele>320.5</ele></trkpt>
<trkpt lat="47.969060" lon="7.834010"><ele>323.5</ele></trkpt>
<trkpt lat="47.969253" lon="7.834430"><ele>326.0</ele></trkpt>
<trkpt lat="47.969364" lon="7.834648"><ele>327.5</ele></trkpt>
<trkpt lat="47.969581" lon="7.835028"><ele>327.75</ele></trkpt>
<trkpt lat="47.969727" lon="7.835233"><ele>327.0</ele></trkpt>
<trkpt lat="47.970385" lon="7.836218"><ele>329.0</ele></trkpt>
<trkpt lat="47.971133" lon="7.837249"><ele>336.0</ele></trkpt>
<trkpt lat="47.971230" lon="7.837293"><ele>335.75</ele></trkpt>
<trkpt lat="47.971297" lon="7.837304"><ele>335.5</ele></trkpt>
<trkpt lat="47.971328" lon="7.837305"><ele>335.25</ele></trkpt>
<trkpt lat="47.971556" lon="7.837358"><ele>335.0</ele></trkpt>
<trkpt lat="47.971697" lon="7.837430"><ele>335.75</ele></trkpt>
<trkpt lat="47.971832" lon="7.837508"><ele>337.0</ele></trkpt>
<trkpt lat="47.971770" lon="7.837570"><ele>337.75</ele></trkpt>
<trkpt lat="47.971743" lon="7.837618"><ele>338.25</ele></trkpt>
<trkpt lat="47.971746" lon="7.837750"><ele>339.5</ele></trkpt>
<trkpt lat="47.971717" lon="7.837819"><ele>339.75</ele></trkpt>
<trkpt lat="47.971655" lon="7.837884"><ele>339.25</ele></trkpt>
<trkpt lat="47.971617" lon="7.837970"><ele>338.25</ele></trkpt>
<trkpt lat="47.971618" lon="7.838074"><ele>337.5</ele></trkpt>
<trkpt lat="47.971634" lon="7.838213"><ele>334.75</ele></trkpt>
<trkpt lat="47.971665" lon="7.838346"><ele>332.5</ele></trkpt>
<trkpt lat="47.971738" lon="7.838484"><ele>330.5</ele></trkpt>
<trkpt lat="47.972122" lon="7.839124"><ele>324.75</ele></trkpt>
<trkpt lat="47.972350" lon="7.839547"><ele>322.0</ele></trkpt>
<trkpt lat="47.972425" lon="7.839699"><ele>320.25</ele></trkpt>
<trkpt lat="47.972523" lon="7.839956"><ele>317.75</ele></trkpt>
<trkpt lat="47.972669" lon="7.840472"><ele>314.5</ele></trkpt>
<trkpt lat="47.972725" lon="7.840694"><ele>312.75</ele></trkpt>
<trkpt lat="47.972857" lon="7.841332"><ele>308.5</ele></trkpt>
<trkpt lat="47.972898" lon="7.841672"><ele>306.0</ele></trkpt>
<trkpt lat="47.972940" lon="7.842294"><ele>302.75</ele></trkpt>
<trkpt lat="47.972957" lon="7.842660"><ele>300.25</ele></trkpt>
<trkpt lat="47.972954" lon="7.842776"><ele>299.5</ele></trkpt>
<trkpt lat="47.972924" lon="7.842839"><ele>299.25</ele></trkpt>
<trkpt lat="47.972797" lon="7.843045"><ele>298.5</ele></trkpt>
<trkpt lat="47.972645" lon="7.843294"><ele>298.5</ele></trkpt>
<trkpt lat="47.972692" lon="7.843399"><ele>298.25</ele></trkpt>
<trkpt lat="47.972740" lon="7.843486"><ele>298.0</ele></trkpt>
<trkpt lat="47.972820" lon="7.843558"><ele>297.75</ele></trkpt>
<trkpt lat="47.973299" lon="7.843843"><ele>297.0</ele></trkpt>
<trkpt lat="47.973577" lon="7.844046"><ele>296.5</ele></trkpt>
<trkpt lat="47.973671" lon="7.844080"><ele>296.25</ele></trkpt>
<trkpt lat="47.973756" lon="7.844090"><ele>296.0</ele></trkpt>
<trkpt lat="47.973832" lon="7.844079"><ele>295.75</ele></trkpt>
<trkpt lat="47.973961" lon="7.844044"><ele>295.25</ele></trkpt>
<trkpt lat="47.974270" lon="7.843943"><ele>294.5</ele></trkpt>
<trkpt lat="47.974282" lon="7.843958"><ele>294.5</ele></trkpt>
<trkpt lat="47.974333" lon="7.844054"><ele>294.25</ele></trkpt>
<trkpt lat="47.974376" lon="7.844107"><ele>294.0</ele></trkpt>
<trkpt lat="47.974460" lon="7.844217"><ele>294.0</ele></trkpt>
<trkpt lat="47.974557" lon="7.844367"><ele>294.25</ele></trkpt>
<trkpt lat="47.974689" lon="7.844584"><ele>294.0</ele></trkpt>
<trkpt lat="47.974997" lon="7.845140"><ele>293.5</ele></trkpt>
<trkpt lat="47.975022" lon="7.845198"><ele>293.5</ele></trkpt>
<trkpt lat="47.975038" lon="7.845265"><ele>293.75</ele></trkpt>
<trkpt lat="47.975045" lon="7.845355"><ele>293.75</ele></trkpt>
<trkpt lat="47.975038" lon="7.845445"><ele>293.75</ele></trkpt>
<trkpt lat="47.975016" lon="7.845598"><ele>293.75</ele></trkpt>
<trkpt lat="47.974945" lon="7.846147"><ele>294.25</ele></trkpt>
<trkpt lat="47.974899" lon="7.846531"><ele>295.25</ele></trkpt>
<trkpt lat="47.974828" lon="7.847129"><ele>296.5</ele></trkpt>
<trkpt lat="47.974809" lon="7.847301"><ele>296.75</ele></trkpt>
<trkpt lat="47.974798" lon="7.847367"><ele>297.0</ele></trkpt>
<trkpt lat="47.974858" lon="7.847406"><ele>297.0</ele></trkpt>
<trkpt lat="47.975145" lon="7.847525"><ele>296.5</ele></trkpt>
<trkpt lat="47.975249" lon="7.847564"><ele>296.5</ele></trkpt>
<trkpt lat="47.975460" lon="7.847670"><ele>296.5</ele></trkpt>
<trkpt lat="47.975762" lon="7.847825"><ele>296.5</ele></trkpt>
<trkpt lat="47.976072" lon="7.847980"><ele>296.5</ele></trkpt>
<trkpt lat="47.976248" lon="7.848039"><ele>297.25</ele></trkpt>
<trkpt lat="47.977586" lon="7.848291"><ele>298.75</ele></trkpt>
<trkpt lat="47.977811" lon="7.848319"><ele>298.5</ele></trkpt>
<trkpt lat="47.978248" lon="7.848296"><ele>298.25</ele></trkpt>
<trkpt lat="47.978536" lon="7.848250"><ele>297.75</ele></trkpt>
<trkpt lat="47.979336" lon="7.848090"><ele>293.25</ele></trkpt>
<trkpt lat="47.979473" lon="7.848078"><ele>292.25</ele></trkpt>
<trkpt lat="47.980205" lon="7.848035"><ele>287.0</ele></trkpt>
<trkpt lat="47.980502" lon="7.848021"><ele>285.75</ele></trkpt>
<trkpt lat="47.980560" lon="7.848006"><ele>285.25</ele></trkpt>
<trkpt lat="47.980576" lon="7.848003"><ele>285.25</ele></trkpt>
<trkpt lat="47.980793" lon="7.848017"><ele>285.5</ele></trkpt>
<trkpt lat="47.980886" lon="7.848017"><ele>285.0</ele></trkpt>
<trkpt lat="47.980975" lon="7.848017"><ele>284.5</ele></trkpt>
<trkpt lat="47.981390" lon="7.847981"><ele>280.75</ele></trkpt>
<trkpt lat="47.981630" lon="7.847929"><ele>279.5</ele></trkpt>
<trkpt lat="47.981800" lon="7.847892"><ele>279.0</ele></trkpt>
<trkpt lat="47.981852" lon="7.847881"><ele>279.0</ele></trkpt>
<trkpt lat="47.981987" lon="7.847852"><ele>279.0</ele></trkpt>
<trkpt lat="47.981979" lon="7.847877"><ele>278.75</ele></trkpt>
<trkpt lat="47.981945" lon="7.847968"><ele>279.0</ele></trkpt>
<trkpt lat="47.981930" lon="7.848014"><ele>279.0</ele></trkpt>
<trkpt lat="47.981827" lon="7.848350"><ele>280.5</ele></trkpt>
<trkpt lat="47.981778" lon="7.848500"><ele>281.5</ele></trkpt>
<trkpt lat="47.981587" lon="7.849114"><ele>283.0</ele></trkpt>
<trkpt lat="47.981550" lon="7.849227"><ele>283.0</ele></trkpt>
<trkpt lat="47.981428" lon="7.849195"><ele>284.25</ele></trkpt>
<trkpt lat="47.981375" lon="7.849203"><ele>285.0</ele></trkpt>
<trkpt lat="47.981317" lon="7.849233"><ele>285.75</ele></trkpt>
<trkpt lat="47.981283" lon="7.849291"><ele>286.25</ele></trkpt>
<trkpt lat="47.981260" lon="7.849363"><ele>286.75</ele></trkpt>
<trkpt lat="47.981203" lon="7.849740"><ele>288.0</ele></trkpt>
<trkpt lat="47.981119" lon="7.850091"><ele>288.0</ele></trkpt>
<trkpt lat="47.981094" lon="7.850200"><ele>288.0</ele></trkpt>
<trkpt lat="47.981043" lon="7.850439"><ele>289.0</ele></trkpt>
<trkpt lat="47.980996" lon="7.850617"><ele>290.75</ele></trkpt>
<trkpt lat="47.980980" lon="7.850776"><ele>291.25</ele></trkpt>
<trkpt lat="47.980982" lon="7.850834"><ele>291.0</ele></trkpt>
<trkpt lat="47.981006" lon="7.850992"><ele>289.75</ele></trkpt>
<trkpt lat="47.981356" lon="7.852025"><ele>284.0</ele></trkpt>
<trkpt lat="47.981368" lon="7.852075"><ele>284.0</ele></trkpt>
<trkpt lat="47.981517" lon="7.852705"><ele>285.25</ele></trkpt>
<trkpt lat="47.981530" lon="7.852765"><ele>285.25</ele></trkpt>
<trkpt lat="47.981805" lon="7.853906"><ele>288.5</ele></trkpt>
<trkpt lat="47.982023" lon="7.854845"><ele>286.5</ele></trkpt>
<trkpt lat="47.982053" lon="7.855090"><ele>286.75</ele></trkpt>
<trkpt lat="47.982180" lon="7.855962"><ele>286.5</ele></trkpt>
<trkpt lat="47.982300" lon="7.856338"><ele>286.25</ele></trkpt>
<trkpt lat="47.982710" lon="7.857288"><ele>285.5</ele></trkpt>
<trkpt lat="47.982818" lon="7.857530"><ele>285.75</ele></trkpt>
<trkpt lat="47.982858" lon="7.857594"><ele>286.0</ele></trkpt>
<trkpt lat="47.982941" lon="7.857758"><ele>286.0</ele></trkpt>
<trkpt lat="47.983096" lon="7.857993"><ele>286.0</ele></trkpt>
<trkpt lat="47.983192" lon="7.858115"><ele>286.0</ele></trkpt>
<trkpt lat="47.983380" lon="7.858446"><ele>286.5</ele></trkpt>
<trkpt lat="47.983770" lon="7.859159"><ele>286.5</ele></trkpt>
<trkpt lat="47.984082" lon="7.859771"><ele>287.0</ele></trkpt>
<trkpt lat="47.984265" lon="7.860279"><ele>287.5</ele></trkpt>
<trkpt lat="47.984423" lon="7.860749"><ele>287.0</ele></trkpt>
<trkpt lat="47.984444" lon="7.860898"><ele>287.0</ele></trkpt>
<trkpt lat="47.984442" lon="7.861176"><ele>286.75</ele></trkpt>
<trkpt lat="47.984363" lon="7.861623"><ele>286.75</ele></trkpt>
<trkpt lat="47.984245" lon="7.862014"><ele>286.5</ele></trkpt>
<trkpt lat="47.984178" lon="7.862174"><ele>286.75</ele></trkpt>
<trkpt lat="47.983926" lon="7.862640"><ele>290.0</ele></trkpt>
<trkpt lat="47.983378" lon="7.863246"><ele>293.75</ele></trkpt>
<trkpt lat="47.983265" lon="7.863385"><ele>294.75</ele></trkpt>
<trkpt lat="47.983098" lon="7.863609"><ele>297.0</ele></trkpt>
<trkpt lat="47.983431" lon="7.865361"><ele>297.75</ele></trkpt>
<trkpt lat="47.983493" lon="7.865607"><ele>297.0</ele></trkpt>
<trkpt lat="47.983539" lon="7.865727"><ele>297.25</ele></trkpt>
<trkpt lat="47.983699" lon="7.866099"><ele>297.25</ele></trkpt>
<trkpt lat="47.984290" lon="7.867006"><ele>296.0</ele></trkpt>
<trkpt lat="47.984590" lon="7.867538"><ele>296.25</ele></trkpt>
<trkpt lat="47.984865" lon="7.868134"><ele>296.25</ele></trkpt>
<trkpt lat="47.985151" lon="7.868843"><ele>296.75</ele></trkpt>
<trkpt lat="47.985412" lon="7.869763"><ele>296.25</ele></trkpt>
<trkpt lat="47.985473" lon="7.870072"><ele>296.5</ele></trkpt>
<trkpt lat="47.985479" lon="7.870178"><ele>296.5</ele></trkpt>
<trkpt lat="47.985463" lon="7.870429"><ele>297.5</ele></trkpt>
<trkpt lat="47.985361" lon="7.871164"><ele>299.5</ele></trkpt>
<trkpt lat="47.985271" lon="7.871996"><ele>299.5</ele></trkpt>
<trkpt lat="47.985267" lon="7.872215"><ele>299.75</ele></trkpt>
<trkpt lat="47.985305" lon="7.872667"><ele>298.5</ele></trkpt>
<trkpt lat="47.985301" lon="7.872905"><ele>297.25</ele></trkpt>
<trkpt lat="47.985244" lon="7.873270"><ele>297.0</ele></trkpt>
<trkpt lat="47.985202" lon="7.873453"><ele>297.0</ele></trkpt>
<trkpt lat="47.985241" lon="7.873427"><ele>297.0</ele></trkpt>
<trkpt lat="47.985288" lon="7.873410"><ele>297.0</ele></trkpt>
<trkpt lat="47.985402" lon="7.873401"><ele>297.0</ele></trkpt>
<trkpt lat="47.985529" lon="7.873407"><ele>297.0</ele></trkpt>
<trkpt lat="47.985598" lon="7.873419"><ele>296.75</ele></trkpt>
<trkpt lat="47.985659" lon="7.873427"><ele>296.5</ele></trkpt>
<trkpt lat="47.985768" lon="7.873453"><ele>296.0</ele></trkpt>
<trkpt lat="47.985823" lon="7.873489"><ele>296.0</ele></trkpt>
<trkpt lat="47.985910" lon="7.873555"><ele>296.0</ele></trkpt>
<trkpt lat="47.985961" lon="7.873632"><ele>296.0</ele></trkpt>
<trkpt lat="47.987501" lon="7.874229"><ele>295.75</ele></trkpt>
<trkpt lat="47.987711" lon="7.874321"><ele>295.0</ele></trkpt>
<trkpt lat="47.987803" lon="7.874271"><ele>295.0</ele></trkpt>
<trkpt lat="47.987822" lon="7.874264"><ele>295.0</ele></trkpt>
<trkpt lat="47.987865" lon="7.874254"><ele>295.0</ele></trkpt>
<trkpt lat="47.987892" lon="7.874250"><ele>295.0</ele></trkpt>
<trkpt lat="47.987991" lon="7.874061"><ele>295.0</ele></trkpt>
<trkpt lat="47.988001" lon="7.873915"><ele>295.0</ele></trkpt>
<trkpt lat="47.988033" lon="7.873607"><ele>295.0</ele></trkpt>
<trkpt lat="47.988065" lon="7.873274"><ele>294.75</ele></trkpt>
<trkpt lat="47.988107" lon="7.872958"><ele>295.0</ele></trkpt>
<trkpt lat="47.988145" lon="7.872690"><ele>295.0</ele></trkpt>
<trkpt lat="47.988188" lon="7.872408"><ele>295.0</ele></trkpt>
<trkpt lat="47.988288" lon="7.871755"><ele>294.75</ele></trkpt>
<trkpt lat="47.988310" lon="7.871629"><ele>294.75</ele></trkpt>
<trkpt lat="47.988329" lon="7.871501"><ele>294.25</ele></trkpt>
<trkpt lat="47.988358" lon="7.871216"><ele>294.0</ele></trkpt>
<trkpt lat="47.988390" lon="7.870980"><ele>293.5</ele></trkpt>
<trkpt lat="47.988504" lon="7.870230"><ele>291.0</ele></trkpt>
<trkpt lat="47.988531" lon="7.870085"><ele>291.0</ele></trkpt>
<trkpt lat="47.988546" lon="7.869991"><ele>291.0</ele></trkpt>
<trkpt lat="47.988614" lon="7.869324"><ele>290.0</ele></trkpt>
<trkpt lat="47.988622" lon="7.869233"><ele>290.0</ele></trkpt>
<trkpt lat="47.988658" lon="7.868629"><ele>290.0</ele></trkpt>
<trkpt lat="47.988672" lon="7.868266"><ele>290.0</ele></trkpt>
<trkpt lat="47.988657" lon="7.867702"><ele>289.75</ele></trkpt>
<trkpt lat="47.988644" lon="7.867358"><ele>289.5</ele></trkpt>
<trkpt lat="47.988618" lon="7.866778"><ele>288.75</ele></trkpt>
<trkpt lat="47.988604" lon="7.866499"><ele>288.75</ele></trkpt>
<trkpt lat="47.988592" lon="7.866173"><ele>288.0</ele></trkpt>
<trkpt lat="47.988588" lon="7.866068"><ele>288.0</ele></trkpt>
<trkpt lat="47.988590" lon="7.865853"><ele>288.0</ele></trkpt>
<trkpt lat="47.988553" lon="7.865238"><ele>287.0</ele></trkpt>
<trkpt lat="47.988549" lon="7.865087"><ele>287.0</ele></trkpt>
<trkpt lat="47.988545" lon="7.864595"><ele>286.0</ele></trkpt>
<trkpt lat="47.988552" lon="7.864480"><ele>286.0</ele></trkpt>
<trkpt lat="47.988564" lon="7.863878"><ele>285.0</ele></trkpt>
<trkpt lat="47.988581" lon="7.863501"><ele>285.0</ele></trkpt>
<trkpt lat="47.988555" lon="7.863045"><ele>284.0</ele></trkpt>
<trkpt lat="47.988562" lon="7.862993"><ele>284.0</ele></trkpt>
<trkpt lat="47.988571" lon="7.862924"><ele>284.0</ele></trkpt>
<trkpt lat="47.988601" lon="7.862720"><ele>284.0</ele></trkpt>
<trkpt lat="47.988646" lon="7.862449"><ele>283.75</ele></trkpt>
<trkpt lat="47.988706" lon="7.862135"><ele>283.25</ele></trkpt>
<trkpt lat="47.988768" lon="7.861762"><ele>283.0</ele></trkpt>
<trkpt lat="47.988819" lon="7.861410"><ele>283.0</ele></trkpt>
<trkpt lat="47.988880" lon="7.861062"><ele>282.0</ele></trkpt>
<trkpt lat="47.988889" lon="7.861010"><ele>282.0</ele></trkpt>
<trkpt lat="47.988927" lon="7.860793"><ele>281.75</ele></trkpt>
<trkpt lat="47.989079" lon="7.859963"><ele>281.25</ele></trkpt>
<trkpt lat="47.989182" lon="7.859521"><ele>280.75</ele></trkpt>
<trkpt lat="47.989269" lon="7.859202"><ele>281.0</ele></trkpt>
<trkpt lat="47.989311" lon="7.859061"><ele>281.0</ele></trkpt>
<trkpt lat="47.989514" lon="7.858570"><ele>281.0</ele></trkpt>
<trkpt lat="47.989608" lon="7.858402"><ele>281.0</ele></trkpt>
<trkpt lat="47.989706" lon="7.858246"><ele>281.0</ele></trkpt>
<trkpt lat="47.989969" lon="7.857863"><ele>280.0</ele></trkpt>
<trkpt lat="47.990227" lon="7.857558"><ele>280.0</ele></trkpt>
<trkpt lat="47.990345" lon="7.857422"><ele>279.75</ele></trkpt>
<trkpt lat="47.990533" lon="7.857199"><ele>279.0</ele></trkpt>
<trkpt lat="47.990708" lon="7.856926"></trkpt>
<trkpt lat="47.990846" lon="7.856666"></trkpt>
<trkpt lat="47.990883" lon="7.856576"></trkpt>
<trkpt lat="47.990929" lon="7.856461"></trkpt>
<trkpt lat="47.990984" lon="7.856284"></trkpt>
<trkpt lat="47.991038" lon="7.856051"></trkpt>
<trkpt lat="47.991055" lon="7.855934"></trkpt>
<trkpt lat="47.991072" lon="7.855817"><ele>276.0</ele></trkpt>
<trkpt lat="47.991105" lon="7.855568"><ele>276.0</ele></trkpt>
<trkpt lat="47.991134" lon="7.855123"><ele>275.75</ele></trkpt>
<trkpt lat="47.991228" lon="7.854639"><ele>275.0</ele></trkpt>
<trkpt lat="47.991263" lon="7.854561"><ele>275.0</ele></trkpt>
<trkpt lat="47.991310" lon="7.854485"><ele>275.0</ele></trkpt>
<trkpt lat="47.991376" lon="7.854469"><ele>275.0</ele></trkpt>
<trkpt lat="47.991608" lon="7.854441"><ele>275.75</ele></trkpt>
<trkpt lat="47.991723" lon="7.854428"><ele>276.0</ele></trkpt>
<trkpt lat="47.992123" lon="7.854376"><ele>276.75</ele></trkpt>
<trkpt lat="47.992378" lon="7.854356"><ele>277.5</ele></trkpt>
<trkpt lat="47.992455" lon="7.854360"><ele>277.75</ele></trkpt>
<trkpt lat="47.992575" lon="7.854405"><ele>278.0</ele></trkpt>
<trkpt lat="47.992687" lon="7.854463"><ele>278.75</ele></trkpt>
<trkpt lat="47.992780" lon="7.854534"><ele>279.75</ele></trkpt>
<trkpt lat="47.992878" lon="7.854620"><ele>281.0</ele></trkpt>
<trkpt lat="47.993110" lon="7.854820"><ele>286.0</ele></trkpt>
<trkpt lat="47.993369" lon="7.855070"><ele>291.0</ele></trkpt>
<trkpt lat="47.994085" lon="7.855850"><ele>291.75</ele></trkpt>
<trkpt lat="47.994310" lon="7.856086"><ele>289.25</ele></trkpt>
<trkpt lat="47.994487" lon="7.856256"><ele>287.25</ele></trkpt>
<trkpt lat="47.994631" lon="7.856388"><ele>284.75</ele></trkpt>
<trkpt lat="47.994845" lon="7.856574"><ele>283.0</ele></trkpt>
<trkpt lat="47.995040" lon="7.856738"><ele>281.25</ele></trkpt>
<trkpt lat="47.995169" lon="7.856858"><ele>280.5</ele></trkpt>
<trkpt lat="47.995375" lon="7.857090"><ele>280.25</ele></trkpt>
<trkpt lat="47.995648" lon="7.857444"><ele>280.0</ele></trkpt>
<trkpt lat="47.995732" lon="7.857553"><ele>280.0</ele></trkpt>
<trkpt lat="47.995861" lon="7.857710"><ele>279.5</ele></trkpt>
<trkpt lat="47.995961" lon="7.857832"><ele>280.0</ele></trkpt>
<trkpt lat="47.996052" lon="7.857915"><ele>280.0</ele></trkpt>
<trkpt lat="47.996128" lon="7.857968"><ele>279.5</ele></trkpt>
<trkpt lat="47.996327" lon="7.858062"><ele>279.25</ele></trkpt>
<trkpt lat="47.996423" lon="7.858074"><ele>279.0</ele></trkpt>
<trkpt lat="47.996490" lon="7.858064"><ele>279.0</ele></trkpt>
<trkpt lat="47.996570" lon="7.858038"><ele>278.75</ele></trkpt>
<trkpt lat="47.996660" lon="7.857979"><ele>278.5</ele></trkpt>
<trkpt lat="47.996747" lon="7.857903"><ele>278.0</ele></trkpt>
<trkpt lat="47.996792" lon="7.857843"><ele>277.5</ele></trkpt>
<trkpt lat="47.996880" lon="7.857671"><ele>277.0</ele></trkpt>
<trkpt lat="47.997074" lon="7.857056"><ele>276.0</ele></trkpt>
<trkpt lat="47.997242" lon="7.856466"><ele>275.0</ele></trkpt>
<trkpt lat="47.997441" lon="7.856301"><ele>275.0</ele></trkpt>
<trkpt lat="47.997566" lon="7.856229"><ele>275.0</ele></trkpt>
<trkpt lat="47.997623" lon="7.856212"><ele>275.0</ele></trkpt>
<trkpt lat="47.997661" lon="7.856230"><ele>275.0</ele></trkpt>
<trkpt lat="47.997685" lon="7.856242"><ele>275.0</ele></trkpt>
<trkpt lat="47.997765" lon="7.856289"><ele>275.0</ele></trkpt>
<trkpt lat="47.997968" lon="7.856399"><ele>274.25</ele></trkpt>
<trkpt lat="47.997998" lon="7.856415"><ele>274.0</ele></trkpt>
<trkpt lat="47.998444" lon="7.856658"><ele>273.75</ele></trkpt>
<trkpt lat="47.998831" lon="7.855144"><ele>273.0</ele></trkpt>
<trkpt lat="47.998987" lon="7.854523"><ele>272.5</ele></trkpt>
<trkpt lat="47.999129" lon="7.853993"><ele>272.0</ele></trkpt>
<trkpt lat="47.999281" lon="7.853359"><ele>272.0</ele></trkpt>
<trkpt lat="48.000042" lon="7.853668"><ele>270.0</ele></trkpt>
<trkpt lat="48.000049" lon="7.853623"><ele>270.0</ele></trkpt>
<trkpt lat="48.000055" lon="7.853588"><ele>270.0</ele></trkpt>
<trkpt lat="48.000066" lon="7.853548"><ele>270.0</ele></trkpt>
<trkpt lat="48.000084" lon="7.853443"><ele>270.0</ele></trkpt>
<trkpt lat="48.000156" lon="7.853471"><ele>270.0</ele></trkpt>
<trkpt lat="48.000271" lon="7.852890"><ele>270.0</ele></trkpt>
<trkpt lat="48.000328" lon="7.852605"><ele>270.0</ele></trkpt>
<trkpt lat="48.000395" lon="7.852234"><ele>270.0</ele></trkpt>
<trkpt lat="48.000089" lon="7.852207"><ele>270.0</ele></trkpt>
</trkseg></trk></gpx>
