<?xml version="1.0" encoding="UTF-8"?>
<!-- track-length = 27959 filtered ascend = 82 plain-ascend = 0 cost=39712 energy=.1kwh time=1h 21m 27s AUTO selected WAYPOINT (score 0.870) after 2 candidate(s) in 3838ms. Also tried ISO_GREEDY: score 0.837. short shared stem near start/end: 188m -->
<gpx
 xmlns="http://www.topografix.com/GPX/1/1"
 xmlns:xsi="http://www.w3.org/2001/XMLSchema-instance"
 xsi:schemaLocation="http://www.topografix.com/GPX/1/1 http://www.topografix.com/GPX/1/1/gpx.xsd"
 creator="BRouter-null" version="1.1">
 <trk>
  <name>brouter_fastbike_0</name>
  <trkseg>
   <trkpt lon="7.852207" lat="48.000089"><ele>270.0</ele></trkpt>
   <trkpt lon="7.852234" lat="48.000395"><ele>270.0</ele></trkpt>
   <trkpt lon="7.852080" lat="48.000426"><ele>270.0</ele></trkpt>
   <trkpt lon="7.851948" lat="48.000450"><ele>270.0</ele></trkpt>
   <trkpt lon="7.851754" lat="48.000486"><ele>270.0</ele></trkpt>
   <trkpt lon="7.851217" lat="48.000585"><ele>270.0</ele></trkpt>
   <trkpt lon="7.851185" lat="48.000591"><ele>270.0</ele></trkpt>
   <trkpt lon="7.851090" lat="48.000608"><ele>270.0</ele></trkpt>
   <trkpt lon="7.850632" lat="48.000693"><ele>270.0</ele></trkpt>
   <trkpt lon="7.850491" lat="48.000720"><ele>270.0</ele></trkpt>
   <trkpt lon="7.850140" lat="48.000785"><ele>270.0</ele></trkpt>
   <trkpt lon="7.850106" lat="48.000791"><ele>270.0</ele></trkpt>
   <trkpt lon="7.849805" lat="48.000847"><ele>269.75</ele></trkpt>
   <trkpt lon="7.849494" lat="48.000905"><ele>269.75</ele></trkpt>
   <trkpt lon="7.849452" lat="48.000912"><ele>269.5</ele></trkpt>
   <trkpt lon="7.848489" lat="48.001089"><ele>269.0</ele></trkpt>
   <trkpt lon="7.847675" lat="48.001236"><ele>268.0</ele></trkpt>
   <trkpt lon="7.847367" lat="48.001293"><ele>268.0</ele></trkpt>
   <trkpt lon="7.846687" lat="48.001419"><ele>267.0</ele></trkpt>
   <trkpt lon="7.846598" lat="48.001438"><ele>267.0</ele></trkpt>
   <trkpt lon="7.846503" lat="48.001475"><ele>267.0</ele></trkpt>
   <trkpt lon="7.846452" lat="48.001495"><ele>267.0</ele></trkpt>
   <trkpt lon="7.845872" lat="48.001722"><ele>266.0</ele></trkpt>
   <trkpt lon="7.845764" lat="48.001767"><ele>266.0</ele></trkpt>
   <trkpt lon="7.845753" lat="48.001755"><ele>266.0</ele></trkpt>
   <trkpt lon="7.845470" lat="48.001442"><ele>266.5</ele></trkpt>
   <trkpt lon="7.845268" lat="48.001203"><ele>266.5</ele></trkpt>
   <trkpt lon="7.844839" lat="48.000681"><ele>267.0</ele></trkpt>
   <trkpt lon="7.844814" lat="48.000643"><ele>267.0</ele></trkpt>
   <trkpt lon="7.844712" lat="48.000518"><ele>267.0</ele></trkpt>
   <trkpt lon="7.844665" lat="48.000458"><ele>267.25</ele></trkpt>
   <trkpt lon="7.844393" lat="48.000103"><ele>267.75</ele></trkpt>
   <trkpt lon="7.844322" lat="48.000003"><ele>267.75</ele></trkpt>
   <trkpt lon="7.844298" lat="47.999974"><ele>268.0</ele></trkpt>
   <trkpt lon="7.844178" lat="47.999900"><ele>268.0</ele></trkpt>
   <trkpt lon="7.844108" lat="47.999850"><ele>268.0</ele></trkpt>
   <trkpt lon="7.844006" lat="47.999756"><ele>268.0</ele></trkpt>
   <trkpt lon="7.843862" lat="47.999724"><ele>267.75</ele></trkpt>
   <trkpt lon="7.843837" lat="47.999691"><ele>268.0</ele></trkpt>
   <trkpt lon="7.843787" lat="47.999623"><ele>268.0</ele></trkpt>
   <trkpt lon="7.843720" lat="47.999512"><ele>268.0</ele></trkpt>
   <trkpt lon="7.843630" lat="47.999393"><ele>268.0</ele></trkpt>
   <trkpt lon="7.843437" lat="47.999449"><ele>268.0</ele></trkpt>
   <trkpt lon="7.843395" lat="47.999460"><ele>268.0</ele></trkpt>
   <trkpt lon="7.843061" lat="47.999521"><ele>268.0</ele></trkpt>
   <trkpt lon="7.842560" lat="47.999602"><ele>267.0</ele></trkpt>
   <trkpt lon="7.842530" lat="47.999606"><ele>267.0</ele></trkpt>
   <trkpt lon="7.842110" lat="47.999687"><ele>267.0</ele></trkpt>
   <trkpt lon="7.842018" lat="47.999726"><ele>266.75</ele></trkpt>
   <trkpt lon="7.841987" lat="47.999680"><ele>267.0</ele></trkpt>
   <trkpt lon="7.841520" lat="47.999073"><ele>267.0</ele></trkpt>
   <trkpt lon="7.841496" lat="47.999041"><ele>267.0</ele></trkpt>
   <trkpt lon="7.841477" lat="47.999016"><ele>267.0</ele></trkpt>
   <trkpt lon="7.841333" lat="47.998827"><ele>267.0</ele></trkpt>
   <trkpt lon="7.841210" lat="47.998663"><ele>267.25</ele></trkpt>
   <trkpt lon="7.841135" lat="47.998579"><ele>267.0</ele></trkpt>
   <trkpt lon="7.841095" lat="47.998527"><ele>267.25</ele></trkpt>
   <trkpt lon="7.840877" lat="47.998248"><ele>267.0</ele></trkpt>
   <trkpt lon="7.840801" lat="47.998158"><ele>267.0</ele></trkpt>
   <trkpt lon="7.840727" lat="47.998101"><ele>267.0</ele></trkpt>
   <trkpt lon="7.840604" lat="47.998042"><ele>267.0</ele></trkpt>
   <trkpt lon="7.840590" lat="47.998035"><ele>267.0</ele></trkpt>
   <trkpt lon="7.840584" lat="47.998032"><ele>267.0</ele></trkpt>
   <trkpt lon="7.840093" lat="47.997791"><ele>267.0</ele></trkpt>
   <trkpt lon="7.839923" lat="47.997708"><ele>267.0</ele></trkpt>
   <trkpt lon="7.839907" lat="47.997701"><ele>267.0</ele></trkpt>
   <trkpt lon="7.839777" lat="47.997619"><ele>267.0</ele></trkpt>
   <trkpt lon="7.839742" lat="47.997590"><ele>267.0</ele></trkpt>
   <trkpt lon="7.839635" lat="47.997459"><ele>266.5</ele></trkpt>
   <trkpt lon="7.839416" lat="47.997159"><ele>266.75</ele></trkpt>
   <trkpt lon="7.839361" lat="47.997093"><ele>266.5</ele></trkpt>
   <trkpt lon="7.839286" lat="47.996997"><ele>266.25</ele></trkpt>
   <trkpt lon="7.839215" lat="47.996909"><ele>266.0</ele></trkpt>
   <trkpt lon="7.839201" lat="47.996889"><ele>266.0</ele></trkpt>
   <trkpt lon="7.839112" lat="47.996765"><ele>266.0</ele></trkpt>
   <trkpt lon="7.838931" lat="47.996530"><ele>266.0</ele></trkpt>
   <trkpt lon="7.838913" lat="47.996505"><ele>266.0</ele></trkpt>
   <trkpt lon="7.838897" lat="47.996483"><ele>266.0</ele></trkpt>
   <trkpt lon="7.838851" lat="47.996420"><ele>266.0</ele></trkpt>
   <trkpt lon="7.838814" lat="47.996373"><ele>266.0</ele></trkpt>
   <trkpt lon="7.838791" lat="47.996345"><ele>266.0</ele></trkpt>
   <trkpt lon="7.838604" lat="47.996097"><ele>266.0</ele></trkpt>
   <trkpt lon="7.838526" lat="47.995992"><ele>266.0</ele></trkpt>
   <trkpt lon="7.838484" lat="47.995936"><ele>266.0</ele></trkpt>
   <trkpt lon="7.838453" lat="47.995903"><ele>266.0</ele></trkpt>
   <trkpt lon="7.838388" lat="47.995875"><ele>266.0</ele></trkpt>
   <trkpt lon="7.838286" lat="47.995877"><ele>265.75</ele></trkpt>
   <trkpt lon="7.838215" lat="47.995889"><ele>265.5</ele></trkpt>
   <trkpt lon="7.838144" lat="47.995915"><ele>265.25</ele></trkpt>
   <trkpt lon="7.837842" lat="47.996017"><ele>265.0</ele></trkpt>
   <trkpt lon="7.837780" lat="47.996037"><ele>265.0</ele></trkpt>
   <trkpt lon="7.837711" lat="47.996060"><ele>265.0</ele></trkpt>
   <trkpt lon="7.837648" lat="47.996082"><ele>265.0</ele></trkpt>
   <trkpt lon="7.837605" lat="47.996096"><ele>265.0</ele></trkpt>
   <trkpt lon="7.837228" lat="47.996226"><ele>264.0</ele></trkpt>
   <trkpt lon="7.837174" lat="47.996244"><ele>264.0</ele></trkpt>
   <trkpt lon="7.837144" lat="47.996255"><ele>264.0</ele></trkpt>
   <trkpt lon="7.837098" lat="47.996270"><ele>264.0</ele></trkpt>
   <trkpt lon="7.837058" lat="47.996284"><ele>264.0</ele></trkpt>
   <trkpt lon="7.836979" lat="47.996310"><ele>264.0</ele></trkpt>
   <trkpt lon="7.836525" lat="47.996464"><ele>264.0</ele></trkpt>
   <trkpt lon="7.836498" lat="47.996473"><ele>264.0</ele></trkpt>
   <trkpt lon="7.836408" lat="47.996503"><ele>264.0</ele></trkpt>
   <trkpt lon="7.836309" lat="47.996537"><ele>263.5</ele></trkpt>
   <trkpt lon="7.835940" lat="47.996671"><ele>263.0</ele></trkpt>
   <trkpt lon="7.835776" lat="47.996727"><ele>263.0</ele></trkpt>
   <trkpt lon="7.835574" lat="47.996795"><ele>263.0</ele></trkpt>
   <trkpt lon="7.835353" lat="47.996871"><ele>263.0</ele></trkpt>
   <trkpt lon="7.835256" lat="47.996904"><ele>262.75</ele></trkpt>
   <trkpt lon="7.835204" lat="47.996922"><ele>262.5</ele></trkpt>
   <trkpt lon="7.835080" lat="47.996966"><ele>262.25</ele></trkpt>
   <trkpt lon="7.835026" lat="47.996894"><ele>262.0</ele></trkpt>
   <trkpt lon="7.835004" lat="47.996864"><ele>262.0</ele></trkpt>
   <trkpt lon="7.834885" lat="47.996706"><ele>262.0</ele></trkpt>
   <trkpt lon="7.834807" lat="47.996603"><ele>262.0</ele></trkpt>
   <trkpt lon="7.834688" lat="47.996444"><ele>262.0</ele></trkpt>
   <trkpt lon="7.834665" lat="47.996414"><ele>262.0</ele></trkpt>
   <trkpt lon="7.834580" lat="47.996302"><ele>262.0</ele></trkpt>
   <trkpt lon="7.834525" lat="47.996234"><ele>262.0</ele></trkpt>
   <trkpt lon="7.834514" lat="47.996221"><ele>262.0</ele></trkpt>
   <trkpt lon="7.834500" lat="47.996204"><ele>262.0</ele></trkpt>
   <trkpt lon="7.834326" lat="47.995976"><ele>261.75</ele></trkpt>
   <trkpt lon="7.834302" lat="47.995945"><ele>261.5</ele></trkpt>
   <trkpt lon="7.834291" lat="47.995929"><ele>261.5</ele></trkpt>
   <trkpt lon="7.834281" lat="47.995914"><ele>261.5</ele></trkpt>
   <trkpt lon="7.834263" lat="47.995887"><ele>261.25</ele></trkpt>
   <trkpt lon="7.834207" lat="47.995799"><ele>261.0</ele></trkpt>
   <trkpt lon="7.834151" lat="47.995715"><ele>261.0</ele></trkpt>
   <trkpt lon="7.834063" lat="47.995594"><ele>261.0</ele></trkpt>
   <trkpt lon="7.834021" lat="47.995537"><ele>261.0</ele></trkpt>
   <trkpt lon="7.833960" lat="47.995456"><ele>261.0</ele></trkpt>
   <trkpt lon="7.833912" lat="47.995384"><ele>261.0</ele></trkpt>
   <trkpt lon="7.833886" lat="47.995347"><ele>261.0</ele></trkpt>
   <trkpt lon="7.833857" lat="47.995305"><ele>261.0</ele></trkpt>
   <trkpt lon="7.833779" lat="47.995197"><ele>261.0</ele></trkpt>
   <trkpt lon="7.833757" lat="47.995165"><ele>261.0</ele></trkpt>
   <trkpt lon="7.833725" lat="47.995121"><ele>261.0</ele></trkpt>
   <trkpt lon="7.833625" lat="47.995074"><ele>261.0</ele></trkpt>
   <trkpt lon="7.833577" lat="47.995012"><ele>261.0</ele></trkpt>
   <trkpt lon="7.833523" lat="47.994938"><ele>261.0</ele></trkpt>
   <trkpt lon="7.833462" lat="47.994847"><ele>261.0</ele></trkpt>
   <trkpt lon="7.833470" lat="47.994761"><ele>261.0</ele></trkpt>
   <trkpt lon="7.833401" lat="47.994667"><ele>260.75</ele></trkpt>
   <trkpt lon="7.833295" lat="47.994516"><ele>260.0</ele></trkpt>
   <trkpt lon="7.833249" lat="47.994452"><ele>260.0</ele></trkpt>
   <trkpt lon="7.833143" lat="47.994337"><ele>260.0</ele></trkpt>
   <trkpt lon="7.833104" lat="47.994289"><ele>260.0</ele></trkpt>
   <trkpt lon="7.832978" lat="47.994209"><ele>260.0</ele></trkpt>
   <trkpt lon="7.832937" lat="47.994173"><ele>260.0</ele></trkpt>
   <trkpt lon="7.832891" lat="47.994115"><ele>259.75</ele></trkpt>
   <trkpt lon="7.832852" lat="47.994075"><ele>259.5</ele></trkpt>
   <trkpt lon="7.832834" lat="47.994053"><ele>259.5</ele></trkpt>
   <trkpt lon="7.832778" lat="47.993983"><ele>259.25</ele></trkpt>
   <trkpt lon="7.832765" lat="47.993966"><ele>259.0</ele></trkpt>
   <trkpt lon="7.832551" lat="47.993667"><ele>259.0</ele></trkpt>
   <trkpt lon="7.832464" lat="47.993551"><ele>259.0</ele></trkpt>
   <trkpt lon="7.832425" lat="47.993500"><ele>259.0</ele></trkpt>
   <trkpt lon="7.832385" lat="47.993441"><ele>259.0</ele></trkpt>
   <trkpt lon="7.832277" lat="47.993444"><ele>259.0</ele></trkpt>
   <trkpt lon="7.832256" lat="47.993437"><ele>259.0</ele></trkpt>
   <trkpt lon="7.831998" lat="47.993073"><ele>259.0</ele></trkpt>
   <trkpt lon="7.831947" lat="47.993029"><ele>259.0</ele></trkpt>
   <trkpt lon="7.831876" lat="47.993000"><ele>259.0</ele></trkpt>
   <trkpt lon="7.831816" lat="47.992989"><ele>259.0</ele></trkpt>
   <trkpt lon="7.831702" lat="47.992989"><ele>259.0</ele></trkpt>
   <trkpt lon="7.831624" lat="47.993002"><ele>259.25</ele></trkpt>
   <trkpt lon="7.831550" lat="47.993027"><ele>259.25</ele></trkpt>
   <trkpt lon="7.831440" lat="47.993063"><ele>259.75</ele></trkpt>
   <trkpt lon="7.831363" lat="47.993035"><ele>260.0</ele></trkpt>
   <trkpt lon="7.831304" lat="47.993060"><ele>259.75</ele></trkpt>
   <trkpt lon="7.831195" lat="47.993097"><ele>259.75</ele></trkpt>
   <trkpt lon="7.831097" lat="47.993116"><ele>259.75</ele></trkpt>
   <trkpt lon="7.830999" lat="47.993176"><ele>259.5</ele></trkpt>
   <trkpt lon="7.830893" lat="47.993231"><ele>259.75</ele></trkpt>
   <trkpt lon="7.830594" lat="47.993377"><ele>259.75</ele></trkpt>
   <trkpt lon="7.830413" lat="47.993455"><ele>259.25</ele></trkpt>
   <trkpt lon="7.830376" lat="47.993470"><ele>259.0</ele></trkpt>
   <trkpt lon="7.830312" lat="47.993495"><ele>259.0</ele></trkpt>
   <trkpt lon="7.830109" lat="47.993571"><ele>259.0</ele></trkpt>
   <trkpt lon="7.829762" lat="47.993700"><ele>258.5</ele></trkpt>
   <trkpt lon="7.829733" lat="47.993710"><ele>258.5</ele></trkpt>
   <trkpt lon="7.829586" lat="47.993764"><ele>258.25</ele></trkpt>
   <trkpt lon="7.829393" lat="47.993836"><ele>258.0</ele></trkpt>
   <trkpt lon="7.829335" lat="47.993857"><ele>258.0</ele></trkpt>
   <trkpt lon="7.829285" lat="47.993876"><ele>258.0</ele></trkpt>
   <trkpt lon="7.828731" lat="47.994061"><ele>257.0</ele></trkpt>
   <trkpt lon="7.828078" lat="47.994262"><ele>257.0</ele></trkpt>
   <trkpt lon="7.827977" lat="47.994293"><ele>257.0</ele></trkpt>
   <trkpt lon="7.827855" lat="47.994329"><ele>257.0</ele></trkpt>
   <trkpt lon="7.827443" lat="47.994455"><ele>256.0</ele></trkpt>
   <trkpt lon="7.827405" lat="47.994467"><ele>256.0</ele></trkpt>
   <trkpt lon="7.826993" lat="47.994589"><ele>256.0</ele></trkpt>
   <trkpt lon="7.826703" lat="47.994684"><ele>255.25</ele></trkpt>
   <trkpt lon="7.826562" lat="47.994730"><ele>255.0</ele></trkpt>
   <trkpt lon="7.826420" lat="47.994779"><ele>255.0</ele></trkpt>
   <trkpt lon="7.826323" lat="47.994808"><ele>255.0</ele></trkpt>
   <trkpt lon="7.826079" lat="47.994879"><ele>255.0</ele></trkpt>
   <trkpt lon="7.825987" lat="47.994905"><ele>255.0</ele></trkpt>
   <trkpt lon="7.825820" lat="47.994930"><ele>255.0</ele></trkpt>
   <trkpt lon="7.825595" lat="47.994953"><ele>255.0</ele></trkpt>
   <trkpt lon="7.825440" lat="47.994955"><ele>255.0</ele></trkpt>
   <trkpt lon="7.825333" lat="47.994938"><ele>255.0</ele></trkpt>
   <trkpt lon="7.825244" lat="47.994921"><ele>254.75</ele></trkpt>
   <trkpt lon="7.825057" lat="47.994883"><ele>254.5</ele></trkpt>
   <trkpt lon="7.824727" lat="47.994817"><ele>254.5</ele></trkpt>
   <trkpt lon="7.824546" lat="47.994781"><ele>254.75</ele></trkpt>
   <trkpt lon="7.824504" lat="47.994770"><ele>254.75</ele></trkpt>
   <trkpt lon="7.824337" lat="47.994729"><ele>254.75</ele></trkpt>
   <trkpt lon="7.823988" lat="47.994638"><ele>254.5</ele></trkpt>
   <trkpt lon="7.823836" lat="47.994599"><ele>254.25</ele></trkpt>
   <trkpt lon="7.823324" lat="47.994443"><ele>254.0</ele></trkpt>
   <trkpt lon="7.822655" lat="47.994229"><ele>253.5</ele></trkpt>
   <trkpt lon="7.822315" lat="47.994124"><ele>253.0</ele></trkpt>
   <trkpt lon="7.822078" lat="47.994036"><ele>253.0</ele></trkpt>
   <trkpt lon="7.821886" lat="47.993966"><ele>253.0</ele></trkpt>
   <trkpt lon="7.821726" lat="47.993892"><ele>253.0</ele></trkpt>
   <trkpt lon="7.821659" lat="47.993861"><ele>252.75</ele></trkpt>
   <trkpt lon="7.821605" lat="47.993834"><ele>253.0</ele></trkpt>
   <trkpt lon="7.821529" lat="47.993794"><ele>253.0</ele></trkpt>
   <trkpt lon="7.821429" lat="47.993739"><ele>253.0</ele></trkpt>
   <trkpt lon="7.820948" lat="47.993434"><ele>252.25</ele></trkpt>
   <trkpt lon="7.820856" lat="47.993397"><ele>252.0</ele></trkpt>
   <trkpt lon="7.820702" lat="47.993375"><ele>252.0</ele></trkpt>
   <trkpt lon="7.820590" lat="47.993394"><ele>252.0</ele></trkpt>
   <trkpt lon="7.820030" lat="47.993501"><ele>252.0</ele></trkpt>
   <trkpt lon="7.819748" lat="47.993545"><ele>252.0</ele></trkpt>
   <trkpt lon="7.819463" lat="47.993567"><ele>251.0</ele></trkpt>
   <trkpt lon="7.819361" lat="47.993557"><ele>251.0</ele></trkpt>
   <trkpt lon="7.819255" lat="47.993532"><ele>251.0</ele></trkpt>
   <trkpt lon="7.819161" lat="47.993489"><ele>251.0</ele></trkpt>
   <trkpt lon="7.818858" lat="47.993309"><ele>251.0</ele></trkpt>
   <trkpt lon="7.818733" lat="47.993256"><ele>251.0</ele></trkpt>
   <trkpt lon="7.818431" lat="47.993197"><ele>251.0</ele></trkpt>
   <trkpt lon="7.818312" lat="47.993176"><ele>251.0</ele></trkpt>
   <trkpt lon="7.818172" lat="47.993140"><ele>250.75</ele></trkpt>
   <trkpt lon="7.818117" lat="47.993123"><ele>251.0</ele></trkpt>
   <trkpt lon="7.817987" lat="47.993083"><ele>251.0</ele></trkpt>
   <trkpt lon="7.817788" lat="47.993001"><ele>251.0</ele></trkpt>
   <trkpt lon="7.817739" lat="47.992977"><ele>251.0</ele></trkpt>
   <trkpt lon="7.817694" lat="47.992953"><ele>251.0</ele></trkpt>
   <trkpt lon="7.817596" lat="47.992908"><ele>251.0</ele></trkpt>
   <trkpt lon="7.817514" lat="47.992868"><ele>251.0</ele></trkpt>
   <trkpt lon="7.817386" lat="47.992788"><ele>251.0</ele></trkpt>
   <trkpt lon="7.816894" lat="47.992426"><ele>251.0</ele></trkpt>
   <trkpt lon="7.816829" lat="47.992377"><ele>251.0</ele></trkpt>
   <trkpt lon="7.816637" lat="47.992200"><ele>251.0</ele></trkpt>
   <trkpt lon="7.816562" lat="47.992127"><ele>251.0</ele></trkpt>
   <trkpt lon="7.816488" lat="47.992060"><ele>251.0</ele></trkpt>
   <trkpt lon="7.816327" lat="47.991913"><ele>251.0</ele></trkpt>
   <trkpt lon="7.816282" lat="47.991871"><ele>251.0</ele></trkpt>
   <trkpt lon="7.816000" lat="47.991625"><ele>251.0</ele></trkpt>
   <trkpt lon="7.815877" lat="47.991515"><ele>251.0</ele></trkpt>
   <trkpt lon="7.815822" lat="47.991467"><ele>251.0</ele></trkpt>
   <trkpt lon="7.815781" lat="47.991429"><ele>251.0</ele></trkpt>
   <trkpt lon="7.815716" lat="47.991386"><ele>251.0</ele></trkpt>
   <trkpt lon="7.815704" lat="47.991379"><ele>251.0</ele></trkpt>
   <trkpt lon="7.815683" lat="47.991363"><ele>251.0</ele></trkpt>
   <trkpt lon="7.815613" lat="47.991308"><ele>250.75</ele></trkpt>
   <trkpt lon="7.815541" lat="47.991246"><ele>251.0</ele></trkpt>
   <trkpt lon="7.815504" lat="47.991216"><ele>251.0</ele></trkpt>
   <trkpt lon="7.815386" lat="47.991115"><ele>251.0</ele></trkpt>
   <trkpt lon="7.815249" lat="47.990984"><ele>250.75</ele></trkpt>
   <trkpt lon="7.815127" lat="47.990842"><ele>250.75</ele></trkpt>
   <trkpt lon="7.814933" lat="47.990593"><ele>250.75</ele></trkpt>
   <trkpt lon="7.814674" lat="47.990305"><ele>250.75</ele></trkpt>
   <trkpt lon="7.814219" lat="47.989750"><ele>251.0</ele></trkpt>
   <trkpt lon="7.814184" lat="47.989703"><ele>251.0</ele></trkpt>
   <trkpt lon="7.813638" lat="47.989039"><ele>250.5</ele></trkpt>
   <trkpt lon="7.813190" lat="47.988451"><ele>250.25</ele></trkpt>
   <trkpt lon="7.813130" lat="47.988373"><ele>250.25</ele></trkpt>
   <trkpt lon="7.812939" lat="47.988107"><ele>250.0</ele></trkpt>
   <trkpt lon="7.812813" lat="47.987927"><ele>250.0</ele></trkpt>
   <trkpt lon="7.812632" lat="47.987663"><ele>250.0</ele></trkpt>
   <trkpt lon="7.812371" lat="47.987284"><ele>250.0</ele></trkpt>
   <trkpt lon="7.812211" lat="47.987044"><ele>249.75</ele></trkpt>
   <trkpt lon="7.812103" lat="47.986888"><ele>249.5</ele></trkpt>
   <trkpt lon="7.811874" lat="47.986553"><ele>249.0</ele></trkpt>
   <trkpt lon="7.811710" lat="47.986317"><ele>249.0</ele></trkpt>
   <trkpt lon="7.811614" lat="47.986191"><ele>249.0</ele></trkpt>
   <trkpt lon="7.811483" lat="47.986023"><ele>249.0</ele></trkpt>
   <trkpt lon="7.811280" lat="47.985762"><ele>249.0</ele></trkpt>
   <trkpt lon="7.811154" lat="47.985605"><ele>249.0</ele></trkpt>
   <trkpt lon="7.811056" lat="47.985529"><ele>248.75</ele></trkpt>
   <trkpt lon="7.810949" lat="47.985451"><ele>249.0</ele></trkpt>
   <trkpt lon="7.810881" lat="47.985448"><ele>249.0</ele></trkpt>
   <trkpt lon="7.810818" lat="47.985431"><ele>249.0</ele></trkpt>
   <trkpt lon="7.810770" lat="47.985402"><ele>249.0</ele></trkpt>
   <trkpt lon="7.810738" lat="47.985365"><ele>249.0</ele></trkpt>
   <trkpt lon="7.810726" lat="47.985332"><ele>249.0</ele></trkpt>
   <trkpt lon="7.810726" lat="47.985298"><ele>249.0</ele></trkpt>
   <trkpt lon="7.810740" lat="47.985265"><ele>248.75</ele></trkpt>
   <trkpt lon="7.810765" lat="47.985235"><ele>248.75</ele></trkpt>
   <trkpt lon="7.810765" lat="47.985186"><ele>248.75</ele></trkpt>
   <trkpt lon="7.810751" lat="47.985151"><ele>248.75</ele></trkpt>
   <trkpt lon="7.810721" lat="47.985100"><ele>248.5</ele></trkpt>
   <trkpt lon="7.810656" lat="47.984995"><ele>248.25</ele></trkpt>
   <trkpt lon="7.810574" lat="47.984901"><ele>248.0</ele></trkpt>
   <trkpt lon="7.810479" lat="47.984791"><ele>248.0</ele></trkpt>
   <trkpt lon="7.810351" lat="47.984637"><ele>248.0</ele></trkpt>
   <trkpt lon="7.810151" lat="47.984496"><ele>248.0</ele></trkpt>
   <trkpt lon="7.810034" lat="47.984374"><ele>248.0</ele></trkpt>
   <trkpt lon="7.809801" lat="47.984100"><ele>248.0</ele></trkpt>
   <trkpt lon="7.809691" lat="47.983948"><ele>248.0</ele></trkpt>
   <trkpt lon="7.809649" lat="47.983896"><ele>248.0</ele></trkpt>
   <trkpt lon="7.809616" lat="47.983848"><ele>247.75</ele></trkpt>
   <trkpt lon="7.809520" lat="47.983733"><ele>247.5</ele></trkpt>
   <trkpt lon="7.809347" lat="47.983528"><ele>247.25</ele></trkpt>
   <trkpt lon="7.809303" lat="47.983478"><ele>247.25</ele></trkpt>
   <trkpt lon="7.809254" lat="47.983433"><ele>247.25</ele></trkpt>
   <trkpt lon="7.809020" lat="47.983170"><ele>247.0</ele></trkpt>
   <trkpt lon="7.808918" lat="47.983163"><ele>247.0</ele></trkpt>
   <trkpt lon="7.808851" lat="47.983127"><ele>247.0</ele></trkpt>
   <trkpt lon="7.808706" lat="47.983130"><ele>247.0</ele></trkpt>
   <trkpt lon="7.808587" lat="47.983134"><ele>247.0</ele></trkpt>
   <trkpt lon="7.808438" lat="47.983124"><ele>247.0</ele></trkpt>
   <trkpt lon="7.808232" lat="47.983086"><ele>246.5</ele></trkpt>
   <trkpt lon="7.808144" lat="47.983061"><ele>246.25</ele></trkpt>
   <trkpt lon="7.808028" lat="47.983044"><ele>246.0</ele></trkpt>
   <trkpt lon="7.807701" lat="47.982982"><ele>246.0</ele></trkpt>
   <trkpt lon="7.807385" lat="47.982925"><ele>246.0</ele></trkpt>
   <trkpt lon="7.807128" lat="47.982883"><ele>246.0</ele></trkpt>
   <trkpt lon="7.806258" lat="47.982715"><ele>245.0</ele></trkpt>
   <trkpt lon="7.805744" lat="47.982614"><ele>245.0</ele></trkpt>
   <trkpt lon="7.805605" lat="47.982593"><ele>245.0</ele></trkpt>
   <trkpt lon="7.805080" lat="47.982527"><ele>244.0</ele></trkpt>
   <trkpt lon="7.804806" lat="47.982503"><ele>244.0</ele></trkpt>
   <trkpt lon="7.804570" lat="47.982484"><ele>244.0</ele></trkpt>
   <trkpt lon="7.804361" lat="47.982467"><ele>243.75</ele></trkpt>
   <trkpt lon="7.804278" lat="47.982460"><ele>244.0</ele></trkpt>
   <trkpt lon="7.804195" lat="47.982455"><ele>244.0</ele></trkpt>
   <trkpt lon="7.803856" lat="47.982436"><ele>243.75</ele></trkpt>
   <trkpt lon="7.803558" lat="47.982425"><ele>243.0</ele></trkpt>
   <trkpt lon="7.803311" lat="47.982414"><ele>243.0</ele></trkpt>
   <trkpt lon="7.803209" lat="47.982412"><ele>243.0</ele></trkpt>
   <trkpt lon="7.803072" lat="47.982409"><ele>242.75</ele></trkpt>
   <trkpt lon="7.802328" lat="47.982370"><ele>242.5</ele></trkpt>
   <trkpt lon="7.802072" lat="47.982352"><ele>242.0</ele></trkpt>
   <trkpt lon="7.802004" lat="47.982347"><ele>242.0</ele></trkpt>
   <trkpt lon="7.801461" lat="47.982314"><ele>241.75</ele></trkpt>
   <trkpt lon="7.801376" lat="47.982309"><ele>242.0</ele></trkpt>
   <trkpt lon="7.801041" lat="47.982290"><ele>242.0</ele></trkpt>
   <trkpt lon="7.800940" lat="47.982284"><ele>242.0</ele></trkpt>
   <trkpt lon="7.800375" lat="47.982268"><ele>241.0</ele></trkpt>
   <trkpt lon="7.800256" lat="47.982267"><ele>241.0</ele></trkpt>
   <trkpt lon="7.800071" lat="47.982266"><ele>240.75</ele></trkpt>
   <trkpt lon="7.799954" lat="47.982266"><ele>241.0</ele></trkpt>
   <trkpt lon="7.799888" lat="47.982266"><ele>240.75</ele></trkpt>
   <trkpt lon="7.799718" lat="47.982263"><ele>241.0</ele></trkpt>
   <trkpt lon="7.799384" lat="47.982258"><ele>240.75</ele></trkpt>
   <trkpt lon="7.799130" lat="47.982253"><ele>240.0</ele></trkpt>
   <trkpt lon="7.798871" lat="47.982239"><ele>240.0</ele></trkpt>
   <trkpt lon="7.798634" lat="47.982216"><ele>240.0</ele></trkpt>
   <trkpt lon="7.798518" lat="47.982203"><ele>240.0</ele></trkpt>
   <trkpt lon="7.798457" lat="47.982196"><ele>240.0</ele></trkpt>
   <trkpt lon="7.798101" lat="47.982142"><ele>240.0</ele></trkpt>
   <trkpt lon="7.798033" lat="47.982127"><ele>240.0</ele></trkpt>
   <trkpt lon="7.797762" lat="47.982066"><ele>239.75</ele></trkpt>
   <trkpt lon="7.795741" lat="47.981529"><ele>238.5</ele></trkpt>
   <trkpt lon="7.795441" lat="47.981447"><ele>238.0</ele></trkpt>
   <trkpt lon="7.795414" lat="47.981439"><ele>238.0</ele></trkpt>
   <trkpt lon="7.795176" lat="47.981374"><ele>238.0</ele></trkpt>
   <trkpt lon="7.795038" lat="47.981333"><ele>238.0</ele></trkpt>
   <trkpt lon="7.794880" lat="47.981283"><ele>238.0</ele></trkpt>
   <trkpt lon="7.794685" lat="47.981216"><ele>238.0</ele></trkpt>
   <trkpt lon="7.794371" lat="47.981111"><ele>237.75</ele></trkpt>
   <trkpt lon="7.794229" lat="47.981068"><ele>237.75</ele></trkpt>
   <trkpt lon="7.794025" lat="47.981010"><ele>237.25</ele></trkpt>
   <trkpt lon="7.793874" lat="47.980969"><ele>237.0</ele></trkpt>
   <trkpt lon="7.793719" lat="47.980925"><ele>237.0</ele></trkpt>
   <trkpt lon="7.793598" lat="47.980890"><ele>237.0</ele></trkpt>
   <trkpt lon="7.793118" lat="47.980751"><ele>236.75</ele></trkpt>
   <trkpt lon="7.792781" lat="47.980660"><ele>236.0</ele></trkpt>
   <trkpt lon="7.792662" lat="47.980619"><ele>235.75</ele></trkpt>
   <trkpt lon="7.792505" lat="47.980585"><ele>236.0</ele></trkpt>
   <trkpt lon="7.792293" lat="47.980570"><ele>235.75</ele></trkpt>
   <trkpt lon="7.791966" lat="47.980553"><ele>236.0</ele></trkpt>
   <trkpt lon="7.791865" lat="47.980547"><ele>235.5</ele></trkpt>
   <trkpt lon="7.791365" lat="47.980521"><ele>235.0</ele></trkpt>
   <trkpt lon="7.791144" lat="47.980508"><ele>235.0</ele></trkpt>
   <trkpt lon="7.790818" lat="47.980489"><ele>235.0</ele></trkpt>
   <trkpt lon="7.790693" lat="47.980481"><ele>235.0</ele></trkpt>
   <trkpt lon="7.790346" lat="47.980461"><ele>234.5</ele></trkpt>
   <trkpt lon="7.789941" lat="47.980437"><ele>234.0</ele></trkpt>
   <trkpt lon="7.789712" lat="47.980422"><ele>234.0</ele></trkpt>
   <trkpt lon="7.788098" lat="47.980327"><ele>232.75</ele></trkpt>
   <trkpt lon="7.788080" lat="47.980424"><ele>233.0</ele></trkpt>
   <trkpt lon="7.788058" lat="47.980542"><ele>233.0</ele></trkpt>
   <trkpt lon="7.788049" lat="47.980727"><ele>233.0</ele></trkpt>
   <trkpt lon="7.788027" lat="47.980880"><ele>233.0</ele></trkpt>
   <trkpt lon="7.788035" lat="47.980910"><ele>233.0</ele></trkpt>
   <trkpt lon="7.788032" lat="47.980946"><ele>233.0</ele></trkpt>
   <trkpt lon="7.788017" lat="47.980964"><ele>233.0</ele></trkpt>
   <trkpt lon="7.787394" lat="47.981220"><ele>233.0</ele></trkpt>
   <trkpt lon="7.786716" lat="47.981459"><ele>233.0</ele></trkpt>
   <trkpt lon="7.785116" lat="47.981975"><ele>232.0</ele></trkpt>
   <trkpt lon="7.783912" lat="47.982337"><ele>231.5</ele></trkpt>
   <trkpt lon="7.783812" lat="47.982391"><ele>231.25</ele></trkpt>
   <trkpt lon="7.783665" lat="47.982471"><ele>231.0</ele></trkpt>
   <trkpt lon="7.783471" lat="47.982590"><ele>231.0</ele></trkpt>
   <trkpt lon="7.783284" lat="47.982731"><ele>231.0</ele></trkpt>
   <trkpt lon="7.783133" lat="47.982899"><ele>231.0</ele></trkpt>
   <trkpt lon="7.782682" lat="47.983411"><ele>230.0</ele></trkpt>
   <trkpt lon="7.782604" lat="47.983473"><ele>230.0</ele></trkpt>
   <trkpt lon="7.782549" lat="47.983505"><ele>230.0</ele></trkpt>
   <trkpt lon="7.782461" lat="47.983538"><ele>230.0</ele></trkpt>
   <trkpt lon="7.782382" lat="47.983547"><ele>230.0</ele></trkpt>
   <trkpt lon="7.781956" lat="47.983540"><ele>230.0</ele></trkpt>
   <trkpt lon="7.781798" lat="47.983554"><ele>230.0</ele></trkpt>
   <trkpt lon="7.781610" lat="47.983582"><ele>229.75</ele></trkpt>
   <trkpt lon="7.781211" lat="47.983663"><ele>229.25</ele></trkpt>
   <trkpt lon="7.781120" lat="47.983685"><ele>229.0</ele></trkpt>
   <trkpt lon="7.781057" lat="47.983698"><ele>229.0</ele></trkpt>
   <trkpt lon="7.779989" lat="47.983933"><ele>228.75</ele></trkpt>
   <trkpt lon="7.780252" lat="47.984440"><ele>229.0</ele></trkpt>
   <trkpt lon="7.780405" lat="47.984764"><ele>229.0</ele></trkpt>
   <trkpt lon="7.780553" lat="47.985092"><ele>229.0</ele></trkpt>
   <trkpt lon="7.781015" lat="47.986124"><ele>230.0</ele></trkpt>
   <trkpt lon="7.781496" lat="47.986033"><ele>230.0</ele></trkpt>
   <trkpt lon="7.781757" lat="47.985984"><ele>230.0</ele></trkpt>
   <trkpt lon="7.782161" lat="47.985910"><ele>230.0</ele></trkpt>
   <trkpt lon="7.782718" lat="47.985799"><ele>230.0</ele></trkpt>
   <trkpt lon="7.782798" lat="47.985783"><ele>230.0</ele></trkpt>
   <trkpt lon="7.783014" lat="47.985740"><ele>230.75</ele></trkpt>
   <trkpt lon="7.783658" lat="47.985611"><ele>231.0</ele></trkpt>
   <trkpt lon="7.783790" lat="47.985585"><ele>231.0</ele></trkpt>
   <trkpt lon="7.784575" lat="47.985428"><ele>231.25</ele></trkpt>
   <trkpt lon="7.784946" lat="47.985356"><ele>231.75</ele></trkpt>
   <trkpt lon="7.785187" lat="47.985334"><ele>231.75</ele></trkpt>
   <trkpt lon="7.785401" lat="47.985331"><ele>232.0</ele></trkpt>
   <trkpt lon="7.785528" lat="47.985346"><ele>232.0</ele></trkpt>
   <trkpt lon="7.785690" lat="47.985371"><ele>232.0</ele></trkpt>
   <trkpt lon="7.786497" lat="47.985566"><ele>232.0</ele></trkpt>
   <trkpt lon="7.786741" lat="47.985647"><ele>232.25</ele></trkpt>
   <trkpt lon="7.786887" lat="47.985735"><ele>232.75</ele></trkpt>
   <trkpt lon="7.787035" lat="47.985861"><ele>232.75</ele></trkpt>
   <trkpt lon="7.787149" lat="47.985995"><ele>232.75</ele></trkpt>
   <trkpt lon="7.787373" lat="47.986441"><ele>233.0</ele></trkpt>
   <trkpt lon="7.787783" lat="47.987255"><ele>233.0</ele></trkpt>
   <trkpt lon="7.787877" lat="47.987442"><ele>233.0</ele></trkpt>
   <trkpt lon="7.788018" lat="47.987708"><ele>233.0</ele></trkpt>
   <trkpt lon="7.788225" lat="47.988099"><ele>233.0</ele></trkpt>
   <trkpt lon="7.788415" lat="47.988459"><ele>233.0</ele></trkpt>
   <trkpt lon="7.788473" lat="47.988590"><ele>233.0</ele></trkpt>
   <trkpt lon="7.788578" lat="47.988863"><ele>233.0</ele></trkpt>
   <trkpt lon="7.788662" lat="47.989198"><ele>233.0</ele></trkpt>
   <trkpt lon="7.788676" lat="47.989305"><ele>233.0</ele></trkpt>
   <trkpt lon="7.788682" lat="47.989396"><ele>233.0</ele></trkpt>
   <trkpt lon="7.788691" lat="47.989573"><ele>233.0</ele></trkpt>
   <trkpt lon="7.788674" lat="47.989968"><ele>233.0</ele></trkpt>
   <trkpt lon="7.788670" lat="47.990040"><ele>233.0</ele></trkpt>
   <trkpt lon="7.788580" lat="47.991069"><ele>233.0</ele></trkpt>
   <trkpt lon="7.788576" lat="47.991566"><ele>232.25</ele></trkpt>
   <trkpt lon="7.788574" lat="47.991762"><ele>232.0</ele></trkpt>
   <trkpt lon="7.788577" lat="47.991925"><ele>232.0</ele></trkpt>
   <trkpt lon="7.788595" lat="47.992446"><ele>232.0</ele></trkpt>
   <trkpt lon="7.788607" lat="47.992581"><ele>232.0</ele></trkpt>
   <trkpt lon="7.788624" lat="47.992798"><ele>232.0</ele></trkpt>
   <trkpt lon="7.788748" lat="47.993811"><ele>232.0</ele></trkpt>
   <trkpt lon="7.788776" lat="47.994062"><ele>232.0</ele></trkpt>
   <trkpt lon="7.788834" lat="47.994616"><ele>232.25</ele></trkpt>
   <trkpt lon="7.788843" lat="47.994715"><ele>232.75</ele></trkpt>
   <trkpt lon="7.788893" lat="47.994786"><ele>232.75</ele></trkpt>
   <trkpt lon="7.788912" lat="47.994877"><ele>233.0</ele></trkpt>
   <trkpt lon="7.788961" lat="47.994873"><ele>233.0</ele></trkpt>
   <trkpt lon="7.789021" lat="47.994923"><ele>233.0</ele></trkpt>
   <trkpt lon="7.789131" lat="47.994960"><ele>233.0</ele></trkpt>
   <trkpt lon="7.789144" lat="47.995006"><ele>233.0</ele></trkpt>
   <trkpt lon="7.789172" lat="47.995072"><ele>233.0</ele></trkpt>
   <trkpt lon="7.789182" lat="47.995103"><ele>233.0</ele></trkpt>
   <trkpt lon="7.789101" lat="47.995192"><ele>233.0</ele></trkpt>
   <trkpt lon="7.789101" lat="47.995281"><ele>232.75</ele></trkpt>
   <trkpt lon="7.789134" lat="47.995319"><ele>232.75</ele></trkpt>
   <trkpt lon="7.789274" lat="47.995620"><ele>233.0</ele></trkpt>
   <trkpt lon="7.789288" lat="47.995690"><ele>233.0</ele></trkpt>
   <trkpt lon="7.789293" lat="47.995775"><ele>233.0</ele></trkpt>
   <trkpt lon="7.789241" lat="47.995839"><ele>233.0</ele></trkpt>
   <trkpt lon="7.789485" lat="47.996385"><ele>233.0</ele></trkpt>
   <trkpt lon="7.789791" lat="47.997038"><ele>232.0</ele></trkpt>
   <trkpt lon="7.789571" lat="47.997084"><ele>232.0</ele></trkpt>
   <trkpt lon="7.789379" lat="47.997125"><ele>232.0</ele></trkpt>
   <trkpt lon="7.789410" lat="47.997191"><ele>232.0</ele></trkpt>
   <trkpt lon="7.789544" lat="47.997495"><ele>232.0</ele></trkpt>
   <trkpt lon="7.789774" lat="47.998001"><ele>232.0</ele></trkpt>
   <trkpt lon="7.790072" lat="47.998655"><ele>232.0</ele></trkpt>
   <trkpt lon="7.790464" lat="47.999515"><ele>232.0</ele></trkpt>
   <trkpt lon="7.790478" lat="47.999549"><ele>232.0</ele></trkpt>
   <trkpt lon="7.790487" lat="47.999570"><ele>232.0</ele></trkpt>
   <trkpt lon="7.790502" lat="47.999601"><ele>232.0</ele></trkpt>
   <trkpt lon="7.790515" lat="47.999630"><ele>232.0</ele></trkpt>
   <trkpt lon="7.790528" lat="47.999659"><ele>232.0</ele></trkpt>
   <trkpt lon="7.790786" lat="48.000229"><ele>230.75</ele></trkpt>
   <trkpt lon="7.790828" lat="48.000323"><ele>230.75</ele></trkpt>
   <trkpt lon="7.790858" lat="48.000390"><ele>231.0</ele></trkpt>
   <trkpt lon="7.790900" lat="48.000476"><ele>231.0</ele></trkpt>
   <trkpt lon="7.791199" lat="48.001137"><ele>230.75</ele></trkpt>
   <trkpt lon="7.791229" lat="48.001199"><ele>231.0</ele></trkpt>
   <trkpt lon="7.791263" lat="48.001275"><ele>231.0</ele></trkpt>
   <trkpt lon="7.791391" lat="48.001566"><ele>231.0</ele></trkpt>
   <trkpt lon="7.791565" lat="48.001937"><ele>231.0</ele></trkpt>
   <trkpt lon="7.791583" lat="48.001974"><ele>231.0</ele></trkpt>
   <trkpt lon="7.791799" lat="48.002451"><ele>231.0</ele></trkpt>
   <trkpt lon="7.791834" lat="48.002533"><ele>231.0</ele></trkpt>
   <trkpt lon="7.791901" lat="48.002676"><ele>231.0</ele></trkpt>
   <trkpt lon="7.791921" lat="48.002718"><ele>231.0</ele></trkpt>
   <trkpt lon="7.791947" lat="48.002760"><ele>231.0</ele></trkpt>
   <trkpt lon="7.791973" lat="48.002805"><ele>231.0</ele></trkpt>
   <trkpt lon="7.790210" lat="48.003584"><ele>230.0</ele></trkpt>
   <trkpt lon="7.789845" lat="48.003743"><ele>230.0</ele></trkpt>
   <trkpt lon="7.789098" lat="48.004069"><ele>229.75</ele></trkpt>
   <trkpt lon="7.788958" lat="48.004130"><ele>229.75</ele></trkpt>
   <trkpt lon="7.788862" lat="48.004176"><ele>229.75</ele></trkpt>
   <trkpt lon="7.788450" lat="48.004357"><ele>229.5</ele></trkpt>
   <trkpt lon="7.784528" lat="48.006086"><ele>226.0</ele></trkpt>
   <trkpt lon="7.783218" lat="48.006663"><ele>225.0</ele></trkpt>
   <trkpt lon="7.782761" lat="48.006864"><ele>225.0</ele></trkpt>
   <trkpt lon="7.780865" lat="48.007689"><ele>223.25</ele></trkpt>
   <trkpt lon="7.780762" lat="48.007735"><ele>223.0</ele></trkpt>
   <trkpt lon="7.780668" lat="48.007765"><ele>223.0</ele></trkpt>
   <trkpt lon="7.776676" lat="48.009510"><ele>220.0</ele></trkpt>
   <trkpt lon="7.776698" lat="48.009604"><ele>220.0</ele></trkpt>
   <trkpt lon="7.776752" lat="48.009727"><ele>220.25</ele></trkpt>
   <trkpt lon="7.777209" lat="48.010859"><ele>220.75</ele></trkpt>
   <trkpt lon="7.778512" lat="48.014146"><ele>220.0</ele></trkpt>
   <trkpt lon="7.778562" lat="48.014183"><ele>219.75</ele></trkpt>
   <trkpt lon="7.778589" lat="48.014229"><ele>220.0</ele></trkpt>
   <trkpt lon="7.778592" lat="48.014374"><ele>220.0</ele></trkpt>
   <trkpt lon="7.778625" lat="48.014479"><ele>220.0</ele></trkpt>
   <trkpt lon="7.778688" lat="48.014578"><ele>220.0</ele></trkpt>
   <trkpt lon="7.778699" lat="48.014652"><ele>220.0</ele></trkpt>
   <trkpt lon="7.778970" lat="48.015390"><ele>220.0</ele></trkpt>
   <trkpt lon="7.778989" lat="48.015452"><ele>220.0</ele></trkpt>
   <trkpt lon="7.779041" lat="48.015451"><ele>220.0</ele></trkpt>
   <trkpt lon="7.779078" lat="48.015472"><ele>220.0</ele></trkpt>
   <trkpt lon="7.779127" lat="48.015466"><ele>220.0</ele></trkpt>
   <trkpt lon="7.779327" lat="48.015514"><ele>220.0</ele></trkpt>
   <trkpt lon="7.779634" lat="48.015561"><ele>219.75</ele></trkpt>
   <trkpt lon="7.780548" lat="48.015700"><ele>220.0</ele></trkpt>
   <trkpt lon="7.780394" lat="48.015818"><ele>219.75</ele></trkpt>
   <trkpt lon="7.779941" lat="48.016032"><ele>219.75</ele></trkpt>
   <trkpt lon="7.779818" lat="48.016077"><ele>219.25</ele></trkpt>
   <trkpt lon="7.779539" lat="48.016183"><ele>219.0</ele></trkpt>
   <trkpt lon="7.779321" lat="48.016259"><ele>219.0</ele></trkpt>
   <trkpt lon="7.779380" lat="48.016471"><ele>219.0</ele></trkpt>
   <trkpt lon="7.779379" lat="48.016611"><ele>219.0</ele></trkpt>
   <trkpt lon="7.779318" lat="48.016776"><ele>219.0</ele></trkpt>
   <trkpt lon="7.779220" lat="48.016963"><ele>219.0</ele></trkpt>
   <trkpt lon="7.778941" lat="48.017435"><ele>219.0</ele></trkpt>
   <trkpt lon="7.778887" lat="48.017514"><ele>219.0</ele></trkpt>
   <trkpt lon="7.778672" lat="48.017811"><ele>218.75</ele></trkpt>
   <trkpt lon="7.778201" lat="48.018274"><ele>218.0</ele></trkpt>
   <trkpt lon="7.777897" lat="48.018526"><ele>218.0</ele></trkpt>
   <trkpt lon="7.776895" lat="48.019233"><ele>217.0</ele></trkpt>
   <trkpt lon="7.776397" lat="48.019564"><ele>216.0</ele></trkpt>
   <trkpt lon="7.776167" lat="48.019728"><ele>216.0</ele></trkpt>
   <trkpt lon="7.775907" lat="48.019888"><ele>216.0</ele></trkpt>
   <trkpt lon="7.775460" lat="48.020109"><ele>215.5</ele></trkpt>
   <trkpt lon="7.775158" lat="48.020242"><ele>215.0</ele></trkpt>
   <trkpt lon="7.774712" lat="48.020400"><ele>215.0</ele></trkpt>
   <trkpt lon="7.774424" lat="48.020500"><ele>214.75</ele></trkpt>
   <trkpt lon="7.774179" lat="48.020597"><ele>215.0</ele></trkpt>
   <trkpt lon="7.773945" lat="48.020707"><ele>215.0</ele></trkpt>
   <trkpt lon="7.773710" lat="48.020830"><ele>215.0</ele></trkpt>
   <trkpt lon="7.773303" lat="48.021106"><ele>215.0</ele></trkpt>
   <trkpt lon="7.772997" lat="48.021381"><ele>214.75</ele></trkpt>
   <trkpt lon="7.772752" lat="48.021680"><ele>214.0</ele></trkpt>
   <trkpt lon="7.772576" lat="48.021859"><ele>214.0</ele></trkpt>
   <trkpt lon="7.772186" lat="48.022314"><ele>213.5</ele></trkpt>
   <trkpt lon="7.771446" lat="48.023196"><ele>213.0</ele></trkpt>
   <trkpt lon="7.771422" lat="48.023253"><ele>212.75</ele></trkpt>
   <trkpt lon="7.771396" lat="48.023412"><ele>212.5</ele></trkpt>
   <trkpt lon="7.771349" lat="48.023469"><ele>212.25</ele></trkpt>
   <trkpt lon="7.770964" lat="48.023767"><ele>212.0</ele></trkpt>
   <trkpt lon="7.770294" lat="48.024371"><ele>211.25</ele></trkpt>
   <trkpt lon="7.770248" lat="48.024441"><ele>211.0</ele></trkpt>
   <trkpt lon="7.770236" lat="48.024508"><ele>211.0</ele></trkpt>
   <trkpt lon="7.770236" lat="48.024570"><ele>211.0</ele></trkpt>
   <trkpt lon="7.770540" lat="48.025203"><ele>211.0</ele></trkpt>
   <trkpt lon="7.770534" lat="48.025278"><ele>211.0</ele></trkpt>
   <trkpt lon="7.770509" lat="48.025325"><ele>211.0</ele></trkpt>
   <trkpt lon="7.770408" lat="48.025418"><ele>211.0</ele></trkpt>
   <trkpt lon="7.767878" lat="48.026992"><ele>209.0</ele></trkpt>
   <trkpt lon="7.767712" lat="48.027098"><ele>209.0</ele></trkpt>
   <trkpt lon="7.767371" lat="48.027310"><ele>208.75</ele></trkpt>
   <trkpt lon="7.766981" lat="48.027565"><ele>209.0</ele></trkpt>
   <trkpt lon="7.766466" lat="48.027886"><ele>208.0</ele></trkpt>
   <trkpt lon="7.765437" lat="48.028541"><ele>208.0</ele></trkpt>
   <trkpt lon="7.765647" lat="48.028829"><ele>207.25</ele></trkpt>
   <trkpt lon="7.765710" lat="48.028913"><ele>207.5</ele></trkpt>
   <trkpt lon="7.765721" lat="48.028927"><ele>207.5</ele></trkpt>
   <trkpt lon="7.765782" lat="48.029017"><ele>207.25</ele></trkpt>
   <trkpt lon="7.765852" lat="48.029124"><ele>207.0</ele></trkpt>
   <trkpt lon="7.765939" lat="48.029346"><ele>207.0</ele></trkpt>
   <trkpt lon="7.765985" lat="48.029495"><ele>207.0</ele></trkpt>
   <trkpt lon="7.766096" lat="48.029825"><ele>207.0</ele></trkpt>
   <trkpt lon="7.766183" lat="48.030122"><ele>207.0</ele></trkpt>
   <trkpt lon="7.766322" lat="48.030536"><ele>207.0</ele></trkpt>
   <trkpt lon="7.766321" lat="48.030598"><ele>207.0</ele></trkpt>
   <trkpt lon="7.766229" lat="48.030850"><ele>207.0</ele></trkpt>
   <trkpt lon="7.766183" lat="48.030953"><ele>207.0</ele></trkpt>
   <trkpt lon="7.766173" lat="48.030974"><ele>207.0</ele></trkpt>
   <trkpt lon="7.766155" lat="48.031020"><ele>207.0</ele></trkpt>
   <trkpt lon="7.766523" lat="48.031063"><ele>207.0</ele></trkpt>
   <trkpt lon="7.766741" lat="48.031099"><ele>207.0</ele></trkpt>
   <trkpt lon="7.766978" lat="48.031146"><ele>207.0</ele></trkpt>
   <trkpt lon="7.767141" lat="48.031168"><ele>207.0</ele></trkpt>
   <trkpt lon="7.767254" lat="48.031164"><ele>207.0</ele></trkpt>
   <trkpt lon="7.767342" lat="48.031162"><ele>207.0</ele></trkpt>
   <trkpt lon="7.767455" lat="48.031143"><ele>207.0</ele></trkpt>
   <trkpt lon="7.767542" lat="48.031124"><ele>207.0</ele></trkpt>
   <trkpt lon="7.767575" lat="48.031192"><ele>207.0</ele></trkpt>
   <trkpt lon="7.767593" lat="48.031224"><ele>207.0</ele></trkpt>
   <trkpt lon="7.767609" lat="48.031246"><ele>207.0</ele></trkpt>
   <trkpt lon="7.767692" lat="48.031367"><ele>207.0</ele></trkpt>
   <trkpt lon="7.767735" lat="48.031412"><ele>207.0</ele></trkpt>
   <trkpt lon="7.767800" lat="48.031480"><ele>207.0</ele></trkpt>
   <trkpt lon="7.767990" lat="48.031594"><ele>207.0</ele></trkpt>
   <trkpt lon="7.768419" lat="48.031857"><ele>207.0</ele></trkpt>
   <trkpt lon="7.768493" lat="48.031917"><ele>207.0</ele></trkpt>
   <trkpt lon="7.768634" lat="48.032063"><ele>207.0</ele></trkpt>
   <trkpt lon="7.768778" lat="48.032243"><ele>207.0</ele></trkpt>
   <trkpt lon="7.768899" lat="48.032395"><ele>207.0</ele></trkpt>
   <trkpt lon="7.768958" lat="48.032487"><ele>207.0</ele></trkpt>
   <trkpt lon="7.768975" lat="48.032555"><ele>207.0</ele></trkpt>
   <trkpt lon="7.769051" lat="48.033341"><ele>206.75</ele></trkpt>
   <trkpt lon="7.769076" lat="48.033573"><ele>206.5</ele></trkpt>
   <trkpt lon="7.769114" lat="48.033796"><ele>206.75</ele></trkpt>
   <trkpt lon="7.769166" lat="48.033944"><ele>206.75</ele></trkpt>
   <trkpt lon="7.769255" lat="48.033922"><ele>206.75</ele></trkpt>
   <trkpt lon="7.769300" lat="48.034024"><ele>206.5</ele></trkpt>
   <trkpt lon="7.769423" lat="48.034212"><ele>206.0</ele></trkpt>
   <trkpt lon="7.769549" lat="48.034412"><ele>206.0</ele></trkpt>
   <trkpt lon="7.769596" lat="48.034521"><ele>206.0</ele></trkpt>
   <trkpt lon="7.769621" lat="48.034609"><ele>206.0</ele></trkpt>
   <trkpt lon="7.769681" lat="48.034763"><ele>206.0</ele></trkpt>
   <trkpt lon="7.769692" lat="48.034848"><ele>206.0</ele></trkpt>
   <trkpt lon="7.769663" lat="48.034867"><ele>206.0</ele></trkpt>
   <trkpt lon="7.769629" lat="48.034871"><ele>206.0</ele></trkpt>
   <trkpt lon="7.769531" lat="48.034877"><ele>206.0</ele></trkpt>
   <trkpt lon="7.769499" lat="48.034879"><ele>206.0</ele></trkpt>
   <trkpt lon="7.769478" lat="48.034884"><ele>206.0</ele></trkpt>
   <trkpt lon="7.769509" lat="48.035046"><ele>206.0</ele></trkpt>
   <trkpt lon="7.769551" lat="48.035207"><ele>206.0</ele></trkpt>
   <trkpt lon="7.769654" lat="48.035370"><ele>206.0</ele></trkpt>
   <trkpt lon="7.769788" lat="48.035486"><ele>206.0</ele></trkpt>
   <trkpt lon="7.770247" lat="48.035756"><ele>206.0</ele></trkpt>
   <trkpt lon="7.770616" lat="48.035937"><ele>206.0</ele></trkpt>
   <trkpt lon="7.770980" lat="48.036085"><ele>206.0</ele></trkpt>
   <trkpt lon="7.771581" lat="48.036308"><ele>206.0</ele></trkpt>
   <trkpt lon="7.771721" lat="48.036372"><ele>206.0</ele></trkpt>
   <trkpt lon="7.771856" lat="48.036443"><ele>206.0</ele></trkpt>
   <trkpt lon="7.772069" lat="48.036576"><ele>206.0</ele></trkpt>
   <trkpt lon="7.772190" lat="48.036666"><ele>206.0</ele></trkpt>
   <trkpt lon="7.772351" lat="48.036843"><ele>206.0</ele></trkpt>
   <trkpt lon="7.772443" lat="48.036968"><ele>206.0</ele></trkpt>
   <trkpt lon="7.772592" lat="48.037228"><ele>206.0</ele></trkpt>
   <trkpt lon="7.772669" lat="48.037186"><ele>206.0</ele></trkpt>
   <trkpt lon="7.772802" lat="48.037475"><ele>206.0</ele></trkpt>
   <trkpt lon="7.772881" lat="48.037716"><ele>206.0</ele></trkpt>
   <trkpt lon="7.772926" lat="48.037949"><ele>205.25</ele></trkpt>
   <trkpt lon="7.772991" lat="48.038420"><ele>205.0</ele></trkpt>
   <trkpt lon="7.773038" lat="48.038622"><ele>205.0</ele></trkpt>
   <trkpt lon="7.773137" lat="48.038895"><ele>205.0</ele></trkpt>
   <trkpt lon="7.773222" lat="48.039075"><ele>205.0</ele></trkpt>
   <trkpt lon="7.773281" lat="48.039162"><ele>205.0</ele></trkpt>
   <trkpt lon="7.773452" lat="48.039370"><ele>205.0</ele></trkpt>
   <trkpt lon="7.773540" lat="48.039454"><ele>205.0</ele></trkpt>
   <trkpt lon="7.773627" lat="48.039529"><ele>205.0</ele></trkpt>
   <trkpt lon="7.773702" lat="48.039587"><ele>205.0</ele></trkpt>
   <trkpt lon="7.774013" lat="48.039796"><ele>205.0</ele></trkpt>
   <trkpt lon="7.774451" lat="48.040035"><ele>205.0</ele></trkpt>
   <trkpt lon="7.774492" lat="48.040058"><ele>205.0</ele></trkpt>
   <trkpt lon="7.774543" lat="48.040089"><ele>205.0</ele></trkpt>
   <trkpt lon="7.774664" lat="48.040144"><ele>205.0</ele></trkpt>
   <trkpt lon="7.774740" lat="48.040180"><ele>205.0</ele></trkpt>
   <trkpt lon="7.774833" lat="48.040233"><ele>205.0</ele></trkpt>
   <trkpt lon="7.775089" lat="48.040375"><ele>204.5</ele></trkpt>
   <trkpt lon="7.775716" lat="48.040739"><ele>204.0</ele></trkpt>
   <trkpt lon="7.776106" lat="48.040945"><ele>204.0</ele></trkpt>
   <trkpt lon="7.776710" lat="48.041277"><ele>204.0</ele></trkpt>
   <trkpt lon="7.776866" lat="48.041374"><ele>203.75</ele></trkpt>
   <trkpt lon="7.777034" lat="48.041481"><ele>204.0</ele></trkpt>
   <trkpt lon="7.777326" lat="48.041712"><ele>204.0</ele></trkpt>
   <trkpt lon="7.777933" lat="48.042346"><ele>204.0</ele></trkpt>
   <trkpt lon="7.778353" lat="48.042813"><ele>204.0</ele></trkpt>
   <trkpt lon="7.778736" lat="48.043288"><ele>204.0</ele></trkpt>
   <trkpt lon="7.778995" lat="48.043648"><ele>203.75</ele></trkpt>
   <trkpt lon="7.779016" lat="48.043682"><ele>203.5</ele></trkpt>
   <trkpt lon="7.779182" lat="48.043912"><ele>203.25</ele></trkpt>
   <trkpt lon="7.779307" lat="48.044112"><ele>203.0</ele></trkpt>
   <trkpt lon="7.779408" lat="48.044286"><ele>202.75</ele></trkpt>
   <trkpt lon="7.779562" lat="48.044613"><ele>203.0</ele></trkpt>
   <trkpt lon="7.779697" lat="48.044886"><ele>203.0</ele></trkpt>
   <trkpt lon="7.779798" lat="48.045150"><ele>203.0</ele></trkpt>
   <trkpt lon="7.779965" lat="48.045629"><ele>202.75</ele></trkpt>
   <trkpt lon="7.780069" lat="48.046015"><ele>203.0</ele></trkpt>
   <trkpt lon="7.780131" lat="48.046361"><ele>202.5</ele></trkpt>
   <trkpt lon="7.780154" lat="48.046487"><ele>202.25</ele></trkpt>
   <trkpt lon="7.780172" lat="48.046673"><ele>202.0</ele></trkpt>
   <trkpt lon="7.780206" lat="48.046915"><ele>202.0</ele></trkpt>
   <trkpt lon="7.780221" lat="48.047427"><ele>202.0</ele></trkpt>
   <trkpt lon="7.780233" lat="48.047885"><ele>202.0</ele></trkpt>
   <trkpt lon="7.780259" lat="48.048689"><ele>201.0</ele></trkpt>
   <trkpt lon="7.780274" lat="48.049207"><ele>201.0</ele></trkpt>
   <trkpt lon="7.780310" lat="48.049945"><ele>201.0</ele></trkpt>
   <trkpt lon="7.780351" lat="48.050392"><ele>201.0</ele></trkpt>
   <trkpt lon="7.780362" lat="48.050478"><ele>201.0</ele></trkpt>
   <trkpt lon="7.780364" lat="48.050598"><ele>201.0</ele></trkpt>
   <trkpt lon="7.780429" lat="48.050746"><ele>201.0</ele></trkpt>
   <trkpt lon="7.780462" lat="48.050869"><ele>200.75</ele></trkpt>
   <trkpt lon="7.780483" lat="48.050976"><ele>200.75</ele></trkpt>
   <trkpt lon="7.780544" lat="48.051008"><ele>200.75</ele></trkpt>
   <trkpt lon="7.780668" lat="48.051011"><ele>201.0</ele></trkpt>
   <trkpt lon="7.780812" lat="48.051008"><ele>201.0</ele></trkpt>
   <trkpt lon="7.781105" lat="48.050995"><ele>201.0</ele></trkpt>
   <trkpt lon="7.781243" lat="48.050978"><ele>201.0</ele></trkpt>
   <trkpt lon="7.781619" lat="48.050913"><ele>201.0</ele></trkpt>
   <trkpt lon="7.781858" lat="48.050842"><ele>201.0</ele></trkpt>
   <trkpt lon="7.782113" lat="48.050756"><ele>201.5</ele></trkpt>
   <trkpt lon="7.782567" lat="48.050681"><ele>202.0</ele></trkpt>
   <trkpt lon="7.782896" lat="48.052185"><ele>202.0</ele></trkpt>
   <trkpt lon="7.783075" lat="48.052748"><ele>201.0</ele></trkpt>
   <trkpt lon="7.783112" lat="48.052885"><ele>201.0</ele></trkpt>
   <trkpt lon="7.783216" lat="48.053190"><ele>200.5</ele></trkpt>
   <trkpt lon="7.783262" lat="48.053319"><ele>200.0</ele></trkpt>
   <trkpt lon="7.783321" lat="48.053452"><ele>200.0</ele></trkpt>
   <trkpt lon="7.783531" lat="48.053821"><ele>200.0</ele></trkpt>
   <trkpt lon="7.783617" lat="48.053973"><ele>200.0</ele></trkpt>
   <trkpt lon="7.783941" lat="48.054373"><ele>200.0</ele></trkpt>
   <trkpt lon="7.784048" lat="48.054510"><ele>199.75</ele></trkpt>
   <trkpt lon="7.784145" lat="48.054571"><ele>199.5</ele></trkpt>
   <trkpt lon="7.784192" lat="48.054580"><ele>199.25</ele></trkpt>
   <trkpt lon="7.784259" lat="48.054572"><ele>199.25</ele></trkpt>
   <trkpt lon="7.784534" lat="48.054488"><ele>199.0</ele></trkpt>
   <trkpt lon="7.784963" lat="48.054253"><ele>199.5</ele></trkpt>
   <trkpt lon="7.785090" lat="48.054213"><ele>200.0</ele></trkpt>
   <trkpt lon="7.785236" lat="48.054222"><ele>200.5</ele></trkpt>
   <trkpt lon="7.785541" lat="48.054293"><ele>202.0</ele></trkpt>
   <trkpt lon="7.785776" lat="48.054289"><ele>203.25</ele></trkpt>
   <trkpt lon="7.785845" lat="48.054288"><ele>203.5</ele></trkpt>
   <trkpt lon="7.786017" lat="48.054291"><ele>204.25</ele></trkpt>
   <trkpt lon="7.786568" lat="48.054385"><ele>205.25</ele></trkpt>
   <trkpt lon="7.786868" lat="48.054467"><ele>205.25</ele></trkpt>
   <trkpt lon="7.787254" lat="48.054606"><ele>205.25</ele></trkpt>
   <trkpt lon="7.787601" lat="48.054788"><ele>204.75</ele></trkpt>
   <trkpt lon="7.787788" lat="48.054926"><ele>204.5</ele></trkpt>
   <trkpt lon="7.787911" lat="48.055039"><ele>204.0</ele></trkpt>
   <trkpt lon="7.788341" lat="48.055642"><ele>202.0</ele></trkpt>
   <trkpt lon="7.788515" lat="48.055861"><ele>202.5</ele></trkpt>
   <trkpt lon="7.789235" lat="48.056601"><ele>200.5</ele></trkpt>
   <trkpt lon="7.789636" lat="48.056961"><ele>200.5</ele></trkpt>
   <trkpt lon="7.790090" lat="48.057195"><ele>201.25</ele></trkpt>
   <trkpt lon="7.790303" lat="48.057284"><ele>202.5</ele></trkpt>
   <trkpt lon="7.790467" lat="48.057275"><ele>203.0</ele></trkpt>
   <trkpt lon="7.791230" lat="48.057157"><ele>204.5</ele></trkpt>
   <trkpt lon="7.791613" lat="48.057083"><ele>205.75</ele></trkpt>
   <trkpt lon="7.792089" lat="48.056976"><ele>206.75</ele></trkpt>
   <trkpt lon="7.792953" lat="48.056763"><ele>209.75</ele></trkpt>
   <trkpt lon="7.793230" lat="48.056683"><ele>210.0</ele></trkpt>
   <trkpt lon="7.793675" lat="48.056499"><ele>212.25</ele></trkpt>
   <trkpt lon="7.794060" lat="48.056205"><ele>215.0</ele></trkpt>
   <trkpt lon="7.794148" lat="48.056148"><ele>215.5</ele></trkpt>
   <trkpt lon="7.795155" lat="48.055565"><ele>220.5</ele></trkpt>
   <trkpt lon="7.795569" lat="48.055334"><ele>223.5</ele></trkpt>
   <trkpt lon="7.796914" lat="48.055222"><ele>226.75</ele></trkpt>
   <trkpt lon="7.798681" lat="48.055095"><ele>229.5</ele></trkpt>
   <trkpt lon="7.800573" lat="48.054947"><ele>230.75</ele></trkpt>
   <trkpt lon="7.800477" lat="48.054600"><ele>229.75</ele></trkpt>
   <trkpt lon="7.800229" lat="48.053841"><ele>224.75</ele></trkpt>
   <trkpt lon="7.800182" lat="48.053697"><ele>223.5</ele></trkpt>
   <trkpt lon="7.800167" lat="48.053203"><ele>219.5</ele></trkpt>
   <trkpt lon="7.800178" lat="48.052925"><ele>218.5</ele></trkpt>
   <trkpt lon="7.800184" lat="48.052654"><ele>217.5</ele></trkpt>
   <trkpt lon="7.800246" lat="48.052324"><ele>216.25</ele></trkpt>
   <trkpt lon="7.800255" lat="48.052276"><ele>216.0</ele></trkpt>
   <trkpt lon="7.800342" lat="48.052104"><ele>215.5</ele></trkpt>
   <trkpt lon="7.800355" lat="48.052079"><ele>215.25</ele></trkpt>
   <trkpt lon="7.800435" lat="48.051857"><ele>214.5</ele></trkpt>
   <trkpt lon="7.800457" lat="48.051824"><ele>214.5</ele></trkpt>
   <trkpt lon="7.800572" lat="48.051734"><ele>214.0</ele></trkpt>
   <trkpt lon="7.800733" lat="48.051606"><ele>213.75</ele></trkpt>
   <trkpt lon="7.800792" lat="48.051561"><ele>213.5</ele></trkpt>
   <trkpt lon="7.800997" lat="48.051406"><ele>213.5</ele></trkpt>
   <trkpt lon="7.801125" lat="48.051308"><ele>213.5</ele></trkpt>
   <trkpt lon="7.801802" lat="48.050846"><ele>212.0</ele></trkpt>
   <trkpt lon="7.802089" lat="48.050634"><ele>211.5</ele></trkpt>
   <trkpt lon="7.802048" lat="48.050320"><ele>211.0</ele></trkpt>
   <trkpt lon="7.802024" lat="48.050128"><ele>210.25</ele></trkpt>
   <trkpt lon="7.801992" lat="48.049881"><ele>209.5</ele></trkpt>
   <trkpt lon="7.801976" lat="48.049752"><ele>209.0</ele></trkpt>
   <trkpt lon="7.801978" lat="48.049698"><ele>209.0</ele></trkpt>
   <trkpt lon="7.801998" lat="48.049653"><ele>209.0</ele></trkpt>
   <trkpt lon="7.802055" lat="48.049615"><ele>209.0</ele></trkpt>
   <trkpt lon="7.802144" lat="48.049586"><ele>209.0</ele></trkpt>
   <trkpt lon="7.802234" lat="48.049541"><ele>209.0</ele></trkpt>
   <trkpt lon="7.802313" lat="48.049560"><ele>209.0</ele></trkpt>
   <trkpt lon="7.802636" lat="48.049503"><ele>209.0</ele></trkpt>
   <trkpt lon="7.802843" lat="48.049466"><ele>209.0</ele></trkpt>
   <trkpt lon="7.802924" lat="48.049451"><ele>209.0</ele></trkpt>
   <trkpt lon="7.803269" lat="48.049417"><ele>209.75</ele></trkpt>
   <trkpt lon="7.803706" lat="48.049334"><ele>210.5</ele></trkpt>
   <trkpt lon="7.804025" lat="48.049275"><ele>211.0</ele></trkpt>
   <trkpt lon="7.804282" lat="48.049235"><ele>211.5</ele></trkpt>
   <trkpt lon="7.804382" lat="48.049227"><ele>211.75</ele></trkpt>
   <trkpt lon="7.805271" lat="48.049142"><ele>211.75</ele></trkpt>
   <trkpt lon="7.805577" lat="48.049093"><ele>212.5</ele></trkpt>
   <trkpt lon="7.805740" lat="48.049040"><ele>212.75</ele></trkpt>
   <trkpt lon="7.805840" lat="48.048991"><ele>212.75</ele></trkpt>
   <trkpt lon="7.805896" lat="48.048956"><ele>212.5</ele></trkpt>
   <trkpt lon="7.806054" lat="48.048750"><ele>211.75</ele></trkpt>
   <trkpt lon="7.806156" lat="48.048643"><ele>211.25</ele></trkpt>
   <trkpt lon="7.806357" lat="48.048472"><ele>211.25</ele></trkpt>
   <trkpt lon="7.806607" lat="48.048300"><ele>210.75</ele></trkpt>
   <trkpt lon="7.806694" lat="48.048243"><ele>211.0</ele></trkpt>
   <trkpt lon="7.806936" lat="48.048084"><ele>211.0</ele></trkpt>
   <trkpt lon="7.807139" lat="48.047961"><ele>211.0</ele></trkpt>
   <trkpt lon="7.807535" lat="48.047714"><ele>210.75</ele></trkpt>
   <trkpt lon="7.808084" lat="48.047314"><ele>210.0</ele></trkpt>
   <trkpt lon="7.808270" lat="48.047208"><ele>210.0</ele></trkpt>
   <trkpt lon="7.808472" lat="48.047111"><ele>210.0</ele></trkpt>
   <trkpt lon="7.808757" lat="48.047024"><ele>210.0</ele></trkpt>
   <trkpt lon="7.808858" lat="48.047002"><ele>210.0</ele></trkpt>
   <trkpt lon="7.808950" lat="48.046973"><ele>210.0</ele></trkpt>
   <trkpt lon="7.809034" lat="48.046946"><ele>210.0</ele></trkpt>
   <trkpt lon="7.809179" lat="48.046882"><ele>210.0</ele></trkpt>
   <trkpt lon="7.809345" lat="48.046777"><ele>210.0</ele></trkpt>
   <trkpt lon="7.809425" lat="48.046705"><ele>210.0</ele></trkpt>
   <trkpt lon="7.809527" lat="48.046639"><ele>210.0</ele></trkpt>
   <trkpt lon="7.809629" lat="48.046598"><ele>210.0</ele></trkpt>
   <trkpt lon="7.809739" lat="48.046575"><ele>210.0</ele></trkpt>
   <trkpt lon="7.810188" lat="48.046471"><ele>210.0</ele></trkpt>
   <trkpt lon="7.810421" lat="48.046382"><ele>210.0</ele></trkpt>
   <trkpt lon="7.810501" lat="48.046315"><ele>210.0</ele></trkpt>
   <trkpt lon="7.810837" lat="48.045882"><ele>211.0</ele></trkpt>
   <trkpt lon="7.811122" lat="48.045509"><ele>211.0</ele></trkpt>
   <trkpt lon="7.811240" lat="48.045374"><ele>211.0</ele></trkpt>
   <trkpt lon="7.811245" lat="48.045270"><ele>211.0</ele></trkpt>
   <trkpt lon="7.811284" lat="48.045108"><ele>211.0</ele></trkpt>
   <trkpt lon="7.811350" lat="48.044952"><ele>211.0</ele></trkpt>
   <trkpt lon="7.811708" lat="48.044314"><ele>212.0</ele></trkpt>
   <trkpt lon="7.812205" lat="48.043556"><ele>212.0</ele></trkpt>
   <trkpt lon="7.812461" lat="48.043133"><ele>213.0</ele></trkpt>
   <trkpt lon="7.812534" lat="48.043129"><ele>213.0</ele></trkpt>
   <trkpt lon="7.812647" lat="48.042949"><ele>213.0</ele></trkpt>
   <trkpt lon="7.812816" lat="48.042680"><ele>213.0</ele></trkpt>
   <trkpt lon="7.813246" lat="48.042013"><ele>214.0</ele></trkpt>
   <trkpt lon="7.813612" lat="48.041436"><ele>215.0</ele></trkpt>
   <trkpt lon="7.813816" lat="48.041123"><ele>215.0</ele></trkpt>
   <trkpt lon="7.813854" lat="48.041060"><ele>215.0</ele></trkpt>
   <trkpt lon="7.814258" lat="48.040424"><ele>215.0</ele></trkpt>
   <trkpt lon="7.814281" lat="48.040384"><ele>215.0</ele></trkpt>
   <trkpt lon="7.814695" lat="48.039715"><ele>216.0</ele></trkpt>
   <trkpt lon="7.814809" lat="48.039542"><ele>216.0</ele></trkpt>
   <trkpt lon="7.815325" lat="48.038746"><ele>217.0</ele></trkpt>
   <trkpt lon="7.815601" lat="48.038306"><ele>217.0</ele></trkpt>
   <trkpt lon="7.815665" lat="48.038188"><ele>217.0</ele></trkpt>
   <trkpt lon="7.815799" lat="48.037966"><ele>217.25</ele></trkpt>
   <trkpt lon="7.815912" lat="48.037799"><ele>217.75</ele></trkpt>
   <trkpt lon="7.815991" lat="48.037573"><ele>218.0</ele></trkpt>
   <trkpt lon="7.816062" lat="48.037469"><ele>218.0</ele></trkpt>
   <trkpt lon="7.816082" lat="48.037369"><ele>218.0</ele></trkpt>
   <trkpt lon="7.816071" lat="48.037339"><ele>218.0</ele></trkpt>
   <trkpt lon="7.816074" lat="48.037302"><ele>218.0</ele></trkpt>
   <trkpt lon="7.816098" lat="48.037267"><ele>218.0</ele></trkpt>
   <trkpt lon="7.816138" lat="48.037241"><ele>218.0</ele></trkpt>
   <trkpt lon="7.816187" lat="48.037226"><ele>217.75</ele></trkpt>
   <trkpt lon="7.816247" lat="48.037224"><ele>218.0</ele></trkpt>
   <trkpt lon="7.816304" lat="48.037237"><ele>218.0</ele></trkpt>
   <trkpt lon="7.816349" lat="48.037263"><ele>218.0</ele></trkpt>
   <trkpt lon="7.816380" lat="48.037312"><ele>218.0</ele></trkpt>
   <trkpt lon="7.817773" lat="48.037732"><ele>217.75</ele></trkpt>
   <trkpt lon="7.817867" lat="48.037801"><ele>218.0</ele></trkpt>
   <trkpt lon="7.818024" lat="48.037848"><ele>218.0</ele></trkpt>
   <trkpt lon="7.818436" lat="48.037961"><ele>218.0</ele></trkpt>
   <trkpt lon="7.818722" lat="48.038038"><ele>218.0</ele></trkpt>
   <trkpt lon="7.819775" lat="48.038324"><ele>218.0</ele></trkpt>
   <trkpt lon="7.820072" lat="48.038398"><ele>218.0</ele></trkpt>
   <trkpt lon="7.820362" lat="48.038453"><ele>218.5</ele></trkpt>
   <trkpt lon="7.820569" lat="48.038485"><ele>219.0</ele></trkpt>
   <trkpt lon="7.820851" lat="48.038525"><ele>218.75</ele></trkpt>
   <trkpt lon="7.821309" lat="48.038556"><ele>219.0</ele></trkpt>
   <trkpt lon="7.821572" lat="48.038563"><ele>219.0</ele></trkpt>
   <trkpt lon="7.821844" lat="48.038557"><ele>219.0</ele></trkpt>
   <trkpt lon="7.822159" lat="48.038534"><ele>219.0</ele></trkpt>
   <trkpt lon="7.822476" lat="48.038502"><ele>219.0</ele></trkpt>
   <trkpt lon="7.822923" lat="48.038434"><ele>218.75</ele></trkpt>
   <trkpt lon="7.823401" lat="48.038319"><ele>219.0</ele></trkpt>
   <trkpt lon="7.823783" lat="48.038195"><ele>219.75</ele></trkpt>
   <trkpt lon="7.824054" lat="48.038091"><ele>220.0</ele></trkpt>
   <trkpt lon="7.824288" lat="48.037986"><ele>220.0</ele></trkpt>
   <trkpt lon="7.824800" lat="48.037714"><ele>220.0</ele></trkpt>
   <trkpt lon="7.826216" lat="48.036900"><ele>221.0</ele></trkpt>
   <trkpt lon="7.826972" lat="48.036454"><ele>221.0</ele></trkpt>
   <trkpt lon="7.829293" lat="48.035112"><ele>223.0</ele></trkpt>
   <trkpt lon="7.829743" lat="48.034845"><ele>223.5</ele></trkpt>
   <trkpt lon="7.830156" lat="48.034587"><ele>224.0</ele></trkpt>
   <trkpt lon="7.830487" lat="48.034357"><ele>224.0</ele></trkpt>
   <trkpt lon="7.830817" lat="48.034105"><ele>224.0</ele></trkpt>
   <trkpt lon="7.831059" lat="48.033898"><ele>224.0</ele></trkpt>
   <trkpt lon="7.831305" lat="48.033674"><ele>224.75</ele></trkpt>
   <trkpt lon="7.831553" lat="48.033418"><ele>224.75</ele></trkpt>
   <trkpt lon="7.831839" lat="48.033096"><ele>224.75</ele></trkpt>
   <trkpt lon="7.832066" lat="48.032783"><ele>225.0</ele></trkpt>
   <trkpt lon="7.832301" lat="48.032421"><ele>226.0</ele></trkpt>
   <trkpt lon="7.832594" lat="48.031897"><ele>226.25</ele></trkpt>
   <trkpt lon="7.832914" lat="48.031306"><ele>227.0</ele></trkpt>
   <trkpt lon="7.833039" lat="48.031080"><ele>227.0</ele></trkpt>
   <trkpt lon="7.833139" lat="48.030894"><ele>227.75</ele></trkpt>
   <trkpt lon="7.833211" lat="48.030773"><ele>228.0</ele></trkpt>
   <trkpt lon="7.833362" lat="48.030803"><ele>228.0</ele></trkpt>
   <trkpt lon="7.833414" lat="48.030770"><ele>228.0</ele></trkpt>
   <trkpt lon="7.833682" lat="48.030346"><ele>229.0</ele></trkpt>
   <trkpt lon="7.833738" lat="48.030276"><ele>229.0</ele></trkpt>
   <trkpt lon="7.833804" lat="48.030244"><ele>229.0</ele></trkpt>
   <trkpt lon="7.833894" lat="48.030221"><ele>229.0</ele></trkpt>
   <trkpt lon="7.834010" lat="48.030223"><ele>229.0</ele></trkpt>
   <trkpt lon="7.834175" lat="48.030252"><ele>229.0</ele></trkpt>
   <trkpt lon="7.835359" lat="48.030536"><ele>229.75</ele></trkpt>
   <trkpt lon="7.837865" lat="48.031151"><ele>229.75</ele></trkpt>
   <trkpt lon="7.838637" lat="48.031337"><ele>230.0</ele></trkpt>
   <trkpt lon="7.841013" lat="48.031958"><ele>230.0</ele></trkpt>
   <trkpt lon="7.841429" lat="48.032002"><ele>230.0</ele></trkpt>
   <trkpt lon="7.841449" lat="48.031957"><ele>229.75</ele></trkpt>
   <trkpt lon="7.841505" lat="48.031857"><ele>230.0</ele></trkpt>
   <trkpt lon="7.841583" lat="48.031783"><ele>230.0</ele></trkpt>
   <trkpt lon="7.841717" lat="48.031685"><ele>230.0</ele></trkpt>
   <trkpt lon="7.841953" lat="48.031557"><ele>230.25</ele></trkpt>
   <trkpt lon="7.842108" lat="48.031443"><ele>230.75</ele></trkpt>
   <trkpt lon="7.842396" lat="48.031061"><ele>231.0</ele></trkpt>
   <trkpt lon="7.842574" lat="48.030799"><ele>231.0</ele></trkpt>
   <trkpt lon="7.842800" lat="48.030545"><ele>232.0</ele></trkpt>
   <trkpt lon="7.843092" lat="48.030251"><ele>232.0</ele></trkpt>
   <trkpt lon="7.843507" lat="48.029861"><ele>232.0</ele></trkpt>
   <trkpt lon="7.843581" lat="48.029796"><ele>231.75</ele></trkpt>
   <trkpt lon="7.843793" lat="48.029611"><ele>232.25</ele></trkpt>
   <trkpt lon="7.843823" lat="48.029586"><ele>232.25</ele></trkpt>
   <trkpt lon="7.844142" lat="48.029322"><ele>233.0</ele></trkpt>
   <trkpt lon="7.844485" lat="48.029022"><ele>233.0</ele></trkpt>
   <trkpt lon="7.845185" lat="48.028419"><ele>233.75</ele></trkpt>
   <trkpt lon="7.845310" lat="48.028301"><ele>234.0</ele></trkpt>
   <trkpt lon="7.845894" lat="48.027725"><ele>234.25</ele></trkpt>
   <trkpt lon="7.845997" lat="48.027622"><ele>234.75</ele></trkpt>
   <trkpt lon="7.846233" lat="48.027364"><ele>235.0</ele></trkpt>
   <trkpt lon="7.846676" lat="48.026854"><ele>235.25</ele></trkpt>
   <trkpt lon="7.846786" lat="48.026716"><ele>235.75</ele></trkpt>
   <trkpt lon="7.847090" lat="48.026334"><ele>236.0</ele></trkpt>
   <trkpt lon="7.847134" lat="48.026279"><ele>236.0</ele></trkpt>
   <trkpt lon="7.847374" lat="48.025964"><ele>236.25</ele></trkpt>
   <trkpt lon="7.847741" lat="48.025496"><ele>237.0</ele></trkpt>
   <trkpt lon="7.847784" lat="48.025438"><ele>237.0</ele></trkpt>
   <trkpt lon="7.847967" lat="48.025199"><ele>237.0</ele></trkpt>
   <trkpt lon="7.848259" lat="48.024850"><ele>237.75</ele></trkpt>
   <trkpt lon="7.848285" lat="48.024819"><ele>237.75</ele></trkpt>
   <trkpt lon="7.848408" lat="48.024665"><ele>238.0</ele></trkpt>
   <trkpt lon="7.848505" lat="48.024539"><ele>238.0</ele></trkpt>
   <trkpt lon="7.848551" lat="48.024480"><ele>238.0</ele></trkpt>
   <trkpt lon="7.848814" lat="48.024137"><ele>238.0</ele></trkpt>
   <trkpt lon="7.848847" lat="48.024085"><ele>238.0</ele></trkpt>
   <trkpt lon="7.848882" lat="48.024031"><ele>238.25</ele></trkpt>
   <trkpt lon="7.848954" lat="48.023936"><ele>238.75</ele></trkpt>
   <trkpt lon="7.849455" lat="48.023294"><ele>239.0</ele></trkpt>
   <trkpt lon="7.849674" lat="48.023019"><ele>239.0</ele></trkpt>
   <trkpt lon="7.849816" lat="48.022859"><ele>239.0</ele></trkpt>
   <trkpt lon="7.849968" lat="48.022713"><ele>239.0</ele></trkpt>
   <trkpt lon="7.850111" lat="48.022592"><ele>239.25</ele></trkpt>
   <trkpt lon="7.850271" lat="48.022464"><ele>239.75</ele></trkpt>
   <trkpt lon="7.850382" lat="48.022377"><ele>240.0</ele></trkpt>
   <trkpt lon="7.850496" lat="48.022297"><ele>240.0</ele></trkpt>
   <trkpt lon="7.850601" lat="48.022195"><ele>240.0</ele></trkpt>
   <trkpt lon="7.850656" lat="48.022164"><ele>240.0</ele></trkpt>
   <trkpt lon="7.850722" lat="48.022104"><ele>240.25</ele></trkpt>
   <trkpt lon="7.850717" lat="48.022046"><ele>240.25</ele></trkpt>
   <trkpt lon="7.850737" lat="48.022012"><ele>240.25</ele></trkpt>
   <trkpt lon="7.850769" lat="48.021987"><ele>240.5</ele></trkpt>
   <trkpt lon="7.850832" lat="48.021964"><ele>240.75</ele></trkpt>
   <trkpt lon="7.850880" lat="48.021960"><ele>240.75</ele></trkpt>
   <trkpt lon="7.850928" lat="48.021965"><ele>240.75</ele></trkpt>
   <trkpt lon="7.851029" lat="48.021917"><ele>241.0</ele></trkpt>
   <trkpt lon="7.851123" lat="48.021873"><ele>241.0</ele></trkpt>
   <trkpt lon="7.851263" lat="48.021827"><ele>241.0</ele></trkpt>
   <trkpt lon="7.851360" lat="48.021771"><ele>241.0</ele></trkpt>
   <trkpt lon="7.851546" lat="48.021650"><ele>241.5</ele></trkpt>
   <trkpt lon="7.851839" lat="48.021475"><ele>242.0</ele></trkpt>
   <trkpt lon="7.852054" lat="48.021343"><ele>242.25</ele></trkpt>
   <trkpt lon="7.852108" lat="48.021310"><ele>242.5</ele></trkpt>
   <trkpt lon="7.852200" lat="48.021253"><ele>242.75</ele></trkpt>
   <trkpt lon="7.852321" lat="48.021179"><ele>243.0</ele></trkpt>
   <trkpt lon="7.852349" lat="48.021162"><ele>242.75</ele></trkpt>
   <trkpt lon="7.852505" lat="48.021065"><ele>243.0</ele></trkpt>
   <trkpt lon="7.852704" lat="48.020943"><ele>243.0</ele></trkpt>
   <trkpt lon="7.852761" lat="48.020907"><ele>243.0</ele></trkpt>
   <trkpt lon="7.852790" lat="48.020889"><ele>243.0</ele></trkpt>
   <trkpt lon="7.852930" lat="48.020803"><ele>243.5</ele></trkpt>
   <trkpt lon="7.853069" lat="48.020718"><ele>244.0</ele></trkpt>
   <trkpt lon="7.853252" lat="48.020605"><ele>244.0</ele></trkpt>
   <trkpt lon="7.853537" lat="48.020429"><ele>244.25</ele></trkpt>
   <trkpt lon="7.853717" lat="48.020318"><ele>244.75</ele></trkpt>
   <trkpt lon="7.854342" lat="48.019933"><ele>245.5</ele></trkpt>
   <trkpt lon="7.853918" lat="48.018750"><ele>246.0</ele></trkpt>
   <trkpt lon="7.854197" lat="48.018710"><ele>246.0</ele></trkpt>
   <trkpt lon="7.853802" lat="48.017666"><ele>247.0</ele></trkpt>
   <trkpt lon="7.853790" lat="48.017635"><ele>247.0</ele></trkpt>
   <trkpt lon="7.853701" lat="48.017055"><ele>247.0</ele></trkpt>
   <trkpt lon="7.853696" lat="48.016985"><ele>247.0</ele></trkpt>
   <trkpt lon="7.853701" lat="48.016522"><ele>247.5</ele></trkpt>
   <trkpt lon="7.853760" lat="48.016197"><ele>248.0</ele></trkpt>
   <trkpt lon="7.853856" lat="48.015672"><ele>248.0</ele></trkpt>
   <trkpt lon="7.853869" lat="48.015585"><ele>247.75</ele></trkpt>
   <trkpt lon="7.853900" lat="48.015396"><ele>248.0</ele></trkpt>
   <trkpt lon="7.853956" lat="48.015127"><ele>248.0</ele></trkpt>
   <trkpt lon="7.854006" lat="48.014994"><ele>248.25</ele></trkpt>
   <trkpt lon="7.854090" lat="48.014815"><ele>248.75</ele></trkpt>
   <trkpt lon="7.854127" lat="48.014750"><ele>248.75</ele></trkpt>
   <trkpt lon="7.854223" lat="48.014620"><ele>249.0</ele></trkpt>
   <trkpt lon="7.854475" lat="48.014368"><ele>248.75</ele></trkpt>
   <trkpt lon="7.854521" lat="48.014334"><ele>249.0</ele></trkpt>
   <trkpt lon="7.854594" lat="48.014295"><ele>249.0</ele></trkpt>
   <trkpt lon="7.854623" lat="48.014265"><ele>249.0</ele></trkpt>
   <trkpt lon="7.854695" lat="48.014196"><ele>249.0</ele></trkpt>
   <trkpt lon="7.854710" lat="48.014180"><ele>249.0</ele></trkpt>
   <trkpt lon="7.854730" lat="48.014159"><ele>249.0</ele></trkpt>
   <trkpt lon="7.854798" lat="48.014095"><ele>249.0</ele></trkpt>
   <trkpt lon="7.854824" lat="48.014070"><ele>249.0</ele></trkpt>
   <trkpt lon="7.854889" lat="48.014005"><ele>249.0</ele></trkpt>
   <trkpt lon="7.854915" lat="48.013965"><ele>249.0</ele></trkpt>
   <trkpt lon="7.854931" lat="48.013921"><ele>249.0</ele></trkpt>
   <trkpt lon="7.854893" lat="48.013740"><ele>249.0</ele></trkpt>
   <trkpt lon="7.854815" lat="48.013347"><ele>249.0</ele></trkpt>
   <trkpt lon="7.854739" lat="48.013043"><ele>249.0</ele></trkpt>
   <trkpt lon="7.854718" lat="48.012937"><ele>249.25</ele></trkpt>
   <trkpt lon="7.854691" lat="48.012857"><ele>249.5</ele></trkpt>
   <trkpt lon="7.854627" lat="48.012736"><ele>249.5</ele></trkpt>
   <trkpt lon="7.854419" lat="48.012308"><ele>250.5</ele></trkpt>
   <trkpt lon="7.854389" lat="48.012237"><ele>250.75</ele></trkpt>
   <trkpt lon="7.854372" lat="48.012174"><ele>250.75</ele></trkpt>
   <trkpt lon="7.854372" lat="48.012149"><ele>250.75</ele></trkpt>
   <trkpt lon="7.854376" lat="48.012089"><ele>250.75</ele></trkpt>
   <trkpt lon="7.854395" lat="48.012055"><ele>250.75</ele></trkpt>
   <trkpt lon="7.854457" lat="48.011999"><ele>251.0</ele></trkpt>
   <trkpt lon="7.854584" lat="48.011895"><ele>251.5</ele></trkpt>
   <trkpt lon="7.854615" lat="48.011866"><ele>251.5</ele></trkpt>
   <trkpt lon="7.854649" lat="48.011809"><ele>251.75</ele></trkpt>
   <trkpt lon="7.854656" lat="48.011765"><ele>251.75</ele></trkpt>
   <trkpt lon="7.854654" lat="48.011704"><ele>251.75</ele></trkpt>
   <trkpt lon="7.854625" lat="48.011598"><ele>252.0</ele></trkpt>
   <trkpt lon="7.854610" lat="48.011557"><ele>252.25</ele></trkpt>
   <trkpt lon="7.854579" lat="48.011537"><ele>252.25</ele></trkpt>
   <trkpt lon="7.854528" lat="48.011515"><ele>252.5</ele></trkpt>
   <trkpt lon="7.854456" lat="48.011484"><ele>252.5</ele></trkpt>
   <trkpt lon="7.854369" lat="48.011414"><ele>252.75</ele></trkpt>
   <trkpt lon="7.854263" lat="48.011296"><ele>253.25</ele></trkpt>
   <trkpt lon="7.854222" lat="48.011211"><ele>253.5</ele></trkpt>
   <trkpt lon="7.854204" lat="48.011194"><ele>253.5</ele></trkpt>
   <trkpt lon="7.853864" lat="48.010856"><ele>253.75</ele></trkpt>
   <trkpt lon="7.853739" lat="48.010727"><ele>254.0</ele></trkpt>
   <trkpt lon="7.853427" lat="48.010400"><ele>254.0</ele></trkpt>
   <trkpt lon="7.852976" lat="48.009907"><ele>254.25</ele></trkpt>
   <trkpt lon="7.852876" lat="48.009797"><ele>254.5</ele></trkpt>
   <trkpt lon="7.852953" lat="48.009662"><ele>255.0</ele></trkpt>
   <trkpt lon="7.853071" lat="48.009457"><ele>255.0</ele></trkpt>
   <trkpt lon="7.853178" lat="48.009256"><ele>255.75</ele></trkpt>
   <trkpt lon="7.853314" lat="48.008971"><ele>256.0</ele></trkpt>
   <trkpt lon="7.853393" lat="48.008634"><ele>256.75</ele></trkpt>
   <trkpt lon="7.853424" lat="48.008385"><ele>257.0</ele></trkpt>
   <trkpt lon="7.853424" lat="48.008065"><ele>257.75</ele></trkpt>
   <trkpt lon="7.853404" lat="48.007844"><ele>258.0</ele></trkpt>
   <trkpt lon="7.853297" lat="48.007520"><ele>258.0</ele></trkpt>
   <trkpt lon="7.853257" lat="48.007345"><ele>258.5</ele></trkpt>
   <trkpt lon="7.853231" lat="48.007227"><ele>258.75</ele></trkpt>
   <trkpt lon="7.853153" lat="48.006886"><ele>259.0</ele></trkpt>
   <trkpt lon="7.853133" lat="48.006799"><ele>259.0</ele></trkpt>
   <trkpt lon="7.853086" lat="48.006594"><ele>259.0</ele></trkpt>
   <trkpt lon="7.853000" lat="48.006216"><ele>259.5</ele></trkpt>
   <trkpt lon="7.852891" lat="48.005740"><ele>260.5</ele></trkpt>
   <trkpt lon="7.852826" lat="48.005456"><ele>261.25</ele></trkpt>
   <trkpt lon="7.852755" lat="48.005144"><ele>262.0</ele></trkpt>
   <trkpt lon="7.852728" lat="48.005028"><ele>262.0</ele></trkpt>
   <trkpt lon="7.852535" lat="48.004183"><ele>263.75</ele></trkpt>
   <trkpt lon="7.852523" lat="48.004128"><ele>264.0</ele></trkpt>
   <trkpt lon="7.852500" lat="48.004074"><ele>264.0</ele></trkpt>
   <trkpt lon="7.852139" lat="48.003180"><ele>265.5</ele></trkpt>
   <trkpt lon="7.851987" lat="48.002804"><ele>266.0</ele></trkpt>
   <trkpt lon="7.851889" lat="48.002566"><ele>266.75</ele></trkpt>
   <trkpt lon="7.851880" lat="48.002545"><ele>266.75</ele></trkpt>
   <trkpt lon="7.851685" lat="48.002068"><ele>267.5</ele></trkpt>
   <trkpt lon="7.851490" lat="48.001595"><ele>268.5</ele></trkpt>
   <trkpt lon="7.851460" lat="48.001520"><ele>268.5</ele></trkpt>
   <trkpt lon="7.851392" lat="48.001355"><ele>269.0</ele></trkpt>
   <trkpt lon="7.851322" lat="48.001185"><ele>269.0</ele></trkpt>
   <trkpt lon="7.851196" lat="48.000878"><ele>269.75</ele></trkpt>
   <trkpt lon="7.851090" lat="48.000608"><ele>270.0</ele></trkpt>
   <trkpt lon="7.851185" lat="48.000591"><ele>270.0</ele></trkpt>
   <trkpt lon="7.851217" lat="48.000585"><ele>270.0</ele></trkpt>
   <trkpt lon="7.851754" lat="48.000486"><ele>270.0</ele></trkpt>
   <trkpt lon="7.851948" lat="48.000450"><ele>270.0</ele></trkpt>
   <trkpt lon="7.852080" lat="48.000426"><ele>270.0</ele></trkpt>
   <trkpt lon="7.852234" lat="48.000395"><ele>270.0</ele></trkpt>
   <trkpt lon="7.852207" lat="48.000089"><ele>270.0</ele></trkpt>
  </trkseg>
 </trk>
</gpx>
