<?xml version="1.0" encoding="UTF-8"?>
<!-- track-length = 31842 filtered ascend = 1601 plain-ascend = 0 cost=294250 energy=.5kwh time=5h 16m 29s AUTO selected WAYPOINT (score 0.572) after 4 candidate(s) in 12011ms. Also tried ISO_GREEDY: no track. Also tried GREEDY: no track. Also tried ISOCHRONE: no track. Warning: contiguous 8575m of profile-hostile way (max 1500m) — single off-road stretch too long for road bike (shape=INVALID_RETRACE) — route returned anyway; ride at your discretion, or set roundTripStrictQuality=1 to reject it. Note: route contains 1 out-and-back section (longest 6.0km). -->
<gpx
 xmlns="http://www.topografix.com/GPX/1/1"
 xmlns:xsi="http://www.w3.org/2001/XMLSchema-instance"
 xsi:schemaLocation="http://www.topografix.com/GPX/1/1 http://www.topografix.com/GPX/1/1/gpx.xsd"
 creator="BRouter-null" version="1.1">
 <trk>
  <name>brouter_fastbike_0</name>
  <trkseg>
   <trkpt lon="11.100196" lat="47.500055"><ele>697.75</ele></trkpt>
   <trkpt lon="11.099817" lat="47.499850"><ele>698.0</ele></trkpt>
   <trkpt lon="11.099676" lat="47.499779"><ele>697.75</ele></trkpt>
   <trkpt lon="11.099529" lat="47.499716"><ele>698.0</ele></trkpt>
   <trkpt lon="11.099382" lat="47.499628"><ele>698.0</ele></trkpt>
   <trkpt lon="11.099143" lat="47.499458"><ele>698.0</ele></trkpt>
   <trkpt lon="11.098998" lat="47.499314"><ele>698.75</ele></trkpt>
   <trkpt lon="11.098873" lat="47.499081"><ele>698.75</ele></trkpt>
   <trkpt lon="11.098693" lat="47.498524"><ele>699.0</ele></trkpt>
   <trkpt lon="11.098640" lat="47.498403"><ele>699.0</ele></trkpt>
   <trkpt lon="11.098304" lat="47.497605"><ele>699.0</ele></trkpt>
   <trkpt lon="11.098250" lat="47.497492"><ele>699.0</ele></trkpt>
   <trkpt lon="11.098281" lat="47.497285"><ele>699.75</ele></trkpt>
   <trkpt lon="11.098057" lat="47.496789"><ele>700.0</ele></trkpt>
   <trkpt lon="11.098032" lat="47.496670"><ele>700.0</ele></trkpt>
   <trkpt lon="11.097498" lat="47.496337"><ele>700.0</ele></trkpt>
   <trkpt lon="11.097261" lat="47.496201"><ele>700.0</ele></trkpt>
   <trkpt lon="11.097142" lat="47.496150"><ele>699.0</ele></trkpt>
   <trkpt lon="11.096860" lat="47.496006"><ele>698.0</ele></trkpt>
   <trkpt lon="11.096733" lat="47.495953"><ele>698.5</ele></trkpt>
   <trkpt lon="11.096564" lat="47.495883"><ele>699.5</ele></trkpt>
   <trkpt lon="11.096185" lat="47.495749"><ele>700.0</ele></trkpt>
   <trkpt lon="11.096033" lat="47.495696"><ele>699.75</ele></trkpt>
   <trkpt lon="11.095601" lat="47.495576"><ele>699.0</ele></trkpt>
   <trkpt lon="11.095435" lat="47.495527"><ele>699.0</ele></trkpt>
   <trkpt lon="11.095103" lat="47.495450"><ele>699.0</ele></trkpt>
   <trkpt lon="11.094918" lat="47.495417"><ele>699.25</ele></trkpt>
   <trkpt lon="11.094719" lat="47.495378"><ele>699.25</ele></trkpt>
   <trkpt lon="11.094683" lat="47.495371"><ele>699.0</ele></trkpt>
   <trkpt lon="11.094215" lat="47.495283"><ele>698.0</ele></trkpt>
   <trkpt lon="11.094032" lat="47.495251"><ele>698.0</ele></trkpt>
   <trkpt lon="11.094008" lat="47.495247"><ele>698.0</ele></trkpt>
   <trkpt lon="11.093902" lat="47.495221"><ele>697.75</ele></trkpt>
   <trkpt lon="11.093869" lat="47.495215"><ele>698.0</ele></trkpt>
   <trkpt lon="11.093718" lat="47.495200"><ele>698.0</ele></trkpt>
   <trkpt lon="11.093499" lat="47.495158"><ele>698.0</ele></trkpt>
   <trkpt lon="11.093298" lat="47.495105"><ele>698.0</ele></trkpt>
   <trkpt lon="11.093270" lat="47.495126"><ele>698.0</ele></trkpt>
   <trkpt lon="11.093238" lat="47.495155"><ele>698.0</ele></trkpt>
   <trkpt lon="11.093063" lat="47.495281"><ele>697.75</ele></trkpt>
   <trkpt lon="11.092875" lat="47.495366"><ele>697.5</ele></trkpt>
   <trkpt lon="11.092720" lat="47.495514"><ele>697.0</ele></trkpt>
   <trkpt lon="11.092559" lat="47.495647"><ele>697.0</ele></trkpt>
   <trkpt lon="11.092325" lat="47.495915"><ele>696.75</ele></trkpt>
   <trkpt lon="11.092203" lat="47.496074"><ele>696.0</ele></trkpt>
   <trkpt lon="11.092181" lat="47.496115"><ele>696.0</ele></trkpt>
   <trkpt lon="11.092095" lat="47.496312"><ele>696.25</ele></trkpt>
   <trkpt lon="11.091875" lat="47.496683"><ele>696.0</ele></trkpt>
   <trkpt lon="11.091666" lat="47.497014"><ele>695.75</ele></trkpt>
   <trkpt lon="11.091518" lat="47.497188"><ele>695.5</ele></trkpt>
   <trkpt lon="11.091318" lat="47.497384"><ele>695.0</ele></trkpt>
   <trkpt lon="11.091207" lat="47.497476"><ele>695.0</ele></trkpt>
   <trkpt lon="11.091090" lat="47.497537"><ele>694.75</ele></trkpt>
   <trkpt lon="11.090972" lat="47.497568"><ele>695.0</ele></trkpt>
   <trkpt lon="11.090822" lat="47.497572"><ele>695.0</ele></trkpt>
   <trkpt lon="11.090625" lat="47.497536"><ele>695.5</ele></trkpt>
   <trkpt lon="11.090412" lat="47.497424"><ele>695.25</ele></trkpt>
   <trkpt lon="11.090188" lat="47.497307"><ele>695.0</ele></trkpt>
   <trkpt lon="11.090041" lat="47.497213"><ele>695.0</ele></trkpt>
   <trkpt lon="11.090016" lat="47.497197"><ele>695.0</ele></trkpt>
   <trkpt lon="11.089976" lat="47.497177"><ele>694.75</ele></trkpt>
   <trkpt lon="11.089868" lat="47.497092"><ele>694.5</ele></trkpt>
   <trkpt lon="11.089778" lat="47.497023"><ele>694.75</ele></trkpt>
   <trkpt lon="11.089537" lat="47.496794"><ele>695.0</ele></trkpt>
   <trkpt lon="11.089220" lat="47.496576"><ele>695.0</ele></trkpt>
   <trkpt lon="11.088849" lat="47.496321"><ele>694.5</ele></trkpt>
   <trkpt lon="11.088681" lat="47.496203"><ele>694.25</ele></trkpt>
   <trkpt lon="11.088215" lat="47.495896"><ele>695.75</ele></trkpt>
   <trkpt lon="11.088140" lat="47.495858"><ele>696.0</ele></trkpt>
   <trkpt lon="11.088086" lat="47.495838"><ele>696.0</ele></trkpt>
   <trkpt lon="11.087955" lat="47.495788"><ele>695.0</ele></trkpt>
   <trkpt lon="11.087946" lat="47.495873"><ele>694.5</ele></trkpt>
   <trkpt lon="11.087946" lat="47.495958"><ele>694.25</ele></trkpt>
   <trkpt lon="11.087959" lat="47.496043"><ele>694.0</ele></trkpt>
   <trkpt lon="11.087984" lat="47.496114"><ele>693.75</ele></trkpt>
   <trkpt lon="11.087989" lat="47.496126"><ele>693.75</ele></trkpt>
   <trkpt lon="11.088055" lat="47.496284"><ele>694.75</ele></trkpt>
   <trkpt lon="11.088064" lat="47.496408"><ele>695.75</ele></trkpt>
   <trkpt lon="11.088140" lat="47.496566"><ele>695.0</ele></trkpt>
   <trkpt lon="11.088203" lat="47.496724"><ele>695.0</ele></trkpt>
   <trkpt lon="11.088249" lat="47.496875"><ele>695.0</ele></trkpt>
   <trkpt lon="11.088285" lat="47.497064"><ele>694.5</ele></trkpt>
   <trkpt lon="11.088283" lat="47.497266"><ele>693.75</ele></trkpt>
   <trkpt lon="11.088253" lat="47.497491"><ele>694.0</ele></trkpt>
   <trkpt lon="11.088187" lat="47.497726"><ele>694.0</ele></trkpt>
   <trkpt lon="11.088152" lat="47.497836"><ele>694.0</ele></trkpt>
   <trkpt lon="11.088104" lat="47.497986"><ele>694.0</ele></trkpt>
   <trkpt lon="11.087875" lat="47.498601"><ele>693.0</ele></trkpt>
   <trkpt lon="11.087780" lat="47.498829"><ele>693.0</ele></trkpt>
   <trkpt lon="11.087661" lat="47.499126"><ele>693.0</ele></trkpt>
   <trkpt lon="11.087474" lat="47.499623"><ele>692.75</ele></trkpt>
   <trkpt lon="11.087351" lat="47.499956"><ele>692.25</ele></trkpt>
   <trkpt lon="11.087337" lat="47.499995"><ele>692.25</ele></trkpt>
   <trkpt lon="11.087295" lat="47.500129"><ele>692.0</ele></trkpt>
   <trkpt lon="11.087256" lat="47.500324"><ele>692.0</ele></trkpt>
   <trkpt lon="11.087245" lat="47.500470"><ele>692.0</ele></trkpt>
   <trkpt lon="11.087268" lat="47.500835"><ele>692.0</ele></trkpt>
   <trkpt lon="11.087211" lat="47.500868"><ele>692.0</ele></trkpt>
   <trkpt lon="11.087040" lat="47.501002"><ele>692.0</ele></trkpt>
   <trkpt lon="11.086946" lat="47.501180"><ele>692.0</ele></trkpt>
   <trkpt lon="11.086899" lat="47.501300"><ele>692.0</ele></trkpt>
   <trkpt lon="11.086863" lat="47.501389"><ele>691.75</ele></trkpt>
   <trkpt lon="11.086646" lat="47.501919"><ele>691.0</ele></trkpt>
   <trkpt lon="11.086437" lat="47.502429"><ele>691.0</ele></trkpt>
   <trkpt lon="11.086354" lat="47.502636"><ele>690.5</ele></trkpt>
   <trkpt lon="11.086345" lat="47.502657"><ele>690.5</ele></trkpt>
   <trkpt lon="11.086293" lat="47.502779"><ele>690.25</ele></trkpt>
   <trkpt lon="11.086230" lat="47.502939"><ele>690.0</ele></trkpt>
   <trkpt lon="11.086224" lat="47.502955"><ele>690.0</ele></trkpt>
   <trkpt lon="11.086136" lat="47.503152"><ele>690.0</ele></trkpt>
   <trkpt lon="11.086044" lat="47.503325"><ele>690.0</ele></trkpt>
   <trkpt lon="11.085949" lat="47.503504"><ele>690.0</ele></trkpt>
   <trkpt lon="11.085821" lat="47.503747"><ele>690.0</ele></trkpt>
   <trkpt lon="11.085780" lat="47.503828"><ele>690.0</ele></trkpt>
   <trkpt lon="11.085670" lat="47.504045"><ele>689.75</ele></trkpt>
   <trkpt lon="11.085445" lat="47.504477"><ele>689.5</ele></trkpt>
   <trkpt lon="11.085255" lat="47.504833"><ele>689.25</ele></trkpt>
   <trkpt lon="11.085234" lat="47.504901"><ele>689.75</ele></trkpt>
   <trkpt lon="11.085045" lat="47.505146"><ele>691.25</ele></trkpt>
   <trkpt lon="11.084907" lat="47.505268"><ele>692.5</ele></trkpt>
   <trkpt lon="11.084811" lat="47.505342"><ele>693.75</ele></trkpt>
   <trkpt lon="11.084544" lat="47.505537"><ele>696.5</ele></trkpt>
   <trkpt lon="11.084368" lat="47.505678"><ele>698.25</ele></trkpt>
   <trkpt lon="11.084281" lat="47.505745"><ele>699.0</ele></trkpt>
   <trkpt lon="11.084223" lat="47.505807"><ele>699.5</ele></trkpt>
   <trkpt lon="11.084208" lat="47.505882"><ele>700.5</ele></trkpt>
   <trkpt lon="11.084213" lat="47.505960"><ele>701.75</ele></trkpt>
   <trkpt lon="11.084227" lat="47.506014"><ele>702.75</ele></trkpt>
   <trkpt lon="11.084243" lat="47.506039"><ele>703.0</ele></trkpt>
   <trkpt lon="11.084357" lat="47.506164"><ele>704.5</ele></trkpt>
   <trkpt lon="11.084715" lat="47.506526"><ele>708.0</ele></trkpt>
   <trkpt lon="11.084710" lat="47.506707"><ele>712.5</ele></trkpt>
   <trkpt lon="11.084648" lat="47.506916"><ele>715.75</ele></trkpt>
   <trkpt lon="11.084612" lat="47.507140"><ele>719.0</ele></trkpt>
   <trkpt lon="11.084642" lat="47.507352"><ele>721.75</ele></trkpt>
   <trkpt lon="11.084614" lat="47.507442"><ele>723.5</ele></trkpt>
   <trkpt lon="11.084509" lat="47.507532"><ele>725.5</ele></trkpt>
   <trkpt lon="11.084189" lat="47.507704"><ele>731.25</ele></trkpt>
   <trkpt lon="11.083901" lat="47.507818"><ele>732.25</ele></trkpt>
   <trkpt lon="11.083765" lat="47.507901"><ele>733.5</ele></trkpt>
   <trkpt lon="11.083405" lat="47.508204"><ele>738.75</ele></trkpt>
   <trkpt lon="11.083271" lat="47.508347"><ele>741.75</ele></trkpt>
   <trkpt lon="11.083247" lat="47.508380"><ele>741.75</ele></trkpt>
   <trkpt lon="11.083163" lat="47.508473"><ele>742.75</ele></trkpt>
   <trkpt lon="11.083138" lat="47.508692"><ele>747.0</ele></trkpt>
   <trkpt lon="11.083292" lat="47.508943"><ele>748.0</ele></trkpt>
   <trkpt lon="11.083472" lat="47.509280"><ele>750.75</ele></trkpt>
   <trkpt lon="11.083724" lat="47.509975"><ele>759.0</ele></trkpt>
   <trkpt lon="11.083824" lat="47.510291"><ele>763.5</ele></trkpt>
   <trkpt lon="11.083871" lat="47.510459"><ele>766.0</ele></trkpt>
   <trkpt lon="11.083920" lat="47.510704"><ele>768.5</ele></trkpt>
   <trkpt lon="11.083921" lat="47.510757"><ele>769.25</ele></trkpt>
   <trkpt lon="11.083909" lat="47.510802"><ele>770.0</ele></trkpt>
   <trkpt lon="11.083888" lat="47.510839"><ele>771.0</ele></trkpt>
   <trkpt lon="11.083850" lat="47.510881"><ele>771.25</ele></trkpt>
   <trkpt lon="11.083789" lat="47.510930"><ele>771.75</ele></trkpt>
   <trkpt lon="11.083652" lat="47.511007"><ele>772.25</ele></trkpt>
   <trkpt lon="11.083506" lat="47.511062"><ele>772.75</ele></trkpt>
   <trkpt lon="11.083414" lat="47.511093"><ele>772.75</ele></trkpt>
   <trkpt lon="11.083164" lat="47.511171"><ele>772.75</ele></trkpt>
   <trkpt lon="11.083018" lat="47.511232"><ele>773.25</ele></trkpt>
   <trkpt lon="11.082906" lat="47.511306"><ele>774.0</ele></trkpt>
   <trkpt lon="11.082791" lat="47.511409"><ele>774.75</ele></trkpt>
   <trkpt lon="11.082758" lat="47.511466"><ele>775.0</ele></trkpt>
   <trkpt lon="11.082659" lat="47.511641"><ele>776.25</ele></trkpt>
   <trkpt lon="11.082601" lat="47.511706"><ele>776.75</ele></trkpt>
   <trkpt lon="11.082504" lat="47.511768"><ele>777.5</ele></trkpt>
   <trkpt lon="11.082192" lat="47.511939"><ele>779.25</ele></trkpt>
   <trkpt lon="11.082065" lat="47.512031"><ele>780.75</ele></trkpt>
   <trkpt lon="11.082011" lat="47.512118"><ele>781.75</ele></trkpt>
   <trkpt lon="11.081985" lat="47.512214"><ele>782.25</ele></trkpt>
   <trkpt lon="11.081976" lat="47.512326"><ele>783.5</ele></trkpt>
   <trkpt lon="11.081999" lat="47.512451"><ele>784.5</ele></trkpt>
   <trkpt lon="11.082079" lat="47.512665"><ele>787.0</ele></trkpt>
   <trkpt lon="11.082218" lat="47.512928"><ele>788.75</ele></trkpt>
   <trkpt lon="11.082444" lat="47.513200"><ele>791.0</ele></trkpt>
   <trkpt lon="11.083057" lat="47.514338"><ele>801.25</ele></trkpt>
   <trkpt lon="11.083360" lat="47.514938"><ele>806.0</ele></trkpt>
   <trkpt lon="11.083883" lat="47.515877"><ele>812.25</ele></trkpt>
   <trkpt lon="11.083914" lat="47.515947"><ele>812.5</ele></trkpt>
   <trkpt lon="11.083943" lat="47.516036"><ele>813.25</ele></trkpt>
   <trkpt lon="11.083966" lat="47.516157"><ele>814.0</ele></trkpt>
   <trkpt lon="11.083969" lat="47.516289"><ele>814.75</ele></trkpt>
   <trkpt lon="11.083941" lat="47.516453"><ele>816.0</ele></trkpt>
   <trkpt lon="11.083869" lat="47.516773"><ele>818.75</ele></trkpt>
   <trkpt lon="11.083852" lat="47.516964"><ele>820.25</ele></trkpt>
   <trkpt lon="11.083864" lat="47.517154"><ele>822.5</ele></trkpt>
   <trkpt lon="11.083946" lat="47.517460"><ele>824.25</ele></trkpt>
   <trkpt lon="11.083960" lat="47.517605"><ele>825.25</ele></trkpt>
   <trkpt lon="11.083940" lat="47.517742"><ele>826.75</ele></trkpt>
   <trkpt lon="11.083865" lat="47.517986"><ele>828.25</ele></trkpt>
   <trkpt lon="11.083622" lat="47.518441"><ele>831.75</ele></trkpt>
   <trkpt lon="11.083312" lat="47.518900"><ele>836.25</ele></trkpt>
   <trkpt lon="11.083029" lat="47.519357"><ele>839.25</ele></trkpt>
   <trkpt lon="11.082821" lat="47.519565"><ele>841.25</ele></trkpt>
   <trkpt lon="11.082761" lat="47.519646"><ele>842.0</ele></trkpt>
   <trkpt lon="11.082668" lat="47.519810"><ele>843.75</ele></trkpt>
   <trkpt lon="11.082633" lat="47.519855"><ele>844.25</ele></trkpt>
   <trkpt lon="11.082588" lat="47.519897"><ele>844.75</ele></trkpt>
   <trkpt lon="11.082496" lat="47.519957"><ele>846.0</ele></trkpt>
   <trkpt lon="11.082402" lat="47.520002"><ele>846.25</ele></trkpt>
   <trkpt lon="11.082316" lat="47.520047"><ele>846.5</ele></trkpt>
   <trkpt lon="11.081623" lat="47.520343"><ele>848.5</ele></trkpt>
   <trkpt lon="11.081430" lat="47.520433"><ele>848.25</ele></trkpt>
   <trkpt lon="11.081214" lat="47.520586"><ele>848.75</ele></trkpt>
   <trkpt lon="11.081133" lat="47.520628"><ele>849.0</ele></trkpt>
   <trkpt lon="11.081051" lat="47.520661"><ele>849.25</ele></trkpt>
   <trkpt lon="11.080640" lat="47.520760"><ele>850.0</ele></trkpt>
   <trkpt lon="11.080317" lat="47.520842"><ele>851.0</ele></trkpt>
   <trkpt lon="11.079654" lat="47.521007"><ele>854.25</ele></trkpt>
   <trkpt lon="11.079482" lat="47.521056"><ele>854.5</ele></trkpt>
   <trkpt lon="11.079121" lat="47.521192"><ele>855.75</ele></trkpt>
   <trkpt lon="11.078943" lat="47.521244"><ele>855.5</ele></trkpt>
   <trkpt lon="11.078843" lat="47.521260"><ele>855.0</ele></trkpt>
   <trkpt lon="11.078742" lat="47.521264"><ele>854.5</ele></trkpt>
   <trkpt lon="11.078545" lat="47.521251"><ele>853.5</ele></trkpt>
   <trkpt lon="11.078411" lat="47.521252"><ele>853.25</ele></trkpt>
   <trkpt lon="11.078307" lat="47.521264"><ele>852.75</ele></trkpt>
   <trkpt lon="11.078190" lat="47.521291"><ele>853.0</ele></trkpt>
   <trkpt lon="11.078094" lat="47.521333"><ele>853.25</ele></trkpt>
   <trkpt lon="11.077974" lat="47.521410"><ele>853.25</ele></trkpt>
   <trkpt lon="11.077857" lat="47.521527"><ele>853.0</ele></trkpt>
   <trkpt lon="11.077694" lat="47.521750"><ele>851.5</ele></trkpt>
   <trkpt lon="11.077530" lat="47.522064"><ele>850.5</ele></trkpt>
   <trkpt lon="11.077339" lat="47.522274"><ele>850.75</ele></trkpt>
   <trkpt lon="11.076699" lat="47.522613"><ele>854.75</ele></trkpt>
   <trkpt lon="11.076512" lat="47.522696"><ele>856.0</ele></trkpt>
   <trkpt lon="11.076044" lat="47.522860"><ele>857.5</ele></trkpt>
   <trkpt lon="11.075734" lat="47.522992"><ele>859.0</ele></trkpt>
   <trkpt lon="11.075544" lat="47.523089"><ele>860.0</ele></trkpt>
   <trkpt lon="11.075383" lat="47.523186"><ele>861.0</ele></trkpt>
   <trkpt lon="11.075246" lat="47.523292"><ele>862.5</ele></trkpt>
   <trkpt lon="11.074825" lat="47.523700"><ele>863.75</ele></trkpt>
   <trkpt lon="11.074414" lat="47.523973"><ele>868.0</ele></trkpt>
   <trkpt lon="11.074338" lat="47.524034"><ele>868.5</ele></trkpt>
   <trkpt lon="11.074279" lat="47.524095"><ele>868.25</ele></trkpt>
   <trkpt lon="11.074257" lat="47.524210"><ele>866.25</ele></trkpt>
   <trkpt lon="11.074259" lat="47.524366"><ele>866.25</ele></trkpt>
   <trkpt lon="11.074246" lat="47.524480"><ele>865.75</ele></trkpt>
   <trkpt lon="11.074209" lat="47.524570"><ele>864.75</ele></trkpt>
   <trkpt lon="11.074146" lat="47.524660"><ele>865.25</ele></trkpt>
   <trkpt lon="11.073976" lat="47.524868"><ele>865.25</ele></trkpt>
   <trkpt lon="11.073868" lat="47.524967"><ele>866.25</ele></trkpt>
   <trkpt lon="11.073641" lat="47.525107"><ele>862.5</ele></trkpt>
   <trkpt lon="11.073578" lat="47.525139"><ele>862.0</ele></trkpt>
   <trkpt lon="11.073503" lat="47.525162"><ele>862.0</ele></trkpt>
   <trkpt lon="11.073392" lat="47.525174"><ele>862.25</ele></trkpt>
   <trkpt lon="11.073285" lat="47.525161"><ele>863.25</ele></trkpt>
   <trkpt lon="11.073182" lat="47.525156"><ele>863.5</ele></trkpt>
   <trkpt lon="11.073091" lat="47.525160"><ele>863.5</ele></trkpt>
   <trkpt lon="11.073020" lat="47.525170"><ele>863.75</ele></trkpt>
   <trkpt lon="11.072951" lat="47.525207"><ele>863.5</ele></trkpt>
   <trkpt lon="11.072919" lat="47.525243"><ele>863.0</ele></trkpt>
   <trkpt lon="11.072902" lat="47.525267"><ele>862.5</ele></trkpt>
   <trkpt lon="11.072898" lat="47.525318"><ele>861.25</ele></trkpt>
   <trkpt lon="11.072885" lat="47.525348"><ele>860.5</ele></trkpt>
   <trkpt lon="11.072836" lat="47.525384"><ele>860.25</ele></trkpt>
   <trkpt lon="11.072774" lat="47.525410"><ele>860.0</ele></trkpt>
   <trkpt lon="11.072707" lat="47.525426"><ele>859.5</ele></trkpt>
   <trkpt lon="11.072603" lat="47.525428"><ele>859.5</ele></trkpt>
   <trkpt lon="11.072391" lat="47.525389"><ele>860.0</ele></trkpt>
   <trkpt lon="11.072171" lat="47.525363"><ele>859.0</ele></trkpt>
   <trkpt lon="11.071978" lat="47.525355"><ele>857.75</ele></trkpt>
   <trkpt lon="11.071765" lat="47.525358"><ele>857.25</ele></trkpt>
   <trkpt lon="11.071583" lat="47.525370"><ele>858.25</ele></trkpt>
   <trkpt lon="11.071157" lat="47.525433"><ele>861.25</ele></trkpt>
   <trkpt lon="11.070955" lat="47.525480"><ele>858.75</ele></trkpt>
   <trkpt lon="11.070791" lat="47.525501"><ele>857.5</ele></trkpt>
   <trkpt lon="11.070590" lat="47.525484"><ele>858.5</ele></trkpt>
   <trkpt lon="11.070331" lat="47.525449"><ele>859.5</ele></trkpt>
   <trkpt lon="11.070055" lat="47.525429"><ele>862.0</ele></trkpt>
   <trkpt lon="11.069723" lat="47.525411"><ele>864.75</ele></trkpt>
   <trkpt lon="11.069524" lat="47.525442"><ele>866.0</ele></trkpt>
   <trkpt lon="11.069353" lat="47.525504"><ele>867.25</ele></trkpt>
   <trkpt lon="11.069160" lat="47.525588"><ele>868.0</ele></trkpt>
   <trkpt lon="11.068968" lat="47.525662"><ele>870.5</ele></trkpt>
   <trkpt lon="11.068845" lat="47.525681"><ele>872.0</ele></trkpt>
   <trkpt lon="11.068654" lat="47.525692"><ele>874.25</ele></trkpt>
   <trkpt lon="11.068310" lat="47.525698"><ele>874.25</ele></trkpt>
   <trkpt lon="11.067981" lat="47.525674"><ele>876.5</ele></trkpt>
   <trkpt lon="11.067899" lat="47.525701"><ele>879.25</ele></trkpt>
   <trkpt lon="11.068108" lat="47.525806"><ele>879.25</ele></trkpt>
   <trkpt lon="11.068370" lat="47.525875"><ele>879.75</ele></trkpt>
   <trkpt lon="11.068692" lat="47.525996"><ele>883.0</ele></trkpt>
   <trkpt lon="11.068891" lat="47.526004"><ele>885.25</ele></trkpt>
   <trkpt lon="11.069181" lat="47.526051"><ele>888.75</ele></trkpt>
   <trkpt lon="11.069457" lat="47.526057"><ele>892.5</ele></trkpt>
   <trkpt lon="11.069762" lat="47.526078"><ele>896.0</ele></trkpt>
   <trkpt lon="11.069917" lat="47.526130"><ele>899.0</ele></trkpt>
   <trkpt lon="11.069984" lat="47.526230"><ele>900.75</ele></trkpt>
   <trkpt lon="11.069971" lat="47.526338"><ele>902.5</ele></trkpt>
   <trkpt lon="11.069913" lat="47.526556"><ele>905.25</ele></trkpt>
   <trkpt lon="11.069949" lat="47.526715"><ele>907.25</ele></trkpt>
   <trkpt lon="11.069950" lat="47.526733"><ele>907.75</ele></trkpt>
   <trkpt lon="11.069805" lat="47.526728"><ele>908.5</ele></trkpt>
   <trkpt lon="11.069596" lat="47.526701"><ele>909.25</ele></trkpt>
   <trkpt lon="11.068820" lat="47.526711"><ele>916.25</ele></trkpt>
   <trkpt lon="11.068516" lat="47.526775"><ele>919.25</ele></trkpt>
   <trkpt lon="11.067578" lat="47.527193"><ele>932.5</ele></trkpt>
   <trkpt lon="11.067192" lat="47.527259"><ele>938.0</ele></trkpt>
   <trkpt lon="11.066977" lat="47.527375"><ele>941.0</ele></trkpt>
   <trkpt lon="11.066507" lat="47.527455"><ele>946.75</ele></trkpt>
   <trkpt lon="11.066089" lat="47.527615"><ele>953.0</ele></trkpt>
   <trkpt lon="11.065571" lat="47.527704"><ele>959.25</ele></trkpt>
   <trkpt lon="11.065059" lat="47.527726"><ele>968.0</ele></trkpt>
   <trkpt lon="11.064079" lat="47.527818"><ele>979.5</ele></trkpt>
   <trkpt lon="11.063694" lat="47.528157"><ele>988.0</ele></trkpt>
   <trkpt lon="11.063447" lat="47.528461"><ele>995.75</ele></trkpt>
   <trkpt lon="11.063326" lat="47.528814"><ele>1004.25</ele></trkpt>
   <trkpt lon="11.063218" lat="47.529088"><ele>1011.5</ele></trkpt>
   <trkpt lon="11.063487" lat="47.529380"><ele>1013.75</ele></trkpt>
   <trkpt lon="11.063031" lat="47.529251"><ele>1017.75</ele></trkpt>
   <trkpt lon="11.062695" lat="47.529215"><ele>1021.25</ele></trkpt>
   <trkpt lon="11.062392" lat="47.529242"><ele>1023.75</ele></trkpt>
   <trkpt lon="11.062262" lat="47.529322"><ele>1025.5</ele></trkpt>
   <trkpt lon="11.062306" lat="47.529471"><ele>1028.5</ele></trkpt>
   <trkpt lon="11.062440" lat="47.529628"><ele>1030.5</ele></trkpt>
   <trkpt lon="11.062353" lat="47.529729"><ele>1033.75</ele></trkpt>
   <trkpt lon="11.061795" lat="47.529997"><ele>1047.5</ele></trkpt>
   <trkpt lon="11.061688" lat="47.530156"><ele>1052.75</ele></trkpt>
   <trkpt lon="11.061686" lat="47.530622"><ele>1060.5</ele></trkpt>
   <trkpt lon="11.061772" lat="47.530704"><ele>1063.75</ele></trkpt>
   <trkpt lon="11.061945" lat="47.530801"><ele>1069.0</ele></trkpt>
   <trkpt lon="11.062707" lat="47.530910"><ele>1079.25</ele></trkpt>
   <trkpt lon="11.062879" lat="47.531113"><ele>1083.75</ele></trkpt>
   <trkpt lon="11.063007" lat="47.531540"><ele>1089.0</ele></trkpt>
   <trkpt lon="11.062943" lat="47.531801"><ele>1092.75</ele></trkpt>
   <trkpt lon="11.062836" lat="47.531967"><ele>1095.75</ele></trkpt>
   <trkpt lon="11.062921" lat="47.532279"><ele>1099.5</ele></trkpt>
   <trkpt lon="11.062793" lat="47.532426"><ele>1102.25</ele></trkpt>
   <trkpt lon="11.062906" lat="47.532735"><ele>1104.25</ele></trkpt>
   <trkpt lon="11.062812" lat="47.532867"><ele>1105.75</ele></trkpt>
   <trkpt lon="11.062657" lat="47.533004"><ele>1107.75</ele></trkpt>
   <trkpt lon="11.062583" lat="47.533096"><ele>1108.5</ele></trkpt>
   <trkpt lon="11.062494" lat="47.533301"><ele>1110.75</ele></trkpt>
   <trkpt lon="11.062495" lat="47.533443"><ele>1113.0</ele></trkpt>
   <trkpt lon="11.062555" lat="47.533597"><ele>1114.5</ele></trkpt>
   <trkpt lon="11.062614" lat="47.533674"><ele>1115.75</ele></trkpt>
   <trkpt lon="11.062726" lat="47.533778"><ele>1117.0</ele></trkpt>
   <trkpt lon="11.062843" lat="47.533924"><ele>1120.5</ele></trkpt>
   <trkpt lon="11.063213" lat="47.534130"><ele>1124.5</ele></trkpt>
   <trkpt lon="11.063362" lat="47.534247"><ele>1127.5</ele></trkpt>
   <trkpt lon="11.063485" lat="47.534310"><ele>1128.5</ele></trkpt>
   <trkpt lon="11.063624" lat="47.534430"><ele>1131.0</ele></trkpt>
   <trkpt lon="11.063834" lat="47.534571"><ele>1134.5</ele></trkpt>
   <trkpt lon="11.064111" lat="47.534659"><ele>1136.25</ele></trkpt>
   <trkpt lon="11.064236" lat="47.534752"><ele>1138.25</ele></trkpt>
   <trkpt lon="11.064336" lat="47.534880"><ele>1140.0</ele></trkpt>
   <trkpt lon="11.064370" lat="47.534997"><ele>1143.0</ele></trkpt>
   <trkpt lon="11.064516" lat="47.535109"><ele>1146.5</ele></trkpt>
   <trkpt lon="11.064925" lat="47.535272"><ele>1150.25</ele></trkpt>
   <trkpt lon="11.065107" lat="47.535411"><ele>1155.5</ele></trkpt>
   <trkpt lon="11.065389" lat="47.535530"><ele>1159.5</ele></trkpt>
   <trkpt lon="11.065693" lat="47.535640"><ele>1164.25</ele></trkpt>
   <trkpt lon="11.065789" lat="47.535717"><ele>1166.0</ele></trkpt>
   <trkpt lon="11.065863" lat="47.535880"><ele>1172.0</ele></trkpt>
   <trkpt lon="11.066096" lat="47.536056"><ele>1178.5</ele></trkpt>
   <trkpt lon="11.066365" lat="47.536159"><ele>1184.0</ele></trkpt>
   <trkpt lon="11.066755" lat="47.536242"><ele>1190.25</ele></trkpt>
   <trkpt lon="11.067337" lat="47.536404"><ele>1200.25</ele></trkpt>
   <trkpt lon="11.067545" lat="47.536515"><ele>1202.0</ele></trkpt>
   <trkpt lon="11.067569" lat="47.536807"><ele>1215.75</ele></trkpt>
   <trkpt lon="11.067668" lat="47.536936"><ele>1218.25</ele></trkpt>
   <trkpt lon="11.067861" lat="47.537064"><ele>1222.5</ele></trkpt>
   <trkpt lon="11.068048" lat="47.537111"><ele>1224.25</ele></trkpt>
   <trkpt lon="11.068179" lat="47.537222"><ele>1226.75</ele></trkpt>
   <trkpt lon="11.068291" lat="47.537380"><ele>1232.25</ele></trkpt>
   <trkpt lon="11.068358" lat="47.537459"><ele>1234.75</ele></trkpt>
   <trkpt lon="11.068431" lat="47.537568"><ele>1239.0</ele></trkpt>
   <trkpt lon="11.068589" lat="47.537694"><ele>1243.0</ele></trkpt>
   <trkpt lon="11.068723" lat="47.537781"><ele>1246.5</ele></trkpt>
   <trkpt lon="11.068894" lat="47.537906"><ele>1251.25</ele></trkpt>
   <trkpt lon="11.069069" lat="47.538057"><ele>1256.0</ele></trkpt>
   <trkpt lon="11.069270" lat="47.538206"><ele>1264.0</ele></trkpt>
   <trkpt lon="11.069446" lat="47.538299"><ele>1267.0</ele></trkpt>
   <trkpt lon="11.069670" lat="47.538381"><ele>1268.5</ele></trkpt>
   <trkpt lon="11.069763" lat="47.538425"><ele>1269.75</ele></trkpt>
   <trkpt lon="11.069921" lat="47.538480"><ele>1271.0</ele></trkpt>
   <trkpt lon="11.070047" lat="47.538571"><ele>1276.75</ele></trkpt>
   <trkpt lon="11.070113" lat="47.538660"><ele>1281.0</ele></trkpt>
   <trkpt lon="11.070325" lat="47.538854"><ele>1286.75</ele></trkpt>
   <trkpt lon="11.070379" lat="47.539076"><ele>1292.75</ele></trkpt>
   <trkpt lon="11.070364" lat="47.539330"><ele>1295.75</ele></trkpt>
   <trkpt lon="11.070574" lat="47.539490"><ele>1297.5</ele></trkpt>
   <trkpt lon="11.071024" lat="47.539539"><ele>1296.0</ele></trkpt>
   <trkpt lon="11.071496" lat="47.539692"><ele>1295.75</ele></trkpt>
   <trkpt lon="11.072292" lat="47.540008"><ele>1298.5</ele></trkpt>
   <trkpt lon="11.072608" lat="47.540411"><ele>1298.75</ele></trkpt>
   <trkpt lon="11.072817" lat="47.540520"><ele>1301.0</ele></trkpt>
   <trkpt lon="11.072986" lat="47.540731"><ele>1306.75</ele></trkpt>
   <trkpt lon="11.073121" lat="47.540740"><ele>1307.0</ele></trkpt>
   <trkpt lon="11.073382" lat="47.540868"><ele>1307.75</ele></trkpt>
   <trkpt lon="11.073504" lat="47.540993"><ele>1307.25</ele></trkpt>
   <trkpt lon="11.073488" lat="47.541137"><ele>1307.75</ele></trkpt>
   <trkpt lon="11.073496" lat="47.541207"><ele>1308.0</ele></trkpt>
   <trkpt lon="11.073671" lat="47.541202"><ele>1307.25</ele></trkpt>
   <trkpt lon="11.073771" lat="47.541207"><ele>1307.0</ele></trkpt>
   <trkpt lon="11.073805" lat="47.541232"><ele>1307.0</ele></trkpt>
   <trkpt lon="11.073809" lat="47.541283"><ele>1307.5</ele></trkpt>
   <trkpt lon="11.073939" lat="47.541375"><ele>1307.75</ele></trkpt>
   <trkpt lon="11.074168" lat="47.541449"><ele>1306.5</ele></trkpt>
   <trkpt lon="11.074276" lat="47.541476"><ele>1305.0</ele></trkpt>
   <trkpt lon="11.074515" lat="47.541476"><ele>1303.25</ele></trkpt>
   <trkpt lon="11.074645" lat="47.541502"><ele>1302.25</ele></trkpt>
   <trkpt lon="11.074995" lat="47.541614"><ele>1302.75</ele></trkpt>
   <trkpt lon="11.075444" lat="47.541629"><ele>1304.0</ele></trkpt>
   <trkpt lon="11.075863" lat="47.541767"><ele>1306.0</ele></trkpt>
   <trkpt lon="11.076204" lat="47.541822"><ele>1309.0</ele></trkpt>
   <trkpt lon="11.076457" lat="47.541804"><ele>1311.0</ele></trkpt>
   <trkpt lon="11.076789" lat="47.541691"><ele>1311.0</ele></trkpt>
   <trkpt lon="11.077058" lat="47.541651"><ele>1310.75</ele></trkpt>
   <trkpt lon="11.077748" lat="47.541723"><ele>1306.25</ele></trkpt>
   <trkpt lon="11.078291" lat="47.541815"><ele>1301.0</ele></trkpt>
   <trkpt lon="11.078439" lat="47.541826"><ele>1300.0</ele></trkpt>
   <trkpt lon="11.078908" lat="47.542061"><ele>1296.0</ele></trkpt>
   <trkpt lon="11.079214" lat="47.542128"><ele>1291.5</ele></trkpt>
   <trkpt lon="11.079409" lat="47.542196"><ele>1290.25</ele></trkpt>
   <trkpt lon="11.079820" lat="47.542228"><ele>1285.0</ele></trkpt>
   <trkpt lon="11.080005" lat="47.542217"><ele>1281.75</ele></trkpt>
   <trkpt lon="11.080299" lat="47.542137"><ele>1277.75</ele></trkpt>
   <trkpt lon="11.080461" lat="47.542107"><ele>1275.75</ele></trkpt>
   <trkpt lon="11.080622" lat="47.542076"><ele>1275.25</ele></trkpt>
   <trkpt lon="11.080855" lat="47.542085"><ele>1276.5</ele></trkpt>
   <trkpt lon="11.081027" lat="47.542129"><ele>1278.0</ele></trkpt>
   <trkpt lon="11.081240" lat="47.542115"><ele>1279.75</ele></trkpt>
   <trkpt lon="11.081473" lat="47.542131"><ele>1282.75</ele></trkpt>
   <trkpt lon="11.081567" lat="47.542117"><ele>1283.0</ele></trkpt>
   <trkpt lon="11.081988" lat="47.542268"><ele>1288.5</ele></trkpt>
   <trkpt lon="11.082091" lat="47.542275"><ele>1287.25</ele></trkpt>
   <trkpt lon="11.082217" lat="47.542317"><ele>1285.5</ele></trkpt>
   <trkpt lon="11.082533" lat="47.542523"><ele>1291.25</ele></trkpt>
   <trkpt lon="11.082873" lat="47.542787"><ele>1302.0</ele></trkpt>
   <trkpt lon="11.082914" lat="47.542803"><ele>1302.5</ele></trkpt>
   <trkpt lon="11.083175" lat="47.543108"><ele>1307.75</ele></trkpt>
   <trkpt lon="11.083143" lat="47.543224"><ele>1310.75</ele></trkpt>
   <trkpt lon="11.083151" lat="47.543277"><ele>1312.0</ele></trkpt>
   <trkpt lon="11.083364" lat="47.543399"><ele>1316.25</ele></trkpt>
   <trkpt lon="11.083516" lat="47.543459"><ele>1320.5</ele></trkpt>
   <trkpt lon="11.083607" lat="47.543476"><ele>1322.75</ele></trkpt>
   <trkpt lon="11.083769" lat="47.543536"><ele>1327.25</ele></trkpt>
   <trkpt lon="11.083966" lat="47.543570"><ele>1331.5</ele></trkpt>
   <trkpt lon="11.084134" lat="47.543574"><ele>1333.75</ele></trkpt>
   <trkpt lon="11.084250" lat="47.543538"><ele>1332.5</ele></trkpt>
   <trkpt lon="11.084600" lat="47.543671"><ele>1335.5</ele></trkpt>
   <trkpt lon="11.084770" lat="47.543691"><ele>1335.5</ele></trkpt>
   <trkpt lon="11.085073" lat="47.543671"><ele>1339.75</ele></trkpt>
   <trkpt lon="11.085135" lat="47.543709"><ele>1340.75</ele></trkpt>
   <trkpt lon="11.085278" lat="47.543703"><ele>1344.25</ele></trkpt>
   <trkpt lon="11.085383" lat="47.543747"><ele>1345.75</ele></trkpt>
   <trkpt lon="11.085631" lat="47.543758"><ele>1350.0</ele></trkpt>
   <trkpt lon="11.085839" lat="47.543796"><ele>1352.25</ele></trkpt>
   <trkpt lon="11.086050" lat="47.543818"><ele>1354.75</ele></trkpt>
   <trkpt lon="11.086236" lat="47.543875"><ele>1356.5</ele></trkpt>
   <trkpt lon="11.086544" lat="47.543864"><ele>1356.0</ele></trkpt>
   <trkpt lon="11.086687" lat="47.543875"><ele>1355.25</ele></trkpt>
   <trkpt lon="11.086859" lat="47.543927"><ele>1354.5</ele></trkpt>
   <trkpt lon="11.087116" lat="47.543873"><ele>1354.0</ele></trkpt>
   <trkpt lon="11.087372" lat="47.543885"><ele>1357.0</ele></trkpt>
   <trkpt lon="11.087518" lat="47.543873"><ele>1358.5</ele></trkpt>
   <trkpt lon="11.087745" lat="47.543940"><ele>1360.75</ele></trkpt>
   <trkpt lon="11.087893" lat="47.543957"><ele>1361.25</ele></trkpt>
   <trkpt lon="11.087969" lat="47.543929"><ele>1362.0</ele></trkpt>
   <trkpt lon="11.088157" lat="47.543926"><ele>1362.25</ele></trkpt>
   <trkpt lon="11.088368" lat="47.543887"><ele>1363.0</ele></trkpt>
   <trkpt lon="11.088894" lat="47.543898"><ele>1366.75</ele></trkpt>
   <trkpt lon="11.089091" lat="47.543927"><ele>1367.75</ele></trkpt>
   <trkpt lon="11.089434" lat="47.543917"><ele>1369.75</ele></trkpt>
   <trkpt lon="11.088927" lat="47.543676"><ele>1359.0</ele></trkpt>
   <trkpt lon="11.088992" lat="47.543629"><ele>1356.75</ele></trkpt>
   <trkpt lon="11.089211" lat="47.543660"><ele>1356.75</ele></trkpt>
   <trkpt lon="11.089572" lat="47.543645"><ele>1352.5</ele></trkpt>
   <trkpt lon="11.089233" lat="47.543449"><ele>1335.0</ele></trkpt>
   <trkpt lon="11.089405" lat="47.543440"><ele>1332.75</ele></trkpt>
   <trkpt lon="11.089929" lat="47.543536"><ele>1332.75</ele></trkpt>
   <trkpt lon="11.090643" lat="47.543722"><ele>1334.25</ele></trkpt>
   <trkpt lon="11.090817" lat="47.543718"><ele>1328.5</ele></trkpt>
   <trkpt lon="11.091016" lat="47.543769"><ele>1325.5</ele></trkpt>
   <trkpt lon="11.091359" lat="47.543911"><ele>1320.75</ele></trkpt>
   <trkpt lon="11.092317" lat="47.543687"><ele>1302.0</ele></trkpt>
   <trkpt lon="11.092115" lat="47.543426"><ele>1296.5</ele></trkpt>
   <trkpt lon="11.092022" lat="47.543353"><ele>1294.5</ele></trkpt>
   <trkpt lon="11.092519" lat="47.543197"><ele>1284.0</ele></trkpt>
   <trkpt lon="11.092841" lat="47.543106"><ele>1277.5</ele></trkpt>
   <trkpt lon="11.092959" lat="47.543128"><ele>1278.25</ele></trkpt>
   <trkpt lon="11.093281" lat="47.543037"><ele>1270.0</ele></trkpt>
   <trkpt lon="11.093506" lat="47.543048"><ele>1267.25</ele></trkpt>
   <trkpt lon="11.093553" lat="47.542946"><ele>1260.25</ele></trkpt>
   <trkpt lon="11.093198" lat="47.542746"><ele>1252.0</ele></trkpt>
   <trkpt lon="11.092578" lat="47.542612"><ele>1247.5</ele></trkpt>
   <trkpt lon="11.092568" lat="47.542536"><ele>1243.25</ele></trkpt>
   <trkpt lon="11.092660" lat="47.542511"><ele>1240.75</ele></trkpt>
   <trkpt lon="11.092495" lat="47.542421"><ele>1236.25</ele></trkpt>
   <trkpt lon="11.092287" lat="47.542407"><ele>1234.75</ele></trkpt>
   <trkpt lon="11.092058" lat="47.542326"><ele>1228.25</ele></trkpt>
   <trkpt lon="11.091969" lat="47.542343"><ele>1228.75</ele></trkpt>
   <trkpt lon="11.091610" lat="47.542272"><ele>1224.0</ele></trkpt>
   <trkpt lon="11.091247" lat="47.542065"><ele>1214.0</ele></trkpt>
   <trkpt lon="11.090988" lat="47.541891"><ele>1202.0</ele></trkpt>
   <trkpt lon="11.090506" lat="47.541745"><ele>1191.0</ele></trkpt>
   <trkpt lon="11.090493" lat="47.541631"><ele>1184.5</ele></trkpt>
   <trkpt lon="11.090107" lat="47.541559"><ele>1179.75</ele></trkpt>
   <trkpt lon="11.090049" lat="47.541492"><ele>1176.25</ele></trkpt>
   <trkpt lon="11.089754" lat="47.541460"><ele>1173.25</ele></trkpt>
   <trkpt lon="11.089312" lat="47.541285"><ele>1165.5</ele></trkpt>
   <trkpt lon="11.089266" lat="47.541134"><ele>1159.75</ele></trkpt>
   <trkpt lon="11.089013" lat="47.541092"><ele>1157.25</ele></trkpt>
   <trkpt lon="11.088610" lat="47.540991"><ele>1152.25</ele></trkpt>
   <trkpt lon="11.088468" lat="47.540840"><ele>1148.25</ele></trkpt>
   <trkpt lon="11.088359" lat="47.540657"><ele>1145.5</ele></trkpt>
   <trkpt lon="11.088246" lat="47.540503"><ele>1142.25</ele></trkpt>
   <trkpt lon="11.088182" lat="47.540357"><ele>1139.0</ele></trkpt>
   <trkpt lon="11.088184" lat="47.540275"><ele>1137.25</ele></trkpt>
   <trkpt lon="11.088215" lat="47.540207"><ele>1135.75</ele></trkpt>
   <trkpt lon="11.088701" lat="47.540009"><ele>1126.75</ele></trkpt>
   <trkpt lon="11.088644" lat="47.539955"><ele>1123.75</ele></trkpt>
   <trkpt lon="11.088757" lat="47.539938"><ele>1121.75</ele></trkpt>
   <trkpt lon="11.088688" lat="47.539873"><ele>1118.25</ele></trkpt>
   <trkpt lon="11.089040" lat="47.539726"><ele>1105.0</ele></trkpt>
   <trkpt lon="11.088876" lat="47.539602"><ele>1098.75</ele></trkpt>
   <trkpt lon="11.088986" lat="47.539553"><ele>1094.5</ele></trkpt>
   <trkpt lon="11.089798" lat="47.539518"><ele>1076.5</ele></trkpt>
   <trkpt lon="11.090056" lat="47.539513"><ele>1069.25</ele></trkpt>
   <trkpt lon="11.089835" lat="47.539296"><ele>1063.75</ele></trkpt>
   <trkpt lon="11.089578" lat="47.539148"><ele>1058.5</ele></trkpt>
   <trkpt lon="11.089968" lat="47.539032"><ele>1048.0</ele></trkpt>
   <trkpt lon="11.089844" lat="47.538933"><ele>1044.75</ele></trkpt>
   <trkpt lon="11.089848" lat="47.538863"><ele>1041.75</ele></trkpt>
   <trkpt lon="11.090364" lat="47.538897"><ele>1033.0</ele></trkpt>
   <trkpt lon="11.090189" lat="47.538646"><ele>1027.75</ele></trkpt>
   <trkpt lon="11.090367" lat="47.538730"><ele>1027.0</ele></trkpt>
   <trkpt lon="11.090316" lat="47.538603"><ele>1023.75</ele></trkpt>
   <trkpt lon="11.090826" lat="47.538732"><ele>1015.5</ele></trkpt>
   <trkpt lon="11.091119" lat="47.538472"><ele>1005.75</ele></trkpt>
   <trkpt lon="11.091371" lat="47.538483"><ele>1001.75</ele></trkpt>
   <trkpt lon="11.091731" lat="47.538486"><ele>994.25</ele></trkpt>
   <trkpt lon="11.092063" lat="47.538328"><ele>982.75</ele></trkpt>
   <trkpt lon="11.092689" lat="47.538107"><ele>968.25</ele></trkpt>
   <trkpt lon="11.092892" lat="47.538095"><ele>965.5</ele></trkpt>
   <trkpt lon="11.093137" lat="47.538084"><ele>962.5</ele></trkpt>
   <trkpt lon="11.093607" lat="47.537954"><ele>954.75</ele></trkpt>
   <trkpt lon="11.094089" lat="47.538025"><ele>951.0</ele></trkpt>
   <trkpt lon="11.094368" lat="47.537900"><ele>947.75</ele></trkpt>
   <trkpt lon="11.094701" lat="47.537803"><ele>945.25</ele></trkpt>
   <trkpt lon="11.094930" lat="47.537682"><ele>943.25</ele></trkpt>
   <trkpt lon="11.095060" lat="47.537596"><ele>942.5</ele></trkpt>
   <trkpt lon="11.095015" lat="47.537489"><ele>941.5</ele></trkpt>
   <trkpt lon="11.094842" lat="47.537354"><ele>939.0</ele></trkpt>
   <trkpt lon="11.094574" lat="47.537074"><ele>933.0</ele></trkpt>
   <trkpt lon="11.094251" lat="47.536782"><ele>929.75</ele></trkpt>
   <trkpt lon="11.094441" lat="47.536628"><ele>926.0</ele></trkpt>
   <trkpt lon="11.094522" lat="47.536526"><ele>922.5</ele></trkpt>
   <trkpt lon="11.094602" lat="47.536269"><ele>916.25</ele></trkpt>
   <trkpt lon="11.094631" lat="47.536121"><ele>914.5</ele></trkpt>
   <trkpt lon="11.094737" lat="47.536004"><ele>914.5</ele></trkpt>
   <trkpt lon="11.094854" lat="47.535951"><ele>914.0</ele></trkpt>
   <trkpt lon="11.094949" lat="47.535859"><ele>913.5</ele></trkpt>
   <trkpt lon="11.094927" lat="47.535621"><ele>910.0</ele></trkpt>
   <trkpt lon="11.094893" lat="47.535539"><ele>909.25</ele></trkpt>
   <trkpt lon="11.094899" lat="47.535414"><ele>906.0</ele></trkpt>
   <trkpt lon="11.094969" lat="47.535302"><ele>902.0</ele></trkpt>
   <trkpt lon="11.095109" lat="47.535341"><ele>900.5</ele></trkpt>
   <trkpt lon="11.095174" lat="47.535333"><ele>899.25</ele></trkpt>
   <trkpt lon="11.095280" lat="47.535184"><ele>894.5</ele></trkpt>
   <trkpt lon="11.095424" lat="47.535162"><ele>890.75</ele></trkpt>
   <trkpt lon="11.095566" lat="47.535027"><ele>884.5</ele></trkpt>
   <trkpt lon="11.095669" lat="47.534978"><ele>882.25</ele></trkpt>
   <trkpt lon="11.095837" lat="47.535067"><ele>881.25</ele></trkpt>
   <trkpt lon="11.095951" lat="47.535116"><ele>879.25</ele></trkpt>
   <trkpt lon="11.096046" lat="47.535113"><ele>876.5</ele></trkpt>
   <trkpt lon="11.096177" lat="47.534972"><ele>869.25</ele></trkpt>
   <trkpt lon="11.096217" lat="47.534976"><ele>868.0</ele></trkpt>
   <trkpt lon="11.096194" lat="47.534787"><ele>865.0</ele></trkpt>
   <trkpt lon="11.096264" lat="47.534537"><ele>862.75</ele></trkpt>
   <trkpt lon="11.096421" lat="47.534237"><ele>856.0</ele></trkpt>
   <trkpt lon="11.096496" lat="47.534030"><ele>851.0</ele></trkpt>
   <trkpt lon="11.096546" lat="47.534140"><ele>850.0</ele></trkpt>
   <trkpt lon="11.096689" lat="47.533967"><ele>843.75</ele></trkpt>
   <trkpt lon="11.096910" lat="47.534128"><ele>838.5</ele></trkpt>
   <trkpt lon="11.097088" lat="47.534367"><ele>834.25</ele></trkpt>
   <trkpt lon="11.097308" lat="47.534238"><ele>829.5</ele></trkpt>
   <trkpt lon="11.097413" lat="47.534112"><ele>828.0</ele></trkpt>
   <trkpt lon="11.097459" lat="47.534089"><ele>827.0</ele></trkpt>
   <trkpt lon="11.097688" lat="47.533906"><ele>821.0</ele></trkpt>
   <trkpt lon="11.097717" lat="47.533845"><ele>820.25</ele></trkpt>
   <trkpt lon="11.097752" lat="47.533822"><ele>819.5</ele></trkpt>
   <trkpt lon="11.097826" lat="47.533824"><ele>818.25</ele></trkpt>
   <trkpt lon="11.097886" lat="47.533858"><ele>817.5</ele></trkpt>
   <trkpt lon="11.097922" lat="47.533849"><ele>817.0</ele></trkpt>
   <trkpt lon="11.097983" lat="47.533800"><ele>815.75</ele></trkpt>
   <trkpt lon="11.098026" lat="47.533782"><ele>814.75</ele></trkpt>
   <trkpt lon="11.098107" lat="47.533824"><ele>813.25</ele></trkpt>
   <trkpt lon="11.098184" lat="47.533780"><ele>810.25</ele></trkpt>
   <trkpt lon="11.098268" lat="47.533663"><ele>805.75</ele></trkpt>
   <trkpt lon="11.098296" lat="47.533689"><ele>805.25</ele></trkpt>
   <trkpt lon="11.098332" lat="47.533578"><ele>802.5</ele></trkpt>
   <trkpt lon="11.098370" lat="47.533504"><ele>800.5</ele></trkpt>
   <trkpt lon="11.098377" lat="47.533440"><ele>799.25</ele></trkpt>
   <trkpt lon="11.098436" lat="47.533396"><ele>797.25</ele></trkpt>
   <trkpt lon="11.098569" lat="47.533347"><ele>793.25</ele></trkpt>
   <trkpt lon="11.098705" lat="47.533361"><ele>790.75</ele></trkpt>
   <trkpt lon="11.098913" lat="47.533430"><ele>787.75</ele></trkpt>
   <trkpt lon="11.099009" lat="47.533442"><ele>786.75</ele></trkpt>
   <trkpt lon="11.099399" lat="47.533230"><ele>784.5</ele></trkpt>
   <trkpt lon="11.099532" lat="47.533103"><ele>784.0</ele></trkpt>
   <trkpt lon="11.099556" lat="47.533063"><ele>784.0</ele></trkpt>
   <trkpt lon="11.099614" lat="47.532970"><ele>784.75</ele></trkpt>
   <trkpt lon="11.099759" lat="47.532989"><ele>782.0</ele></trkpt>
   <trkpt lon="11.100008" lat="47.532883"><ele>775.75</ele></trkpt>
   <trkpt lon="11.100120" lat="47.532816"><ele>769.75</ele></trkpt>
   <trkpt lon="11.100179" lat="47.532675"><ele>763.75</ele></trkpt>
   <trkpt lon="11.100230" lat="47.532634"><ele>760.0</ele></trkpt>
   <trkpt lon="11.100379" lat="47.532689"><ele>753.75</ele></trkpt>
   <trkpt lon="11.100477" lat="47.532596"><ele>747.25</ele></trkpt>
   <trkpt lon="11.100575" lat="47.532640"><ele>743.75</ele></trkpt>
   <trkpt lon="11.100871" lat="47.532511"><ele>734.75</ele></trkpt>
   <trkpt lon="11.101101" lat="47.532597"><ele>728.25</ele></trkpt>
   <trkpt lon="11.101146" lat="47.532485"><ele>725.25</ele></trkpt>
   <trkpt lon="11.101419" lat="47.532505"><ele>717.5</ele></trkpt>
   <trkpt lon="11.101460" lat="47.532414"><ele>712.25</ele></trkpt>
   <trkpt lon="11.101588" lat="47.532401"><ele>706.25</ele></trkpt>
   <trkpt lon="11.101615" lat="47.532296"><ele>702.75</ele></trkpt>
   <trkpt lon="11.101570" lat="47.532145"><ele>701.75</ele></trkpt>
   <trkpt lon="11.101569" lat="47.532078"><ele>701.25</ele></trkpt>
   <trkpt lon="11.101602" lat="47.532009"><ele>699.75</ele></trkpt>
   <trkpt lon="11.101717" lat="47.531949"><ele>695.0</ele></trkpt>
   <trkpt lon="11.101846" lat="47.531928"><ele>689.75</ele></trkpt>
   <trkpt lon="11.101929" lat="47.531988"><ele>687.0</ele></trkpt>
   <trkpt lon="11.102122" lat="47.531925"><ele>681.25</ele></trkpt>
   <trkpt lon="11.102296" lat="47.531924"><ele>677.75</ele></trkpt>
   <trkpt lon="11.102440" lat="47.531928"><ele>676.5</ele></trkpt>
   <trkpt lon="11.102662" lat="47.531961"><ele>674.75</ele></trkpt>
   <trkpt lon="11.102833" lat="47.531967"><ele>673.75</ele></trkpt>
   <trkpt lon="11.103058" lat="47.531954"><ele>672.75</ele></trkpt>
   <trkpt lon="11.103298" lat="47.531849"><ele>672.0</ele></trkpt>
   <trkpt lon="11.103717" lat="47.531679"><ele>671.75</ele></trkpt>
   <trkpt lon="11.104001" lat="47.531506"><ele>672.0</ele></trkpt>
   <trkpt lon="11.104461" lat="47.531259"><ele>672.0</ele></trkpt>
   <trkpt lon="11.104671" lat="47.531162"><ele>672.0</ele></trkpt>
   <trkpt lon="11.105134" lat="47.531028"><ele>672.0</ele></trkpt>
   <trkpt lon="11.105346" lat="47.530974"><ele>671.75</ele></trkpt>
   <trkpt lon="11.106119" lat="47.530766"><ele>671.0</ele></trkpt>
   <trkpt lon="11.106631" lat="47.530654"><ele>671.0</ele></trkpt>
   <trkpt lon="11.107147" lat="47.530532"><ele>671.0</ele></trkpt>
   <trkpt lon="11.107443" lat="47.530469"><ele>671.0</ele></trkpt>
   <trkpt lon="11.107756" lat="47.530411"><ele>671.25</ele></trkpt>
   <trkpt lon="11.107910" lat="47.530426"><ele>671.0</ele></trkpt>
   <trkpt lon="11.108190" lat="47.530383"><ele>671.0</ele></trkpt>
   <trkpt lon="11.108468" lat="47.530315"><ele>670.5</ele></trkpt>
   <trkpt lon="11.108626" lat="47.530260"><ele>670.0</ele></trkpt>
   <trkpt lon="11.108728" lat="47.530196"><ele>670.0</ele></trkpt>
   <trkpt lon="11.108947" lat="47.530146"><ele>670.0</ele></trkpt>
   <trkpt lon="11.109172" lat="47.530134"><ele>670.5</ele></trkpt>
   <trkpt lon="11.109513" lat="47.530125"><ele>670.0</ele></trkpt>
   <trkpt lon="11.109788" lat="47.530078"><ele>670.0</ele></trkpt>
   <trkpt lon="11.109872" lat="47.530094"><ele>670.0</ele></trkpt>
   <trkpt lon="11.109950" lat="47.530114"><ele>670.0</ele></trkpt>
   <trkpt lon="11.110287" lat="47.530106"><ele>670.0</ele></trkpt>
   <trkpt lon="11.110402" lat="47.530209"><ele>670.0</ele></trkpt>
   <trkpt lon="11.110509" lat="47.530286"><ele>669.75</ele></trkpt>
   <trkpt lon="11.110616" lat="47.530342"><ele>669.75</ele></trkpt>
   <trkpt lon="11.110679" lat="47.530377"><ele>669.75</ele></trkpt>
   <trkpt lon="11.110839" lat="47.530447"><ele>670.0</ele></trkpt>
   <trkpt lon="11.110974" lat="47.530494"><ele>670.0</ele></trkpt>
   <trkpt lon="11.111061" lat="47.530510"><ele>670.0</ele></trkpt>
   <trkpt lon="11.111057" lat="47.530560"><ele>670.0</ele></trkpt>
   <trkpt lon="11.111103" lat="47.530653"><ele>670.0</ele></trkpt>
   <trkpt lon="11.111262" lat="47.530793"><ele>670.0</ele></trkpt>
   <trkpt lon="11.111348" lat="47.530986"><ele>670.0</ele></trkpt>
   <trkpt lon="11.111661" lat="47.531224"><ele>669.5</ele></trkpt>
   <trkpt lon="11.112049" lat="47.531539"><ele>669.0</ele></trkpt>
   <trkpt lon="11.112155" lat="47.531678"><ele>669.0</ele></trkpt>
   <trkpt lon="11.112201" lat="47.531740"><ele>669.0</ele></trkpt>
   <trkpt lon="11.112336" lat="47.531961"><ele>669.0</ele></trkpt>
   <trkpt lon="11.112371" lat="47.531999"><ele>669.0</ele></trkpt>
   <trkpt lon="11.112765" lat="47.531879"><ele>669.0</ele></trkpt>
   <trkpt lon="11.112794" lat="47.531393"><ele>669.0</ele></trkpt>
   <trkpt lon="11.112773" lat="47.531252"><ele>669.5</ele></trkpt>
   <trkpt lon="11.112694" lat="47.531079"><ele>670.0</ele></trkpt>
   <trkpt lon="11.112607" lat="47.530920"><ele>670.0</ele></trkpt>
   <trkpt lon="11.112455" lat="47.530711"><ele>669.5</ele></trkpt>
   <trkpt lon="11.112380" lat="47.530613"><ele>669.5</ele></trkpt>
   <trkpt lon="11.112312" lat="47.530522"><ele>669.5</ele></trkpt>
   <trkpt lon="11.112133" lat="47.530287"><ele>670.0</ele></trkpt>
   <trkpt lon="11.112099" lat="47.530247"><ele>670.0</ele></trkpt>
   <trkpt lon="11.112056" lat="47.530181"><ele>670.0</ele></trkpt>
   <trkpt lon="11.111796" lat="47.529803"><ele>670.0</ele></trkpt>
   <trkpt lon="11.111685" lat="47.529609"><ele>670.0</ele></trkpt>
   <trkpt lon="11.111639" lat="47.529504"><ele>670.0</ele></trkpt>
   <trkpt lon="11.111603" lat="47.529431"><ele>670.0</ele></trkpt>
   <trkpt lon="11.111396" lat="47.528890"><ele>670.75</ele></trkpt>
   <trkpt lon="11.111342" lat="47.528745"><ele>670.75</ele></trkpt>
   <trkpt lon="11.110970" lat="47.527604"><ele>671.75</ele></trkpt>
   <trkpt lon="11.110777" lat="47.526968"><ele>672.0</ele></trkpt>
   <trkpt lon="11.110748" lat="47.526794"><ele>672.5</ele></trkpt>
   <trkpt lon="11.110693" lat="47.526571"><ele>673.0</ele></trkpt>
   <trkpt lon="11.110655" lat="47.526459"><ele>672.75</ele></trkpt>
   <trkpt lon="11.110614" lat="47.526333"><ele>673.0</ele></trkpt>
   <trkpt lon="11.110578" lat="47.526215"><ele>673.0</ele></trkpt>
   <trkpt lon="11.110498" lat="47.525954"><ele>673.25</ele></trkpt>
   <trkpt lon="11.110248" lat="47.525170"><ele>674.0</ele></trkpt>
   <trkpt lon="11.110151" lat="47.524865"><ele>674.0</ele></trkpt>
   <trkpt lon="11.109501" lat="47.522829"><ele>675.75</ele></trkpt>
   <trkpt lon="11.109306" lat="47.522181"><ele>676.25</ele></trkpt>
   <trkpt lon="11.109235" lat="47.521746"><ele>675.75</ele></trkpt>
   <trkpt lon="11.109211" lat="47.521338"><ele>675.75</ele></trkpt>
   <trkpt lon="11.109210" lat="47.520955"><ele>675.75</ele></trkpt>
   <trkpt lon="11.109231" lat="47.520660"><ele>675.75</ele></trkpt>
   <trkpt lon="11.109279" lat="47.520357"><ele>675.75</ele></trkpt>
   <trkpt lon="11.109359" lat="47.520001"><ele>676.0</ele></trkpt>
   <trkpt lon="11.109407" lat="47.519858"><ele>676.0</ele></trkpt>
   <trkpt lon="11.109573" lat="47.519442"><ele>677.25</ele></trkpt>
   <trkpt lon="11.109692" lat="47.519129"><ele>676.25</ele></trkpt>
   <trkpt lon="11.109908" lat="47.518372"><ele>677.75</ele></trkpt>
   <trkpt lon="11.109925" lat="47.518229"><ele>678.25</ele></trkpt>
   <trkpt lon="11.109927" lat="47.518146"><ele>678.25</ele></trkpt>
   <trkpt lon="11.109918" lat="47.517551"><ele>679.75</ele></trkpt>
   <trkpt lon="11.109876" lat="47.517125"><ele>678.0</ele></trkpt>
   <trkpt lon="11.109802" lat="47.516711"><ele>679.75</ele></trkpt>
   <trkpt lon="11.109768" lat="47.516529"><ele>681.0</ele></trkpt>
   <trkpt lon="11.109658" lat="47.515905"><ele>681.75</ele></trkpt>
   <trkpt lon="11.109565" lat="47.515360"><ele>681.5</ele></trkpt>
   <trkpt lon="11.109505" lat="47.514992"><ele>684.0</ele></trkpt>
   <trkpt lon="11.109420" lat="47.514611"><ele>684.0</ele></trkpt>
   <trkpt lon="11.109352" lat="47.514393"><ele>682.5</ele></trkpt>
   <trkpt lon="11.109219" lat="47.514094"><ele>682.5</ele></trkpt>
   <trkpt lon="11.108989" lat="47.513732"><ele>681.25</ele></trkpt>
   <trkpt lon="11.108676" lat="47.513283"><ele>681.0</ele></trkpt>
   <trkpt lon="11.108516" lat="47.512974"><ele>681.0</ele></trkpt>
   <trkpt lon="11.108422" lat="47.512667"><ele>681.25</ele></trkpt>
   <trkpt lon="11.108388" lat="47.512612"><ele>681.25</ele></trkpt>
   <trkpt lon="11.108277" lat="47.512538"><ele>681.75</ele></trkpt>
   <trkpt lon="11.108228" lat="47.512521"><ele>681.75</ele></trkpt>
   <trkpt lon="11.108134" lat="47.512520"><ele>681.75</ele></trkpt>
   <trkpt lon="11.108061" lat="47.512531"><ele>681.75</ele></trkpt>
   <trkpt lon="11.107926" lat="47.512574"><ele>681.25</ele></trkpt>
   <trkpt lon="11.107821" lat="47.512622"><ele>681.0</ele></trkpt>
   <trkpt lon="11.107702" lat="47.512654"><ele>681.0</ele></trkpt>
   <trkpt lon="11.107632" lat="47.512662"><ele>681.0</ele></trkpt>
   <trkpt lon="11.107513" lat="47.512653"><ele>681.0</ele></trkpt>
   <trkpt lon="11.107445" lat="47.512633"><ele>681.0</ele></trkpt>
   <trkpt lon="11.107400" lat="47.512611"><ele>681.0</ele></trkpt>
   <trkpt lon="11.107311" lat="47.512533"><ele>681.5</ele></trkpt>
   <trkpt lon="11.107266" lat="47.512476"><ele>681.75</ele></trkpt>
   <trkpt lon="11.107268" lat="47.512351"><ele>681.75</ele></trkpt>
   <trkpt lon="11.107282" lat="47.512298"><ele>681.75</ele></trkpt>
   <trkpt lon="11.107333" lat="47.512203"><ele>682.0</ele></trkpt>
   <trkpt lon="11.107365" lat="47.512165"><ele>682.0</ele></trkpt>
   <trkpt lon="11.107414" lat="47.512087"><ele>682.25</ele></trkpt>
   <trkpt lon="11.107626" lat="47.511874"><ele>682.75</ele></trkpt>
   <trkpt lon="11.107685" lat="47.511794"><ele>682.75</ele></trkpt>
   <trkpt lon="11.107728" lat="47.511644"><ele>683.25</ele></trkpt>
   <trkpt lon="11.107738" lat="47.511474"><ele>683.5</ele></trkpt>
   <trkpt lon="11.107714" lat="47.511367"><ele>683.5</ele></trkpt>
   <trkpt lon="11.107569" lat="47.510810"><ele>683.75</ele></trkpt>
   <trkpt lon="11.107542" lat="47.510751"><ele>683.75</ele></trkpt>
   <trkpt lon="11.107520" lat="47.510707"><ele>683.75</ele></trkpt>
   <trkpt lon="11.107451" lat="47.510575"><ele>683.75</ele></trkpt>
   <trkpt lon="11.107195" lat="47.510170"><ele>685.0</ele></trkpt>
   <trkpt lon="11.106941" lat="47.509846"><ele>685.0</ele></trkpt>
   <trkpt lon="11.106733" lat="47.509602"><ele>685.25</ele></trkpt>
   <trkpt lon="11.106497" lat="47.509325"><ele>686.25</ele></trkpt>
   <trkpt lon="11.106227" lat="47.509010"><ele>687.0</ele></trkpt>
   <trkpt lon="11.106086" lat="47.508858"><ele>687.0</ele></trkpt>
   <trkpt lon="11.106007" lat="47.508773"><ele>687.25</ele></trkpt>
   <trkpt lon="11.105973" lat="47.508735"><ele>687.5</ele></trkpt>
   <trkpt lon="11.105923" lat="47.508681"><ele>687.5</ele></trkpt>
   <trkpt lon="11.105843" lat="47.508598"><ele>688.0</ele></trkpt>
   <trkpt lon="11.105509" lat="47.508230"><ele>689.25</ele></trkpt>
   <trkpt lon="11.105180" lat="47.507836"><ele>689.75</ele></trkpt>
   <trkpt lon="11.105099" lat="47.507739"><ele>690.0</ele></trkpt>
   <trkpt lon="11.104663" lat="47.507159"><ele>691.0</ele></trkpt>
   <trkpt lon="11.104246" lat="47.506549"><ele>692.25</ele></trkpt>
   <trkpt lon="11.104027" lat="47.506190"><ele>692.75</ele></trkpt>
   <trkpt lon="11.103872" lat="47.505912"><ele>693.5</ele></trkpt>
   <trkpt lon="11.103756" lat="47.505693"><ele>694.0</ele></trkpt>
   <trkpt lon="11.103675" lat="47.505522"><ele>694.0</ele></trkpt>
   <trkpt lon="11.103486" lat="47.505090"><ele>695.25</ele></trkpt>
   <trkpt lon="11.103311" lat="47.504657"><ele>696.0</ele></trkpt>
   <trkpt lon="11.103243" lat="47.504469"><ele>696.0</ele></trkpt>
   <trkpt lon="11.103173" lat="47.504242"><ele>696.5</ele></trkpt>
   <trkpt lon="11.103148" lat="47.504168"><ele>696.75</ele></trkpt>
   <trkpt lon="11.102949" lat="47.503561"><ele>697.25</ele></trkpt>
   <trkpt lon="11.103099" lat="47.503464"><ele>697.5</ele></trkpt>
   <trkpt lon="11.103886" lat="47.503015"><ele>699.75</ele></trkpt>
   <trkpt lon="11.104395" lat="47.502667"><ele>700.25</ele></trkpt>
   <trkpt lon="11.104739" lat="47.502411"><ele>701.0</ele></trkpt>
   <trkpt lon="11.104884" lat="47.502262"><ele>701.0</ele></trkpt>
   <trkpt lon="11.105010" lat="47.502311"><ele>701.25</ele></trkpt>
   <trkpt lon="11.105053" lat="47.502355"><ele>702.25</ele></trkpt>
   <trkpt lon="11.105083" lat="47.502412"><ele>703.0</ele></trkpt>
   <trkpt lon="11.105093" lat="47.502465"><ele>703.5</ele></trkpt>
   <trkpt lon="11.105090" lat="47.502514"><ele>703.75</ele></trkpt>
   <trkpt lon="11.105055" lat="47.502569"><ele>704.5</ele></trkpt>
   <trkpt lon="11.104707" lat="47.502920"><ele>705.75</ele></trkpt>
   <trkpt lon="11.104562" lat="47.503188"><ele>708.25</ele></trkpt>
   <trkpt lon="11.104538" lat="47.503266"><ele>709.0</ele></trkpt>
   <trkpt lon="11.104540" lat="47.503443"><ele>710.25</ele></trkpt>
   <trkpt lon="11.104566" lat="47.503528"><ele>710.75</ele></trkpt>
   <trkpt lon="11.104644" lat="47.503626"><ele>711.0</ele></trkpt>
   <trkpt lon="11.104689" lat="47.503689"><ele>711.25</ele></trkpt>
   <trkpt lon="11.104801" lat="47.503775"><ele>711.5</ele></trkpt>
   <trkpt lon="11.104818" lat="47.503786"><ele>711.75</ele></trkpt>
   <trkpt lon="11.104937" lat="47.503878"><ele>711.75</ele></trkpt>
   <trkpt lon="11.106257" lat="47.504729"><ele>721.5</ele></trkpt>
   <trkpt lon="11.106488" lat="47.504980"><ele>723.5</ele></trkpt>
   <trkpt lon="11.106821" lat="47.505315"><ele>725.5</ele></trkpt>
   <trkpt lon="11.107054" lat="47.505510"><ele>727.0</ele></trkpt>
   <trkpt lon="11.107394" lat="47.505699"><ele>728.0</ele></trkpt>
   <trkpt lon="11.107527" lat="47.505774"><ele>730.0</ele></trkpt>
   <trkpt lon="11.107974" lat="47.506115"><ele>732.75</ele></trkpt>
   <trkpt lon="11.108655" lat="47.506586"><ele>739.75</ele></trkpt>
   <trkpt lon="11.108916" lat="47.506792"><ele>742.25</ele></trkpt>
   <trkpt lon="11.109008" lat="47.506853"><ele>743.5</ele></trkpt>
   <trkpt lon="11.109089" lat="47.506884"><ele>744.75</ele></trkpt>
   <trkpt lon="11.109335" lat="47.506904"><ele>748.0</ele></trkpt>
   <trkpt lon="11.109446" lat="47.506866"><ele>749.75</ele></trkpt>
   <trkpt lon="11.109508" lat="47.506815"><ele>749.75</ele></trkpt>
   <trkpt lon="11.109558" lat="47.506738"><ele>750.5</ele></trkpt>
   <trkpt lon="11.109548" lat="47.506491"><ele>753.25</ele></trkpt>
   <trkpt lon="11.109535" lat="47.506340"><ele>754.75</ele></trkpt>
   <trkpt lon="11.109549" lat="47.505670"><ele>763.0</ele></trkpt>
   <trkpt lon="11.109699" lat="47.504746"><ele>774.25</ele></trkpt>
   <trkpt lon="11.109837" lat="47.504176"><ele>782.5</ele></trkpt>
   <trkpt lon="11.109889" lat="47.503743"><ele>788.25</ele></trkpt>
   <trkpt lon="11.109939" lat="47.503612"><ele>790.5</ele></trkpt>
   <trkpt lon="11.110051" lat="47.503456"><ele>793.25</ele></trkpt>
   <trkpt lon="11.110503" lat="47.503074"><ele>795.25</ele></trkpt>
   <trkpt lon="11.110611" lat="47.502923"><ele>797.5</ele></trkpt>
   <trkpt lon="11.110678" lat="47.502751"><ele>800.25</ele></trkpt>
   <trkpt lon="11.110799" lat="47.502376"><ele>806.5</ele></trkpt>
   <trkpt lon="11.110911" lat="47.502111"><ele>808.25</ele></trkpt>
   <trkpt lon="11.110986" lat="47.501970"><ele>809.25</ele></trkpt>
   <trkpt lon="11.111123" lat="47.501847"><ele>811.25</ele></trkpt>
   <trkpt lon="11.111189" lat="47.501826"><ele>811.75</ele></trkpt>
   <trkpt lon="11.111277" lat="47.501835"><ele>812.5</ele></trkpt>
   <trkpt lon="11.111327" lat="47.501856"><ele>813.0</ele></trkpt>
   <trkpt lon="11.111532" lat="47.502159"><ele>816.0</ele></trkpt>
   <trkpt lon="11.111676" lat="47.502344"><ele>817.0</ele></trkpt>
   <trkpt lon="11.111713" lat="47.502392"><ele>817.75</ele></trkpt>
   <trkpt lon="11.111941" lat="47.502645"><ele>820.25</ele></trkpt>
   <trkpt lon="11.112096" lat="47.502796"><ele>822.25</ele></trkpt>
   <trkpt lon="11.112473" lat="47.503009"><ele>825.75</ele></trkpt>
   <trkpt lon="11.112720" lat="47.503193"><ele>826.75</ele></trkpt>
   <trkpt lon="11.113334" lat="47.503531"><ele>832.0</ele></trkpt>
   <trkpt lon="11.113466" lat="47.503592"><ele>832.25</ele></trkpt>
   <trkpt lon="11.113597" lat="47.503642"><ele>833.25</ele></trkpt>
   <trkpt lon="11.113743" lat="47.503714"><ele>835.5</ele></trkpt>
   <trkpt lon="11.113903" lat="47.503823"><ele>838.0</ele></trkpt>
   <trkpt lon="11.114141" lat="47.504070"><ele>843.0</ele></trkpt>
   <trkpt lon="11.114317" lat="47.504201"><ele>844.5</ele></trkpt>
   <trkpt lon="11.114383" lat="47.504283"><ele>845.25</ele></trkpt>
   <trkpt lon="11.114526" lat="47.504555"><ele>848.0</ele></trkpt>
   <trkpt lon="11.114575" lat="47.504622"><ele>848.75</ele></trkpt>
   <trkpt lon="11.114857" lat="47.504845"><ele>852.25</ele></trkpt>
   <trkpt lon="11.115060" lat="47.505062"><ele>852.75</ele></trkpt>
   <trkpt lon="11.115129" lat="47.505160"><ele>852.75</ele></trkpt>
   <trkpt lon="11.115201" lat="47.505293"><ele>852.5</ele></trkpt>
   <trkpt lon="11.115522" lat="47.506112"><ele>857.25</ele></trkpt>
   <trkpt lon="11.115603" lat="47.506234"><ele>857.75</ele></trkpt>
   <trkpt lon="11.115875" lat="47.506511"><ele>861.0</ele></trkpt>
   <trkpt lon="11.116175" lat="47.506636"><ele>865.0</ele></trkpt>
   <trkpt lon="11.116407" lat="47.506687"><ele>867.0</ele></trkpt>
   <trkpt lon="11.116515" lat="47.506759"><ele>868.5</ele></trkpt>
   <trkpt lon="11.116588" lat="47.506839"><ele>869.5</ele></trkpt>
   <trkpt lon="11.116676" lat="47.506906"><ele>871.25</ele></trkpt>
   <trkpt lon="11.116845" lat="47.506938"><ele>874.0</ele></trkpt>
   <trkpt lon="11.117098" lat="47.507045"><ele>876.5</ele></trkpt>
   <trkpt lon="11.117213" lat="47.507127"><ele>877.25</ele></trkpt>
   <trkpt lon="11.117278" lat="47.507226"><ele>877.75</ele></trkpt>
   <trkpt lon="11.117335" lat="47.507376"><ele>879.5</ele></trkpt>
   <trkpt lon="11.117403" lat="47.507680"><ele>882.5</ele></trkpt>
   <trkpt lon="11.117462" lat="47.507806"><ele>884.5</ele></trkpt>
   <trkpt lon="11.117634" lat="47.507915"><ele>887.25</ele></trkpt>
   <trkpt lon="11.117926" lat="47.508042"><ele>893.0</ele></trkpt>
   <trkpt lon="11.118133" lat="47.508167"><ele>895.25</ele></trkpt>
   <trkpt lon="11.118360" lat="47.508280"><ele>900.25</ele></trkpt>
   <trkpt lon="11.118473" lat="47.508398"><ele>904.0</ele></trkpt>
   <trkpt lon="11.118716" lat="47.508801"><ele>913.75</ele></trkpt>
   <trkpt lon="11.118908" lat="47.508972"><ele>919.5</ele></trkpt>
   <trkpt lon="11.119312" lat="47.509096"><ele>926.5</ele></trkpt>
   <trkpt lon="11.119463" lat="47.509171"><ele>929.5</ele></trkpt>
   <trkpt lon="11.119649" lat="47.509350"><ele>935.0</ele></trkpt>
   <trkpt lon="11.119742" lat="47.509498"><ele>938.5</ele></trkpt>
   <trkpt lon="11.119968" lat="47.509998"><ele>949.25</ele></trkpt>
   <trkpt lon="11.120027" lat="47.510178"><ele>953.25</ele></trkpt>
   <trkpt lon="11.120057" lat="47.510337"><ele>955.25</ele></trkpt>
   <trkpt lon="11.120051" lat="47.510449"><ele>956.0</ele></trkpt>
   <trkpt lon="11.120103" lat="47.510538"><ele>958.5</ele></trkpt>
   <trkpt lon="11.120223" lat="47.510642"><ele>961.75</ele></trkpt>
   <trkpt lon="11.120250" lat="47.510680"><ele>962.0</ele></trkpt>
   <trkpt lon="11.120299" lat="47.510754"><ele>962.5</ele></trkpt>
   <trkpt lon="11.120417" lat="47.510933"><ele>963.25</ele></trkpt>
   <trkpt lon="11.120728" lat="47.511334"><ele>969.25</ele></trkpt>
   <trkpt lon="11.120892" lat="47.511623"><ele>971.75</ele></trkpt>
   <trkpt lon="11.121255" lat="47.512232"><ele>979.5</ele></trkpt>
   <trkpt lon="11.121438" lat="47.512470"><ele>984.25</ele></trkpt>
   <trkpt lon="11.121710" lat="47.512732"><ele>989.0</ele></trkpt>
   <trkpt lon="11.121939" lat="47.513096"><ele>994.25</ele></trkpt>
   <trkpt lon="11.122111" lat="47.513476"><ele>999.5</ele></trkpt>
   <trkpt lon="11.122196" lat="47.513778"><ele>1004.25</ele></trkpt>
   <trkpt lon="11.122364" lat="47.513913"><ele>1009.25</ele></trkpt>
   <trkpt lon="11.122572" lat="47.514064"><ele>1013.0</ele></trkpt>
   <trkpt lon="11.123031" lat="47.514281"><ele>1017.75</ele></trkpt>
   <trkpt lon="11.123367" lat="47.514382"><ele>1022.75</ele></trkpt>
   <trkpt lon="11.123623" lat="47.514469"><ele>1026.25</ele></trkpt>
   <trkpt lon="11.123735" lat="47.514555"><ele>1026.75</ele></trkpt>
   <trkpt lon="11.123915" lat="47.514785"><ele>1027.5</ele></trkpt>
   <trkpt lon="11.124120" lat="47.515147"><ele>1031.75</ele></trkpt>
   <trkpt lon="11.124463" lat="47.515484"><ele>1035.5</ele></trkpt>
   <trkpt lon="11.124900" lat="47.515746"><ele>1037.75</ele></trkpt>
   <trkpt lon="11.124963" lat="47.515803"><ele>1037.0</ele></trkpt>
   <trkpt lon="11.125851" lat="47.515966"><ele>1042.75</ele></trkpt>
   <trkpt lon="11.126280" lat="47.516195"><ele>1042.0</ele></trkpt>
   <trkpt lon="11.126501" lat="47.516266"><ele>1041.75</ele></trkpt>
   <trkpt lon="11.126796" lat="47.516254"><ele>1052.5</ele></trkpt>
   <trkpt lon="11.126866" lat="47.516271"><ele>1054.0</ele></trkpt>
   <trkpt lon="11.126899" lat="47.516300"><ele>1053.25</ele></trkpt>
   <trkpt lon="11.126931" lat="47.516332"><ele>1052.25</ele></trkpt>
   <trkpt lon="11.127053" lat="47.516620"><ele>1048.75</ele></trkpt>
   <trkpt lon="11.127447" lat="47.516841"><ele>1052.5</ele></trkpt>
   <trkpt lon="11.128098" lat="47.517094"><ele>1057.0</ele></trkpt>
   <trkpt lon="11.128518" lat="47.517440"><ele>1059.75</ele></trkpt>
   <trkpt lon="11.128853" lat="47.517565"><ele>1063.75</ele></trkpt>
   <trkpt lon="11.129243" lat="47.517684"><ele>1066.5</ele></trkpt>
   <trkpt lon="11.129358" lat="47.517794"><ele>1064.25</ele></trkpt>
   <trkpt lon="11.129319" lat="47.518026"><ele>1063.5</ele></trkpt>
   <trkpt lon="11.129340" lat="47.518125"><ele>1063.5</ele></trkpt>
   <trkpt lon="11.129423" lat="47.518239"><ele>1066.0</ele></trkpt>
   <trkpt lon="11.129509" lat="47.518472"><ele>1068.0</ele></trkpt>
   <trkpt lon="11.129582" lat="47.518606"><ele>1070.25</ele></trkpt>
   <trkpt lon="11.129725" lat="47.518773"><ele>1073.75</ele></trkpt>
   <trkpt lon="11.130018" lat="47.519028"><ele>1079.0</ele></trkpt>
   <trkpt lon="11.130111" lat="47.519156"><ele>1082.5</ele></trkpt>
   <trkpt lon="11.130242" lat="47.519543"><ele>1088.25</ele></trkpt>
   <trkpt lon="11.130362" lat="47.519823"><ele>1096.25</ele></trkpt>
   <trkpt lon="11.130405" lat="47.520036"><ele>1100.0</ele></trkpt>
   <trkpt lon="11.130350" lat="47.520343"><ele>1106.5</ele></trkpt>
   <trkpt lon="11.130373" lat="47.520456"><ele>1109.75</ele></trkpt>
   <trkpt lon="11.130429" lat="47.520579"><ele>1114.0</ele></trkpt>
   <trkpt lon="11.130665" lat="47.520810"><ele>1123.5</ele></trkpt>
   <trkpt lon="11.130745" lat="47.520837"><ele>1125.75</ele></trkpt>
   <trkpt lon="11.130794" lat="47.520774"><ele>1127.25</ele></trkpt>
   <trkpt lon="11.130909" lat="47.520406"><ele>1131.25</ele></trkpt>
   <trkpt lon="11.131013" lat="47.520375"><ele>1135.0</ele></trkpt>
   <trkpt lon="11.131082" lat="47.520406"><ele>1138.0</ele></trkpt>
   <trkpt lon="11.131103" lat="47.520464"><ele>1139.5</ele></trkpt>
   <trkpt lon="11.131278" lat="47.520609"><ele>1144.25</ele></trkpt>
   <trkpt lon="11.131629" lat="47.520783"><ele>1151.5</ele></trkpt>
   <trkpt lon="11.131775" lat="47.520820"><ele>1154.0</ele></trkpt>
   <trkpt lon="11.132437" lat="47.520929"><ele>1162.75</ele></trkpt>
   <trkpt lon="11.133208" lat="47.520923"><ele>1173.25</ele></trkpt>
   <trkpt lon="11.133563" lat="47.520898"><ele>1178.5</ele></trkpt>
   <trkpt lon="11.134673" lat="47.521094"><ele>1191.5</ele></trkpt>
   <trkpt lon="11.135466" lat="47.521218"><ele>1201.25</ele></trkpt>
   <trkpt lon="11.136062" lat="47.521110"><ele>1213.25</ele></trkpt>
   <trkpt lon="11.136282" lat="47.521144"><ele>1216.0</ele></trkpt>
   <trkpt lon="11.136557" lat="47.521200"><ele>1221.5</ele></trkpt>
   <trkpt lon="11.136964" lat="47.521213"><ele>1229.75</ele></trkpt>
   <trkpt lon="11.137328" lat="47.521175"><ele>1235.25</ele></trkpt>
   <trkpt lon="11.137796" lat="47.521069"><ele>1242.75</ele></trkpt>
   <trkpt lon="11.138271" lat="47.520960"><ele>1246.0</ele></trkpt>
   <trkpt lon="11.138556" lat="47.520933"><ele>1247.0</ele></trkpt>
   <trkpt lon="11.139003" lat="47.520927"><ele>1247.25</ele></trkpt>
   <trkpt lon="11.139798" lat="47.520700"><ele>1252.0</ele></trkpt>
   <trkpt lon="11.140386" lat="47.520526"><ele>1256.0</ele></trkpt>
   <trkpt lon="11.141027" lat="47.520388"><ele>1260.5</ele></trkpt>
   <trkpt lon="11.141437" lat="47.520256"><ele>1265.5</ele></trkpt>
   <trkpt lon="11.142207" lat="47.520135"><ele>1270.0</ele></trkpt>
   <trkpt lon="11.142615" lat="47.520131"><ele>1273.75</ele></trkpt>
   <trkpt lon="11.143132" lat="47.519955"><ele>1278.0</ele></trkpt>
   <trkpt lon="11.144048" lat="47.519779"><ele>1280.75</ele></trkpt>
   <trkpt lon="11.144313" lat="47.519680"><ele>1281.0</ele></trkpt>
   <trkpt lon="11.144592" lat="47.519494"><ele>1281.25</ele></trkpt>
   <trkpt lon="11.144847" lat="47.519303"><ele>1278.5</ele></trkpt>
   <trkpt lon="11.144965" lat="47.519138"><ele>1278.75</ele></trkpt>
   <trkpt lon="11.145044" lat="47.519043"><ele>1279.5</ele></trkpt>
   <trkpt lon="11.145205" lat="47.519012"><ele>1278.0</ele></trkpt>
   <trkpt lon="11.145811" lat="47.519039"><ele>1276.5</ele></trkpt>
   <trkpt lon="11.146163" lat="47.519014"><ele>1277.5</ele></trkpt>
   <trkpt lon="11.146469" lat="47.518973"><ele>1277.75</ele></trkpt>
   <trkpt lon="11.146665" lat="47.519023"><ele>1277.5</ele></trkpt>
   <trkpt lon="11.146875" lat="47.519150"><ele>1279.0</ele></trkpt>
   <trkpt lon="11.147217" lat="47.519272"><ele>1285.0</ele></trkpt>
   <trkpt lon="11.148917" lat="47.519647"><ele>1315.0</ele></trkpt>
   <trkpt lon="11.149533" lat="47.519979"><ele>1331.5</ele></trkpt>
   <trkpt lon="11.150173" lat="47.520143"><ele>1341.0</ele></trkpt>
   <trkpt lon="11.150527" lat="47.520150"><ele>1342.75</ele></trkpt>
   <trkpt lon="11.150761" lat="47.520248"><ele>1351.5</ele></trkpt>
   <trkpt lon="11.151302" lat="47.520335"><ele>1357.25</ele></trkpt>
   <trkpt lon="11.152398" lat="47.520669"><ele>1378.5</ele></trkpt>
   <trkpt lon="11.153871" lat="47.520658"><ele>1397.25</ele></trkpt>
   <trkpt lon="11.154605" lat="47.520968"><ele>1410.75</ele></trkpt>
   <trkpt lon="11.155225" lat="47.521332"><ele>1421.5</ele></trkpt>
   <trkpt lon="11.157142" lat="47.521866"><ele>1452.5</ele></trkpt>
   <trkpt lon="11.158387" lat="47.522756"><ele>1479.75</ele></trkpt>
   <trkpt lon="11.158512" lat="47.523198"><ele>1487.75</ele></trkpt>
   <trkpt lon="11.158339" lat="47.523759"><ele>1497.25</ele></trkpt>
   <trkpt lon="11.157546" lat="47.524455"><ele>1516.25</ele></trkpt>
   <trkpt lon="11.157378" lat="47.524402"><ele>1523.0</ele></trkpt>
   <trkpt lon="11.157373" lat="47.524272"><ele>1525.5</ele></trkpt>
   <trkpt lon="11.157116" lat="47.524101"><ele>1535.75</ele></trkpt>
   <trkpt lon="11.156022" lat="47.523920"><ele>1555.0</ele></trkpt>
   <trkpt lon="11.155918" lat="47.523839"><ele>1554.25</ele></trkpt>
   <trkpt lon="11.155725" lat="47.523550"><ele>1545.5</ele></trkpt>
   <trkpt lon="11.155648" lat="47.523112"><ele>1529.75</ele></trkpt>
   <trkpt lon="11.155648" lat="47.523039"><ele>1527.25</ele></trkpt>
   <trkpt lon="11.155509" lat="47.522938"><ele>1521.75</ele></trkpt>
   <trkpt lon="11.155349" lat="47.522910"><ele>1520.5</ele></trkpt>
   <trkpt lon="11.155173" lat="47.522869"><ele>1518.75</ele></trkpt>
   <trkpt lon="11.155074" lat="47.522866"><ele>1519.0</ele></trkpt>
   <trkpt lon="11.154861" lat="47.522835"><ele>1519.5</ele></trkpt>
   <trkpt lon="11.154630" lat="47.522731"><ele>1516.0</ele></trkpt>
   <trkpt lon="11.154491" lat="47.522729"><ele>1518.5</ele></trkpt>
   <trkpt lon="11.154283" lat="47.522693"><ele>1519.75</ele></trkpt>
   <trkpt lon="11.154134" lat="47.522629"><ele>1518.0</ele></trkpt>
   <trkpt lon="11.153950" lat="47.522576"><ele>1516.5</ele></trkpt>
   <trkpt lon="11.153712" lat="47.522521"><ele>1515.75</ele></trkpt>
   <trkpt lon="11.153582" lat="47.522461"><ele>1513.5</ele></trkpt>
   <trkpt lon="11.153406" lat="47.522412"><ele>1511.0</ele></trkpt>
   <trkpt lon="11.153244" lat="47.522467"><ele>1513.75</ele></trkpt>
   <trkpt lon="11.153114" lat="47.522492"><ele>1514.0</ele></trkpt>
   <trkpt lon="11.153010" lat="47.522559"><ele>1516.0</ele></trkpt>
   <trkpt lon="11.152884" lat="47.522624"><ele>1517.5</ele></trkpt>
   <trkpt lon="11.152821" lat="47.522671"><ele>1519.0</ele></trkpt>
   <trkpt lon="11.152754" lat="47.522699"><ele>1519.5</ele></trkpt>
   <trkpt lon="11.152521" lat="47.522744"><ele>1519.25</ele></trkpt>
   <trkpt lon="11.152251" lat="47.522678"><ele>1517.5</ele></trkpt>
   <trkpt lon="11.152028" lat="47.522653"><ele>1520.25</ele></trkpt>
   <trkpt lon="11.151909" lat="47.522625"><ele>1520.5</ele></trkpt>
   <trkpt lon="11.151699" lat="47.522461"><ele>1514.25</ele></trkpt>
   <trkpt lon="11.151485" lat="47.522369"><ele>1511.5</ele></trkpt>
   <trkpt lon="11.151387" lat="47.522295"><ele>1508.0</ele></trkpt>
   <trkpt lon="11.151245" lat="47.522284"><ele>1510.75</ele></trkpt>
   <trkpt lon="11.151194" lat="47.522273"><ele>1511.5</ele></trkpt>
   <trkpt lon="11.151162" lat="47.522184"><ele>1507.25</ele></trkpt>
   <trkpt lon="11.151106" lat="47.522083"><ele>1502.0</ele></trkpt>
   <trkpt lon="11.150959" lat="47.522011"><ele>1500.5</ele></trkpt>
   <trkpt lon="11.150974" lat="47.521890"><ele>1492.25</ele></trkpt>
   <trkpt lon="11.151069" lat="47.521845"><ele>1487.5</ele></trkpt>
   <trkpt lon="11.151079" lat="47.521793"><ele>1484.25</ele></trkpt>
   <trkpt lon="11.150988" lat="47.521714"><ele>1480.75</ele></trkpt>
   <trkpt lon="11.150847" lat="47.521700"><ele>1482.0</ele></trkpt>
   <trkpt lon="11.150716" lat="47.521616"><ele>1475.75</ele></trkpt>
   <trkpt lon="11.150667" lat="47.521538"><ele>1470.5</ele></trkpt>
   <trkpt lon="11.150596" lat="47.521552"><ele>1471.0</ele></trkpt>
   <trkpt lon="11.150516" lat="47.521518"><ele>1467.0</ele></trkpt>
   <trkpt lon="11.150510" lat="47.521462"><ele>1463.25</ele></trkpt>
   <trkpt lon="11.150555" lat="47.521423"><ele>1463.0</ele></trkpt>
   <trkpt lon="11.150491" lat="47.521314"><ele>1452.75</ele></trkpt>
   <trkpt lon="11.150513" lat="47.521255"><ele>1449.75</ele></trkpt>
   <trkpt lon="11.150470" lat="47.521181"><ele>1444.0</ele></trkpt>
   <trkpt lon="11.150435" lat="47.521191"><ele>1444.25</ele></trkpt>
   <trkpt lon="11.150359" lat="47.521305"><ele>1447.5</ele></trkpt>
   <trkpt lon="11.150234" lat="47.521336"><ele>1444.0</ele></trkpt>
   <trkpt lon="11.149996" lat="47.521348"><ele>1436.25</ele></trkpt>
   <trkpt lon="11.149834" lat="47.521292"><ele>1431.25</ele></trkpt>
   <trkpt lon="11.149780" lat="47.521216"><ele>1424.25</ele></trkpt>
   <trkpt lon="11.149734" lat="47.521176"><ele>1420.0</ele></trkpt>
   <trkpt lon="11.149722" lat="47.521130"><ele>1415.5</ele></trkpt>
   <trkpt lon="11.149689" lat="47.521174"><ele>1420.0</ele></trkpt>
   <trkpt lon="11.149651" lat="47.521107"><ele>1414.5</ele></trkpt>
   <trkpt lon="11.149579" lat="47.521026"><ele>1409.0</ele></trkpt>
   <trkpt lon="11.149677" lat="47.520950"><ele>1402.75</ele></trkpt>
   <trkpt lon="11.149650" lat="47.520931"><ele>1401.5</ele></trkpt>
   <trkpt lon="11.149603" lat="47.520956"><ele>1403.25</ele></trkpt>
   <trkpt lon="11.149487" lat="47.520845"><ele>1393.5</ele></trkpt>
   <trkpt lon="11.149521" lat="47.520809"><ele>1391.0</ele></trkpt>
   <trkpt lon="11.149467" lat="47.520764"><ele>1387.0</ele></trkpt>
   <trkpt lon="11.149405" lat="47.520698"><ele>1382.0</ele></trkpt>
   <trkpt lon="11.149367" lat="47.520722"><ele>1384.0</ele></trkpt>
   <trkpt lon="11.148866" lat="47.520545"><ele>1371.75</ele></trkpt>
   <trkpt lon="11.148653" lat="47.520454"><ele>1363.25</ele></trkpt>
   <trkpt lon="11.148542" lat="47.520485"><ele>1363.75</ele></trkpt>
   <trkpt lon="11.148373" lat="47.520501"><ele>1362.75</ele></trkpt>
   <trkpt lon="11.148265" lat="47.520551"><ele>1365.0</ele></trkpt>
   <trkpt lon="11.148206" lat="47.520558"><ele>1365.25</ele></trkpt>
   <trkpt lon="11.148099" lat="47.520560"><ele>1364.5</ele></trkpt>
   <trkpt lon="11.148016" lat="47.520593"><ele>1366.75</ele></trkpt>
   <trkpt lon="11.147909" lat="47.520556"><ele>1363.5</ele></trkpt>
   <trkpt lon="11.147777" lat="47.520545"><ele>1362.0</ele></trkpt>
   <trkpt lon="11.147626" lat="47.520487"><ele>1358.25</ele></trkpt>
   <trkpt lon="11.147654" lat="47.520235"><ele>1340.0</ele></trkpt>
   <trkpt lon="11.147619" lat="47.520220"><ele>1339.0</ele></trkpt>
   <trkpt lon="11.147481" lat="47.520193"><ele>1337.0</ele></trkpt>
   <trkpt lon="11.147395" lat="47.520200"><ele>1337.75</ele></trkpt>
   <trkpt lon="11.147338" lat="47.520084"><ele>1329.75</ele></trkpt>
   <trkpt lon="11.147133" lat="47.520098"><ele>1330.0</ele></trkpt>
   <trkpt lon="11.146912" lat="47.520121"><ele>1329.75</ele></trkpt>
   <trkpt lon="11.146791" lat="47.520035"><ele>1322.25</ele></trkpt>
   <trkpt lon="11.146780" lat="47.519979"><ele>1318.25</ele></trkpt>
   <trkpt lon="11.146938" lat="47.519937"><ele>1316.75</ele></trkpt>
   <trkpt lon="11.146951" lat="47.519891"><ele>1313.75</ele></trkpt>
   <trkpt lon="11.146764" lat="47.519934"><ele>1315.25</ele></trkpt>
   <trkpt lon="11.146644" lat="47.519894"><ele>1311.75</ele></trkpt>
   <trkpt lon="11.146604" lat="47.519904"><ele>1311.75</ele></trkpt>
   <trkpt lon="11.146596" lat="47.519868"><ele>1309.25</ele></trkpt>
   <trkpt lon="11.146663" lat="47.519753"><ele>1302.75</ele></trkpt>
   <trkpt lon="11.146595" lat="47.519780"><ele>1303.5</ele></trkpt>
   <trkpt lon="11.146704" lat="47.519630"><ele>1297.25</ele></trkpt>
   <trkpt lon="11.146631" lat="47.519602"><ele>1295.0</ele></trkpt>
   <trkpt lon="11.146542" lat="47.519581"><ele>1292.5</ele></trkpt>
   <trkpt lon="11.146490" lat="47.519489"><ele>1287.5</ele></trkpt>
   <trkpt lon="11.146480" lat="47.519424"><ele>1285.0</ele></trkpt>
   <trkpt lon="11.146495" lat="47.519365"><ele>1283.5</ele></trkpt>
   <trkpt lon="11.146431" lat="47.519183"><ele>1278.25</ele></trkpt>
   <trkpt lon="11.146454" lat="47.519161"><ele>1277.75</ele></trkpt>
   <trkpt lon="11.146469" lat="47.518973"><ele>1277.75</ele></trkpt>
   <trkpt lon="11.146163" lat="47.519014"><ele>1277.5</ele></trkpt>
   <trkpt lon="11.145811" lat="47.519039"><ele>1276.5</ele></trkpt>
   <trkpt lon="11.145205" lat="47.519012"><ele>1278.0</ele></trkpt>
   <trkpt lon="11.145044" lat="47.519043"><ele>1279.5</ele></trkpt>
   <trkpt lon="11.144965" lat="47.519138"><ele>1278.75</ele></trkpt>
   <trkpt lon="11.144847" lat="47.519303"><ele>1278.5</ele></trkpt>
   <trkpt lon="11.144592" lat="47.519494"><ele>1281.25</ele></trkpt>
   <trkpt lon="11.144313" lat="47.519680"><ele>1281.0</ele></trkpt>
   <trkpt lon="11.144048" lat="47.519779"><ele>1280.75</ele></trkpt>
   <trkpt lon="11.143132" lat="47.519955"><ele>1278.0</ele></trkpt>
   <trkpt lon="11.142615" lat="47.520131"><ele>1273.75</ele></trkpt>
   <trkpt lon="11.142207" lat="47.520135"><ele>1270.0</ele></trkpt>
   <trkpt lon="11.141437" lat="47.520256"><ele>1265.5</ele></trkpt>
   <trkpt lon="11.141027" lat="47.520388"><ele>1260.5</ele></trkpt>
   <trkpt lon="11.140386" lat="47.520526"><ele>1256.0</ele></trkpt>
   <trkpt lon="11.139798" lat="47.520700"><ele>1252.0</ele></trkpt>
   <trkpt lon="11.139003" lat="47.520927"><ele>1247.25</ele></trkpt>
   <trkpt lon="11.138556" lat="47.520933"><ele>1247.0</ele></trkpt>
   <trkpt lon="11.138271" lat="47.520960"><ele>1246.0</ele></trkpt>
   <trkpt lon="11.137796" lat="47.521069"><ele>1242.75</ele></trkpt>
   <trkpt lon="11.137328" lat="47.521175"><ele>1235.25</ele></trkpt>
   <trkpt lon="11.136964" lat="47.521213"><ele>1229.75</ele></trkpt>
   <trkpt lon="11.136557" lat="47.521200"><ele>1221.5</ele></trkpt>
   <trkpt lon="11.136282" lat="47.521144"><ele>1216.0</ele></trkpt>
   <trkpt lon="11.136062" lat="47.521110"><ele>1213.25</ele></trkpt>
   <trkpt lon="11.135466" lat="47.521218"><ele>1201.25</ele></trkpt>
   <trkpt lon="11.134673" lat="47.521094"><ele>1191.5</ele></trkpt>
   <trkpt lon="11.133563" lat="47.520898"><ele>1178.5</ele></trkpt>
   <trkpt lon="11.133208" lat="47.520923"><ele>1173.25</ele></trkpt>
   <trkpt lon="11.132437" lat="47.520929"><ele>1162.75</ele></trkpt>
   <trkpt lon="11.131775" lat="47.520820"><ele>1154.0</ele></trkpt>
   <trkpt lon="11.131629" lat="47.520783"><ele>1151.5</ele></trkpt>
   <trkpt lon="11.131278" lat="47.520609"><ele>1144.25</ele></trkpt>
   <trkpt lon="11.131103" lat="47.520464"><ele>1139.5</ele></trkpt>
   <trkpt lon="11.131082" lat="47.520406"><ele>1138.0</ele></trkpt>
   <trkpt lon="11.131013" lat="47.520375"><ele>1135.0</ele></trkpt>
   <trkpt lon="11.130909" lat="47.520406"><ele>1131.25</ele></trkpt>
   <trkpt lon="11.130794" lat="47.520774"><ele>1127.25</ele></trkpt>
   <trkpt lon="11.130745" lat="47.520837"><ele>1125.75</ele></trkpt>
   <trkpt lon="11.130665" lat="47.520810"><ele>1123.5</ele></trkpt>
   <trkpt lon="11.130429" lat="47.520579"><ele>1114.0</ele></trkpt>
   <trkpt lon="11.130373" lat="47.520456"><ele>1109.75</ele></trkpt>
   <trkpt lon="11.130350" lat="47.520343"><ele>1106.5</ele></trkpt>
   <trkpt lon="11.130405" lat="47.520036"><ele>1100.0</ele></trkpt>
   <trkpt lon="11.130362" lat="47.519823"><ele>1096.25</ele></trkpt>
   <trkpt lon="11.130242" lat="47.519543"><ele>1088.25</ele></trkpt>
   <trkpt lon="11.130111" lat="47.519156"><ele>1082.5</ele></trkpt>
   <trkpt lon="11.130018" lat="47.519028"><ele>1079.0</ele></trkpt>
   <trkpt lon="11.129725" lat="47.518773"><ele>1073.75</ele></trkpt>
   <trkpt lon="11.129582" lat="47.518606"><ele>1070.25</ele></trkpt>
   <trkpt lon="11.129509" lat="47.518472"><ele>1068.0</ele></trkpt>
   <trkpt lon="11.129423" lat="47.518239"><ele>1066.0</ele></trkpt>
   <trkpt lon="11.129340" lat="47.518125"><ele>1063.5</ele></trkpt>
   <trkpt lon="11.129319" lat="47.518026"><ele>1063.5</ele></trkpt>
   <trkpt lon="11.129358" lat="47.517794"><ele>1064.25</ele></trkpt>
   <trkpt lon="11.129243" lat="47.517684"><ele>1066.5</ele></trkpt>
   <trkpt lon="11.128853" lat="47.517565"><ele>1063.75</ele></trkpt>
   <trkpt lon="11.128518" lat="47.517440"><ele>1059.75</ele></trkpt>
   <trkpt lon="11.128098" lat="47.517094"><ele>1057.0</ele></trkpt>
   <trkpt lon="11.127447" lat="47.516841"><ele>1052.5</ele></trkpt>
   <trkpt lon="11.127053" lat="47.516620"><ele>1048.75</ele></trkpt>
   <trkpt lon="11.126931" lat="47.516332"><ele>1052.25</ele></trkpt>
   <trkpt lon="11.126899" lat="47.516300"><ele>1053.25</ele></trkpt>
   <trkpt lon="11.126866" lat="47.516271"><ele>1054.0</ele></trkpt>
   <trkpt lon="11.126796" lat="47.516254"><ele>1052.5</ele></trkpt>
   <trkpt lon="11.126501" lat="47.516266"><ele>1041.75</ele></trkpt>
   <trkpt lon="11.126280" lat="47.516195"><ele>1042.0</ele></trkpt>
   <trkpt lon="11.125851" lat="47.515966"><ele>1042.75</ele></trkpt>
   <trkpt lon="11.124963" lat="47.515803"><ele>1037.0</ele></trkpt>
   <trkpt lon="11.124900" lat="47.515746"><ele>1037.75</ele></trkpt>
   <trkpt lon="11.124463" lat="47.515484"><ele>1035.5</ele></trkpt>
   <trkpt lon="11.124120" lat="47.515147"><ele>1031.75</ele></trkpt>
   <trkpt lon="11.123915" lat="47.514785"><ele>1027.5</ele></trkpt>
   <trkpt lon="11.123735" lat="47.514555"><ele>1026.75</ele></trkpt>
   <trkpt lon="11.123623" lat="47.514469"><ele>1026.25</ele></trkpt>
   <trkpt lon="11.123367" lat="47.514382"><ele>1022.75</ele></trkpt>
   <trkpt lon="11.123031" lat="47.514281"><ele>1017.75</ele></trkpt>
   <trkpt lon="11.122572" lat="47.514064"><ele>1013.0</ele></trkpt>
   <trkpt lon="11.122364" lat="47.513913"><ele>1009.25</ele></trkpt>
   <trkpt lon="11.122196" lat="47.513778"><ele>1004.25</ele></trkpt>
   <trkpt lon="11.122111" lat="47.513476"><ele>999.5</ele></trkpt>
   <trkpt lon="11.121939" lat="47.513096"><ele>994.25</ele></trkpt>
   <trkpt lon="11.121710" lat="47.512732"><ele>989.0</ele></trkpt>
   <trkpt lon="11.121438" lat="47.512470"><ele>984.25</ele></trkpt>
   <trkpt lon="11.121255" lat="47.512232"><ele>979.5</ele></trkpt>
   <trkpt lon="11.120892" lat="47.511623"><ele>971.75</ele></trkpt>
   <trkpt lon="11.120728" lat="47.511334"><ele>969.25</ele></trkpt>
   <trkpt lon="11.120417" lat="47.510933"><ele>963.25</ele></trkpt>
   <trkpt lon="11.120299" lat="47.510754"><ele>962.5</ele></trkpt>
   <trkpt lon="11.120250" lat="47.510680"><ele>962.0</ele></trkpt>
   <trkpt lon="11.120223" lat="47.510642"><ele>961.75</ele></trkpt>
   <trkpt lon="11.120103" lat="47.510538"><ele>958.5</ele></trkpt>
   <trkpt lon="11.120051" lat="47.510449"><ele>956.0</ele></trkpt>
   <trkpt lon="11.120057" lat="47.510337"><ele>955.25</ele></trkpt>
   <trkpt lon="11.120027" lat="47.510178"><ele>953.25</ele></trkpt>
   <trkpt lon="11.119968" lat="47.509998"><ele>949.25</ele></trkpt>
   <trkpt lon="11.119742" lat="47.509498"><ele>938.5</ele></trkpt>
   <trkpt lon="11.119649" lat="47.509350"><ele>935.0</ele></trkpt>
   <trkpt lon="11.119463" lat="47.509171"><ele>929.5</ele></trkpt>
   <trkpt lon="11.119312" lat="47.509096"><ele>926.5</ele></trkpt>
   <trkpt lon="11.118908" lat="47.508972"><ele>919.5</ele></trkpt>
   <trkpt lon="11.118716" lat="47.508801"><ele>913.75</ele></trkpt>
   <trkpt lon="11.118473" lat="47.508398"><ele>904.0</ele></trkpt>
   <trkpt lon="11.118360" lat="47.508280"><ele>900.25</ele></trkpt>
   <trkpt lon="11.118133" lat="47.508167"><ele>895.25</ele></trkpt>
   <trkpt lon="11.117926" lat="47.508042"><ele>893.0</ele></trkpt>
   <trkpt lon="11.117634" lat="47.507915"><ele>887.25</ele></trkpt>
   <trkpt lon="11.117462" lat="47.507806"><ele>884.5</ele></trkpt>
   <trkpt lon="11.117403" lat="47.507680"><ele>882.5</ele></trkpt>
   <trkpt lon="11.117335" lat="47.507376"><ele>879.5</ele></trkpt>
   <trkpt lon="11.117278" lat="47.507226"><ele>877.75</ele></trkpt>
   <trkpt lon="11.117213" lat="47.507127"><ele>877.25</ele></trkpt>
   <trkpt lon="11.117098" lat="47.507045"><ele>876.5</ele></trkpt>
   <trkpt lon="11.116845" lat="47.506938"><ele>874.0</ele></trkpt>
   <trkpt lon="11.116676" lat="47.506906"><ele>871.25</ele></trkpt>
   <trkpt lon="11.116588" lat="47.506839"><ele>869.5</ele></trkpt>
   <trkpt lon="11.116515" lat="47.506759"><ele>868.5</ele></trkpt>
   <trkpt lon="11.116407" lat="47.506687"><ele>867.0</ele></trkpt>
   <trkpt lon="11.116175" lat="47.506636"><ele>865.0</ele></trkpt>
   <trkpt lon="11.115875" lat="47.506511"><ele>861.0</ele></trkpt>
   <trkpt lon="11.115603" lat="47.506234"><ele>857.75</ele></trkpt>
   <trkpt lon="11.115522" lat="47.506112"><ele>857.25</ele></trkpt>
   <trkpt lon="11.115201" lat="47.505293"><ele>852.5</ele></trkpt>
   <trkpt lon="11.115129" lat="47.505160"><ele>852.75</ele></trkpt>
   <trkpt lon="11.115060" lat="47.505062"><ele>852.75</ele></trkpt>
   <trkpt lon="11.114857" lat="47.504845"><ele>852.25</ele></trkpt>
   <trkpt lon="11.114575" lat="47.504622"><ele>848.75</ele></trkpt>
   <trkpt lon="11.114526" lat="47.504555"><ele>848.0</ele></trkpt>
   <trkpt lon="11.114383" lat="47.504283"><ele>845.25</ele></trkpt>
   <trkpt lon="11.114317" lat="47.504201"><ele>844.5</ele></trkpt>
   <trkpt lon="11.114141" lat="47.504070"><ele>843.0</ele></trkpt>
   <trkpt lon="11.113903" lat="47.503823"><ele>838.0</ele></trkpt>
   <trkpt lon="11.113743" lat="47.503714"><ele>835.5</ele></trkpt>
   <trkpt lon="11.113597" lat="47.503642"><ele>833.25</ele></trkpt>
   <trkpt lon="11.113466" lat="47.503592"><ele>832.25</ele></trkpt>
   <trkpt lon="11.113334" lat="47.503531"><ele>832.0</ele></trkpt>
   <trkpt lon="11.112720" lat="47.503193"><ele>826.75</ele></trkpt>
   <trkpt lon="11.112473" lat="47.503009"><ele>825.75</ele></trkpt>
   <trkpt lon="11.112096" lat="47.502796"><ele>822.25</ele></trkpt>
   <trkpt lon="11.111941" lat="47.502645"><ele>820.25</ele></trkpt>
   <trkpt lon="11.111713" lat="47.502392"><ele>817.75</ele></trkpt>
   <trkpt lon="11.111676" lat="47.502344"><ele>817.0</ele></trkpt>
   <trkpt lon="11.111532" lat="47.502159"><ele>816.0</ele></trkpt>
   <trkpt lon="11.111327" lat="47.501856"><ele>813.0</ele></trkpt>
   <trkpt lon="11.111277" lat="47.501835"><ele>812.5</ele></trkpt>
   <trkpt lon="11.111189" lat="47.501826"><ele>811.75</ele></trkpt>
   <trkpt lon="11.111191" lat="47.501715"><ele>811.0</ele></trkpt>
   <trkpt lon="11.111116" lat="47.501520"><ele>808.25</ele></trkpt>
   <trkpt lon="11.111084" lat="47.501442"><ele>807.0</ele></trkpt>
   <trkpt lon="11.111070" lat="47.501346"><ele>805.5</ele></trkpt>
   <trkpt lon="11.111039" lat="47.501265"><ele>803.75</ele></trkpt>
   <trkpt lon="11.111029" lat="47.501134"><ele>801.75</ele></trkpt>
   <trkpt lon="11.111023" lat="47.500930"><ele>797.75</ele></trkpt>
   <trkpt lon="11.111030" lat="47.500873"><ele>796.75</ele></trkpt>
   <trkpt lon="11.111069" lat="47.500786"><ele>795.25</ele></trkpt>
   <trkpt lon="11.111089" lat="47.500640"><ele>793.25</ele></trkpt>
   <trkpt lon="11.111108" lat="47.500567"><ele>792.0</ele></trkpt>
   <trkpt lon="11.111229" lat="47.500362"><ele>789.5</ele></trkpt>
   <trkpt lon="11.111246" lat="47.500303"><ele>788.75</ele></trkpt>
   <trkpt lon="11.111216" lat="47.500229"><ele>788.0</ele></trkpt>
   <trkpt lon="11.111077" lat="47.500079"><ele>786.5</ele></trkpt>
   <trkpt lon="11.111009" lat="47.500020"><ele>786.5</ele></trkpt>
   <trkpt lon="11.110954" lat="47.499985"><ele>786.25</ele></trkpt>
   <trkpt lon="11.110882" lat="47.499927"><ele>785.75</ele></trkpt>
   <trkpt lon="11.110858" lat="47.499873"><ele>785.25</ele></trkpt>
   <trkpt lon="11.110856" lat="47.499812"><ele>784.75</ele></trkpt>
   <trkpt lon="11.110867" lat="47.499763"><ele>784.0</ele></trkpt>
   <trkpt lon="11.111037" lat="47.499658"><ele>781.5</ele></trkpt>
   <trkpt lon="11.111086" lat="47.499592"><ele>780.25</ele></trkpt>
   <trkpt lon="11.111148" lat="47.499427"><ele>777.75</ele></trkpt>
   <trkpt lon="11.111184" lat="47.499380"><ele>777.25</ele></trkpt>
   <trkpt lon="11.111197" lat="47.499343"><ele>776.75</ele></trkpt>
   <trkpt lon="11.111188" lat="47.499255"><ele>775.25</ele></trkpt>
   <trkpt lon="11.111193" lat="47.499187"><ele>774.0</ele></trkpt>
   <trkpt lon="11.111237" lat="47.499106"><ele>773.0</ele></trkpt>
   <trkpt lon="11.111243" lat="47.499054"><ele>772.25</ele></trkpt>
   <trkpt lon="11.111251" lat="47.498820"><ele>768.0</ele></trkpt>
   <trkpt lon="11.111208" lat="47.498706"><ele>764.75</ele></trkpt>
   <trkpt lon="11.111184" lat="47.498647"><ele>763.5</ele></trkpt>
   <trkpt lon="11.111182" lat="47.498564"><ele>761.5</ele></trkpt>
   <trkpt lon="11.111217" lat="47.498386"><ele>758.25</ele></trkpt>
   <trkpt lon="11.111236" lat="47.498343"><ele>757.75</ele></trkpt>
   <trkpt lon="11.111257" lat="47.498298"><ele>756.75</ele></trkpt>
   <trkpt lon="11.111261" lat="47.498290"><ele>756.5</ele></trkpt>
   <trkpt lon="11.111295" lat="47.498225"><ele>754.5</ele></trkpt>
   <trkpt lon="11.111330" lat="47.498190"><ele>754.0</ele></trkpt>
   <trkpt lon="11.111453" lat="47.498077"><ele>751.5</ele></trkpt>
   <trkpt lon="11.111568" lat="47.498007"><ele>750.5</ele></trkpt>
   <trkpt lon="11.111781" lat="47.497662"><ele>742.25</ele></trkpt>
   <trkpt lon="11.111864" lat="47.497571"><ele>740.25</ele></trkpt>
   <trkpt lon="11.112015" lat="47.497462"><ele>738.25</ele></trkpt>
   <trkpt lon="11.112222" lat="47.497325"><ele>735.25</ele></trkpt>
   <trkpt lon="11.112296" lat="47.497276"><ele>734.75</ele></trkpt>
   <trkpt lon="11.112546" lat="47.497107"><ele>733.25</ele></trkpt>
   <trkpt lon="11.112717" lat="47.496958"><ele>730.75</ele></trkpt>
   <trkpt lon="11.112920" lat="47.496727"><ele>728.25</ele></trkpt>
   <trkpt lon="11.112939" lat="47.496683"><ele>726.75</ele></trkpt>
   <trkpt lon="11.112940" lat="47.496637"><ele>726.0</ele></trkpt>
   <trkpt lon="11.112909" lat="47.496617"><ele>725.25</ele></trkpt>
   <trkpt lon="11.112865" lat="47.496570"><ele>724.5</ele></trkpt>
   <trkpt lon="11.112711" lat="47.496413"><ele>722.75</ele></trkpt>
   <trkpt lon="11.112532" lat="47.496215"><ele>722.5</ele></trkpt>
   <trkpt lon="11.112317" lat="47.495998"><ele>722.25</ele></trkpt>
   <trkpt lon="11.112192" lat="47.495821"><ele>721.75</ele></trkpt>
   <trkpt lon="11.112065" lat="47.495630"><ele>721.25</ele></trkpt>
   <trkpt lon="11.111982" lat="47.495490"><ele>721.0</ele></trkpt>
   <trkpt lon="11.111959" lat="47.495405"><ele>721.0</ele></trkpt>
   <trkpt lon="11.112103" lat="47.495211"><ele>720.75</ele></trkpt>
   <trkpt lon="11.112023" lat="47.495169"><ele>720.5</ele></trkpt>
   <trkpt lon="11.111985" lat="47.495139"><ele>720.5</ele></trkpt>
   <trkpt lon="11.111802" lat="47.495044"><ele>719.5</ele></trkpt>
   <trkpt lon="11.111567" lat="47.494914"><ele>718.75</ele></trkpt>
   <trkpt lon="11.111436" lat="47.494841"><ele>718.5</ele></trkpt>
   <trkpt lon="11.111191" lat="47.494723"><ele>717.25</ele></trkpt>
   <trkpt lon="11.110951" lat="47.494678"><ele>716.75</ele></trkpt>
   <trkpt lon="11.110735" lat="47.494614"><ele>716.25</ele></trkpt>
   <trkpt lon="11.110642" lat="47.494598"><ele>715.75</ele></trkpt>
   <trkpt lon="11.110470" lat="47.494561"><ele>715.25</ele></trkpt>
   <trkpt lon="11.110292" lat="47.494496"><ele>715.0</ele></trkpt>
   <trkpt lon="11.110159" lat="47.494483"><ele>714.5</ele></trkpt>
   <trkpt lon="11.109655" lat="47.494786"><ele>712.75</ele></trkpt>
   <trkpt lon="11.109601" lat="47.494817"><ele>712.5</ele></trkpt>
   <trkpt lon="11.109403" lat="47.494937"><ele>712.0</ele></trkpt>
   <trkpt lon="11.109250" lat="47.495045"><ele>711.25</ele></trkpt>
   <trkpt lon="11.109042" lat="47.495195"><ele>710.5</ele></trkpt>
   <trkpt lon="11.108997" lat="47.495229"><ele>710.25</ele></trkpt>
   <trkpt lon="11.108959" lat="47.495268"><ele>710.25</ele></trkpt>
   <trkpt lon="11.108916" lat="47.495251"><ele>710.0</ele></trkpt>
   <trkpt lon="11.108830" lat="47.495215"><ele>709.75</ele></trkpt>
   <trkpt lon="11.108669" lat="47.495193"><ele>709.75</ele></trkpt>
   <trkpt lon="11.108506" lat="47.495180"><ele>709.25</ele></trkpt>
   <trkpt lon="11.108288" lat="47.495285"><ele>709.0</ele></trkpt>
   <trkpt lon="11.108059" lat="47.495340"><ele>709.0</ele></trkpt>
   <trkpt lon="11.107841" lat="47.495421"><ele>708.5</ele></trkpt>
   <trkpt lon="11.107656" lat="47.495491"><ele>708.25</ele></trkpt>
   <trkpt lon="11.107373" lat="47.495637"><ele>708.0</ele></trkpt>
   <trkpt lon="11.106496" lat="47.496001"><ele>706.25</ele></trkpt>
   <trkpt lon="11.106308" lat="47.496080"><ele>706.0</ele></trkpt>
   <trkpt lon="11.105294" lat="47.496547"><ele>704.25</ele></trkpt>
   <trkpt lon="11.104859" lat="47.496683"><ele>704.0</ele></trkpt>
   <trkpt lon="11.104663" lat="47.496749"><ele>703.75</ele></trkpt>
   <trkpt lon="11.104049" lat="47.496945"><ele>703.5</ele></trkpt>
   <trkpt lon="11.103795" lat="47.496965"><ele>703.0</ele></trkpt>
   <trkpt lon="11.103514" lat="47.496926"><ele>702.75</ele></trkpt>
   <trkpt lon="11.103263" lat="47.496914"><ele>702.75</ele></trkpt>
   <trkpt lon="11.103014" lat="47.496945"><ele>702.75</ele></trkpt>
   <trkpt lon="11.102969" lat="47.496954"><ele>702.5</ele></trkpt>
   <trkpt lon="11.102830" lat="47.496985"><ele>702.0</ele></trkpt>
   <trkpt lon="11.102386" lat="47.497102"><ele>702.0</ele></trkpt>
   <trkpt lon="11.101986" lat="47.497210"><ele>702.0</ele></trkpt>
   <trkpt lon="11.101788" lat="47.497488"><ele>701.25</ele></trkpt>
   <trkpt lon="11.101573" lat="47.497839"><ele>701.0</ele></trkpt>
   <trkpt lon="11.101353" lat="47.498262"><ele>700.25</ele></trkpt>
   <trkpt lon="11.101268" lat="47.498485"><ele>700.0</ele></trkpt>
   <trkpt lon="11.101207" lat="47.498742"><ele>700.0</ele></trkpt>
   <trkpt lon="11.101181" lat="47.498900"><ele>699.75</ele></trkpt>
   <trkpt lon="11.101182" lat="47.499066"><ele>699.25</ele></trkpt>
   <trkpt lon="11.101194" lat="47.499173"><ele>699.0</ele></trkpt>
   <trkpt lon="11.101245" lat="47.499417"><ele>699.0</ele></trkpt>
   <trkpt lon="11.101230" lat="47.499472"><ele>699.0</ele></trkpt>
   <trkpt lon="11.101331" lat="47.499731"><ele>698.75</ele></trkpt>
   <trkpt lon="11.101487" lat="47.500091"><ele>698.75</ele></trkpt>
   <trkpt lon="11.101385" lat="47.500128"><ele>698.75</ele></trkpt>
   <trkpt lon="11.101262" lat="47.500155"><ele>698.75</ele></trkpt>
   <trkpt lon="11.101208" lat="47.500169"><ele>698.5</ele></trkpt>
   <trkpt lon="11.100812" lat="47.500236"><ele>698.0</ele></trkpt>
   <trkpt lon="11.100714" lat="47.500271"><ele>698.0</ele></trkpt>
   <trkpt lon="11.100688" lat="47.500280"><ele>698.0</ele></trkpt>
   <trkpt lon="11.100475" lat="47.500350"><ele>698.0</ele></trkpt>
   <trkpt lon="11.100416" lat="47.500283"><ele>698.0</ele></trkpt>
   <trkpt lon="11.100328" lat="47.500170"><ele>698.0</ele></trkpt>
   <trkpt lon="11.100196" lat="47.500055"><ele>697.75</ele></trkpt>
  </trkseg>
 </trk>
</gpx>
