<?xml version="1.0" encoding="UTF-8"?>
<gpx version="1.1" creator="BRouter paired review" xmlns="http://www.topografix.com/GPX/1/1">
<trk><name>Route B</name><trkseg>
<trkpt lat="47.500055" lon="11.100196"><ele>697.75</ele></trkpt>
<trkpt lat="47.500170" lon="11.100328"><ele>698.0</ele></trkpt>
<trkpt lat="47.500283" lon="11.100416"><ele>698.0</ele></trkpt>
<trkpt lat="47.500350" lon="11.100475"><ele>698.0</ele></trkpt>
<trkpt lat="47.500280" lon="11.100688"><ele>698.0</ele></trkpt>
<trkpt lat="47.500271" lon="11.100714"><ele>698.0</ele></trkpt>
<trkpt lat="47.500236" lon="11.100812"><ele>698.0</ele></trkpt>
<trkpt lat="47.500169" lon="11.101208"><ele>698.5</ele></trkpt>
<trkpt lat="47.500155" lon="11.101262"><ele>698.75</ele></trkpt>
<trkpt lat="47.500128" lon="11.101385"><ele>698.75</ele></trkpt>
<trkpt lat="47.500091" lon="11.101487"><ele>698.75</ele></trkpt>
<trkpt lat="47.500568" lon="11.101702"><ele>698.0</ele></trkpt>
<trkpt lat="47.500931" lon="11.101865"><ele>698.0</ele></trkpt>
<trkpt lat="47.501916" lon="11.102309"><ele>697.0</ele></trkpt>
<trkpt lat="47.502086" lon="11.102389"><ele>697.0</ele></trkpt>
<trkpt lat="47.502284" lon="11.102479"><ele>696.75</ele></trkpt>
<trkpt lat="47.502453" lon="11.102543"><ele>697.0</ele></trkpt>
<trkpt lat="47.502856" lon="11.102698"><ele>697.0</ele></trkpt>
<trkpt lat="47.503317" lon="11.102861"><ele>697.25</ele></trkpt>
<trkpt lat="47.503561" lon="11.102949"><ele>697.25</ele></trkpt>
<trkpt lat="47.504168" lon="11.103148"><ele>696.75</ele></trkpt>
<trkpt lat="47.504242" lon="11.103173"><ele>696.5</ele></trkpt>
<trkpt lat="47.504469" lon="11.103243"><ele>696.0</ele></trkpt>
<trkpt lat="47.504657" lon="11.103311"><ele>696.0</ele></trkpt>
<trkpt lat="47.505090" lon="11.103486"><ele>695.25</ele></trkpt>
<trkpt lat="47.505522" lon="11.103675"><ele>694.0</ele></trkpt>
<trkpt lat="47.505693" lon="11.103756"><ele>694.0</ele></trkpt>
<trkpt lat="47.505912" lon="11.103872"><ele>693.5</ele></trkpt>
<trkpt lat="47.506190" lon="11.104027"><ele>692.75</ele></trkpt>
<trkpt lat="47.506549" lon="11.104246"><ele>692.25</ele></trkpt>
<trkpt lat="47.507159" lon="11.104663"><ele>691.0</ele></trkpt>
<trkpt lat="47.507739" lon="11.105099"><ele>690.0</ele></trkpt>
<trkpt lat="47.507836" lon="11.105180"><ele>689.75</ele></trkpt>
<trkpt lat="47.508230" lon="11.105509"><ele>689.25</ele></trkpt>
<trkpt lat="47.508598" lon="11.105843"><ele>688.0</ele></trkpt>
<trkpt lat="47.508681" lon="11.105923"><ele>687.5</ele></trkpt>
<trkpt lat="47.508735" lon="11.105973"><ele>687.5</ele></trkpt>
<trkpt lat="47.508773" lon="11.106007"><ele>687.25</ele></trkpt>
<trkpt lat="47.508858" lon="11.106086"><ele>687.0</ele></trkpt>
<trkpt lat="47.509010" lon="11.106227"><ele>687.0</ele></trkpt>
<trkpt lat="47.509325" lon="11.106497"><ele>686.25</ele></trkpt>
<trkpt lat="47.509602" lon="11.106733"><ele>685.25</ele></trkpt>
<trkpt lat="47.509846" lon="11.106941"><ele>685.0</ele></trkpt>
<trkpt lat="47.510170" lon="11.107195"><ele>685.0</ele></trkpt>
<trkpt lat="47.510575" lon="11.107451"><ele>683.75</ele></trkpt>
<trkpt lat="47.510707" lon="11.107520"><ele>683.75</ele></trkpt>
<trkpt lat="47.510751" lon="11.107542"><ele>683.75</ele></trkpt>
<trkpt lat="47.510810" lon="11.107569"><ele>683.75</ele></trkpt>
<trkpt lat="47.511110" lon="11.107726"><ele>683.75</ele></trkpt>
<trkpt lat="47.511390" lon="11.107809"><ele>683.75</ele></trkpt>
<trkpt lat="47.511611" lon="11.107852"><ele>683.5</ele></trkpt>
<trkpt lat="47.511924" lon="11.107882"><ele>682.0</ele></trkpt>
<trkpt lat="47.512101" lon="11.107911"><ele>681.75</ele></trkpt>
<trkpt lat="47.512205" lon="11.107962"><ele>681.75</ele></trkpt>
<trkpt lat="47.512264" lon="11.107972"><ele>681.75</ele></trkpt>
<trkpt lat="47.512369" lon="11.108039"><ele>681.75</ele></trkpt>
<trkpt lat="47.512484" lon="11.108169"><ele>681.75</ele></trkpt>
<trkpt lat="47.512521" lon="11.108228"><ele>681.75</ele></trkpt>
<trkpt lat="47.512538" lon="11.108277"><ele>681.75</ele></trkpt>
<trkpt lat="47.512612" lon="11.108388"><ele>681.25</ele></trkpt>
<trkpt lat="47.512667" lon="11.108422"><ele>681.25</ele></trkpt>
<trkpt lat="47.512974" lon="11.108516"><ele>681.0</ele></trkpt>
<trkpt lat="47.513283" lon="11.108676"><ele>681.0</ele></trkpt>
<trkpt lat="47.513732" lon="11.108989"><ele>681.25</ele></trkpt>
<trkpt lat="47.514094" lon="11.109219"><ele>682.5</ele></trkpt>
<trkpt lat="47.514393" lon="11.109352"><ele>682.5</ele></trkpt>
<trkpt lat="47.514611" lon="11.109420"><ele>684.0</ele></trkpt>
<trkpt lat="47.514992" lon="11.109505"><ele>684.0</ele></trkpt>
<trkpt lat="47.515360" lon="11.109565"><ele>681.5</ele></trkpt>
<trkpt lat="47.515905" lon="11.109658"><ele>681.75</ele></trkpt>
<trkpt lat="47.516529" lon="11.109768"><ele>681.0</ele></trkpt>
<trkpt lat="47.516711" lon="11.109802"><ele>679.75</ele></trkpt>
<trkpt lat="47.517125" lon="11.109876"><ele>678.0</ele></trkpt>
<trkpt lat="47.517551" lon="11.109918"><ele>679.75</ele></trkpt>
<trkpt lat="47.518146" lon="11.109927"><ele>678.25</ele></trkpt>
<trkpt lat="47.518229" lon="11.109925"><ele>678.25</ele></trkpt>
<trkpt lat="47.518372" lon="11.109908"><ele>677.75</ele></trkpt>
<trkpt lat="47.519129" lon="11.109692"><ele>676.25</ele></trkpt>
<trkpt lat="47.519442" lon="11.109573"><ele>677.25</ele></trkpt>
<trkpt lat="47.519858" lon="11.109407"><ele>676.0</ele></trkpt>
<trkpt lat="47.520001" lon="11.109359"><ele>676.0</ele></trkpt>
<trkpt lat="47.520357" lon="11.109279"><ele>675.75</ele></trkpt>
<trkpt lat="47.520660" lon="11.109231"><ele>675.75</ele></trkpt>
<trkpt lat="47.520955" lon="11.109210"><ele>675.75</ele></trkpt>
<trkpt lat="47.521338" lon="11.109211"><ele>675.75</ele></trkpt>
<trkpt lat="47.521746" lon="11.109235"><ele>675.75</ele></trkpt>
<trkpt lat="47.522181" lon="11.109306"><ele>676.25</ele></trkpt>
<trkpt lat="47.522829" lon="11.109501"><ele>675.75</ele></trkpt>
<trkpt lat="47.524865" lon="11.110151"><ele>674.0</ele></trkpt>
<trkpt lat="47.525170" lon="11.110248"><ele>674.0</ele></trkpt>
<trkpt lat="47.525954" lon="11.110498"><ele>673.25</ele></trkpt>
<trkpt lat="47.526215" lon="11.110578"><ele>673.0</ele></trkpt>
<trkpt lat="47.526333" lon="11.110614"><ele>673.0</ele></trkpt>
<trkpt lat="47.526459" lon="11.110655"><ele>672.75</ele></trkpt>
<trkpt lat="47.526571" lon="11.110693"><ele>673.0</ele></trkpt>
<trkpt lat="47.526794" lon="11.110748"><ele>672.5</ele></trkpt>
<trkpt lat="47.526968" lon="11.110777"><ele>672.0</ele></trkpt>
<trkpt lat="47.527604" lon="11.110970"><ele>671.75</ele></trkpt>
<trkpt lat="47.528745" lon="11.111342"><ele>670.75</ele></trkpt>
<trkpt lat="47.528890" lon="11.111396"><ele>670.75</ele></trkpt>
<trkpt lat="47.529431" lon="11.111603"><ele>670.0</ele></trkpt>
<trkpt lat="47.529504" lon="11.111639"><ele>670.0</ele></trkpt>
<trkpt lat="47.529609" lon="11.111685"><ele>670.0</ele></trkpt>
<trkpt lat="47.529803" lon="11.111796"><ele>670.0</ele></trkpt>
<trkpt lat="47.530181" lon="11.112056"><ele>670.0</ele></trkpt>
<trkpt lat="47.530247" lon="11.112099"><ele>670.0</ele></trkpt>
<trkpt lat="47.530287" lon="11.112133"><ele>670.0</ele></trkpt>
<trkpt lat="47.530522" lon="11.112312"><ele>669.5</ele></trkpt>
<trkpt lat="47.530613" lon="11.112380"><ele>669.5</ele></trkpt>
<trkpt lat="47.530711" lon="11.112455"><ele>669.5</ele></trkpt>
<trkpt lat="47.530920" lon="11.112607"><ele>670.0</ele></trkpt>
<trkpt lat="47.531079" lon="11.112694"><ele>670.0</ele></trkpt>
<trkpt lat="47.531252" lon="11.112773"><ele>669.5</ele></trkpt>
<trkpt lat="47.531393" lon="11.112794"><ele>669.0</ele></trkpt>
<trkpt lat="47.531879" lon="11.112765"><ele>669.0</ele></trkpt>
<trkpt lat="47.532040" lon="11.112756"><ele>669.0</ele></trkpt>
<trkpt lat="47.532217" lon="11.112742"><ele>669.0</ele></trkpt>
<trkpt lat="47.532863" lon="11.112680"><ele>669.0</ele></trkpt>
<trkpt lat="47.533071" lon="11.112657"><ele>668.75</ele></trkpt>
<trkpt lat="47.533533" lon="11.112705"><ele>668.75</ele></trkpt>
<trkpt lat="47.533820" lon="11.112793"><ele>668.75</ele></trkpt>
<trkpt lat="47.534231" lon="11.113032"><ele>667.75</ele></trkpt>
<trkpt lat="47.534371" lon="11.113133"><ele>667.75</ele></trkpt>
<trkpt lat="47.534640" lon="11.113400"><ele>668.0</ele></trkpt>
<trkpt lat="47.534827" lon="11.113607"><ele>667.75</ele></trkpt>
<trkpt lat="47.535051" lon="11.113829"><ele>667.75</ele></trkpt>
<trkpt lat="47.535618" lon="11.114365"><ele>667.25</ele></trkpt>
<trkpt lat="47.535742" lon="11.114480"><ele>667.5</ele></trkpt>
<trkpt lat="47.536016" lon="11.114748"><ele>667.5</ele></trkpt>
<trkpt lat="47.536584" lon="11.115302"><ele>666.75</ele></trkpt>
<trkpt lat="47.536783" lon="11.115497"><ele>666.75</ele></trkpt>
<trkpt lat="47.536872" lon="11.115582"><ele>666.75</ele></trkpt>
<trkpt lat="47.538433" lon="11.117086"><ele>666.25</ele></trkpt>
<trkpt lat="47.538926" lon="11.117445"><ele>665.75</ele></trkpt>
<trkpt lat="47.539364" lon="11.117690"><ele>666.0</ele></trkpt>
<trkpt lat="47.539546" lon="11.117768"><ele>665.5</ele></trkpt>
<trkpt lat="47.540108" lon="11.117954"><ele>664.75</ele></trkpt>
<trkpt lat="47.540429" lon="11.118033"><ele>664.75</ele></trkpt>
<trkpt lat="47.540736" lon="11.118119"><ele>664.75</ele></trkpt>
<trkpt lat="47.540817" lon="11.118154"><ele>664.5</ele></trkpt>
<trkpt lat="47.540864" lon="11.118173"><ele>664.5</ele></trkpt>
<trkpt lat="47.541017" lon="11.118253"><ele>664.0</ele></trkpt>
<trkpt lat="47.541165" lon="11.118358"><ele>664.0</ele></trkpt>
<trkpt lat="47.541271" lon="11.118455"><ele>664.0</ele></trkpt>
<trkpt lat="47.541488" lon="11.118687"><ele>663.5</ele></trkpt>
<trkpt lat="47.541725" lon="11.119045"><ele>663.75</ele></trkpt>
<trkpt lat="47.541944" lon="11.119408"><ele>663.75</ele></trkpt>
<trkpt lat="47.542141" lon="11.119707"><ele>663.25</ele></trkpt>
<trkpt lat="47.542442" lon="11.120054"><ele>663.25</ele></trkpt>
<trkpt lat="47.542793" lon="11.120335"><ele>663.0</ele></trkpt>
<trkpt lat="47.545111" lon="11.121785"><ele>662.25</ele></trkpt>
<trkpt lat="47.545295" lon="11.121897"><ele>661.75</ele></trkpt>
<trkpt lat="47.545361" lon="11.121938"><ele>661.75</ele></trkpt>
<trkpt lat="47.545593" lon="11.122076"><ele>661.5</ele></trkpt>
<trkpt lat="47.545898" lon="11.122292"><ele>662.5</ele></trkpt>
<trkpt lat="47.546146" lon="11.122495"><ele>662.0</ele></trkpt>
<trkpt lat="47.546341" lon="11.122675"><ele>662.75</ele></trkpt>
<trkpt lat="47.546591" lon="11.122909"><ele>664.0</ele></trkpt>
<trkpt lat="47.546928" lon="11.123304"><ele>662.25</ele></trkpt>
<trkpt lat="47.547347" lon="11.123952"><ele>661.5</ele></trkpt>
<trkpt lat="47.547787" lon="11.124805"><ele>661.5</ele></trkpt>
<trkpt lat="47.548077" lon="11.125346"><ele>661.0</ele></trkpt>
<trkpt lat="47.548392" lon="11.125938"><ele>660.25</ele></trkpt>
<trkpt lat="47.548491" lon="11.126112"><ele>660.0</ele></trkpt>
<trkpt lat="47.548596" lon="11.126268"><ele>660.5</ele></trkpt>
<trkpt lat="47.548697" lon="11.126401"><ele>660.5</ele></trkpt>
<trkpt lat="47.548776" lon="11.126480"><ele>660.25</ele></trkpt>
<trkpt lat="47.548938" lon="11.126598"><ele>660.5</ele></trkpt>
<trkpt lat="47.549105" lon="11.126682"><ele>660.25</ele></trkpt>
<trkpt lat="47.549380" lon="11.126800"><ele>659.25</ele></trkpt>
<trkpt lat="47.549515" lon="11.126876"><ele>659.0</ele></trkpt>
<trkpt lat="47.549639" lon="11.126969"><ele>659.0</ele></trkpt>
<trkpt lat="47.549705" lon="11.127037"><ele>659.25</ele></trkpt>
<trkpt lat="47.549789" lon="11.127141"><ele>659.75</ele></trkpt>
<trkpt lat="47.549866" lon="11.127262"><ele>659.75</ele></trkpt>
<trkpt lat="47.549951" lon="11.127414"><ele>659.5</ele></trkpt>
<trkpt lat="47.550005" lon="11.127546"><ele>660.25</ele></trkpt>
<trkpt lat="47.550090" lon="11.127804"><ele>661.75</ele></trkpt>
<trkpt lat="47.550179" lon="11.128104"></trkpt>
<trkpt lat="47.550528" lon="11.129311"><ele>661.5</ele></trkpt>
<trkpt lat="47.550626" lon="11.129548"><ele>660.25</ele></trkpt>
<trkpt lat="47.550729" lon="11.129731"><ele>658.5</ele></trkpt>
<trkpt lat="47.550936" lon="11.130031"><ele>658.0</ele></trkpt>
<trkpt lat="47.551105" lon="11.130290"><ele>658.0</ele></trkpt>
<trkpt lat="47.551204" lon="11.130483"><ele>658.75</ele></trkpt>
<trkpt lat="47.551406" lon="11.130938"><ele>658.5</ele></trkpt>
<trkpt lat="47.551674" lon="11.131453"><ele>657.75</ele></trkpt>
<trkpt lat="47.551936" lon="11.131919"><ele>657.0</ele></trkpt>
<trkpt lat="47.552374" lon="11.132651"><ele>657.0</ele></trkpt>
<trkpt lat="47.552766" lon="11.133434"><ele>656.5</ele></trkpt>
<trkpt lat="47.553006" lon="11.133910"><ele>657.5</ele></trkpt>
<trkpt lat="47.553246" lon="11.134348"><ele>657.25</ele></trkpt>
<trkpt lat="47.553410" lon="11.134615"><ele>656.75</ele></trkpt>
<trkpt lat="47.553813" lon="11.135186"><ele>656.0</ele></trkpt>
<trkpt lat="47.554058" lon="11.135489"><ele>656.0</ele></trkpt>
<trkpt lat="47.554429" lon="11.135909"><ele>656.0</ele></trkpt>
<trkpt lat="47.554594" lon="11.136077"><ele>656.0</ele></trkpt>
<trkpt lat="47.554841" lon="11.136310"><ele>657.0</ele></trkpt>
<trkpt lat="47.555250" lon="11.136639"><ele>656.75</ele></trkpt>
<trkpt lat="47.555445" lon="11.136769"><ele>657.75</ele></trkpt>
<trkpt lat="47.555628" lon="11.136897"><ele>656.5</ele></trkpt>
<trkpt lat="47.555764" lon="11.136976"><ele>655.75</ele></trkpt>
<trkpt lat="47.555827" lon="11.137015"><ele>655.75</ele></trkpt>
<trkpt lat="47.556014" lon="11.137123"><ele>654.75</ele></trkpt>
<trkpt lat="47.555827" lon="11.137015"><ele>655.75</ele></trkpt>
<trkpt lat="47.556841" lon="11.137516"><ele>654.75</ele></trkpt>
<trkpt lat="47.557041" lon="11.137590"><ele>655.0</ele></trkpt>
<trkpt lat="47.557463" lon="11.137730"><ele>655.0</ele></trkpt>
<trkpt lat="47.557460" lon="11.137748"><ele>655.0</ele></trkpt>
<trkpt lat="47.557444" lon="11.137824"><ele>654.75</ele></trkpt>
<trkpt lat="47.557079" lon="11.138445"><ele>654.5</ele></trkpt>
<trkpt lat="47.556962" lon="11.139000"><ele>654.0</ele></trkpt>
<trkpt lat="47.557106" lon="11.139058"><ele>654.0</ele></trkpt>
<trkpt lat="47.557753" lon="11.139132"><ele>654.0</ele></trkpt>
<trkpt lat="47.557733" lon="11.139341"><ele>654.0</ele></trkpt>
<trkpt lat="47.557733" lon="11.139397"><ele>654.0</ele></trkpt>
<trkpt lat="47.557754" lon="11.139625"><ele>654.0</ele></trkpt>
<trkpt lat="47.556052" lon="11.139081"><ele>655.0</ele></trkpt>
<trkpt lat="47.556004" lon="11.138899"><ele>655.0</ele></trkpt>
<trkpt lat="47.556052" lon="11.139081"><ele>655.0</ele></trkpt>
<trkpt lat="47.555923" lon="11.139043"><ele>655.25</ele></trkpt>
<trkpt lat="47.555891" lon="11.139050"><ele>655.25</ele></trkpt>
<trkpt lat="47.555801" lon="11.139088"><ele>655.75</ele></trkpt>
<trkpt lat="47.555720" lon="11.139165"><ele>655.75</ele></trkpt>
<trkpt lat="47.555684" lon="11.139220"><ele>655.5</ele></trkpt>
<trkpt lat="47.555658" lon="11.139265"><ele>655.25</ele></trkpt>
<trkpt lat="47.555441" lon="11.139682"><ele>654.75</ele></trkpt>
<trkpt lat="47.555386" lon="11.139800"><ele>655.0</ele></trkpt>
<trkpt lat="47.554851" lon="11.139899"><ele>654.5</ele></trkpt>
<trkpt lat="47.554758" lon="11.139933"><ele>654.75</ele></trkpt>
<trkpt lat="47.554415" lon="11.140093"><ele>654.5</ele></trkpt>
<trkpt lat="47.554187" lon="11.140182"><ele>654.0</ele></trkpt>
<trkpt lat="47.553781" lon="11.140375"><ele>654.5</ele></trkpt>
<trkpt lat="47.553511" lon="11.140468"><ele>654.0</ele></trkpt>
<trkpt lat="47.553271" lon="11.140456"><ele>654.0</ele></trkpt>
<trkpt lat="47.553185" lon="11.140422"><ele>654.25</ele></trkpt>
<trkpt lat="47.553090" lon="11.140358"><ele>654.5</ele></trkpt>
<trkpt lat="47.552899" lon="11.140179"><ele>654.5</ele></trkpt>
<trkpt lat="47.552820" lon="11.140123"><ele>654.5</ele></trkpt>
<trkpt lat="47.552754" lon="11.140112"><ele>654.5</ele></trkpt>
<trkpt lat="47.552687" lon="11.140133"><ele>654.5</ele></trkpt>
<trkpt lat="47.552624" lon="11.140193"><ele>654.5</ele></trkpt>
<trkpt lat="47.552560" lon="11.140291"><ele>654.75</ele></trkpt>
<trkpt lat="47.552277" lon="11.140807"><ele>655.0</ele></trkpt>
<trkpt lat="47.552166" lon="11.141074"><ele>655.0</ele></trkpt>
<trkpt lat="47.551946" lon="11.141553"><ele>655.0</ele></trkpt>
<trkpt lat="47.551885" lon="11.141844"><ele>655.0</ele></trkpt>
<trkpt lat="47.551841" lon="11.142099"><ele>655.0</ele></trkpt>
<trkpt lat="47.551809" lon="11.142220"><ele>655.25</ele></trkpt>
<trkpt lat="47.551778" lon="11.142253"><ele>655.5</ele></trkpt>
<trkpt lat="47.551726" lon="11.142276"><ele>655.5</ele></trkpt>
<trkpt lat="47.551665" lon="11.142274"><ele>655.75</ele></trkpt>
<trkpt lat="47.551586" lon="11.142253"><ele>655.75</ele></trkpt>
<trkpt lat="47.551453" lon="11.142184"><ele>655.75</ele></trkpt>
<trkpt lat="47.551257" lon="11.142068"><ele>656.0</ele></trkpt>
<trkpt lat="47.551064" lon="11.141888"><ele>656.0</ele></trkpt>
<trkpt lat="47.550962" lon="11.141738"><ele>656.0</ele></trkpt>
<trkpt lat="47.550867" lon="11.141620"><ele>656.0</ele></trkpt>
<trkpt lat="47.550762" lon="11.141519"><ele>656.0</ele></trkpt>
<trkpt lat="47.550659" lon="11.141473"><ele>656.0</ele></trkpt>
<trkpt lat="47.550595" lon="11.141470"><ele>656.0</ele></trkpt>
<trkpt lat="47.550552" lon="11.141480"><ele>656.0</ele></trkpt>
<trkpt lat="47.550421" lon="11.141565"><ele>656.0</ele></trkpt>
<trkpt lat="47.549872" lon="11.142012"><ele>656.0</ele></trkpt>
<trkpt lat="47.549499" lon="11.142290"><ele>656.0</ele></trkpt>
<trkpt lat="47.549249" lon="11.142495"><ele>656.0</ele></trkpt>
<trkpt lat="47.549134" lon="11.142558"><ele>656.0</ele></trkpt>
<trkpt lat="47.548983" lon="11.142575"><ele>656.5</ele></trkpt>
<trkpt lat="47.548872" lon="11.142536"><ele>657.0</ele></trkpt>
<trkpt lat="47.548509" lon="11.142278"><ele>656.25</ele></trkpt>
<trkpt lat="47.548394" lon="11.142204"><ele>656.75</ele></trkpt>
<trkpt lat="47.548286" lon="11.142110"><ele>657.0</ele></trkpt>
<trkpt lat="47.547854" lon="11.141606"><ele>656.5</ele></trkpt>
<trkpt lat="47.547579" lon="11.141213"><ele>656.75</ele></trkpt>
<trkpt lat="47.547246" lon="11.140791"><ele>656.75</ele></trkpt>
<trkpt lat="47.547075" lon="11.140525"><ele>656.5</ele></trkpt>
<trkpt lat="47.546995" lon="11.140338"><ele>656.75</ele></trkpt>
<trkpt lat="47.546900" lon="11.140200"><ele>657.0</ele></trkpt>
<trkpt lat="47.546794" lon="11.140103"><ele>657.0</ele></trkpt>
<trkpt lat="47.546736" lon="11.140061"><ele>657.0</ele></trkpt>
<trkpt lat="47.546630" lon="11.140020"><ele>657.0</ele></trkpt>
<trkpt lat="47.546491" lon="11.140026"><ele>657.0</ele></trkpt>
<trkpt lat="47.546436" lon="11.140005"><ele>657.0</ele></trkpt>
<trkpt lat="47.546410" lon="11.139959"><ele>657.0</ele></trkpt>
<trkpt lat="47.546350" lon="11.139844"><ele>657.0</ele></trkpt>
<trkpt lat="47.546272" lon="11.139753"><ele>657.0</ele></trkpt>
<trkpt lat="47.546127" lon="11.139680"><ele>657.0</ele></trkpt>
<trkpt lat="47.546088" lon="11.139650"><ele>657.0</ele></trkpt>
<trkpt lat="47.545951" lon="11.139546"><ele>657.0</ele></trkpt>
<trkpt lat="47.545691" lon="11.139461"><ele>657.5</ele></trkpt>
<trkpt lat="47.545614" lon="11.139423"><ele>657.75</ele></trkpt>
<trkpt lat="47.545514" lon="11.139306"><ele>658.0</ele></trkpt>
<trkpt lat="47.545327" lon="11.138967"><ele>658.0</ele></trkpt>
<trkpt lat="47.545173" lon="11.138824"><ele>658.0</ele></trkpt>
<trkpt lat="47.545030" lon="11.138723"><ele>658.0</ele></trkpt>
<trkpt lat="47.544915" lon="11.138616"><ele>658.0</ele></trkpt>
<trkpt lat="47.544773" lon="11.138385"><ele>658.5</ele></trkpt>
<trkpt lat="47.544413" lon="11.137774"><ele>659.0</ele></trkpt>
<trkpt lat="47.544121" lon="11.137208"><ele>659.0</ele></trkpt>
<trkpt lat="47.543956" lon="11.136804"><ele>659.0</ele></trkpt>
<trkpt lat="47.543916" lon="11.136667"><ele>659.0</ele></trkpt>
<trkpt lat="47.543864" lon="11.136237"><ele>659.75</ele></trkpt>
<trkpt lat="47.543831" lon="11.135795"><ele>659.75</ele></trkpt>
<trkpt lat="47.543852" lon="11.135416"><ele>659.75</ele></trkpt>
<trkpt lat="47.543843" lon="11.135234"><ele>659.75</ele></trkpt>
<trkpt lat="47.543822" lon="11.135000"><ele>659.75</ele></trkpt>
<trkpt lat="47.543776" lon="11.134803"><ele>659.5</ele></trkpt>
<trkpt lat="47.543711" lon="11.134611"><ele>659.5</ele></trkpt>
<trkpt lat="47.543650" lon="11.134485"><ele>659.75</ele></trkpt>
<trkpt lat="47.543584" lon="11.134377"><ele>660.0</ele></trkpt>
<trkpt lat="47.543449" lon="11.134166"><ele>660.0</ele></trkpt>
<trkpt lat="47.543289" lon="11.133934"><ele>660.0</ele></trkpt>
<trkpt lat="47.542761" lon="11.133304"><ele>660.75</ele></trkpt>
<trkpt lat="47.542586" lon="11.133121"><ele>660.75</ele></trkpt>
<trkpt lat="47.542470" lon="11.132970"><ele>660.75</ele></trkpt>
<trkpt lat="47.542251" lon="11.132661"><ele>660.75</ele></trkpt>
<trkpt lat="47.541498" lon="11.131728"><ele>661.5</ele></trkpt>
<trkpt lat="47.541437" lon="11.131648"><ele>661.75</ele></trkpt>
<trkpt lat="47.541114" lon="11.131164"><ele>662.0</ele></trkpt>
<trkpt lat="47.540998" lon="11.131023"><ele>662.0</ele></trkpt>
<trkpt lat="47.540891" lon="11.130909"><ele>661.75</ele></trkpt>
<trkpt lat="47.540427" lon="11.130426"><ele>661.75</ele></trkpt>
<trkpt lat="47.540294" lon="11.130298"><ele>661.75</ele></trkpt>
<trkpt lat="47.540219" lon="11.130225"><ele>662.0</ele></trkpt>
<trkpt lat="47.539935" lon="11.130057"><ele>662.0</ele></trkpt>
<trkpt lat="47.539791" lon="11.129953"><ele>662.0</ele></trkpt>
<trkpt lat="47.539601" lon="11.129752"><ele>662.0</ele></trkpt>
<trkpt lat="47.539336" lon="11.129411"><ele>662.5</ele></trkpt>
<trkpt lat="47.539158" lon="11.129148"><ele>662.75</ele></trkpt>
<trkpt lat="47.539022" lon="11.128879"><ele>662.5</ele></trkpt>
<trkpt lat="47.538926" lon="11.128695"><ele>662.75</ele></trkpt>
<trkpt lat="47.538756" lon="11.128496"><ele>663.0</ele></trkpt>
<trkpt lat="47.538451" lon="11.128181"><ele>663.5</ele></trkpt>
<trkpt lat="47.537778" lon="11.127541"><ele>665.75</ele></trkpt>
<trkpt lat="47.537616" lon="11.127419"><ele>666.5</ele></trkpt>
<trkpt lat="47.537309" lon="11.127328"><ele>667.5</ele></trkpt>
<trkpt lat="47.537164" lon="11.127250"><ele>668.0</ele></trkpt>
<trkpt lat="47.537061" lon="11.127125"><ele>668.5</ele></trkpt>
<trkpt lat="47.536971" lon="11.126982"><ele>668.75</ele></trkpt>
<trkpt lat="47.536840" lon="11.126858"><ele>669.0</ele></trkpt>
<trkpt lat="47.536688" lon="11.126769"><ele>669.5</ele></trkpt>
<trkpt lat="47.536576" lon="11.126697"><ele>669.75</ele></trkpt>
<trkpt lat="47.536500" lon="11.126621"><ele>670.0</ele></trkpt>
<trkpt lat="47.536329" lon="11.126387"><ele>670.0</ele></trkpt>
<trkpt lat="47.536255" lon="11.126307"><ele>670.75</ele></trkpt>
<trkpt lat="47.535961" lon="11.126102"><ele>671.75</ele></trkpt>
<trkpt lat="47.535822" lon="11.126014"><ele>672.0</ele></trkpt>
<trkpt lat="47.535755" lon="11.126000"><ele>672.25</ele></trkpt>
<trkpt lat="47.535593" lon="11.126053"><ele>673.0</ele></trkpt>
<trkpt lat="47.535513" lon="11.126064"><ele>673.25</ele></trkpt>
<trkpt lat="47.535330" lon="11.126029"><ele>674.5</ele></trkpt>
<trkpt lat="47.535176" lon="11.126019"><ele>675.25</ele></trkpt>
<trkpt lat="47.535105" lon="11.126033"><ele>675.5</ele></trkpt>
<trkpt lat="47.535006" lon="11.126082"><ele>675.75</ele></trkpt>
<trkpt lat="47.534826" lon="11.126206"><ele>676.5</ele></trkpt>
<trkpt lat="47.534810" lon="11.126217"><ele>676.5</ele></trkpt>
<trkpt lat="47.534674" lon="11.126230"><ele>677.25</ele></trkpt>
<trkpt lat="47.534548" lon="11.126215"><ele>678.25</ele></trkpt>
<trkpt lat="47.534444" lon="11.126178"><ele>679.0</ele></trkpt>
<trkpt lat="47.534349" lon="11.126087"><ele>678.75</ele></trkpt>
<trkpt lat="47.534205" lon="11.125826"><ele>678.75</ele></trkpt>
<trkpt lat="47.534112" lon="11.125622"><ele>678.25</ele></trkpt>
<trkpt lat="47.534011" lon="11.125136"><ele>677.25</ele></trkpt>
<trkpt lat="47.533981" lon="11.124940"><ele>677.0</ele></trkpt>
<trkpt lat="47.533977" lon="11.124797"><ele>677.25</ele></trkpt>
<trkpt lat="47.533998" lon="11.124670"><ele>677.5</ele></trkpt>
<trkpt lat="47.534114" lon="11.124381"><ele>677.5</ele></trkpt>
<trkpt lat="47.534270" lon="11.124172"><ele>677.0</ele></trkpt>
<trkpt lat="47.534336" lon="11.124022"><ele>676.5</ele></trkpt>
<trkpt lat="47.534349" lon="11.123934"><ele>676.25</ele></trkpt>
<trkpt lat="47.534350" lon="11.123835"><ele>676.25</ele></trkpt>
<trkpt lat="47.534340" lon="11.123652"><ele>676.25</ele></trkpt>
<trkpt lat="47.534350" lon="11.123326"><ele>676.25</ele></trkpt>
<trkpt lat="47.534365" lon="11.123177"><ele>675.5</ele></trkpt>
<trkpt lat="47.534407" lon="11.122960"><ele>675.0</ele></trkpt>
<trkpt lat="47.534410" lon="11.122851"><ele>675.0</ele></trkpt>
<trkpt lat="47.534310" lon="11.122669"><ele>675.25</ele></trkpt>
<trkpt lat="47.533110" lon="11.120761"><ele>675.5</ele></trkpt>
<trkpt lat="47.532935" lon="11.120518"><ele>674.75</ele></trkpt>
<trkpt lat="47.532825" lon="11.120362"><ele>674.0</ele></trkpt>
<trkpt lat="47.532825" lon="11.120360"><ele>674.5</ele></trkpt>
<trkpt lat="47.532490" lon="11.119882"><ele>674.0</ele></trkpt>
<trkpt lat="47.532471" lon="11.119854"><ele>674.0</ele></trkpt>
<trkpt lat="47.531910" lon="11.119031"><ele>672.5</ele></trkpt>
<trkpt lat="47.531797" lon="11.118885"><ele>672.5</ele></trkpt>
<trkpt lat="47.531740" lon="11.118818"><ele>672.5</ele></trkpt>
<trkpt lat="47.531663" lon="11.118762"><ele>672.5</ele></trkpt>
<trkpt lat="47.531616" lon="11.118734"><ele>672.25</ele></trkpt>
<trkpt lat="47.531502" lon="11.118670"><ele>672.0</ele></trkpt>
<trkpt lat="47.531263" lon="11.118520"><ele>672.0</ele></trkpt>
<trkpt lat="47.530731" lon="11.118116"><ele>671.0</ele></trkpt>
<trkpt lat="47.530241" lon="11.117770"><ele>670.0</ele></trkpt>
<trkpt lat="47.529839" lon="11.117567"><ele>670.0</ele></trkpt>
<trkpt lat="47.529691" lon="11.117543"><ele>670.0</ele></trkpt>
<trkpt lat="47.529696" lon="11.117454"><ele>670.0</ele></trkpt>
<trkpt lat="47.529697" lon="11.117305"><ele>670.0</ele></trkpt>
<trkpt lat="47.529697" lon="11.117241"><ele>670.0</ele></trkpt>
<trkpt lat="47.529702" lon="11.117191"><ele>669.5</ele></trkpt>
<trkpt lat="47.529747" lon="11.116647"><ele>669.0</ele></trkpt>
<trkpt lat="47.529750" lon="11.116577"><ele>669.25</ele></trkpt>
<trkpt lat="47.529740" lon="11.116477"><ele>669.5</ele></trkpt>
<trkpt lat="47.529693" lon="11.116306"><ele>670.0</ele></trkpt>
<trkpt lat="47.529572" lon="11.115434"><ele>670.25</ele></trkpt>
<trkpt lat="47.529534" lon="11.115111"><ele>670.75</ele></trkpt>
<trkpt lat="47.529521" lon="11.114936"><ele>671.0</ele></trkpt>
<trkpt lat="47.529510" lon="11.114648"><ele>670.5</ele></trkpt>
<trkpt lat="47.529566" lon="11.114500"><ele>670.0</ele></trkpt>
<trkpt lat="47.529638" lon="11.114266"><ele>670.0</ele></trkpt>
<trkpt lat="47.529660" lon="11.114187"><ele>670.0</ele></trkpt>
<trkpt lat="47.529762" lon="11.113758"><ele>670.5</ele></trkpt>
<trkpt lat="47.529857" lon="11.113452"><ele>670.5</ele></trkpt>
<trkpt lat="47.529885" lon="11.113361"><ele>670.25</ele></trkpt>
<trkpt lat="47.530287" lon="11.112133"><ele>670.0</ele></trkpt>
<trkpt lat="47.530247" lon="11.112099"><ele>670.0</ele></trkpt>
<trkpt lat="47.530181" lon="11.112056"><ele>670.0</ele></trkpt>
<trkpt lat="47.529803" lon="11.111796"><ele>670.0</ele></trkpt>
<trkpt lat="47.529609" lon="11.111685"><ele>670.0</ele></trkpt>
<trkpt lat="47.529504" lon="11.111639"><ele>670.0</ele></trkpt>
<trkpt lat="47.529431" lon="11.111603"><ele>670.0</ele></trkpt>
<trkpt lat="47.528890" lon="11.111396"><ele>670.75</ele></trkpt>
<trkpt lat="47.528745" lon="11.111342"><ele>670.75</ele></trkpt>
<trkpt lat="47.527604" lon="11.110970"><ele>671.75</ele></trkpt>
<trkpt lat="47.526968" lon="11.110777"><ele>672.0</ele></trkpt>
<trkpt lat="47.526794" lon="11.110748"><ele>672.5</ele></trkpt>
<trkpt lat="47.526571" lon="11.110693"><ele>673.0</ele></trkpt>
<trkpt lat="47.526459" lon="11.110655"><ele>672.75</ele></trkpt>
<trkpt lat="47.526333" lon="11.110614"><ele>673.0</ele></trkpt>
<trkpt lat="47.526215" lon="11.110578"><ele>673.0</ele></trkpt>
<trkpt lat="47.525954" lon="11.110498"><ele>673.25</ele></trkpt>
<trkpt lat="47.525170" lon="11.110248"><ele>674.0</ele></trkpt>
<trkpt lat="47.524865" lon="11.110151"><ele>674.0</ele></trkpt>
<trkpt lat="47.522829" lon="11.109501"><ele>675.75</ele></trkpt>
<trkpt lat="47.522181" lon="11.109306"><ele>676.25</ele></trkpt>
<trkpt lat="47.521746" lon="11.109235"><ele>675.75</ele></trkpt>
<trkpt lat="47.521338" lon="11.109211"><ele>675.75</ele></trkpt>
<trkpt lat="47.520955" lon="11.109210"><ele>675.75</ele></trkpt>
<trkpt lat="47.520660" lon="11.109231"><ele>675.75</ele></trkpt>
<trkpt lat="47.520357" lon="11.109279"><ele>675.75</ele></trkpt>
<trkpt lat="47.520001" lon="11.109359"><ele>676.0</ele></trkpt>
<trkpt lat="47.519858" lon="11.109407"><ele>676.0</ele></trkpt>
<trkpt lat="47.519442" lon="11.109573"><ele>677.25</ele></trkpt>
<trkpt lat="47.519129" lon="11.109692"><ele>676.25</ele></trkpt>
<trkpt lat="47.518372" lon="11.109908"><ele>677.75</ele></trkpt>
<trkpt lat="47.518229" lon="11.109925"><ele>678.25</ele></trkpt>
<trkpt lat="47.518146" lon="11.109927"><ele>678.25</ele></trkpt>
<trkpt lat="47.517551" lon="11.109918"><ele>679.75</ele></trkpt>
<trkpt lat="47.517125" lon="11.109876"><ele>678.0</ele></trkpt>
<trkpt lat="47.516711" lon="11.109802"><ele>679.75</ele></trkpt>
<trkpt lat="47.516529" lon="11.109768"><ele>681.0</ele></trkpt>
<trkpt lat="47.516513" lon="11.109656"><ele>681.25</ele></trkpt>
<trkpt lat="47.516507" lon="11.109529"><ele>681.0</ele></trkpt>
<trkpt lat="47.516486" lon="11.109387"><ele>681.0</ele></trkpt>
<trkpt lat="47.516456" lon="11.109310"><ele>680.75</ele></trkpt>
<trkpt lat="47.516365" lon="11.109208"><ele>681.0</ele></trkpt>
<trkpt lat="47.516305" lon="11.109185"><ele>681.0</ele></trkpt>
<trkpt lat="47.515997" lon="11.109179"><ele>680.5</ele></trkpt>
<trkpt lat="47.515919" lon="11.109151"><ele>680.0</ele></trkpt>
<trkpt lat="47.515857" lon="11.109099"><ele>679.75</ele></trkpt>
<trkpt lat="47.515819" lon="11.109011"><ele>679.25</ele></trkpt>
<trkpt lat="47.515807" lon="11.108924"><ele>679.0</ele></trkpt>
<trkpt lat="47.515812" lon="11.108773"><ele>679.0</ele></trkpt>
<trkpt lat="47.515891" lon="11.108355"><ele>679.25</ele></trkpt>
<trkpt lat="47.515983" lon="11.107764"><ele>680.0</ele></trkpt>
<trkpt lat="47.516007" lon="11.107565"><ele>680.0</ele></trkpt>
<trkpt lat="47.516018" lon="11.107312"><ele>680.0</ele></trkpt>
<trkpt lat="47.515981" lon="11.107076"><ele>680.5</ele></trkpt>
<trkpt lat="47.515952" lon="11.106963"><ele>680.75</ele></trkpt>
<trkpt lat="47.515913" lon="11.106881"><ele>680.75</ele></trkpt>
<trkpt lat="47.515842" lon="11.106776"><ele>680.75</ele></trkpt>
<trkpt lat="47.515702" lon="11.106650"><ele>680.75</ele></trkpt>
<trkpt lat="47.515545" lon="11.106530"><ele>680.5</ele></trkpt>
<trkpt lat="47.515221" lon="11.106306"><ele>680.75</ele></trkpt>
<trkpt lat="47.515091" lon="11.106199"><ele>680.75</ele></trkpt>
<trkpt lat="47.514991" lon="11.106085"><ele>680.75</ele></trkpt>
<trkpt lat="47.514843" lon="11.105887"><ele>680.5</ele></trkpt>
<trkpt lat="47.514755" lon="11.105746"><ele>680.75</ele></trkpt>
<trkpt lat="47.514444" lon="11.105126"><ele>681.0</ele></trkpt>
<trkpt lat="47.514370" lon="11.105001"><ele>681.0</ele></trkpt>
<trkpt lat="47.514305" lon="11.104829"><ele>681.0</ele></trkpt>
<trkpt lat="47.513972" lon="11.104429"><ele>681.5</ele></trkpt>
<trkpt lat="47.513804" lon="11.104287"><ele>681.5</ele></trkpt>
<trkpt lat="47.513365" lon="11.103926"><ele>681.75</ele></trkpt>
<trkpt lat="47.513174" lon="11.103783"><ele>682.0</ele></trkpt>
<trkpt lat="47.513090" lon="11.103724"><ele>682.5</ele></trkpt>
<trkpt lat="47.512772" lon="11.103514"><ele>684.0</ele></trkpt>
<trkpt lat="47.512440" lon="11.103219"><ele>685.25</ele></trkpt>
<trkpt lat="47.512141" lon="11.102841"><ele>684.25</ele></trkpt>
<trkpt lat="47.512055" lon="11.102742"><ele>684.75</ele></trkpt>
<trkpt lat="47.511986" lon="11.102619"><ele>686.0</ele></trkpt>
<trkpt lat="47.511945" lon="11.102482"><ele>687.75</ele></trkpt>
<trkpt lat="47.511933" lon="11.102288"><ele>687.75</ele></trkpt>
<trkpt lat="47.511933" lon="11.101940"><ele>689.0</ele></trkpt>
<trkpt lat="47.511950" lon="11.101637"><ele>688.75</ele></trkpt>
<trkpt lat="47.511925" lon="11.101299"><ele>689.0</ele></trkpt>
<trkpt lat="47.511870" lon="11.100988"><ele>689.25</ele></trkpt>
<trkpt lat="47.511808" lon="11.100696"><ele>688.25</ele></trkpt>
<trkpt lat="47.511736" lon="11.100435"><ele>687.75</ele></trkpt>
<trkpt lat="47.511648" lon="11.100159"><ele>688.5</ele></trkpt>
<trkpt lat="47.511542" lon="11.099894"><ele>687.25</ele></trkpt>
<trkpt lat="47.511341" lon="11.099450"><ele>686.75</ele></trkpt>
<trkpt lat="47.511245" lon="11.099285"><ele>685.5</ele></trkpt>
<trkpt lat="47.511214" lon="11.099197"><ele>685.0</ele></trkpt>
<trkpt lat="47.511052" lon="11.099196"><ele>685.0</ele></trkpt>
<trkpt lat="47.510986" lon="11.099262"><ele>685.0</ele></trkpt>
<trkpt lat="47.510533" lon="11.099307"><ele>684.5</ele></trkpt>
<trkpt lat="47.510435" lon="11.099310"><ele>684.5</ele></trkpt>
<trkpt lat="47.510420" lon="11.099328"><ele>684.5</ele></trkpt>
<trkpt lat="47.510391" lon="11.099363"><ele>684.5</ele></trkpt>
<trkpt lat="47.510379" lon="11.099479"><ele>685.0</ele></trkpt>
<trkpt lat="47.510364" lon="11.099964"><ele>686.0</ele></trkpt>
<trkpt lat="47.510288" lon="11.100178"><ele>687.0</ele></trkpt>
<trkpt lat="47.510203" lon="11.100280"><ele>687.5</ele></trkpt>
<trkpt lat="47.510158" lon="11.100322"><ele>687.25</ele></trkpt>
<trkpt lat="47.510079" lon="11.100370"><ele>687.0</ele></trkpt>
<trkpt lat="47.510001" lon="11.100291"><ele>687.0</ele></trkpt>
<trkpt lat="47.509612" lon="11.099857"><ele>687.75</ele></trkpt>
<trkpt lat="47.509479" lon="11.099741"><ele>688.0</ele></trkpt>
<trkpt lat="47.509364" lon="11.099661"><ele>688.0</ele></trkpt>
<trkpt lat="47.509088" lon="11.099452"><ele>688.0</ele></trkpt>
<trkpt lat="47.508620" lon="11.099161"><ele>687.75</ele></trkpt>
<trkpt lat="47.508307" lon="11.099010"><ele>688.25</ele></trkpt>
<trkpt lat="47.507836" lon="11.098761"><ele>688.75</ele></trkpt>
<trkpt lat="47.507230" lon="11.098458"><ele>689.75</ele></trkpt>
<trkpt lat="47.507022" lon="11.098362"><ele>690.5</ele></trkpt>
<trkpt lat="47.503925" lon="11.096746"><ele>693.25</ele></trkpt>
<trkpt lat="47.503555" lon="11.096639"><ele>694.0</ele></trkpt>
<trkpt lat="47.503420" lon="11.096549"><ele>693.75</ele></trkpt>
<trkpt lat="47.503330" lon="11.096455"><ele>693.25</ele></trkpt>
<trkpt lat="47.503261" lon="11.096400"><ele>693.0</ele></trkpt>
<trkpt lat="47.503095" lon="11.096350"><ele>693.0</ele></trkpt>
<trkpt lat="47.503061" lon="11.096735"><ele>693.25</ele></trkpt>
<trkpt lat="47.503024" lon="11.096879"><ele>693.75</ele></trkpt>
<trkpt lat="47.502887" lon="11.097181"><ele>694.5</ele></trkpt>
<trkpt lat="47.502836" lon="11.097434"><ele>694.0</ele></trkpt>
<trkpt lat="47.502839" lon="11.097519"><ele>694.0</ele></trkpt>
<trkpt lat="47.502707" lon="11.097555"><ele>694.25</ele></trkpt>
<trkpt lat="47.502528" lon="11.097657"><ele>694.75</ele></trkpt>
<trkpt lat="47.502278" lon="11.097870"><ele>694.75</ele></trkpt>
<trkpt lat="47.502115" lon="11.098033"><ele>695.0</ele></trkpt>
<trkpt lat="47.502075" lon="11.098072"><ele>695.0</ele></trkpt>
<trkpt lat="47.501857" lon="11.098300"><ele>695.25</ele></trkpt>
<trkpt lat="47.501610" lon="11.098490"><ele>695.75</ele></trkpt>
<trkpt lat="47.501369" lon="11.098673"><ele>696.0</ele></trkpt>
<trkpt lat="47.501365" lon="11.098780"><ele>696.0</ele></trkpt>
<trkpt lat="47.501374" lon="11.098823"><ele>696.0</ele></trkpt>
<trkpt lat="47.501370" lon="11.098851"><ele>696.0</ele></trkpt>
<trkpt lat="47.501331" lon="11.098922"><ele>696.25</ele></trkpt>
<trkpt lat="47.501030" lon="11.099380"><ele>697.0</ele></trkpt>
<trkpt lat="47.500853" lon="11.099590"><ele>697.0</ele></trkpt>
<trkpt lat="47.500691" lon="11.099784"><ele>697.5</ele></trkpt>
<trkpt lat="47.500471" lon="11.100080"><ele>697.5</ele></trkpt>
<trkpt lat="47.500346" lon="11.100274"><ele>697.75</ele></trkpt>
<trkpt lat="47.500283" lon="11.100416"><ele>698.0</ele></trkpt>
<trkpt lat="47.500170" lon="11.100328"><ele>698.0</ele></trkpt>
<trkpt lat="47.500055" lon="11.100196"><ele>697.75</ele></trkpt>
</trkseg></trk></gpx>
