<?xml version="1.0" encoding="UTF-8"?>
<!-- track-length = 25414 filtered ascend = 185 plain-ascend = 0 cost=49135 energy=.0kwh time=6m 43s AUTO selected ISO_GREEDY (score 0.884) after 1 candidate(s) in 1515ms. short shared stem near start/end: 5m -->
<gpx
 xmlns="http://www.topografix.com/GPX/1/1"
 xmlns:xsi="http://www.w3.org/2001/XMLSchema-instance"
 xsi:schemaLocation="http://www.topografix.com/GPX/1/1 http://www.topografix.com/GPX/1/1/gpx.xsd"
 creator="BRouter-null" version="1.1">
 <trk>
  <name>unset</name>
  <trkseg>
   <trkpt lon="5.719995" lat="45.189985"><ele>211.0</ele></trkpt>
   <trkpt lon="5.719929" lat="45.189997"><ele>211.0</ele></trkpt>
   <trkpt lon="5.719808" lat="45.189622"><ele>211.0</ele></trkpt>
   <trkpt lon="5.719752" lat="45.189560"><ele>211.0</ele></trkpt>
   <trkpt lon="5.719734" lat="45.189499"><ele>211.0</ele></trkpt>
   <trkpt lon="5.719729" lat="45.189483"><ele>211.0</ele></trkpt>
   <trkpt lon="5.719636" lat="45.189497"><ele>210.75</ele></trkpt>
   <trkpt lon="5.719567" lat="45.189507"><ele>211.0</ele></trkpt>
   <trkpt lon="5.719519" lat="45.189513"><ele>211.0</ele></trkpt>
   <trkpt lon="5.719433" lat="45.189526"><ele>211.0</ele></trkpt>
   <trkpt lon="5.719425" lat="45.189504"><ele>211.0</ele></trkpt>
   <trkpt lon="5.719423" lat="45.189498"><ele>211.0</ele></trkpt>
   <trkpt lon="5.719400" lat="45.189436"><ele>211.0</ele></trkpt>
   <trkpt lon="5.719384" lat="45.189389"><ele>211.0</ele></trkpt>
   <trkpt lon="5.719334" lat="45.189231"><ele>211.0</ele></trkpt>
   <trkpt lon="5.719148" lat="45.188682"><ele>211.0</ele></trkpt>
   <trkpt lon="5.719102" lat="45.188510"><ele>211.0</ele></trkpt>
   <trkpt lon="5.719061" lat="45.188392"><ele>211.0</ele></trkpt>
   <trkpt lon="5.719020" lat="45.188280"><ele>211.0</ele></trkpt>
   <trkpt lon="5.718982" lat="45.188178"><ele>211.0</ele></trkpt>
   <trkpt lon="5.718978" lat="45.188169"><ele>211.0</ele></trkpt>
   <trkpt lon="5.718969" lat="45.188138"><ele>211.0</ele></trkpt>
   <trkpt lon="5.718928" lat="45.188049"><ele>211.0</ele></trkpt>
   <trkpt lon="5.718921" lat="45.188000"><ele>211.0</ele></trkpt>
   <trkpt lon="5.718910" lat="45.187928"><ele>211.0</ele></trkpt>
   <trkpt lon="5.718873" lat="45.187790"><ele>211.0</ele></trkpt>
   <trkpt lon="5.718827" lat="45.187641"><ele>211.25</ele></trkpt>
   <trkpt lon="5.718621" lat="45.187065"><ele>211.5</ele></trkpt>
   <trkpt lon="5.718542" lat="45.186808"><ele>212.0</ele></trkpt>
   <trkpt lon="5.718352" lat="45.186234"><ele>212.0</ele></trkpt>
   <trkpt lon="5.718295" lat="45.186141"><ele>212.0</ele></trkpt>
   <trkpt lon="5.718262" lat="45.186021"><ele>212.0</ele></trkpt>
   <trkpt lon="5.718256" lat="45.186000"><ele>212.0</ele></trkpt>
   <trkpt lon="5.718244" lat="45.185969"><ele>212.0</ele></trkpt>
   <trkpt lon="5.718213" lat="45.185872"><ele>212.0</ele></trkpt>
   <trkpt lon="5.718183" lat="45.185756"><ele>212.0</ele></trkpt>
   <trkpt lon="5.718154" lat="45.185664"><ele>212.0</ele></trkpt>
   <trkpt lon="5.718042" lat="45.185575"><ele>211.75</ele></trkpt>
   <trkpt lon="5.717914" lat="45.185193"><ele>212.0</ele></trkpt>
   <trkpt lon="5.717902" lat="45.185153"><ele>212.0</ele></trkpt>
   <trkpt lon="5.717792" lat="45.184858"><ele>212.0</ele></trkpt>
   <trkpt lon="5.717742" lat="45.184707"><ele>212.0</ele></trkpt>
   <trkpt lon="5.717707" lat="45.184626"><ele>212.25</ele></trkpt>
   <trkpt lon="5.717696" lat="45.184598"><ele>212.25</ele></trkpt>
   <trkpt lon="5.717668" lat="45.184523"><ele>212.5</ele></trkpt>
   <trkpt lon="5.717552" lat="45.184165"><ele>213.0</ele></trkpt>
   <trkpt lon="5.717506" lat="45.184019"><ele>213.0</ele></trkpt>
   <trkpt lon="5.717439" lat="45.183827"><ele>213.0</ele></trkpt>
   <trkpt lon="5.717429" lat="45.183787"><ele>213.0</ele></trkpt>
   <trkpt lon="5.717228" lat="45.183178"><ele>213.0</ele></trkpt>
   <trkpt lon="5.717154" lat="45.183092"><ele>213.0</ele></trkpt>
   <trkpt lon="5.717132" lat="45.183016"><ele>213.0</ele></trkpt>
   <trkpt lon="5.717121" lat="45.182983"><ele>213.0</ele></trkpt>
   <trkpt lon="5.717067" lat="45.182813"><ele>213.25</ele></trkpt>
   <trkpt lon="5.717047" lat="45.182749"><ele>213.25</ele></trkpt>
   <trkpt lon="5.717024" lat="45.182675"><ele>213.5</ele></trkpt>
   <trkpt lon="5.717030" lat="45.182566"><ele>213.75</ele></trkpt>
   <trkpt lon="5.716799" lat="45.181868"><ele>214.0</ele></trkpt>
   <trkpt lon="5.716738" lat="45.181694"><ele>213.75</ele></trkpt>
   <trkpt lon="5.716630" lat="45.181394"><ele>214.0</ele></trkpt>
   <trkpt lon="5.716554" lat="45.181172"><ele>214.0</ele></trkpt>
   <trkpt lon="5.716556" lat="45.181076"><ele>214.0</ele></trkpt>
   <trkpt lon="5.716450" lat="45.180753"><ele>214.25</ele></trkpt>
   <trkpt lon="5.716447" lat="45.180742"><ele>214.25</ele></trkpt>
   <trkpt lon="5.716429" lat="45.180688"><ele>214.5</ele></trkpt>
   <trkpt lon="5.716326" lat="45.180474"><ele>215.0</ele></trkpt>
   <trkpt lon="5.716278" lat="45.180384"><ele>215.0</ele></trkpt>
   <trkpt lon="5.716273" lat="45.180360"><ele>215.0</ele></trkpt>
   <trkpt lon="5.716266" lat="45.180330"><ele>215.0</ele></trkpt>
   <trkpt lon="5.716257" lat="45.180288"><ele>215.0</ele></trkpt>
   <trkpt lon="5.716256" lat="45.180217"><ele>215.0</ele></trkpt>
   <trkpt lon="5.716227" lat="45.180071"><ele>215.0</ele></trkpt>
   <trkpt lon="5.716126" lat="45.179793"><ele>215.0</ele></trkpt>
   <trkpt lon="5.716039" lat="45.179715"><ele>215.0</ele></trkpt>
   <trkpt lon="5.715972" lat="45.179535"><ele>215.0</ele></trkpt>
   <trkpt lon="5.715739" lat="45.178842"><ele>215.0</ele></trkpt>
   <trkpt lon="5.715720" lat="45.178778"><ele>215.0</ele></trkpt>
   <trkpt lon="5.715691" lat="45.178690"><ele>215.0</ele></trkpt>
   <trkpt lon="5.715453" lat="45.177959"><ele>216.0</ele></trkpt>
   <trkpt lon="5.715406" lat="45.177811"><ele>216.0</ele></trkpt>
   <trkpt lon="5.715389" lat="45.177754"><ele>216.0</ele></trkpt>
   <trkpt lon="5.715359" lat="45.177721"><ele>216.0</ele></trkpt>
   <trkpt lon="5.715336" lat="45.177650"><ele>216.0</ele></trkpt>
   <trkpt lon="5.715293" lat="45.177509"><ele>216.0</ele></trkpt>
   <trkpt lon="5.715161" lat="45.177108"><ele>216.0</ele></trkpt>
   <trkpt lon="5.714990" lat="45.176597"><ele>216.0</ele></trkpt>
   <trkpt lon="5.714906" lat="45.176338"><ele>216.0</ele></trkpt>
   <trkpt lon="5.714723" lat="45.175786"><ele>217.0</ele></trkpt>
   <trkpt lon="5.714596" lat="45.175393"><ele>217.0</ele></trkpt>
   <trkpt lon="5.714495" lat="45.175249"><ele>217.0</ele></trkpt>
   <trkpt lon="5.714447" lat="45.175095"><ele>216.75</ele></trkpt>
   <trkpt lon="5.714406" lat="45.174981"><ele>217.0</ele></trkpt>
   <trkpt lon="5.714334" lat="45.174730"><ele>217.0</ele></trkpt>
   <trkpt lon="5.714336" lat="45.174700"><ele>217.0</ele></trkpt>
   <trkpt lon="5.714313" lat="45.174620"><ele>217.25</ele></trkpt>
   <trkpt lon="5.714255" lat="45.174424"><ele>218.0</ele></trkpt>
   <trkpt lon="5.714223" lat="45.174311"><ele>218.0</ele></trkpt>
   <trkpt lon="5.714214" lat="45.174284"><ele>218.0</ele></trkpt>
   <trkpt lon="5.714151" lat="45.174065"><ele>217.75</ele></trkpt>
   <trkpt lon="5.714042" lat="45.173753"><ele>217.5</ele></trkpt>
   <trkpt lon="5.713965" lat="45.173522"><ele>217.75</ele></trkpt>
   <trkpt lon="5.713949" lat="45.173474"><ele>217.75</ele></trkpt>
   <trkpt lon="5.713921" lat="45.173389"><ele>217.75</ele></trkpt>
   <trkpt lon="5.713874" lat="45.173246"><ele>218.0</ele></trkpt>
   <trkpt lon="5.713864" lat="45.173216"><ele>218.0</ele></trkpt>
   <trkpt lon="5.713674" lat="45.172626"><ele>218.0</ele></trkpt>
   <trkpt lon="5.713620" lat="45.172564"><ele>217.75</ele></trkpt>
   <trkpt lon="5.713597" lat="45.172489"><ele>218.0</ele></trkpt>
   <trkpt lon="5.713546" lat="45.172328"><ele>218.25</ele></trkpt>
   <trkpt lon="5.713528" lat="45.172231"><ele>218.5</ele></trkpt>
   <trkpt lon="5.713394" lat="45.171833"><ele>219.0</ele></trkpt>
   <trkpt lon="5.713318" lat="45.171605"><ele>219.0</ele></trkpt>
   <trkpt lon="5.713142" lat="45.171077"><ele>219.0</ele></trkpt>
   <trkpt lon="5.712973" lat="45.170567"><ele>219.5</ele></trkpt>
   <trkpt lon="5.712920" lat="45.170480"><ele>219.5</ele></trkpt>
   <trkpt lon="5.712866" lat="45.170309"><ele>219.25</ele></trkpt>
   <trkpt lon="5.712826" lat="45.170181"><ele>219.25</ele></trkpt>
   <trkpt lon="5.712817" lat="45.170151"><ele>219.5</ele></trkpt>
   <trkpt lon="5.712728" lat="45.170085"><ele>219.5</ele></trkpt>
   <trkpt lon="5.712720" lat="45.170062"><ele>219.75</ele></trkpt>
   <trkpt lon="5.712691" lat="45.169985"><ele>219.75</ele></trkpt>
   <trkpt lon="5.712681" lat="45.169958"><ele>219.75</ele></trkpt>
   <trkpt lon="5.712608" lat="45.169739"><ele>219.25</ele></trkpt>
   <trkpt lon="5.712392" lat="45.169066"><ele>220.0</ele></trkpt>
   <trkpt lon="5.712357" lat="45.168940"><ele>220.0</ele></trkpt>
   <trkpt lon="5.712328" lat="45.168856"><ele>220.0</ele></trkpt>
   <trkpt lon="5.712377" lat="45.168804"><ele>220.0</ele></trkpt>
   <trkpt lon="5.712345" lat="45.168692"><ele>220.0</ele></trkpt>
   <trkpt lon="5.712208" lat="45.168286"><ele>220.0</ele></trkpt>
   <trkpt lon="5.712174" lat="45.168182"><ele>220.0</ele></trkpt>
   <trkpt lon="5.711970" lat="45.167572"><ele>220.0</ele></trkpt>
   <trkpt lon="5.711922" lat="45.167522"><ele>220.0</ele></trkpt>
   <trkpt lon="5.711862" lat="45.167319"><ele>220.5</ele></trkpt>
   <trkpt lon="5.711788" lat="45.167096"><ele>221.0</ele></trkpt>
   <trkpt lon="5.711766" lat="45.167031"><ele>221.0</ele></trkpt>
   <trkpt lon="5.711640" lat="45.166623"><ele>221.0</ele></trkpt>
   <trkpt lon="5.711039" lat="45.164863"><ele>222.0</ele></trkpt>
   <trkpt lon="5.710959" lat="45.164648"><ele>222.0</ele></trkpt>
   <trkpt lon="5.710911" lat="45.164512"><ele>222.0</ele></trkpt>
   <trkpt lon="5.710840" lat="45.164287"><ele>222.0</ele></trkpt>
   <trkpt lon="5.710825" lat="45.164157"><ele>222.0</ele></trkpt>
   <trkpt lon="5.710809" lat="45.164102"><ele>222.25</ele></trkpt>
   <trkpt lon="5.710700" lat="45.163795"><ele>223.0</ele></trkpt>
   <trkpt lon="5.710672" lat="45.163716"><ele>223.0</ele></trkpt>
   <trkpt lon="5.710364" lat="45.162812"><ele>223.0</ele></trkpt>
   <trkpt lon="5.710283" lat="45.162577"><ele>223.0</ele></trkpt>
   <trkpt lon="5.710234" lat="45.162428"><ele>223.0</ele></trkpt>
   <trkpt lon="5.710209" lat="45.162351"><ele>223.0</ele></trkpt>
   <trkpt lon="5.709839" lat="45.161230"><ele>224.0</ele></trkpt>
   <trkpt lon="5.709787" lat="45.161073"><ele>224.0</ele></trkpt>
   <trkpt lon="5.709783" lat="45.161061"><ele>224.0</ele></trkpt>
   <trkpt lon="5.709729" lat="45.160920"><ele>224.0</ele></trkpt>
   <trkpt lon="5.709646" lat="45.160690"><ele>224.0</ele></trkpt>
   <trkpt lon="5.709622" lat="45.160617"><ele>224.0</ele></trkpt>
   <trkpt lon="5.709598" lat="45.160545"><ele>224.0</ele></trkpt>
   <trkpt lon="5.709502" lat="45.160257"><ele>225.0</ele></trkpt>
   <trkpt lon="5.709494" lat="45.160231"><ele>225.0</ele></trkpt>
   <trkpt lon="5.709397" lat="45.159938"><ele>224.75</ele></trkpt>
   <trkpt lon="5.709279" lat="45.159513"><ele>225.0</ele></trkpt>
   <trkpt lon="5.709233" lat="45.159403"><ele>225.0</ele></trkpt>
   <trkpt lon="5.709047" lat="45.158946"><ele>226.0</ele></trkpt>
   <trkpt lon="5.709036" lat="45.158919"><ele>226.0</ele></trkpt>
   <trkpt lon="5.709014" lat="45.158851"><ele>225.25</ele></trkpt>
   <trkpt lon="5.708997" lat="45.158790"><ele>224.0</ele></trkpt>
   <trkpt lon="5.708865" lat="45.158424"><ele>224.25</ele></trkpt>
   <trkpt lon="5.708843" lat="45.158356"><ele>225.25</ele></trkpt>
   <trkpt lon="5.708833" lat="45.158299"><ele>225.75</ele></trkpt>
   <trkpt lon="5.708794" lat="45.158184"><ele>225.75</ele></trkpt>
   <trkpt lon="5.708754" lat="45.158064"><ele>225.75</ele></trkpt>
   <trkpt lon="5.708619" lat="45.157631"><ele>225.5</ele></trkpt>
   <trkpt lon="5.708565" lat="45.157465"><ele>226.0</ele></trkpt>
   <trkpt lon="5.708218" lat="45.156394"><ele>226.5</ele></trkpt>
   <trkpt lon="5.708173" lat="45.156253"><ele>226.5</ele></trkpt>
   <trkpt lon="5.708136" lat="45.156139"><ele>226.75</ele></trkpt>
   <trkpt lon="5.708107" lat="45.156049"><ele>226.75</ele></trkpt>
   <trkpt lon="5.708062" lat="45.155909"><ele>227.0</ele></trkpt>
   <trkpt lon="5.707910" lat="45.155464"><ele>227.0</ele></trkpt>
   <trkpt lon="5.707639" lat="45.154670"><ele>227.0</ele></trkpt>
   <trkpt lon="5.707522" lat="45.154372"><ele>227.25</ele></trkpt>
   <trkpt lon="5.707484" lat="45.154277"><ele>227.5</ele></trkpt>
   <trkpt lon="5.707454" lat="45.154159"><ele>227.75</ele></trkpt>
   <trkpt lon="5.707309" lat="45.153704"><ele>227.75</ele></trkpt>
   <trkpt lon="5.707270" lat="45.153565"><ele>228.0</ele></trkpt>
   <trkpt lon="5.707243" lat="45.153458"><ele>228.0</ele></trkpt>
   <trkpt lon="5.707141" lat="45.153251"><ele>227.75</ele></trkpt>
   <trkpt lon="5.706869" lat="45.152550"><ele>228.0</ele></trkpt>
   <trkpt lon="5.706786" lat="45.152303"><ele>228.5</ele></trkpt>
   <trkpt lon="5.706759" lat="45.152162"><ele>228.5</ele></trkpt>
   <trkpt lon="5.706742" lat="45.152122"><ele>228.5</ele></trkpt>
   <trkpt lon="5.706710" lat="45.152046"><ele>228.25</ele></trkpt>
   <trkpt lon="5.706697" lat="45.152015"><ele>228.25</ele></trkpt>
   <trkpt lon="5.706689" lat="45.151998"><ele>228.0</ele></trkpt>
   <trkpt lon="5.706686" lat="45.151984"><ele>228.0</ele></trkpt>
   <trkpt lon="5.706675" lat="45.151948"><ele>228.0</ele></trkpt>
   <trkpt lon="5.706670" lat="45.151930"><ele>228.0</ele></trkpt>
   <trkpt lon="5.706806" lat="45.151884"><ele>228.5</ele></trkpt>
   <trkpt lon="5.706940" lat="45.151846"><ele>228.75</ele></trkpt>
   <trkpt lon="5.707087" lat="45.151825"><ele>228.75</ele></trkpt>
   <trkpt lon="5.707251" lat="45.151798"><ele>228.25</ele></trkpt>
   <trkpt lon="5.707537" lat="45.151694"><ele>228.75</ele></trkpt>
   <trkpt lon="5.707680" lat="45.151649"><ele>229.0</ele></trkpt>
   <trkpt lon="5.707859" lat="45.151584"><ele>229.0</ele></trkpt>
   <trkpt lon="5.707921" lat="45.151561"><ele>229.0</ele></trkpt>
   <trkpt lon="5.708794" lat="45.151242"><ele>229.0</ele></trkpt>
   <trkpt lon="5.709042" lat="45.151149"><ele>228.25</ele></trkpt>
   <trkpt lon="5.709224" lat="45.151046"><ele>228.25</ele></trkpt>
   <trkpt lon="5.709288" lat="45.151014"><ele>228.5</ele></trkpt>
   <trkpt lon="5.709565" lat="45.150870"><ele>229.0</ele></trkpt>
   <trkpt lon="5.709616" lat="45.150817"><ele>228.75</ele></trkpt>
   <trkpt lon="5.709649" lat="45.150762"><ele>228.75</ele></trkpt>
   <trkpt lon="5.709677" lat="45.150675"><ele>228.75</ele></trkpt>
   <trkpt lon="5.709710" lat="45.150572"><ele>228.75</ele></trkpt>
   <trkpt lon="5.709749" lat="45.150425"><ele>229.0</ele></trkpt>
   <trkpt lon="5.709770" lat="45.150271"><ele>229.0</ele></trkpt>
   <trkpt lon="5.709789" lat="45.150073"><ele>229.0</ele></trkpt>
   <trkpt lon="5.709849" lat="45.148869"><ele>229.0</ele></trkpt>
   <trkpt lon="5.709871" lat="45.148558"><ele>229.0</ele></trkpt>
   <trkpt lon="5.709917" lat="45.148381"><ele>229.5</ele></trkpt>
   <trkpt lon="5.710088" lat="45.147920"><ele>230.0</ele></trkpt>
   <trkpt lon="5.710226" lat="45.147580"><ele>230.0</ele></trkpt>
   <trkpt lon="5.710394" lat="45.147159"><ele>230.0</ele></trkpt>
   <trkpt lon="5.710469" lat="45.146933"><ele>230.5</ele></trkpt>
   <trkpt lon="5.710550" lat="45.146678"><ele>230.75</ele></trkpt>
   <trkpt lon="5.710734" lat="45.146074"><ele>230.5</ele></trkpt>
   <trkpt lon="5.710758" lat="45.145914"><ele>230.5</ele></trkpt>
   <trkpt lon="5.710758" lat="45.145725"><ele>230.5</ele></trkpt>
   <trkpt lon="5.710656" lat="45.145026"><ele>231.0</ele></trkpt>
   <trkpt lon="5.710615" lat="45.144914"><ele>231.25</ele></trkpt>
   <trkpt lon="5.710550" lat="45.144814"><ele>231.5</ele></trkpt>
   <trkpt lon="5.710516" lat="45.144787"><ele>231.5</ele></trkpt>
   <trkpt lon="5.710489" lat="45.144773"><ele>231.75</ele></trkpt>
   <trkpt lon="5.710454" lat="45.144765"><ele>231.75</ele></trkpt>
   <trkpt lon="5.710444" lat="45.144730"><ele>231.75</ele></trkpt>
   <trkpt lon="5.710428" lat="45.144689"><ele>232.0</ele></trkpt>
   <trkpt lon="5.710560" lat="45.144668"><ele>232.0</ele></trkpt>
   <trkpt lon="5.710627" lat="45.144600"><ele>232.0</ele></trkpt>
   <trkpt lon="5.710778" lat="45.144558"><ele>232.0</ele></trkpt>
   <trkpt lon="5.710910" lat="45.144531"><ele>232.0</ele></trkpt>
   <trkpt lon="5.711117" lat="45.144432"><ele>231.75</ele></trkpt>
   <trkpt lon="5.711344" lat="45.144337"><ele>232.0</ele></trkpt>
   <trkpt lon="5.711887" lat="45.144139"><ele>232.0</ele></trkpt>
   <trkpt lon="5.712736" lat="45.143879"><ele>232.0</ele></trkpt>
   <trkpt lon="5.713702" lat="45.143566"><ele>232.0</ele></trkpt>
   <trkpt lon="5.713971" lat="45.143484"><ele>232.0</ele></trkpt>
   <trkpt lon="5.714100" lat="45.143441"><ele>232.0</ele></trkpt>
   <trkpt lon="5.714249" lat="45.143392"><ele>232.0</ele></trkpt>
   <trkpt lon="5.714368" lat="45.143354"><ele>232.0</ele></trkpt>
   <trkpt lon="5.715057" lat="45.143120"><ele>232.0</ele></trkpt>
   <trkpt lon="5.715136" lat="45.143082"><ele>232.0</ele></trkpt>
   <trkpt lon="5.715244" lat="45.143030"><ele>232.0</ele></trkpt>
   <trkpt lon="5.715311" lat="45.142966"><ele>232.0</ele></trkpt>
   <trkpt lon="5.715332" lat="45.142930"><ele>232.0</ele></trkpt>
   <trkpt lon="5.715361" lat="45.142790"><ele>231.75</ele></trkpt>
   <trkpt lon="5.715268" lat="45.142601"><ele>232.5</ele></trkpt>
   <trkpt lon="5.715182" lat="45.142451"><ele>232.5</ele></trkpt>
   <trkpt lon="5.715085" lat="45.142283"><ele>232.25</ele></trkpt>
   <trkpt lon="5.715020" lat="45.142169"><ele>232.0</ele></trkpt>
   <trkpt lon="5.714981" lat="45.142102"><ele>232.25</ele></trkpt>
   <trkpt lon="5.714302" lat="45.140936"><ele>233.0</ele></trkpt>
   <trkpt lon="5.714253" lat="45.140856"><ele>233.0</ele></trkpt>
   <trkpt lon="5.714193" lat="45.140754"><ele>233.0</ele></trkpt>
   <trkpt lon="5.713934" lat="45.140269"><ele>234.0</ele></trkpt>
   <trkpt lon="5.713859" lat="45.140163"><ele>234.0</ele></trkpt>
   <trkpt lon="5.713726" lat="45.140078"><ele>234.0</ele></trkpt>
   <trkpt lon="5.713643" lat="45.140012"><ele>234.0</ele></trkpt>
   <trkpt lon="5.713572" lat="45.139940"><ele>234.0</ele></trkpt>
   <trkpt lon="5.713047" lat="45.138957"><ele>234.0</ele></trkpt>
   <trkpt lon="5.712983" lat="45.138837"><ele>234.0</ele></trkpt>
   <trkpt lon="5.712938" lat="45.138752"><ele>234.25</ele></trkpt>
   <trkpt lon="5.712874" lat="45.138613"><ele>234.25</ele></trkpt>
   <trkpt lon="5.712725" lat="45.138289"><ele>234.75</ele></trkpt>
   <trkpt lon="5.712647" lat="45.138125"><ele>234.75</ele></trkpt>
   <trkpt lon="5.712637" lat="45.138093"><ele>234.75</ele></trkpt>
   <trkpt lon="5.712641" lat="45.138058"><ele>234.75</ele></trkpt>
   <trkpt lon="5.712663" lat="45.138015"><ele>235.0</ele></trkpt>
   <trkpt lon="5.712670" lat="45.137954"><ele>235.0</ele></trkpt>
   <trkpt lon="5.712642" lat="45.137875"><ele>235.0</ele></trkpt>
   <trkpt lon="5.712449" lat="45.137454"><ele>235.0</ele></trkpt>
   <trkpt lon="5.712404" lat="45.137346"><ele>235.0</ele></trkpt>
   <trkpt lon="5.712341" lat="45.137215"><ele>235.0</ele></trkpt>
   <trkpt lon="5.711920" lat="45.136244"><ele>235.75</ele></trkpt>
   <trkpt lon="5.711867" lat="45.136101"><ele>235.75</ele></trkpt>
   <trkpt lon="5.711919" lat="45.136052"><ele>235.75</ele></trkpt>
   <trkpt lon="5.711942" lat="45.136033"><ele>235.5</ele></trkpt>
   <trkpt lon="5.712008" lat="45.135987"><ele>235.5</ele></trkpt>
   <trkpt lon="5.712065" lat="45.135948"><ele>235.5</ele></trkpt>
   <trkpt lon="5.712127" lat="45.135915"><ele>235.75</ele></trkpt>
   <trkpt lon="5.712489" lat="45.135736"><ele>236.0</ele></trkpt>
   <trkpt lon="5.712681" lat="45.135648"><ele>235.75</ele></trkpt>
   <trkpt lon="5.712996" lat="45.135496"><ele>236.0</ele></trkpt>
   <trkpt lon="5.713411" lat="45.135303"><ele>236.75</ele></trkpt>
   <trkpt lon="5.713453" lat="45.135281"><ele>236.75</ele></trkpt>
   <trkpt lon="5.713799" lat="45.135125"><ele>236.75</ele></trkpt>
   <trkpt lon="5.713902" lat="45.135087"><ele>237.0</ele></trkpt>
   <trkpt lon="5.714002" lat="45.135057"><ele>237.0</ele></trkpt>
   <trkpt lon="5.714121" lat="45.134995"><ele>237.0</ele></trkpt>
   <trkpt lon="5.714156" lat="45.134972"><ele>237.0</ele></trkpt>
   <trkpt lon="5.714198" lat="45.134940"><ele>237.25</ele></trkpt>
   <trkpt lon="5.714188" lat="45.134912"><ele>237.25</ele></trkpt>
   <trkpt lon="5.714190" lat="45.134886"><ele>237.25</ele></trkpt>
   <trkpt lon="5.714204" lat="45.134861"><ele>237.5</ele></trkpt>
   <trkpt lon="5.714227" lat="45.134840"><ele>237.75</ele></trkpt>
   <trkpt lon="5.714257" lat="45.134825"><ele>237.75</ele></trkpt>
   <trkpt lon="5.714293" lat="45.134817"><ele>238.0</ele></trkpt>
   <trkpt lon="5.714395" lat="45.134748"><ele>238.5</ele></trkpt>
   <trkpt lon="5.714494" lat="45.134630"><ele>239.25</ele></trkpt>
   <trkpt lon="5.714568" lat="45.134545"><ele>239.75</ele></trkpt>
   <trkpt lon="5.714670" lat="45.134462"><ele>240.0</ele></trkpt>
   <trkpt lon="5.714699" lat="45.134429"><ele>240.0</ele></trkpt>
   <trkpt lon="5.715029" lat="45.134044"><ele>242.25</ele></trkpt>
   <trkpt lon="5.715590" lat="45.133394"><ele>244.5</ele></trkpt>
   <trkpt lon="5.716127" lat="45.132789"><ele>248.75</ele></trkpt>
   <trkpt lon="5.716534" lat="45.132290"><ele>252.75</ele></trkpt>
   <trkpt lon="5.716663" lat="45.132159"><ele>253.25</ele></trkpt>
   <trkpt lon="5.716935" lat="45.131962"><ele>253.0</ele></trkpt>
   <trkpt lon="5.717073" lat="45.131871"><ele>254.25</ele></trkpt>
   <trkpt lon="5.717148" lat="45.131796"><ele>254.75</ele></trkpt>
   <trkpt lon="5.717209" lat="45.131718"><ele>254.75</ele></trkpt>
   <trkpt lon="5.717297" lat="45.131546"><ele>257.25</ele></trkpt>
   <trkpt lon="5.717377" lat="45.131447"><ele>258.25</ele></trkpt>
   <trkpt lon="5.717848" lat="45.131023"><ele>262.25</ele></trkpt>
   <trkpt lon="5.717894" lat="45.130952"><ele>263.5</ele></trkpt>
   <trkpt lon="5.718168" lat="45.130726"><ele>264.75</ele></trkpt>
   <trkpt lon="5.718642" lat="45.130391"><ele>267.0</ele></trkpt>
   <trkpt lon="5.719202" lat="45.130021"><ele>267.25</ele></trkpt>
   <trkpt lon="5.719249" lat="45.129995"><ele>267.25</ele></trkpt>
   <trkpt lon="5.719385" lat="45.129939"><ele>269.0</ele></trkpt>
   <trkpt lon="5.720185" lat="45.129459"><ele>270.25</ele></trkpt>
   <trkpt lon="5.721830" lat="45.128419"><ele>279.5</ele></trkpt>
   <trkpt lon="5.722100" lat="45.128286"><ele>280.75</ele></trkpt>
   <trkpt lon="5.722711" lat="45.127977"><ele>284.75</ele></trkpt>
   <trkpt lon="5.722832" lat="45.127932"><ele>285.5</ele></trkpt>
   <trkpt lon="5.723507" lat="45.127535"><ele>288.0</ele></trkpt>
   <trkpt lon="5.723703" lat="45.127341"><ele>289.75</ele></trkpt>
   <trkpt lon="5.723909" lat="45.127118"><ele>291.0</ele></trkpt>
   <trkpt lon="5.724023" lat="45.127016"><ele>292.75</ele></trkpt>
   <trkpt lon="5.724252" lat="45.126641"><ele>295.0</ele></trkpt>
   <trkpt lon="5.724671" lat="45.126053"><ele>298.0</ele></trkpt>
   <trkpt lon="5.724905" lat="45.125785"><ele>299.0</ele></trkpt>
   <trkpt lon="5.725202" lat="45.125481"><ele>300.5</ele></trkpt>
   <trkpt lon="5.725227" lat="45.125457"><ele>300.5</ele></trkpt>
   <trkpt lon="5.725561" lat="45.125097"><ele>301.25</ele></trkpt>
   <trkpt lon="5.725894" lat="45.124752"><ele>304.5</ele></trkpt>
   <trkpt lon="5.726161" lat="45.124424"><ele>305.5</ele></trkpt>
   <trkpt lon="5.726302" lat="45.124177"><ele>307.0</ele></trkpt>
   <trkpt lon="5.726446" lat="45.123811"><ele>309.75</ele></trkpt>
   <trkpt lon="5.726495" lat="45.123571"><ele>311.75</ele></trkpt>
   <trkpt lon="5.726564" lat="45.123114"><ele>315.75</ele></trkpt>
   <trkpt lon="5.726539" lat="45.122725"><ele>318.75</ele></trkpt>
   <trkpt lon="5.726510" lat="45.122444"><ele>320.0</ele></trkpt>
   <trkpt lon="5.726510" lat="45.122184"><ele>321.5</ele></trkpt>
   <trkpt lon="5.726530" lat="45.122016"><ele>322.75</ele></trkpt>
   <trkpt lon="5.726657" lat="45.121618"><ele>325.5</ele></trkpt>
   <trkpt lon="5.727410" lat="45.119586"><ele>343.25</ele></trkpt>
   <trkpt lon="5.727510" lat="45.119387"><ele>345.0</ele></trkpt>
   <trkpt lon="5.727596" lat="45.119238"><ele>346.75</ele></trkpt>
   <trkpt lon="5.727759" lat="45.119048"><ele>348.0</ele></trkpt>
   <trkpt lon="5.728439" lat="45.118509"><ele>352.75</ele></trkpt>
   <trkpt lon="5.728719" lat="45.118277"><ele>354.25</ele></trkpt>
   <trkpt lon="5.728822" lat="45.118174"><ele>355.75</ele></trkpt>
   <trkpt lon="5.728969" lat="45.118018"><ele>358.0</ele></trkpt>
   <trkpt lon="5.729328" lat="45.117727"><ele>363.5</ele></trkpt>
   <trkpt lon="5.729688" lat="45.117412"><ele>366.75</ele></trkpt>
   <trkpt lon="5.729895" lat="45.117217"><ele>367.25</ele></trkpt>
   <trkpt lon="5.729981" lat="45.117091"><ele>368.0</ele></trkpt>
   <trkpt lon="5.730049" lat="45.116927"><ele>369.0</ele></trkpt>
   <trkpt lon="5.730353" lat="45.116030"><ele>372.0</ele></trkpt>
   <trkpt lon="5.730450" lat="45.115649"><ele>372.75</ele></trkpt>
   <trkpt lon="5.730450" lat="45.115342"><ele>373.75</ele></trkpt>
   <trkpt lon="5.730407" lat="45.115129"><ele>374.5</ele></trkpt>
   <trkpt lon="5.730385" lat="45.114976"><ele>374.5</ele></trkpt>
   <trkpt lon="5.730548" lat="45.115051"><ele>373.75</ele></trkpt>
   <trkpt lon="5.730838" lat="45.115206"><ele>373.0</ele></trkpt>
   <trkpt lon="5.732798" lat="45.116250"><ele>378.0</ele></trkpt>
   <trkpt lon="5.734452" lat="45.116928"><ele>382.0</ele></trkpt>
   <trkpt lon="5.734707" lat="45.117051"><ele>383.0</ele></trkpt>
   <trkpt lon="5.735214" lat="45.117378"><ele>379.25</ele></trkpt>
   <trkpt lon="5.737671" lat="45.119145"><ele>377.75</ele></trkpt>
   <trkpt lon="5.737920" lat="45.119301"><ele>377.5</ele></trkpt>
   <trkpt lon="5.737996" lat="45.119336"><ele>377.5</ele></trkpt>
   <trkpt lon="5.738441" lat="45.119412"><ele>377.75</ele></trkpt>
   <trkpt lon="5.739362" lat="45.119549"><ele>378.25</ele></trkpt>
   <trkpt lon="5.739722" lat="45.119641"><ele>378.75</ele></trkpt>
   <trkpt lon="5.740484" lat="45.119870"><ele>380.0</ele></trkpt>
   <trkpt lon="5.740948" lat="45.119972"><ele>381.0</ele></trkpt>
   <trkpt lon="5.742605" lat="45.120214"><ele>380.0</ele></trkpt>
   <trkpt lon="5.742777" lat="45.120214"><ele>380.0</ele></trkpt>
   <trkpt lon="5.742878" lat="45.120191"><ele>379.5</ele></trkpt>
   <trkpt lon="5.743361" lat="45.119855"><ele>379.5</ele></trkpt>
   <trkpt lon="5.743660" lat="45.119724"><ele>379.75</ele></trkpt>
   <trkpt lon="5.744076" lat="45.119574"><ele>379.5</ele></trkpt>
   <trkpt lon="5.744446" lat="45.119432"><ele>380.0</ele></trkpt>
   <trkpt lon="5.744975" lat="45.119231"><ele>380.0</ele></trkpt>
   <trkpt lon="5.745074" lat="45.119195"><ele>380.0</ele></trkpt>
   <trkpt lon="5.745748" lat="45.118936"><ele>381.0</ele></trkpt>
   <trkpt lon="5.746098" lat="45.118803"><ele>381.0</ele></trkpt>
   <trkpt lon="5.746571" lat="45.118563"><ele>380.25</ele></trkpt>
   <trkpt lon="5.746982" lat="45.118258"><ele>381.25</ele></trkpt>
   <trkpt lon="5.747467" lat="45.117945"><ele>381.25</ele></trkpt>
   <trkpt lon="5.747486" lat="45.117939"><ele>381.25</ele></trkpt>
   <trkpt lon="5.747489" lat="45.117902"><ele>381.5</ele></trkpt>
   <trkpt lon="5.747505" lat="45.117885"><ele>381.5</ele></trkpt>
   <trkpt lon="5.747547" lat="45.117872"><ele>381.5</ele></trkpt>
   <trkpt lon="5.747585" lat="45.117877"><ele>381.5</ele></trkpt>
   <trkpt lon="5.747688" lat="45.117843"><ele>381.75</ele></trkpt>
   <trkpt lon="5.747725" lat="45.117819"><ele>381.75</ele></trkpt>
   <trkpt lon="5.747793" lat="45.117774"><ele>381.75</ele></trkpt>
   <trkpt lon="5.748204" lat="45.117476"><ele>381.5</ele></trkpt>
   <trkpt lon="5.748233" lat="45.117453"><ele>381.5</ele></trkpt>
   <trkpt lon="5.748278" lat="45.117389"><ele>381.75</ele></trkpt>
   <trkpt lon="5.748330" lat="45.117344"><ele>382.0</ele></trkpt>
   <trkpt lon="5.748428" lat="45.117302"><ele>382.0</ele></trkpt>
   <trkpt lon="5.748702" lat="45.117125"><ele>382.0</ele></trkpt>
   <trkpt lon="5.748751" lat="45.117093"><ele>381.75</ele></trkpt>
   <trkpt lon="5.749348" lat="45.116783"><ele>381.75</ele></trkpt>
   <trkpt lon="5.749427" lat="45.116734"><ele>381.75</ele></trkpt>
   <trkpt lon="5.749494" lat="45.116692"><ele>381.75</ele></trkpt>
   <trkpt lon="5.749590" lat="45.116632"><ele>382.0</ele></trkpt>
   <trkpt lon="5.749666" lat="45.116572"><ele>382.25</ele></trkpt>
   <trkpt lon="5.749809" lat="45.116458"><ele>382.25</ele></trkpt>
   <trkpt lon="5.749849" lat="45.116432"><ele>382.25</ele></trkpt>
   <trkpt lon="5.749867" lat="45.116420"><ele>382.25</ele></trkpt>
   <trkpt lon="5.750158" lat="45.116230"><ele>382.75</ele></trkpt>
   <trkpt lon="5.750422" lat="45.116031"><ele>383.25</ele></trkpt>
   <trkpt lon="5.750511" lat="45.115944"><ele>383.5</ele></trkpt>
   <trkpt lon="5.750565" lat="45.115890"><ele>383.75</ele></trkpt>
   <trkpt lon="5.750581" lat="45.115874"><ele>383.75</ele></trkpt>
   <trkpt lon="5.750609" lat="45.115847"><ele>383.75</ele></trkpt>
   <trkpt lon="5.750642" lat="45.115813"><ele>384.0</ele></trkpt>
   <trkpt lon="5.750666" lat="45.115790"><ele>384.0</ele></trkpt>
   <trkpt lon="5.750724" lat="45.115760"><ele>384.25</ele></trkpt>
   <trkpt lon="5.750766" lat="45.115741"><ele>384.25</ele></trkpt>
   <trkpt lon="5.750826" lat="45.115713"><ele>384.25</ele></trkpt>
   <trkpt lon="5.751042" lat="45.115674"><ele>385.0</ele></trkpt>
   <trkpt lon="5.751834" lat="45.115584"><ele>387.5</ele></trkpt>
   <trkpt lon="5.752000" lat="45.115560"><ele>387.75</ele></trkpt>
   <trkpt lon="5.752240" lat="45.115513"><ele>387.5</ele></trkpt>
   <trkpt lon="5.752278" lat="45.115509"><ele>387.5</ele></trkpt>
   <trkpt lon="5.752321" lat="45.115505"><ele>387.5</ele></trkpt>
   <trkpt lon="5.752742" lat="45.115487"><ele>387.5</ele></trkpt>
   <trkpt lon="5.752889" lat="45.115493"><ele>388.0</ele></trkpt>
   <trkpt lon="5.752963" lat="45.115491"><ele>388.25</ele></trkpt>
   <trkpt lon="5.753100" lat="45.115487"><ele>388.75</ele></trkpt>
   <trkpt lon="5.753123" lat="45.115487"><ele>388.75</ele></trkpt>
   <trkpt lon="5.753194" lat="45.115487"><ele>388.75</ele></trkpt>
   <trkpt lon="5.753644" lat="45.115493"><ele>390.0</ele></trkpt>
   <trkpt lon="5.753874" lat="45.115481"><ele>390.25</ele></trkpt>
   <trkpt lon="5.754057" lat="45.115464"><ele>390.5</ele></trkpt>
   <trkpt lon="5.754335" lat="45.115432"><ele>391.5</ele></trkpt>
   <trkpt lon="5.754718" lat="45.115380"><ele>392.5</ele></trkpt>
   <trkpt lon="5.754890" lat="45.115353"><ele>392.75</ele></trkpt>
   <trkpt lon="5.755324" lat="45.115241"><ele>394.25</ele></trkpt>
   <trkpt lon="5.755406" lat="45.115264"><ele>394.25</ele></trkpt>
   <trkpt lon="5.756070" lat="45.115725"><ele>394.0</ele></trkpt>
   <trkpt lon="5.756502" lat="45.116048"><ele>393.75</ele></trkpt>
   <trkpt lon="5.756590" lat="45.116095"><ele>393.75</ele></trkpt>
   <trkpt lon="5.756677" lat="45.116111"><ele>393.75</ele></trkpt>
   <trkpt lon="5.756790" lat="45.116111"><ele>393.5</ele></trkpt>
   <trkpt lon="5.757433" lat="45.116065"><ele>393.0</ele></trkpt>
   <trkpt lon="5.757583" lat="45.116066"><ele>393.0</ele></trkpt>
   <trkpt lon="5.757767" lat="45.116064"><ele>393.0</ele></trkpt>
   <trkpt lon="5.757852" lat="45.116062"><ele>392.5</ele></trkpt>
   <trkpt lon="5.757918" lat="45.116056"><ele>392.25</ele></trkpt>
   <trkpt lon="5.757941" lat="45.116006"><ele>392.25</ele></trkpt>
   <trkpt lon="5.757966" lat="45.115986"><ele>392.25</ele></trkpt>
   <trkpt lon="5.757998" lat="45.115972"><ele>392.0</ele></trkpt>
   <trkpt lon="5.758038" lat="45.115964"><ele>392.0</ele></trkpt>
   <trkpt lon="5.758080" lat="45.115966"><ele>392.0</ele></trkpt>
   <trkpt lon="5.758118" lat="45.115976"><ele>392.0</ele></trkpt>
   <trkpt lon="5.758151" lat="45.115994"><ele>392.0</ele></trkpt>
   <trkpt lon="5.758303" lat="45.116011"><ele>392.0</ele></trkpt>
   <trkpt lon="5.758344" lat="45.116009"><ele>391.75</ele></trkpt>
   <trkpt lon="5.758646" lat="45.116010"><ele>391.25</ele></trkpt>
   <trkpt lon="5.758909" lat="45.116008"><ele>391.25</ele></trkpt>
   <trkpt lon="5.759022" lat="45.116004"><ele>391.25</ele></trkpt>
   <trkpt lon="5.759088" lat="45.115995"><ele>391.25</ele></trkpt>
   <trkpt lon="5.759213" lat="45.115959"><ele>391.5</ele></trkpt>
   <trkpt lon="5.759293" lat="45.115926"><ele>391.5</ele></trkpt>
   <trkpt lon="5.759518" lat="45.115862"><ele>391.75</ele></trkpt>
   <trkpt lon="5.759628" lat="45.115855"><ele>391.75</ele></trkpt>
   <trkpt lon="5.759732" lat="45.115871"><ele>391.75</ele></trkpt>
   <trkpt lon="5.759826" lat="45.115932"><ele>392.0</ele></trkpt>
   <trkpt lon="5.759893" lat="45.116009"><ele>391.75</ele></trkpt>
   <trkpt lon="5.759929" lat="45.116194"><ele>391.25</ele></trkpt>
   <trkpt lon="5.759878" lat="45.116661"><ele>390.5</ele></trkpt>
   <trkpt lon="5.759890" lat="45.116772"><ele>390.75</ele></trkpt>
   <trkpt lon="5.759979" lat="45.117034"><ele>390.5</ele></trkpt>
   <trkpt lon="5.760069" lat="45.117238"><ele>390.25</ele></trkpt>
   <trkpt lon="5.760105" lat="45.117338"><ele>390.75</ele></trkpt>
   <trkpt lon="5.760166" lat="45.117578"><ele>391.25</ele></trkpt>
   <trkpt lon="5.760194" lat="45.117771"><ele>391.5</ele></trkpt>
   <trkpt lon="5.760188" lat="45.118435"><ele>390.5</ele></trkpt>
   <trkpt lon="5.760176" lat="45.118525"><ele>390.25</ele></trkpt>
   <trkpt lon="5.760167" lat="45.118595"><ele>390.0</ele></trkpt>
   <trkpt lon="5.760125" lat="45.118754"><ele>390.25</ele></trkpt>
   <trkpt lon="5.760046" lat="45.118955"><ele>390.0</ele></trkpt>
   <trkpt lon="5.759890" lat="45.119448"><ele>389.75</ele></trkpt>
   <trkpt lon="5.759836" lat="45.119627"><ele>388.75</ele></trkpt>
   <trkpt lon="5.759803" lat="45.119732"><ele>388.5</ele></trkpt>
   <trkpt lon="5.759766" lat="45.119813"><ele>388.25</ele></trkpt>
   <trkpt lon="5.759704" lat="45.119943"><ele>387.75</ele></trkpt>
   <trkpt lon="5.759655" lat="45.120146"><ele>387.5</ele></trkpt>
   <trkpt lon="5.759581" lat="45.120688"><ele>386.5</ele></trkpt>
   <trkpt lon="5.759570" lat="45.120960"><ele>385.25</ele></trkpt>
   <trkpt lon="5.759619" lat="45.121247"><ele>384.0</ele></trkpt>
   <trkpt lon="5.759699" lat="45.121518"><ele>382.25</ele></trkpt>
   <trkpt lon="5.759695" lat="45.121715"><ele>381.0</ele></trkpt>
   <trkpt lon="5.759630" lat="45.121985"><ele>381.0</ele></trkpt>
   <trkpt lon="5.759634" lat="45.122134"><ele>380.5</ele></trkpt>
   <trkpt lon="5.759643" lat="45.122213"><ele>380.25</ele></trkpt>
   <trkpt lon="5.759675" lat="45.122337"><ele>379.75</ele></trkpt>
   <trkpt lon="5.759738" lat="45.122476"><ele>379.25</ele></trkpt>
   <trkpt lon="5.759817" lat="45.122720"><ele>378.25</ele></trkpt>
   <trkpt lon="5.759850" lat="45.122944"><ele>378.0</ele></trkpt>
   <trkpt lon="5.759851" lat="45.123038"><ele>377.75</ele></trkpt>
   <trkpt lon="5.759833" lat="45.123150"><ele>377.75</ele></trkpt>
   <trkpt lon="5.759796" lat="45.123303"><ele>377.5</ele></trkpt>
   <trkpt lon="5.759783" lat="45.123398"><ele>377.5</ele></trkpt>
   <trkpt lon="5.759808" lat="45.123829"><ele>378.75</ele></trkpt>
   <trkpt lon="5.760004" lat="45.124316"><ele>377.75</ele></trkpt>
   <trkpt lon="5.760126" lat="45.124556"><ele>377.0</ele></trkpt>
   <trkpt lon="5.760290" lat="45.124795"><ele>377.0</ele></trkpt>
   <trkpt lon="5.760326" lat="45.124859"><ele>376.5</ele></trkpt>
   <trkpt lon="5.760651" lat="45.125384"><ele>376.75</ele></trkpt>
   <trkpt lon="5.760845" lat="45.125825"><ele>374.25</ele></trkpt>
   <trkpt lon="5.761064" lat="45.126165"><ele>373.0</ele></trkpt>
   <trkpt lon="5.761599" lat="45.126848"><ele>369.25</ele></trkpt>
   <trkpt lon="5.761963" lat="45.127237"><ele>368.75</ele></trkpt>
   <trkpt lon="5.762381" lat="45.127656"><ele>368.25</ele></trkpt>
   <trkpt lon="5.762636" lat="45.127865"><ele>368.25</ele></trkpt>
   <trkpt lon="5.763104" lat="45.128229"><ele>368.75</ele></trkpt>
   <trkpt lon="5.763471" lat="45.128461"><ele>369.5</ele></trkpt>
   <trkpt lon="5.763751" lat="45.128764"><ele>368.75</ele></trkpt>
   <trkpt lon="5.764824" lat="45.129991"><ele>372.0</ele></trkpt>
   <trkpt lon="5.764858" lat="45.130038"><ele>372.0</ele></trkpt>
   <trkpt lon="5.765645" lat="45.131115"><ele>373.5</ele></trkpt>
   <trkpt lon="5.765701" lat="45.131191"><ele>373.75</ele></trkpt>
   <trkpt lon="5.765900" lat="45.131465"><ele>374.0</ele></trkpt>
   <trkpt lon="5.766708" lat="45.132479"><ele>374.5</ele></trkpt>
   <trkpt lon="5.766874" lat="45.132667"><ele>373.75</ele></trkpt>
   <trkpt lon="5.767084" lat="45.132884"><ele>373.25</ele></trkpt>
   <trkpt lon="5.767206" lat="45.132988"><ele>373.0</ele></trkpt>
   <trkpt lon="5.767386" lat="45.133126"><ele>371.75</ele></trkpt>
   <trkpt lon="5.767460" lat="45.133170"><ele>371.25</ele></trkpt>
   <trkpt lon="5.767662" lat="45.133277"><ele>370.25</ele></trkpt>
   <trkpt lon="5.767920" lat="45.133378"><ele>368.75</ele></trkpt>
   <trkpt lon="5.768258" lat="45.133481"><ele>366.25</ele></trkpt>
   <trkpt lon="5.769273" lat="45.133758"><ele>360.25</ele></trkpt>
   <trkpt lon="5.769640" lat="45.133864"><ele>360.0</ele></trkpt>
   <trkpt lon="5.769888" lat="45.133982"><ele>359.5</ele></trkpt>
   <trkpt lon="5.770093" lat="45.134097"><ele>359.5</ele></trkpt>
   <trkpt lon="5.770348" lat="45.134269"><ele>360.0</ele></trkpt>
   <trkpt lon="5.770708" lat="45.134525"><ele>360.25</ele></trkpt>
   <trkpt lon="5.770903" lat="45.134676"><ele>360.25</ele></trkpt>
   <trkpt lon="5.771005" lat="45.134784"><ele>360.5</ele></trkpt>
   <trkpt lon="5.771084" lat="45.134899"><ele>360.75</ele></trkpt>
   <trkpt lon="5.771168" lat="45.135053"><ele>361.0</ele></trkpt>
   <trkpt lon="5.771239" lat="45.135130"><ele>360.75</ele></trkpt>
   <trkpt lon="5.771323" lat="45.135204"><ele>361.0</ele></trkpt>
   <trkpt lon="5.771409" lat="45.135265"><ele>361.0</ele></trkpt>
   <trkpt lon="5.771493" lat="45.135290"><ele>360.75</ele></trkpt>
   <trkpt lon="5.771561" lat="45.135301"><ele>360.75</ele></trkpt>
   <trkpt lon="5.771668" lat="45.135309"><ele>361.0</ele></trkpt>
   <trkpt lon="5.771735" lat="45.135304"><ele>361.0</ele></trkpt>
   <trkpt lon="5.771804" lat="45.135312"><ele>361.25</ele></trkpt>
   <trkpt lon="5.771867" lat="45.135334"><ele>361.5</ele></trkpt>
   <trkpt lon="5.771918" lat="45.135368"><ele>361.5</ele></trkpt>
   <trkpt lon="5.771954" lat="45.135411"><ele>361.25</ele></trkpt>
   <trkpt lon="5.771971" lat="45.135453"><ele>361.25</ele></trkpt>
   <trkpt lon="5.771972" lat="45.135497"><ele>361.0</ele></trkpt>
   <trkpt lon="5.771957" lat="45.135540"><ele>361.0</ele></trkpt>
   <trkpt lon="5.771927" lat="45.135578"><ele>360.75</ele></trkpt>
   <trkpt lon="5.771885" lat="45.135611"><ele>360.75</ele></trkpt>
   <trkpt lon="5.771831" lat="45.135635"><ele>360.5</ele></trkpt>
   <trkpt lon="5.771771" lat="45.135648"><ele>360.25</ele></trkpt>
   <trkpt lon="5.771708" lat="45.135651"><ele>360.25</ele></trkpt>
   <trkpt lon="5.771644" lat="45.135641"><ele>360.25</ele></trkpt>
   <trkpt lon="5.771586" lat="45.135620"><ele>360.25</ele></trkpt>
   <trkpt lon="5.771440" lat="45.135625"><ele>359.75</ele></trkpt>
   <trkpt lon="5.771208" lat="45.135676"><ele>359.5</ele></trkpt>
   <trkpt lon="5.771113" lat="45.135724"><ele>359.25</ele></trkpt>
   <trkpt lon="5.770997" lat="45.135799"><ele>358.5</ele></trkpt>
   <trkpt lon="5.770871" lat="45.135885"><ele>357.5</ele></trkpt>
   <trkpt lon="5.770466" lat="45.136158"><ele>356.5</ele></trkpt>
   <trkpt lon="5.770441" lat="45.136170"><ele>356.5</ele></trkpt>
   <trkpt lon="5.770347" lat="45.136235"><ele>356.25</ele></trkpt>
   <trkpt lon="5.769985" lat="45.136477"><ele>355.25</ele></trkpt>
   <trkpt lon="5.769923" lat="45.136523"><ele>355.0</ele></trkpt>
   <trkpt lon="5.769872" lat="45.136562"><ele>355.0</ele></trkpt>
   <trkpt lon="5.769785" lat="45.136663"><ele>354.75</ele></trkpt>
   <trkpt lon="5.769759" lat="45.136716"><ele>354.5</ele></trkpt>
   <trkpt lon="5.769702" lat="45.137230"><ele>352.75</ele></trkpt>
   <trkpt lon="5.769679" lat="45.137430"><ele>352.25</ele></trkpt>
   <trkpt lon="5.769665" lat="45.137556"><ele>352.0</ele></trkpt>
   <trkpt lon="5.769642" lat="45.137783"><ele>351.25</ele></trkpt>
   <trkpt lon="5.769632" lat="45.137954"><ele>350.25</ele></trkpt>
   <trkpt lon="5.769576" lat="45.138503"><ele>348.5</ele></trkpt>
   <trkpt lon="5.769539" lat="45.138686"><ele>348.0</ele></trkpt>
   <trkpt lon="5.769536" lat="45.138759"><ele>348.0</ele></trkpt>
   <trkpt lon="5.769544" lat="45.138805"><ele>348.0</ele></trkpt>
   <trkpt lon="5.769572" lat="45.138943"><ele>347.5</ele></trkpt>
   <trkpt lon="5.769626" lat="45.139357"><ele>347.25</ele></trkpt>
   <trkpt lon="5.769713" lat="45.140101"><ele>343.0</ele></trkpt>
   <trkpt lon="5.769739" lat="45.140397"><ele>342.25</ele></trkpt>
   <trkpt lon="5.769745" lat="45.140520"><ele>341.75</ele></trkpt>
   <trkpt lon="5.769739" lat="45.141296"><ele>338.75</ele></trkpt>
   <trkpt lon="5.769738" lat="45.141411"><ele>338.0</ele></trkpt>
   <trkpt lon="5.769738" lat="45.141468"><ele>337.75</ele></trkpt>
   <trkpt lon="5.769737" lat="45.141532"><ele>337.5</ele></trkpt>
   <trkpt lon="5.769721" lat="45.142037"><ele>336.0</ele></trkpt>
   <trkpt lon="5.769654" lat="45.142515"><ele>335.5</ele></trkpt>
   <trkpt lon="5.769643" lat="45.142733"><ele>335.0</ele></trkpt>
   <trkpt lon="5.769662" lat="45.142878"><ele>334.75</ele></trkpt>
   <trkpt lon="5.769698" lat="45.143028"><ele>334.25</ele></trkpt>
   <trkpt lon="5.769766" lat="45.143192"><ele>334.25</ele></trkpt>
   <trkpt lon="5.769811" lat="45.143324"><ele>334.25</ele></trkpt>
   <trkpt lon="5.769832" lat="45.143467"><ele>334.5</ele></trkpt>
   <trkpt lon="5.769816" lat="45.143617"><ele>334.0</ele></trkpt>
   <trkpt lon="5.769792" lat="45.143721"><ele>333.0</ele></trkpt>
   <trkpt lon="5.769762" lat="45.143815"><ele>332.5</ele></trkpt>
   <trkpt lon="5.769685" lat="45.144006"><ele>332.5</ele></trkpt>
   <trkpt lon="5.769508" lat="45.144254"><ele>331.5</ele></trkpt>
   <trkpt lon="5.769362" lat="45.144399"><ele>331.0</ele></trkpt>
   <trkpt lon="5.769081" lat="45.144616"><ele>327.75</ele></trkpt>
   <trkpt lon="5.768685" lat="45.144898"><ele>326.5</ele></trkpt>
   <trkpt lon="5.768555" lat="45.144979"><ele>326.0</ele></trkpt>
   <trkpt lon="5.768399" lat="45.145062"><ele>325.5</ele></trkpt>
   <trkpt lon="5.768231" lat="45.145146"><ele>324.75</ele></trkpt>
   <trkpt lon="5.767968" lat="45.145257"><ele>323.5</ele></trkpt>
   <trkpt lon="5.766538" lat="45.145791"><ele>318.0</ele></trkpt>
   <trkpt lon="5.766322" lat="45.145890"><ele>316.75</ele></trkpt>
   <trkpt lon="5.766146" lat="45.146000"><ele>316.0</ele></trkpt>
   <trkpt lon="5.765662" lat="45.146364"><ele>313.25</ele></trkpt>
   <trkpt lon="5.765438" lat="45.146540"><ele>312.25</ele></trkpt>
   <trkpt lon="5.765280" lat="45.146680"><ele>310.0</ele></trkpt>
   <trkpt lon="5.765209" lat="45.146760"><ele>310.0</ele></trkpt>
   <trkpt lon="5.765009" lat="45.147043"><ele>307.75</ele></trkpt>
   <trkpt lon="5.764874" lat="45.147170"><ele>306.25</ele></trkpt>
   <trkpt lon="5.764744" lat="45.147243"><ele>306.0</ele></trkpt>
   <trkpt lon="5.764628" lat="45.147293"><ele>306.0</ele></trkpt>
   <trkpt lon="5.764487" lat="45.147339"><ele>305.0</ele></trkpt>
   <trkpt lon="5.764114" lat="45.147444"><ele>301.25</ele></trkpt>
   <trkpt lon="5.764008" lat="45.147486"><ele>301.25</ele></trkpt>
   <trkpt lon="5.763832" lat="45.147577"><ele>301.0</ele></trkpt>
   <trkpt lon="5.763546" lat="45.147750"><ele>298.25</ele></trkpt>
   <trkpt lon="5.763373" lat="45.147842"><ele>299.0</ele></trkpt>
   <trkpt lon="5.763200" lat="45.147923"><ele>297.25</ele></trkpt>
   <trkpt lon="5.763017" lat="45.147995"><ele>295.5</ele></trkpt>
   <trkpt lon="5.762799" lat="45.148062"><ele>295.25</ele></trkpt>
   <trkpt lon="5.762573" lat="45.148106"><ele>294.75</ele></trkpt>
   <trkpt lon="5.762097" lat="45.148166"><ele>293.25</ele></trkpt>
   <trkpt lon="5.762008" lat="45.148175"><ele>292.5</ele></trkpt>
   <trkpt lon="5.761603" lat="45.148212"><ele>289.25</ele></trkpt>
   <trkpt lon="5.761256" lat="45.148225"><ele>286.5</ele></trkpt>
   <trkpt lon="5.760928" lat="45.148230"><ele>283.25</ele></trkpt>
   <trkpt lon="5.760323" lat="45.148195"><ele>278.5</ele></trkpt>
   <trkpt lon="5.759971" lat="45.148159"><ele>275.75</ele></trkpt>
   <trkpt lon="5.759750" lat="45.148125"><ele>273.75</ele></trkpt>
   <trkpt lon="5.759278" lat="45.148030"><ele>267.5</ele></trkpt>
   <trkpt lon="5.758839" lat="45.147922"><ele>261.25</ele></trkpt>
   <trkpt lon="5.758610" lat="45.147858"><ele>261.25</ele></trkpt>
   <trkpt lon="5.758292" lat="45.147769"><ele>260.5</ele></trkpt>
   <trkpt lon="5.758128" lat="45.147744"><ele>259.0</ele></trkpt>
   <trkpt lon="5.757703" lat="45.147625"><ele>256.25</ele></trkpt>
   <trkpt lon="5.757551" lat="45.147582"><ele>256.0</ele></trkpt>
   <trkpt lon="5.757016" lat="45.147437"><ele>254.25</ele></trkpt>
   <trkpt lon="5.756873" lat="45.147376"><ele>254.0</ele></trkpt>
   <trkpt lon="5.756626" lat="45.147312"><ele>253.5</ele></trkpt>
   <trkpt lon="5.756151" lat="45.147216"><ele>252.0</ele></trkpt>
   <trkpt lon="5.755982" lat="45.147193"><ele>251.5</ele></trkpt>
   <trkpt lon="5.755818" lat="45.147180"><ele>251.0</ele></trkpt>
   <trkpt lon="5.755614" lat="45.147172"><ele>251.0</ele></trkpt>
   <trkpt lon="5.755485" lat="45.147209"><ele>250.5</ele></trkpt>
   <trkpt lon="5.755342" lat="45.147226"><ele>250.0</ele></trkpt>
   <trkpt lon="5.755298" lat="45.147235"><ele>250.0</ele></trkpt>
   <trkpt lon="5.755208" lat="45.147247"><ele>249.75</ele></trkpt>
   <trkpt lon="5.755174" lat="45.147275"><ele>249.5</ele></trkpt>
   <trkpt lon="5.755128" lat="45.147293"><ele>249.5</ele></trkpt>
   <trkpt lon="5.755075" lat="45.147298"><ele>249.5</ele></trkpt>
   <trkpt lon="5.755025" lat="45.147290"><ele>249.5</ele></trkpt>
   <trkpt lon="5.754983" lat="45.147270"><ele>249.5</ele></trkpt>
   <trkpt lon="5.754952" lat="45.147241"><ele>249.5</ele></trkpt>
   <trkpt lon="5.754814" lat="45.147238"><ele>249.0</ele></trkpt>
   <trkpt lon="5.754576" lat="45.147250"><ele>248.75</ele></trkpt>
   <trkpt lon="5.754379" lat="45.147242"><ele>248.5</ele></trkpt>
   <trkpt lon="5.754052" lat="45.147311"><ele>246.75</ele></trkpt>
   <trkpt lon="5.753735" lat="45.147389"><ele>245.5</ele></trkpt>
   <trkpt lon="5.753236" lat="45.147554"><ele>245.0</ele></trkpt>
   <trkpt lon="5.752465" lat="45.147831"><ele>243.5</ele></trkpt>
   <trkpt lon="5.752022" lat="45.148049"><ele>242.75</ele></trkpt>
   <trkpt lon="5.751877" lat="45.148123"><ele>241.75</ele></trkpt>
   <trkpt lon="5.751639" lat="45.148197"><ele>240.5</ele></trkpt>
   <trkpt lon="5.751496" lat="45.148245"><ele>241.0</ele></trkpt>
   <trkpt lon="5.751268" lat="45.148339"><ele>240.75</ele></trkpt>
   <trkpt lon="5.751178" lat="45.148396"><ele>240.25</ele></trkpt>
   <trkpt lon="5.750997" lat="45.148475"><ele>239.75</ele></trkpt>
   <trkpt lon="5.750923" lat="45.148502"><ele>240.0</ele></trkpt>
   <trkpt lon="5.750780" lat="45.148734"><ele>238.5</ele></trkpt>
   <trkpt lon="5.750709" lat="45.148791"><ele>237.75</ele></trkpt>
   <trkpt lon="5.750682" lat="45.148838"><ele>237.5</ele></trkpt>
   <trkpt lon="5.750637" lat="45.148916"><ele>237.0</ele></trkpt>
   <trkpt lon="5.750583" lat="45.149022"><ele>236.5</ele></trkpt>
   <trkpt lon="5.750507" lat="45.149181"><ele>235.75</ele></trkpt>
   <trkpt lon="5.750336" lat="45.149528"><ele>234.5</ele></trkpt>
   <trkpt lon="5.750211" lat="45.149782"><ele>233.5</ele></trkpt>
   <trkpt lon="5.750187" lat="45.149828"><ele>233.25</ele></trkpt>
   <trkpt lon="5.750127" lat="45.149952"><ele>233.0</ele></trkpt>
   <trkpt lon="5.750100" lat="45.150008"><ele>232.75</ele></trkpt>
   <trkpt lon="5.750074" lat="45.150068"><ele>232.75</ele></trkpt>
   <trkpt lon="5.750009" lat="45.150199"><ele>232.25</ele></trkpt>
   <trkpt lon="5.749955" lat="45.150297"><ele>231.75</ele></trkpt>
   <trkpt lon="5.749940" lat="45.150331"><ele>231.75</ele></trkpt>
   <trkpt lon="5.749896" lat="45.150412"><ele>231.5</ele></trkpt>
   <trkpt lon="5.749868" lat="45.150470"><ele>231.25</ele></trkpt>
   <trkpt lon="5.749777" lat="45.150658"><ele>230.5</ele></trkpt>
   <trkpt lon="5.749648" lat="45.150934"><ele>229.5</ele></trkpt>
   <trkpt lon="5.749611" lat="45.151007"><ele>229.25</ele></trkpt>
   <trkpt lon="5.749576" lat="45.151075"><ele>229.0</ele></trkpt>
   <trkpt lon="5.749538" lat="45.151150"><ele>228.75</ele></trkpt>
   <trkpt lon="5.749524" lat="45.151184"><ele>228.5</ele></trkpt>
   <trkpt lon="5.749495" lat="45.151241"><ele>228.5</ele></trkpt>
   <trkpt lon="5.749367" lat="45.151492"><ele>227.5</ele></trkpt>
   <trkpt lon="5.749351" lat="45.151524"><ele>227.5</ele></trkpt>
   <trkpt lon="5.749172" lat="45.151875"><ele>226.25</ele></trkpt>
   <trkpt lon="5.748943" lat="45.152345"><ele>225.0</ele></trkpt>
   <trkpt lon="5.748892" lat="45.152443"><ele>224.75</ele></trkpt>
   <trkpt lon="5.748870" lat="45.152498"><ele>225.0</ele></trkpt>
   <trkpt lon="5.748830" lat="45.152595"><ele>224.5</ele></trkpt>
   <trkpt lon="5.748808" lat="45.152647"><ele>224.25</ele></trkpt>
   <trkpt lon="5.748774" lat="45.152702"><ele>224.25</ele></trkpt>
   <trkpt lon="5.748740" lat="45.152773"><ele>224.0</ele></trkpt>
   <trkpt lon="5.748712" lat="45.152829"><ele>223.75</ele></trkpt>
   <trkpt lon="5.748694" lat="45.152867"><ele>223.75</ele></trkpt>
   <trkpt lon="5.748675" lat="45.152907"><ele>223.75</ele></trkpt>
   <trkpt lon="5.748631" lat="45.152997"><ele>223.75</ele></trkpt>
   <trkpt lon="5.748501" lat="45.153245"><ele>223.25</ele></trkpt>
   <trkpt lon="5.748459" lat="45.153324"><ele>223.0</ele></trkpt>
   <trkpt lon="5.748424" lat="45.153394"><ele>223.0</ele></trkpt>
   <trkpt lon="5.748396" lat="45.153451"><ele>223.0</ele></trkpt>
   <trkpt lon="5.748357" lat="45.153527"><ele>223.0</ele></trkpt>
   <trkpt lon="5.748341" lat="45.153568"><ele>223.0</ele></trkpt>
   <trkpt lon="5.748290" lat="45.153663"><ele>222.75</ele></trkpt>
   <trkpt lon="5.748055" lat="45.154154"><ele>222.0</ele></trkpt>
   <trkpt lon="5.748019" lat="45.154226"><ele>222.0</ele></trkpt>
   <trkpt lon="5.747984" lat="45.154304"><ele>222.0</ele></trkpt>
   <trkpt lon="5.748036" lat="45.154316"><ele>222.0</ele></trkpt>
   <trkpt lon="5.748125" lat="45.154337"><ele>222.0</ele></trkpt>
   <trkpt lon="5.748177" lat="45.154344"><ele>222.0</ele></trkpt>
   <trkpt lon="5.748437" lat="45.154385"><ele>222.0</ele></trkpt>
   <trkpt lon="5.748492" lat="45.154401"><ele>222.0</ele></trkpt>
   <trkpt lon="5.748521" lat="45.154414"><ele>222.0</ele></trkpt>
   <trkpt lon="5.748639" lat="45.154492"><ele>221.75</ele></trkpt>
   <trkpt lon="5.748720" lat="45.154546"><ele>221.75</ele></trkpt>
   <trkpt lon="5.748955" lat="45.154730"><ele>221.0</ele></trkpt>
   <trkpt lon="5.749039" lat="45.154791"><ele>221.0</ele></trkpt>
   <trkpt lon="5.749405" lat="45.155083"><ele>221.0</ele></trkpt>
   <trkpt lon="5.749566" lat="45.155204"><ele>221.0</ele></trkpt>
   <trkpt lon="5.749807" lat="45.155398"><ele>221.0</ele></trkpt>
   <trkpt lon="5.750083" lat="45.155590"><ele>220.75</ele></trkpt>
   <trkpt lon="5.750210" lat="45.155683"><ele>220.5</ele></trkpt>
   <trkpt lon="5.751254" lat="45.156447"><ele>220.0</ele></trkpt>
   <trkpt lon="5.751301" lat="45.156482"><ele>220.0</ele></trkpt>
   <trkpt lon="5.751338" lat="45.156514"><ele>220.0</ele></trkpt>
   <trkpt lon="5.751207" lat="45.156659"><ele>220.0</ele></trkpt>
   <trkpt lon="5.751054" lat="45.156869"><ele>220.0</ele></trkpt>
   <trkpt lon="5.750769" lat="45.157220"><ele>220.0</ele></trkpt>
   <trkpt lon="5.750696" lat="45.157309"><ele>219.75</ele></trkpt>
   <trkpt lon="5.750447" lat="45.157654"><ele>219.0</ele></trkpt>
   <trkpt lon="5.750197" lat="45.157933"><ele>219.5</ele></trkpt>
   <trkpt lon="5.750139" lat="45.158071"><ele>220.5</ele></trkpt>
   <trkpt lon="5.750115" lat="45.158156"><ele>220.75</ele></trkpt>
   <trkpt lon="5.750177" lat="45.158299"><ele>220.25</ele></trkpt>
   <trkpt lon="5.750384" lat="45.158484"><ele>220.0</ele></trkpt>
   <trkpt lon="5.750472" lat="45.158564"><ele>219.25</ele></trkpt>
   <trkpt lon="5.750709" lat="45.158777"><ele>219.5</ele></trkpt>
   <trkpt lon="5.750932" lat="45.158957"><ele>218.5</ele></trkpt>
   <trkpt lon="5.751008" lat="45.159018"><ele>218.75</ele></trkpt>
   <trkpt lon="5.751278" lat="45.159228"><ele>218.5</ele></trkpt>
   <trkpt lon="5.751429" lat="45.159366"><ele>218.0</ele></trkpt>
   <trkpt lon="5.751661" lat="45.159557"><ele>218.75</ele></trkpt>
   <trkpt lon="5.751941" lat="45.159787"><ele>218.0</ele></trkpt>
   <trkpt lon="5.752275" lat="45.160070"><ele>218.0</ele></trkpt>
   <trkpt lon="5.752379" lat="45.160166"><ele>218.0</ele></trkpt>
   <trkpt lon="5.752546" lat="45.160311"><ele>217.75</ele></trkpt>
   <trkpt lon="5.752801" lat="45.160533"><ele>217.0</ele></trkpt>
   <trkpt lon="5.752982" lat="45.160679"><ele>217.0</ele></trkpt>
   <trkpt lon="5.753032" lat="45.160723"><ele>217.0</ele></trkpt>
   <trkpt lon="5.753109" lat="45.160661"><ele>217.0</ele></trkpt>
   <trkpt lon="5.753251" lat="45.160552"><ele>217.0</ele></trkpt>
   <trkpt lon="5.753693" lat="45.160168"><ele>217.25</ele></trkpt>
   <trkpt lon="5.753887" lat="45.160298"><ele>217.0</ele></trkpt>
   <trkpt lon="5.754044" lat="45.160424"><ele>217.0</ele></trkpt>
   <trkpt lon="5.754196" lat="45.160547"><ele>217.0</ele></trkpt>
   <trkpt lon="5.754249" lat="45.160590"><ele>217.0</ele></trkpt>
   <trkpt lon="5.754351" lat="45.160682"><ele>217.0</ele></trkpt>
   <trkpt lon="5.754507" lat="45.160803"><ele>217.0</ele></trkpt>
   <trkpt lon="5.754611" lat="45.160884"><ele>216.75</ele></trkpt>
   <trkpt lon="5.754871" lat="45.161088"><ele>217.0</ele></trkpt>
   <trkpt lon="5.754892" lat="45.161104"><ele>217.0</ele></trkpt>
   <trkpt lon="5.755050" lat="45.161227"><ele>217.25</ele></trkpt>
   <trkpt lon="5.754713" lat="45.161436"><ele>218.5</ele></trkpt>
   <trkpt lon="5.754065" lat="45.161845"><ele>219.0</ele></trkpt>
   <trkpt lon="5.753815" lat="45.162002"><ele>220.0</ele></trkpt>
   <trkpt lon="5.753363" lat="45.162285"></trkpt>
   <trkpt lon="5.753088" lat="45.162458"><ele>218.5</ele></trkpt>
   <trkpt lon="5.751714" lat="45.163346"><ele>216.75</ele></trkpt>
   <trkpt lon="5.751679" lat="45.163370"><ele>216.75</ele></trkpt>
   <trkpt lon="5.751569" lat="45.163444"><ele>216.25</ele></trkpt>
   <trkpt lon="5.751490" lat="45.163495"><ele>216.0</ele></trkpt>
   <trkpt lon="5.751385" lat="45.163561"><ele>216.0</ele></trkpt>
   <trkpt lon="5.751263" lat="45.163640"><ele>216.0</ele></trkpt>
   <trkpt lon="5.751235" lat="45.163658"><ele>216.0</ele></trkpt>
   <trkpt lon="5.751175" lat="45.163696"><ele>216.0</ele></trkpt>
   <trkpt lon="5.751128" lat="45.163724"><ele>216.0</ele></trkpt>
   <trkpt lon="5.751024" lat="45.163785"><ele>216.0</ele></trkpt>
   <trkpt lon="5.750949" lat="45.163833"><ele>216.0</ele></trkpt>
   <trkpt lon="5.750774" lat="45.163943"><ele>216.0</ele></trkpt>
   <trkpt lon="5.750684" lat="45.164002"><ele>216.0</ele></trkpt>
   <trkpt lon="5.750596" lat="45.164058"><ele>216.0</ele></trkpt>
   <trkpt lon="5.750273" lat="45.164261"><ele>216.0</ele></trkpt>
   <trkpt lon="5.749863" lat="45.164520"><ele>216.0</ele></trkpt>
   <trkpt lon="5.749833" lat="45.164537"><ele>216.0</ele></trkpt>
   <trkpt lon="5.749730" lat="45.164606"><ele>216.0</ele></trkpt>
   <trkpt lon="5.749673" lat="45.164645"><ele>216.0</ele></trkpt>
   <trkpt lon="5.749481" lat="45.164766"><ele>216.0</ele></trkpt>
   <trkpt lon="5.749160" lat="45.164957"><ele>216.0</ele></trkpt>
   <trkpt lon="5.749039" lat="45.165036"><ele>216.0</ele></trkpt>
   <trkpt lon="5.748943" lat="45.165098"><ele>216.0</ele></trkpt>
   <trkpt lon="5.748858" lat="45.165151"><ele>216.0</ele></trkpt>
   <trkpt lon="5.748790" lat="45.165192"><ele>216.0</ele></trkpt>
   <trkpt lon="5.748724" lat="45.165235"><ele>216.0</ele></trkpt>
   <trkpt lon="5.748510" lat="45.165370"><ele>216.0</ele></trkpt>
   <trkpt lon="5.748460" lat="45.165401"><ele>216.0</ele></trkpt>
   <trkpt lon="5.748383" lat="45.165450"><ele>216.0</ele></trkpt>
   <trkpt lon="5.748292" lat="45.165507"><ele>216.0</ele></trkpt>
   <trkpt lon="5.748239" lat="45.165547"><ele>216.0</ele></trkpt>
   <trkpt lon="5.748160" lat="45.165595"><ele>216.0</ele></trkpt>
   <trkpt lon="5.748145" lat="45.165604"><ele>216.0</ele></trkpt>
   <trkpt lon="5.748013" lat="45.165686"><ele>215.75</ele></trkpt>
   <trkpt lon="5.747997" lat="45.165696"><ele>215.75</ele></trkpt>
   <trkpt lon="5.747811" lat="45.165818"><ele>215.0</ele></trkpt>
   <trkpt lon="5.747675" lat="45.165901"><ele>215.5</ele></trkpt>
   <trkpt lon="5.747655" lat="45.165913"><ele>215.5</ele></trkpt>
   <trkpt lon="5.747444" lat="45.166047"><ele>216.0</ele></trkpt>
   <trkpt lon="5.747250" lat="45.166181"><ele>216.0</ele></trkpt>
   <trkpt lon="5.747215" lat="45.166205"><ele>216.0</ele></trkpt>
   <trkpt lon="5.746645" lat="45.166561"><ele>216.0</ele></trkpt>
   <trkpt lon="5.746607" lat="45.166585"><ele>216.0</ele></trkpt>
   <trkpt lon="5.746530" lat="45.166633"><ele>216.0</ele></trkpt>
   <trkpt lon="5.746504" lat="45.166649"><ele>216.0</ele></trkpt>
   <trkpt lon="5.746455" lat="45.166680"><ele>216.0</ele></trkpt>
   <trkpt lon="5.746423" lat="45.166700"><ele>216.0</ele></trkpt>
   <trkpt lon="5.746405" lat="45.166712"><ele>216.0</ele></trkpt>
   <trkpt lon="5.746286" lat="45.166791"><ele>216.0</ele></trkpt>
   <trkpt lon="5.746159" lat="45.166853"><ele>216.0</ele></trkpt>
   <trkpt lon="5.744930" lat="45.167637"><ele>216.0</ele></trkpt>
   <trkpt lon="5.744677" lat="45.167795"><ele>216.0</ele></trkpt>
   <trkpt lon="5.744123" lat="45.168144"><ele>216.0</ele></trkpt>
   <trkpt lon="5.744073" lat="45.168173"><ele>216.0</ele></trkpt>
   <trkpt lon="5.744186" lat="45.168329"><ele>216.0</ele></trkpt>
   <trkpt lon="5.744521" lat="45.168876"><ele>216.0</ele></trkpt>
   <trkpt lon="5.744647" lat="45.169221"><ele>215.75</ele></trkpt>
   <trkpt lon="5.744697" lat="45.169358"><ele>215.25</ele></trkpt>
   <trkpt lon="5.744873" lat="45.169839"><ele>215.25</ele></trkpt>
   <trkpt lon="5.745036" lat="45.170344"><ele>215.0</ele></trkpt>
   <trkpt lon="5.745109" lat="45.170569"><ele>215.0</ele></trkpt>
   <trkpt lon="5.745165" lat="45.170700"><ele>215.0</ele></trkpt>
   <trkpt lon="5.745320" lat="45.171242"><ele>215.0</ele></trkpt>
   <trkpt lon="5.745484" lat="45.171719"><ele>215.0</ele></trkpt>
   <trkpt lon="5.745589" lat="45.172019"><ele>214.75</ele></trkpt>
   <trkpt lon="5.745632" lat="45.172086"><ele>214.75</ele></trkpt>
   <trkpt lon="5.745653" lat="45.172118"><ele>214.75</ele></trkpt>
   <trkpt lon="5.745695" lat="45.172243"><ele>214.5</ele></trkpt>
   <trkpt lon="5.745733" lat="45.172366"><ele>214.5</ele></trkpt>
   <trkpt lon="5.745792" lat="45.172545"><ele>214.75</ele></trkpt>
   <trkpt lon="5.745868" lat="45.172638"><ele>214.5</ele></trkpt>
   <trkpt lon="5.745876" lat="45.172679"><ele>214.25</ele></trkpt>
   <trkpt lon="5.745886" lat="45.172734"><ele>214.25</ele></trkpt>
   <trkpt lon="5.745868" lat="45.172795"><ele>214.0</ele></trkpt>
   <trkpt lon="5.745877" lat="45.172976"><ele>214.0</ele></trkpt>
   <trkpt lon="5.745865" lat="45.173092"><ele>214.0</ele></trkpt>
   <trkpt lon="5.745833" lat="45.173201"><ele>214.0</ele></trkpt>
   <trkpt lon="5.745779" lat="45.173339"><ele>214.0</ele></trkpt>
   <trkpt lon="5.745707" lat="45.173495"><ele>214.0</ele></trkpt>
   <trkpt lon="5.745401" lat="45.174185"><ele>214.0</ele></trkpt>
   <trkpt lon="5.745280" lat="45.174449"><ele>214.75</ele></trkpt>
   <trkpt lon="5.745285" lat="45.174478"><ele>214.75</ele></trkpt>
   <trkpt lon="5.745290" lat="45.174507"><ele>214.5</ele></trkpt>
   <trkpt lon="5.745329" lat="45.174558"><ele>214.25</ele></trkpt>
   <trkpt lon="5.745354" lat="45.174607"><ele>214.25</ele></trkpt>
   <trkpt lon="5.745291" lat="45.174743"><ele>214.0</ele></trkpt>
   <trkpt lon="5.745245" lat="45.174842"><ele>214.0</ele></trkpt>
   <trkpt lon="5.745111" lat="45.174882"><ele>214.25</ele></trkpt>
   <trkpt lon="5.744857" lat="45.175017"><ele>213.75</ele></trkpt>
   <trkpt lon="5.744715" lat="45.175161"><ele>213.75</ele></trkpt>
   <trkpt lon="5.744574" lat="45.175298"><ele>213.25</ele></trkpt>
   <trkpt lon="5.744544" lat="45.175331"><ele>213.25</ele></trkpt>
   <trkpt lon="5.744489" lat="45.175393"><ele>213.0</ele></trkpt>
   <trkpt lon="5.744374" lat="45.175505"><ele>213.0</ele></trkpt>
   <trkpt lon="5.744347" lat="45.175533"><ele>213.0</ele></trkpt>
   <trkpt lon="5.744332" lat="45.175549"><ele>213.0</ele></trkpt>
   <trkpt lon="5.744119" lat="45.175773"><ele>213.0</ele></trkpt>
   <trkpt lon="5.743855" lat="45.176044"><ele>213.0</ele></trkpt>
   <trkpt lon="5.743266" lat="45.176650"><ele>213.0</ele></trkpt>
   <trkpt lon="5.743197" lat="45.176731"><ele>212.75</ele></trkpt>
   <trkpt lon="5.743111" lat="45.176898"><ele>213.0</ele></trkpt>
   <trkpt lon="5.743072" lat="45.177017"><ele>213.0</ele></trkpt>
   <trkpt lon="5.743026" lat="45.177191"><ele>213.0</ele></trkpt>
   <trkpt lon="5.743017" lat="45.177223"><ele>213.0</ele></trkpt>
   <trkpt lon="5.742994" lat="45.177295"><ele>213.0</ele></trkpt>
   <trkpt lon="5.742981" lat="45.177364"><ele>213.0</ele></trkpt>
   <trkpt lon="5.742962" lat="45.177446"><ele>213.0</ele></trkpt>
   <trkpt lon="5.742942" lat="45.177498"><ele>213.0</ele></trkpt>
   <trkpt lon="5.742932" lat="45.177525"><ele>213.0</ele></trkpt>
   <trkpt lon="5.742852" lat="45.177741"><ele>213.0</ele></trkpt>
   <trkpt lon="5.742767" lat="45.177986"><ele>213.0</ele></trkpt>
   <trkpt lon="5.742726" lat="45.178089"><ele>213.0</ele></trkpt>
   <trkpt lon="5.742707" lat="45.178132"><ele>213.0</ele></trkpt>
   <trkpt lon="5.742671" lat="45.178225"><ele>213.0</ele></trkpt>
   <trkpt lon="5.742617" lat="45.178381"><ele>212.75</ele></trkpt>
   <trkpt lon="5.742582" lat="45.178483"><ele>212.5</ele></trkpt>
   <trkpt lon="5.742573" lat="45.178507"><ele>212.5</ele></trkpt>
   <trkpt lon="5.742532" lat="45.178626"><ele>212.0</ele></trkpt>
   <trkpt lon="5.742441" lat="45.178853"><ele>212.5</ele></trkpt>
   <trkpt lon="5.742390" lat="45.178980"><ele>212.25</ele></trkpt>
   <trkpt lon="5.742304" lat="45.179203"><ele>212.0</ele></trkpt>
   <trkpt lon="5.742152" lat="45.179577"><ele>212.0</ele></trkpt>
   <trkpt lon="5.742130" lat="45.179630"><ele>212.0</ele></trkpt>
   <trkpt lon="5.742059" lat="45.179788"><ele>212.0</ele></trkpt>
   <trkpt lon="5.742037" lat="45.179828"><ele>212.0</ele></trkpt>
   <trkpt lon="5.741860" lat="45.180140"><ele>212.0</ele></trkpt>
   <trkpt lon="5.741684" lat="45.180419"><ele>212.0</ele></trkpt>
   <trkpt lon="5.741636" lat="45.180487"><ele>212.0</ele></trkpt>
   <trkpt lon="5.741576" lat="45.180580"><ele>212.0</ele></trkpt>
   <trkpt lon="5.741526" lat="45.180654"><ele>212.0</ele></trkpt>
   <trkpt lon="5.741507" lat="45.180688"><ele>212.0</ele></trkpt>
   <trkpt lon="5.741233" lat="45.181136"><ele>212.0</ele></trkpt>
   <trkpt lon="5.741189" lat="45.181213"><ele>212.0</ele></trkpt>
   <trkpt lon="5.741177" lat="45.181242"><ele>212.0</ele></trkpt>
   <trkpt lon="5.741174" lat="45.181250"><ele>212.0</ele></trkpt>
   <trkpt lon="5.741135" lat="45.181346"><ele>212.0</ele></trkpt>
   <trkpt lon="5.741016" lat="45.181637"><ele>212.0</ele></trkpt>
   <trkpt lon="5.740994" lat="45.181685"><ele>212.0</ele></trkpt>
   <trkpt lon="5.740977" lat="45.181740"><ele>212.0</ele></trkpt>
   <trkpt lon="5.740958" lat="45.181815"><ele>212.0</ele></trkpt>
   <trkpt lon="5.740871" lat="45.182146"><ele>212.0</ele></trkpt>
   <trkpt lon="5.740854" lat="45.182262"><ele>212.0</ele></trkpt>
   <trkpt lon="5.740884" lat="45.182419"><ele>212.0</ele></trkpt>
   <trkpt lon="5.740979" lat="45.182780"><ele>212.0</ele></trkpt>
   <trkpt lon="5.741080" lat="45.183161"><ele>212.0</ele></trkpt>
   <trkpt lon="5.741103" lat="45.183259"><ele>212.0</ele></trkpt>
   <trkpt lon="5.741112" lat="45.183362"><ele>212.0</ele></trkpt>
   <trkpt lon="5.741093" lat="45.183585"><ele>212.0</ele></trkpt>
   <trkpt lon="5.741066" lat="45.183701"><ele>212.0</ele></trkpt>
   <trkpt lon="5.741054" lat="45.183762"><ele>212.0</ele></trkpt>
   <trkpt lon="5.741047" lat="45.183800"><ele>212.0</ele></trkpt>
   <trkpt lon="5.741034" lat="45.183863"><ele>212.0</ele></trkpt>
   <trkpt lon="5.741026" lat="45.183911"><ele>212.0</ele></trkpt>
   <trkpt lon="5.741021" lat="45.183937"><ele>212.0</ele></trkpt>
   <trkpt lon="5.740933" lat="45.184297"><ele>212.0</ele></trkpt>
   <trkpt lon="5.740947" lat="45.184341"><ele>212.0</ele></trkpt>
   <trkpt lon="5.740947" lat="45.184435"><ele>212.0</ele></trkpt>
   <trkpt lon="5.740866" lat="45.184517"><ele>212.0</ele></trkpt>
   <trkpt lon="5.741055" lat="45.184639"><ele>212.0</ele></trkpt>
   <trkpt lon="5.741107" lat="45.184673"><ele>211.75</ele></trkpt>
   <trkpt lon="5.741144" lat="45.184697"><ele>212.0</ele></trkpt>
   <trkpt lon="5.741411" lat="45.184873"><ele>212.0</ele></trkpt>
   <trkpt lon="5.741641" lat="45.185021"><ele>212.0</ele></trkpt>
   <trkpt lon="5.741725" lat="45.185075"><ele>212.0</ele></trkpt>
   <trkpt lon="5.742127" lat="45.185334"><ele>212.0</ele></trkpt>
   <trkpt lon="5.742361" lat="45.185481"><ele>212.0</ele></trkpt>
   <trkpt lon="5.742581" lat="45.185620"><ele>212.0</ele></trkpt>
   <trkpt lon="5.742600" lat="45.185631"><ele>212.0</ele></trkpt>
   <trkpt lon="5.742665" lat="45.185673"><ele>212.0</ele></trkpt>
   <trkpt lon="5.742722" lat="45.185709"><ele>212.0</ele></trkpt>
   <trkpt lon="5.742844" lat="45.185788"><ele>212.0</ele></trkpt>
   <trkpt lon="5.742798" lat="45.185875"><ele>212.0</ele></trkpt>
   <trkpt lon="5.742783" lat="45.185903"><ele>211.75</ele></trkpt>
   <trkpt lon="5.742772" lat="45.185926"><ele>212.0</ele></trkpt>
   <trkpt lon="5.742731" lat="45.186013"><ele>212.0</ele></trkpt>
   <trkpt lon="5.742570" lat="45.186359"><ele>212.0</ele></trkpt>
   <trkpt lon="5.742347" lat="45.186844"><ele>212.0</ele></trkpt>
   <trkpt lon="5.742334" lat="45.186874"><ele>212.0</ele></trkpt>
   <trkpt lon="5.742316" lat="45.186913"><ele>212.0</ele></trkpt>
   <trkpt lon="5.742377" lat="45.186982"><ele>212.0</ele></trkpt>
   <trkpt lon="5.742396" lat="45.187008"><ele>212.0</ele></trkpt>
   <trkpt lon="5.742422" lat="45.187045"><ele>212.0</ele></trkpt>
   <trkpt lon="5.742434" lat="45.187062"><ele>212.0</ele></trkpt>
   <trkpt lon="5.742440" lat="45.187072"><ele>212.0</ele></trkpt>
   <trkpt lon="5.742452" lat="45.187097"><ele>212.0</ele></trkpt>
   <trkpt lon="5.742468" lat="45.187136"><ele>212.0</ele></trkpt>
   <trkpt lon="5.742458" lat="45.187255"><ele>212.0</ele></trkpt>
   <trkpt lon="5.742498" lat="45.187437"><ele>212.0</ele></trkpt>
   <trkpt lon="5.742526" lat="45.187718"><ele>212.75</ele></trkpt>
   <trkpt lon="5.742465" lat="45.187979"><ele>213.0</ele></trkpt>
   <trkpt lon="5.742386" lat="45.188199"><ele>213.5</ele></trkpt>
   <trkpt lon="5.742314" lat="45.188271"><ele>213.75</ele></trkpt>
   <trkpt lon="5.742261" lat="45.188369"><ele>214.0</ele></trkpt>
   <trkpt lon="5.742268" lat="45.188462"><ele>214.0</ele></trkpt>
   <trkpt lon="5.742189" lat="45.188525"><ele>213.75</ele></trkpt>
   <trkpt lon="5.741744" lat="45.188910"><ele>213.25</ele></trkpt>
   <trkpt lon="5.741508" lat="45.189115"><ele>214.0</ele></trkpt>
   <trkpt lon="5.741354" lat="45.189276"><ele>213.5</ele></trkpt>
   <trkpt lon="5.741447" lat="45.189318"><ele>213.75</ele></trkpt>
   <trkpt lon="5.741332" lat="45.189446"><ele>212.75</ele></trkpt>
   <trkpt lon="5.741225" lat="45.189680"><ele>214.25</ele></trkpt>
   <trkpt lon="5.741204" lat="45.189808"><ele>214.5</ele></trkpt>
   <trkpt lon="5.741178" lat="45.190040"><ele>214.25</ele></trkpt>
   <trkpt lon="5.741204" lat="45.190232"><ele>214.75</ele></trkpt>
   <trkpt lon="5.741262" lat="45.190232"><ele>214.75</ele></trkpt>
   <trkpt lon="5.741331" lat="45.190227"><ele>214.75</ele></trkpt>
   <trkpt lon="5.741457" lat="45.190383"><ele>214.5</ele></trkpt>
   <trkpt lon="5.741570" lat="45.190562"><ele>213.5</ele></trkpt>
   <trkpt lon="5.741602" lat="45.190581"><ele>213.0</ele></trkpt>
   <trkpt lon="5.741588" lat="45.190601"><ele>213.0</ele></trkpt>
   <trkpt lon="5.741465" lat="45.190834"><ele>212.5</ele></trkpt>
   <trkpt lon="5.741436" lat="45.190913"><ele>213.0</ele></trkpt>
   <trkpt lon="5.741344" lat="45.191256"><ele>213.25</ele></trkpt>
   <trkpt lon="5.741338" lat="45.191316"><ele>213.25</ele></trkpt>
   <trkpt lon="5.741205" lat="45.191388"><ele>213.0</ele></trkpt>
   <trkpt lon="5.741147" lat="45.191456"><ele>213.25</ele></trkpt>
   <trkpt lon="5.741058" lat="45.191563"><ele>214.25</ele></trkpt>
   <trkpt lon="5.741031" lat="45.191612"><ele>214.5</ele></trkpt>
   <trkpt lon="5.740944" lat="45.191607"><ele>214.5</ele></trkpt>
   <trkpt lon="5.740905" lat="45.191605"><ele>214.5</ele></trkpt>
   <trkpt lon="5.740726" lat="45.191596"><ele>213.75</ele></trkpt>
   <trkpt lon="5.739860" lat="45.191552"><ele>213.0</ele></trkpt>
   <trkpt lon="5.739710" lat="45.191543"><ele>213.0</ele></trkpt>
   <trkpt lon="5.739560" lat="45.191533"><ele>213.0</ele></trkpt>
   <trkpt lon="5.739386" lat="45.191527"><ele>213.0</ele></trkpt>
   <trkpt lon="5.739263" lat="45.191525"><ele>213.0</ele></trkpt>
   <trkpt lon="5.739134" lat="45.191523"><ele>213.0</ele></trkpt>
   <trkpt lon="5.739043" lat="45.191539"><ele>213.0</ele></trkpt>
   <trkpt lon="5.738963" lat="45.191527"><ele>213.0</ele></trkpt>
   <trkpt lon="5.738916" lat="45.191520"><ele>213.0</ele></trkpt>
   <trkpt lon="5.738821" lat="45.191481"><ele>213.0</ele></trkpt>
   <trkpt lon="5.738701" lat="45.191403"><ele>213.0</ele></trkpt>
   <trkpt lon="5.738629" lat="45.191347"><ele>213.0</ele></trkpt>
   <trkpt lon="5.738530" lat="45.191277"><ele>213.0</ele></trkpt>
   <trkpt lon="5.738395" lat="45.191193"><ele>213.0</ele></trkpt>
   <trkpt lon="5.738317" lat="45.191133"><ele>213.0</ele></trkpt>
   <trkpt lon="5.738100" lat="45.191018"><ele>212.75</ele></trkpt>
   <trkpt lon="5.737911" lat="45.190950"><ele>212.5</ele></trkpt>
   <trkpt lon="5.737651" lat="45.190852"><ele>212.0</ele></trkpt>
   <trkpt lon="5.737503" lat="45.190818"><ele>212.0</ele></trkpt>
   <trkpt lon="5.737384" lat="45.190827"><ele>212.0</ele></trkpt>
   <trkpt lon="5.737270" lat="45.190862"><ele>212.0</ele></trkpt>
   <trkpt lon="5.736884" lat="45.191086"><ele>212.0</ele></trkpt>
   <trkpt lon="5.736822" lat="45.191123"><ele>212.0</ele></trkpt>
   <trkpt lon="5.736753" lat="45.191138"><ele>212.0</ele></trkpt>
   <trkpt lon="5.736712" lat="45.191132"><ele>212.0</ele></trkpt>
   <trkpt lon="5.736454" lat="45.191034"><ele>212.0</ele></trkpt>
   <trkpt lon="5.735920" lat="45.190839"><ele>212.0</ele></trkpt>
   <trkpt lon="5.735899" lat="45.190832"><ele>212.0</ele></trkpt>
   <trkpt lon="5.735815" lat="45.190800"><ele>212.0</ele></trkpt>
   <trkpt lon="5.735744" lat="45.190775"><ele>211.75</ele></trkpt>
   <trkpt lon="5.735524" lat="45.190693"><ele>212.0</ele></trkpt>
   <trkpt lon="5.734776" lat="45.190424"><ele>211.5</ele></trkpt>
   <trkpt lon="5.734721" lat="45.190404"><ele>211.25</ele></trkpt>
   <trkpt lon="5.734658" lat="45.190382"><ele>211.25</ele></trkpt>
   <trkpt lon="5.733745" lat="45.190053"><ele>211.0</ele></trkpt>
   <trkpt lon="5.733691" lat="45.190033"><ele>211.0</ele></trkpt>
   <trkpt lon="5.733643" lat="45.190016"><ele>211.0</ele></trkpt>
   <trkpt lon="5.733558" lat="45.189989"><ele>211.0</ele></trkpt>
   <trkpt lon="5.733431" lat="45.189925"><ele>211.25</ele></trkpt>
   <trkpt lon="5.733128" lat="45.189809"><ele>211.25</ele></trkpt>
   <trkpt lon="5.733027" lat="45.189773"><ele>211.25</ele></trkpt>
   <trkpt lon="5.732790" lat="45.189689"><ele>211.75</ele></trkpt>
   <trkpt lon="5.732610" lat="45.189646"><ele>212.0</ele></trkpt>
   <trkpt lon="5.732596" lat="45.189640"><ele>212.0</ele></trkpt>
   <trkpt lon="5.732543" lat="45.189620"><ele>212.0</ele></trkpt>
   <trkpt lon="5.732292" lat="45.189526"><ele>211.75</ele></trkpt>
   <trkpt lon="5.731935" lat="45.189394"><ele>211.0</ele></trkpt>
   <trkpt lon="5.731769" lat="45.189330"><ele>211.0</ele></trkpt>
   <trkpt lon="5.731738" lat="45.189318"><ele>211.0</ele></trkpt>
   <trkpt lon="5.731692" lat="45.189301"><ele>211.0</ele></trkpt>
   <trkpt lon="5.731642" lat="45.189282"><ele>211.0</ele></trkpt>
   <trkpt lon="5.731596" lat="45.189265"><ele>211.0</ele></trkpt>
   <trkpt lon="5.731417" lat="45.189205"><ele>210.75</ele></trkpt>
   <trkpt lon="5.731155" lat="45.189117"><ele>211.0</ele></trkpt>
   <trkpt lon="5.730944" lat="45.189046"><ele>211.0</ele></trkpt>
   <trkpt lon="5.730892" lat="45.189029"><ele>211.0</ele></trkpt>
   <trkpt lon="5.730862" lat="45.189055"><ele>211.0</ele></trkpt>
   <trkpt lon="5.730619" lat="45.189361"><ele>211.5</ele></trkpt>
   <trkpt lon="5.730609" lat="45.189373"><ele>211.5</ele></trkpt>
   <trkpt lon="5.730588" lat="45.189399"><ele>211.5</ele></trkpt>
   <trkpt lon="5.729755" lat="45.189116"><ele>211.0</ele></trkpt>
   <trkpt lon="5.729453" lat="45.189015"><ele>211.0</ele></trkpt>
   <trkpt lon="5.729383" lat="45.188992"><ele>211.0</ele></trkpt>
   <trkpt lon="5.729318" lat="45.188969"><ele>211.0</ele></trkpt>
   <trkpt lon="5.728692" lat="45.188740"><ele>211.0</ele></trkpt>
   <trkpt lon="5.728643" lat="45.188720"><ele>211.0</ele></trkpt>
   <trkpt lon="5.728602" lat="45.188709"><ele>211.0</ele></trkpt>
   <trkpt lon="5.728049" lat="45.188521"><ele>211.0</ele></trkpt>
   <trkpt lon="5.727750" lat="45.188421"><ele>211.5</ele></trkpt>
   <trkpt lon="5.727648" lat="45.188387"><ele>211.75</ele></trkpt>
   <trkpt lon="5.727555" lat="45.188357"><ele>211.75</ele></trkpt>
   <trkpt lon="5.727494" lat="45.188337"><ele>211.75</ele></trkpt>
   <trkpt lon="5.727107" lat="45.188198"><ele>212.0</ele></trkpt>
   <trkpt lon="5.726765" lat="45.188074"><ele>212.25</ele></trkpt>
   <trkpt lon="5.726660" lat="45.188036"><ele>212.0</ele></trkpt>
   <trkpt lon="5.726565" lat="45.188000"><ele>212.25</ele></trkpt>
   <trkpt lon="5.726442" lat="45.187979"><ele>212.75</ele></trkpt>
   <trkpt lon="5.726334" lat="45.187950"><ele>212.75</ele></trkpt>
   <trkpt lon="5.725706" lat="45.187918"><ele>212.0</ele></trkpt>
   <trkpt lon="5.725056" lat="45.187877"><ele>212.0</ele></trkpt>
   <trkpt lon="5.724822" lat="45.187860"><ele>212.0</ele></trkpt>
   <trkpt lon="5.724047" lat="45.187814"><ele>212.0</ele></trkpt>
   <trkpt lon="5.723905" lat="45.187803"><ele>212.0</ele></trkpt>
   <trkpt lon="5.723659" lat="45.187803"><ele>212.0</ele></trkpt>
   <trkpt lon="5.723548" lat="45.187798"><ele>212.0</ele></trkpt>
   <trkpt lon="5.723468" lat="45.187929"><ele>212.0</ele></trkpt>
   <trkpt lon="5.723443" lat="45.187965"><ele>212.0</ele></trkpt>
   <trkpt lon="5.723253" lat="45.188236"><ele>212.0</ele></trkpt>
   <trkpt lon="5.723148" lat="45.188386"><ele>212.0</ele></trkpt>
   <trkpt lon="5.722998" lat="45.188597"><ele>212.0</ele></trkpt>
   <trkpt lon="5.722923" lat="45.188703"><ele>212.0</ele></trkpt>
   <trkpt lon="5.722836" lat="45.188828"><ele>212.0</ele></trkpt>
   <trkpt lon="5.722798" lat="45.188884"><ele>212.0</ele></trkpt>
   <trkpt lon="5.722734" lat="45.188980"><ele>212.0</ele></trkpt>
   <trkpt lon="5.722708" lat="45.189017"><ele>212.0</ele></trkpt>
   <trkpt lon="5.722699" lat="45.189030"><ele>212.0</ele></trkpt>
   <trkpt lon="5.722688" lat="45.189047"><ele>212.0</ele></trkpt>
   <trkpt lon="5.722650" lat="45.189104"><ele>212.0</ele></trkpt>
   <trkpt lon="5.722629" lat="45.189135"><ele>212.0</ele></trkpt>
   <trkpt lon="5.722582" lat="45.189204"><ele>212.0</ele></trkpt>
   <trkpt lon="5.722533" lat="45.189276"><ele>212.0</ele></trkpt>
   <trkpt lon="5.722500" lat="45.189325"><ele>212.0</ele></trkpt>
   <trkpt lon="5.722278" lat="45.189659"><ele>212.0</ele></trkpt>
   <trkpt lon="5.722203" lat="45.189669"><ele>212.0</ele></trkpt>
   <trkpt lon="5.722132" lat="45.189678"><ele>212.0</ele></trkpt>
   <trkpt lon="5.721262" lat="45.189816"><ele>211.5</ele></trkpt>
   <trkpt lon="5.721199" lat="45.189826"><ele>211.5</ele></trkpt>
   <trkpt lon="5.721120" lat="45.189835"><ele>211.25</ele></trkpt>
   <trkpt lon="5.720491" lat="45.189942"><ele>211.0</ele></trkpt>
   <trkpt lon="5.720089" lat="45.190014"><ele>211.0</ele></trkpt>
   <trkpt lon="5.719971" lat="45.190035"><ele>211.0</ele></trkpt>
   <trkpt lon="5.719943" lat="45.190040"><ele>211.0</ele></trkpt>
   <trkpt lon="5.719929" lat="45.189997"><ele>211.0</ele></trkpt>
   <trkpt lon="5.719995" lat="45.189985"><ele>211.25</ele></trkpt>
  </trkseg>
 </trk>
</gpx>
