<?xml version="1.0" encoding="UTF-8"?>
<gpx version="1.1" creator="BRouter paired review" xmlns="http://www.topografix.com/GPX/1/1">
<trk><name>Route A</name><trkseg>
<trkpt lat="45.189985" lon="5.719995"><ele>211.0</ele></trkpt>
<trkpt lat="45.189997" lon="5.719929"><ele>211.0</ele></trkpt>
<trkpt lat="45.189622" lon="5.719808"><ele>211.0</ele></trkpt>
<trkpt lat="45.189560" lon="5.719752"><ele>211.0</ele></trkpt>
<trkpt lat="45.189499" lon="5.719734"><ele>211.0</ele></trkpt>
<trkpt lat="45.189483" lon="5.719729"><ele>211.0</ele></trkpt>
<trkpt lat="45.189497" lon="5.719636"><ele>210.75</ele></trkpt>
<trkpt lat="45.189507" lon="5.719567"><ele>211.0</ele></trkpt>
<trkpt lat="45.189513" lon="5.719519"><ele>211.0</ele></trkpt>
<trkpt lat="45.189526" lon="5.719433"><ele>211.0</ele></trkpt>
<trkpt lat="45.189504" lon="5.719425"><ele>211.0</ele></trkpt>
<trkpt lat="45.189498" lon="5.719423"><ele>211.0</ele></trkpt>
<trkpt lat="45.189436" lon="5.719400"><ele>211.0</ele></trkpt>
<trkpt lat="45.189389" lon="5.719384"><ele>211.0</ele></trkpt>
<trkpt lat="45.189231" lon="5.719334"><ele>211.0</ele></trkpt>
<trkpt lat="45.188682" lon="5.719148"><ele>211.0</ele></trkpt>
<trkpt lat="45.188510" lon="5.719102"><ele>211.0</ele></trkpt>
<trkpt lat="45.188392" lon="5.719061"><ele>211.0</ele></trkpt>
<trkpt lat="45.188280" lon="5.719020"><ele>211.0</ele></trkpt>
<trkpt lat="45.188178" lon="5.718982"><ele>211.0</ele></trkpt>
<trkpt lat="45.188169" lon="5.718978"><ele>211.0</ele></trkpt>
<trkpt lat="45.188138" lon="5.718969"><ele>211.0</ele></trkpt>
<trkpt lat="45.188049" lon="5.718928"><ele>211.0</ele></trkpt>
<trkpt lat="45.188000" lon="5.718921"><ele>211.0</ele></trkpt>
<trkpt lat="45.187928" lon="5.718910"><ele>211.0</ele></trkpt>
<trkpt lat="45.187790" lon="5.718873"><ele>211.0</ele></trkpt>
<trkpt lat="45.187641" lon="5.718827"><ele>211.25</ele></trkpt>
<trkpt lat="45.187065" lon="5.718621"><ele>211.5</ele></trkpt>
<trkpt lat="45.186808" lon="5.718542"><ele>212.0</ele></trkpt>
<trkpt lat="45.186234" lon="5.718352"><ele>212.0</ele></trkpt>
<trkpt lat="45.186141" lon="5.718295"><ele>212.0</ele></trkpt>
<trkpt lat="45.186021" lon="5.718262"><ele>212.0</ele></trkpt>
<trkpt lat="45.186000" lon="5.718256"><ele>212.0</ele></trkpt>
<trkpt lat="45.185969" lon="5.718244"><ele>212.0</ele></trkpt>
<trkpt lat="45.185872" lon="5.718213"><ele>212.0</ele></trkpt>
<trkpt lat="45.185756" lon="5.718183"><ele>212.0</ele></trkpt>
<trkpt lat="45.185664" lon="5.718154"><ele>212.0</ele></trkpt>
<trkpt lat="45.185575" lon="5.718042"><ele>211.75</ele></trkpt>
<trkpt lat="45.185193" lon="5.717914"><ele>212.0</ele></trkpt>
<trkpt lat="45.185153" lon="5.717902"><ele>212.0</ele></trkpt>
<trkpt lat="45.184858" lon="5.717792"><ele>212.0</ele></trkpt>
<trkpt lat="45.184707" lon="5.717742"><ele>212.0</ele></trkpt>
<trkpt lat="45.184626" lon="5.717707"><ele>212.25</ele></trkpt>
<trkpt lat="45.184598" lon="5.717696"><ele>212.25</ele></trkpt>
<trkpt lat="45.184523" lon="5.717668"><ele>212.5</ele></trkpt>
<trkpt lat="45.184165" lon="5.717552"><ele>213.0</ele></trkpt>
<trkpt lat="45.184019" lon="5.717506"><ele>213.0</ele></trkpt>
<trkpt lat="45.183827" lon="5.717439"><ele>213.0</ele></trkpt>
<trkpt lat="45.183787" lon="5.717429"><ele>213.0</ele></trkpt>
<trkpt lat="45.183178" lon="5.717228"><ele>213.0</ele></trkpt>
<trkpt lat="45.183092" lon="5.717154"><ele>213.0</ele></trkpt>
<trkpt lat="45.183016" lon="5.717132"><ele>213.0</ele></trkpt>
<trkpt lat="45.182983" lon="5.717121"><ele>213.0</ele></trkpt>
<trkpt lat="45.182813" lon="5.717067"><ele>213.25</ele></trkpt>
<trkpt lat="45.182749" lon="5.717047"><ele>213.25</ele></trkpt>
<trkpt lat="45.182675" lon="5.717024"><ele>213.5</ele></trkpt>
<trkpt lat="45.182566" lon="5.717030"><ele>213.75</ele></trkpt>
<trkpt lat="45.181868" lon="5.716799"><ele>214.0</ele></trkpt>
<trkpt lat="45.181694" lon="5.716738"><ele>213.75</ele></trkpt>
<trkpt lat="45.181394" lon="5.716630"><ele>214.0</ele></trkpt>
<trkpt lat="45.181172" lon="5.716554"><ele>214.0</ele></trkpt>
<trkpt lat="45.181076" lon="5.716556"><ele>214.0</ele></trkpt>
<trkpt lat="45.180753" lon="5.716450"><ele>214.25</ele></trkpt>
<trkpt lat="45.180742" lon="5.716447"><ele>214.25</ele></trkpt>
<trkpt lat="45.180688" lon="5.716429"><ele>214.5</ele></trkpt>
<trkpt lat="45.180474" lon="5.716326"><ele>215.0</ele></trkpt>
<trkpt lat="45.180384" lon="5.716278"><ele>215.0</ele></trkpt>
<trkpt lat="45.180360" lon="5.716273"><ele>215.0</ele></trkpt>
<trkpt lat="45.180330" lon="5.716266"><ele>215.0</ele></trkpt>
<trkpt lat="45.180288" lon="5.716257"><ele>215.0</ele></trkpt>
<trkpt lat="45.180217" lon="5.716256"><ele>215.0</ele></trkpt>
<trkpt lat="45.180071" lon="5.716227"><ele>215.0</ele></trkpt>
<trkpt lat="45.179793" lon="5.716126"><ele>215.0</ele></trkpt>
<trkpt lat="45.179715" lon="5.716039"><ele>215.0</ele></trkpt>
<trkpt lat="45.179535" lon="5.715972"><ele>215.0</ele></trkpt>
<trkpt lat="45.178842" lon="5.715739"><ele>215.0</ele></trkpt>
<trkpt lat="45.178778" lon="5.715720"><ele>215.0</ele></trkpt>
<trkpt lat="45.178690" lon="5.715691"><ele>215.0</ele></trkpt>
<trkpt lat="45.177959" lon="5.715453"><ele>216.0</ele></trkpt>
<trkpt lat="45.177811" lon="5.715406"><ele>216.0</ele></trkpt>
<trkpt lat="45.177754" lon="5.715389"><ele>216.0</ele></trkpt>
<trkpt lat="45.177721" lon="5.715359"><ele>216.0</ele></trkpt>
<trkpt lat="45.177650" lon="5.715336"><ele>216.0</ele></trkpt>
<trkpt lat="45.177509" lon="5.715293"><ele>216.0</ele></trkpt>
<trkpt lat="45.177108" lon="5.715161"><ele>216.0</ele></trkpt>
<trkpt lat="45.176597" lon="5.714990"><ele>216.0</ele></trkpt>
<trkpt lat="45.176338" lon="5.714906"><ele>216.0</ele></trkpt>
<trkpt lat="45.175786" lon="5.714723"><ele>217.0</ele></trkpt>
<trkpt lat="45.175393" lon="5.714596"><ele>217.0</ele></trkpt>
<trkpt lat="45.175249" lon="5.714495"><ele>217.0</ele></trkpt>
<trkpt lat="45.175095" lon="5.714447"><ele>216.75</ele></trkpt>
<trkpt lat="45.174981" lon="5.714406"><ele>217.0</ele></trkpt>
<trkpt lat="45.174730" lon="5.714334"><ele>217.0</ele></trkpt>
<trkpt lat="45.174700" lon="5.714336"><ele>217.0</ele></trkpt>
<trkpt lat="45.174620" lon="5.714313"><ele>217.25</ele></trkpt>
<trkpt lat="45.174424" lon="5.714255"><ele>218.0</ele></trkpt>
<trkpt lat="45.174311" lon="5.714223"><ele>218.0</ele></trkpt>
<trkpt lat="45.174284" lon="5.714214"><ele>218.0</ele></trkpt>
<trkpt lat="45.174065" lon="5.714151"><ele>217.75</ele></trkpt>
<trkpt lat="45.173753" lon="5.714042"><ele>217.5</ele></trkpt>
<trkpt lat="45.173522" lon="5.713965"><ele>217.75</ele></trkpt>
<trkpt lat="45.173474" lon="5.713949"><ele>217.75</ele></trkpt>
<trkpt lat="45.173389" lon="5.713921"><ele>217.75</ele></trkpt>
<trkpt lat="45.173246" lon="5.713874"><ele>218.0</ele></trkpt>
<trkpt lat="45.173216" lon="5.713864"><ele>218.0</ele></trkpt>
<trkpt lat="45.172626" lon="5.713674"><ele>218.0</ele></trkpt>
<trkpt lat="45.172564" lon="5.713620"><ele>217.75</ele></trkpt>
<trkpt lat="45.172489" lon="5.713597"><ele>218.0</ele></trkpt>
<trkpt lat="45.172328" lon="5.713546"><ele>218.25</ele></trkpt>
<trkpt lat="45.172231" lon="5.713528"><ele>218.5</ele></trkpt>
<trkpt lat="45.171833" lon="5.713394"><ele>219.0</ele></trkpt>
<trkpt lat="45.171605" lon="5.713318"><ele>219.0</ele></trkpt>
<trkpt lat="45.171077" lon="5.713142"><ele>219.0</ele></trkpt>
<trkpt lat="45.170567" lon="5.712973"><ele>219.5</ele></trkpt>
<trkpt lat="45.170480" lon="5.712920"><ele>219.5</ele></trkpt>
<trkpt lat="45.170309" lon="5.712866"><ele>219.25</ele></trkpt>
<trkpt lat="45.170181" lon="5.712826"><ele>219.25</ele></trkpt>
<trkpt lat="45.170151" lon="5.712817"><ele>219.5</ele></trkpt>
<trkpt lat="45.170085" lon="5.712728"><ele>219.5</ele></trkpt>
<trkpt lat="45.170062" lon="5.712720"><ele>219.75</ele></trkpt>
<trkpt lat="45.169985" lon="5.712691"><ele>219.75</ele></trkpt>
<trkpt lat="45.169958" lon="5.712681"><ele>219.75</ele></trkpt>
<trkpt lat="45.169739" lon="5.712608"><ele>219.25</ele></trkpt>
<trkpt lat="45.169066" lon="5.712392"><ele>220.0</ele></trkpt>
<trkpt lat="45.168940" lon="5.712357"><ele>220.0</ele></trkpt>
<trkpt lat="45.168856" lon="5.712328"><ele>220.0</ele></trkpt>
<trkpt lat="45.168804" lon="5.712377"><ele>220.0</ele></trkpt>
<trkpt lat="45.168692" lon="5.712345"><ele>220.0</ele></trkpt>
<trkpt lat="45.168286" lon="5.712208"><ele>220.0</ele></trkpt>
<trkpt lat="45.168182" lon="5.712174"><ele>220.0</ele></trkpt>
<trkpt lat="45.167572" lon="5.711970"><ele>220.0</ele></trkpt>
<trkpt lat="45.167522" lon="5.711922"><ele>220.0</ele></trkpt>
<trkpt lat="45.167319" lon="5.711862"><ele>220.5</ele></trkpt>
<trkpt lat="45.167096" lon="5.711788"><ele>221.0</ele></trkpt>
<trkpt lat="45.167031" lon="5.711766"><ele>221.0</ele></trkpt>
<trkpt lat="45.166623" lon="5.711640"><ele>221.0</ele></trkpt>
<trkpt lat="45.164863" lon="5.711039"><ele>222.0</ele></trkpt>
<trkpt lat="45.164648" lon="5.710959"><ele>222.0</ele></trkpt>
<trkpt lat="45.164512" lon="5.710911"><ele>222.0</ele></trkpt>
<trkpt lat="45.164287" lon="5.710840"><ele>222.0</ele></trkpt>
<trkpt lat="45.164157" lon="5.710825"><ele>222.0</ele></trkpt>
<trkpt lat="45.164102" lon="5.710809"><ele>222.25</ele></trkpt>
<trkpt lat="45.163795" lon="5.710700"><ele>223.0</ele></trkpt>
<trkpt lat="45.163716" lon="5.710672"><ele>223.0</ele></trkpt>
<trkpt lat="45.162812" lon="5.710364"><ele>223.0</ele></trkpt>
<trkpt lat="45.162577" lon="5.710283"><ele>223.0</ele></trkpt>
<trkpt lat="45.162428" lon="5.710234"><ele>223.0</ele></trkpt>
<trkpt lat="45.162351" lon="5.710209"><ele>223.0</ele></trkpt>
<trkpt lat="45.161230" lon="5.709839"><ele>224.0</ele></trkpt>
<trkpt lat="45.161073" lon="5.709787"><ele>224.0</ele></trkpt>
<trkpt lat="45.161061" lon="5.709783"><ele>224.0</ele></trkpt>
<trkpt lat="45.160920" lon="5.709729"><ele>224.0</ele></trkpt>
<trkpt lat="45.160690" lon="5.709646"><ele>224.0</ele></trkpt>
<trkpt lat="45.160617" lon="5.709622"><ele>224.0</ele></trkpt>
<trkpt lat="45.160545" lon="5.709598"><ele>224.0</ele></trkpt>
<trkpt lat="45.160257" lon="5.709502"><ele>225.0</ele></trkpt>
<trkpt lat="45.160231" lon="5.709494"><ele>225.0</ele></trkpt>
<trkpt lat="45.159938" lon="5.709397"><ele>224.75</ele></trkpt>
<trkpt lat="45.159513" lon="5.709279"><ele>225.0</ele></trkpt>
<trkpt lat="45.159403" lon="5.709233"><ele>225.0</ele></trkpt>
<trkpt lat="45.158946" lon="5.709047"><ele>226.0</ele></trkpt>
<trkpt lat="45.158919" lon="5.709036"><ele>226.0</ele></trkpt>
<trkpt lat="45.158851" lon="5.709014"><ele>225.25</ele></trkpt>
<trkpt lat="45.158790" lon="5.708997"><ele>224.0</ele></trkpt>
<trkpt lat="45.158424" lon="5.708865"><ele>224.25</ele></trkpt>
<trkpt lat="45.158356" lon="5.708843"><ele>225.25</ele></trkpt>
<trkpt lat="45.158299" lon="5.708833"><ele>225.75</ele></trkpt>
<trkpt lat="45.158184" lon="5.708794"><ele>225.75</ele></trkpt>
<trkpt lat="45.158064" lon="5.708754"><ele>225.75</ele></trkpt>
<trkpt lat="45.157631" lon="5.708619"><ele>225.5</ele></trkpt>
<trkpt lat="45.157465" lon="5.708565"><ele>226.0</ele></trkpt>
<trkpt lat="45.156394" lon="5.708218"><ele>226.5</ele></trkpt>
<trkpt lat="45.156253" lon="5.708173"><ele>226.5</ele></trkpt>
<trkpt lat="45.156139" lon="5.708136"><ele>226.75</ele></trkpt>
<trkpt lat="45.156049" lon="5.708107"><ele>226.75</ele></trkpt>
<trkpt lat="45.155909" lon="5.708062"><ele>227.0</ele></trkpt>
<trkpt lat="45.155464" lon="5.707910"><ele>227.0</ele></trkpt>
<trkpt lat="45.154670" lon="5.707639"><ele>227.0</ele></trkpt>
<trkpt lat="45.154372" lon="5.707522"><ele>227.25</ele></trkpt>
<trkpt lat="45.154277" lon="5.707484"><ele>227.5</ele></trkpt>
<trkpt lat="45.154159" lon="5.707454"><ele>227.75</ele></trkpt>
<trkpt lat="45.153704" lon="5.707309"><ele>227.75</ele></trkpt>
<trkpt lat="45.153565" lon="5.707270"><ele>228.0</ele></trkpt>
<trkpt lat="45.153458" lon="5.707243"><ele>228.0</ele></trkpt>
<trkpt lat="45.153251" lon="5.707141"><ele>227.75</ele></trkpt>
<trkpt lat="45.152550" lon="5.706869"><ele>228.0</ele></trkpt>
<trkpt lat="45.152303" lon="5.706786"><ele>228.5</ele></trkpt>
<trkpt lat="45.152162" lon="5.706759"><ele>228.5</ele></trkpt>
<trkpt lat="45.152122" lon="5.706742"><ele>228.5</ele></trkpt>
<trkpt lat="45.152046" lon="5.706710"><ele>228.25</ele></trkpt>
<trkpt lat="45.152015" lon="5.706697"><ele>228.25</ele></trkpt>
<trkpt lat="45.151998" lon="5.706689"><ele>228.0</ele></trkpt>
<trkpt lat="45.151984" lon="5.706686"><ele>228.0</ele></trkpt>
<trkpt lat="45.151948" lon="5.706675"><ele>228.0</ele></trkpt>
<trkpt lat="45.151930" lon="5.706670"><ele>228.0</ele></trkpt>
<trkpt lat="45.151884" lon="5.706806"><ele>228.5</ele></trkpt>
<trkpt lat="45.151846" lon="5.706940"><ele>228.75</ele></trkpt>
<trkpt lat="45.151825" lon="5.707087"><ele>228.75</ele></trkpt>
<trkpt lat="45.151798" lon="5.707251"><ele>228.25</ele></trkpt>
<trkpt lat="45.151694" lon="5.707537"><ele>228.75</ele></trkpt>
<trkpt lat="45.151649" lon="5.707680"><ele>229.0</ele></trkpt>
<trkpt lat="45.151584" lon="5.707859"><ele>229.0</ele></trkpt>
<trkpt lat="45.151561" lon="5.707921"><ele>229.0</ele></trkpt>
<trkpt lat="45.151242" lon="5.708794"><ele>229.0</ele></trkpt>
<trkpt lat="45.151149" lon="5.709042"><ele>228.25</ele></trkpt>
<trkpt lat="45.151046" lon="5.709224"><ele>228.25</ele></trkpt>
<trkpt lat="45.151014" lon="5.709288"><ele>228.5</ele></trkpt>
<trkpt lat="45.150870" lon="5.709565"><ele>229.0</ele></trkpt>
<trkpt lat="45.150817" lon="5.709616"><ele>228.75</ele></trkpt>
<trkpt lat="45.150762" lon="5.709649"><ele>228.75</ele></trkpt>
<trkpt lat="45.150675" lon="5.709677"><ele>228.75</ele></trkpt>
<trkpt lat="45.150572" lon="5.709710"><ele>228.75</ele></trkpt>
<trkpt lat="45.150425" lon="5.709749"><ele>229.0</ele></trkpt>
<trkpt lat="45.150271" lon="5.709770"><ele>229.0</ele></trkpt>
<trkpt lat="45.150073" lon="5.709789"><ele>229.0</ele></trkpt>
<trkpt lat="45.148869" lon="5.709849"><ele>229.0</ele></trkpt>
<trkpt lat="45.148558" lon="5.709871"><ele>229.0</ele></trkpt>
<trkpt lat="45.148381" lon="5.709917"><ele>229.5</ele></trkpt>
<trkpt lat="45.147920" lon="5.710088"><ele>230.0</ele></trkpt>
<trkpt lat="45.147580" lon="5.710226"><ele>230.0</ele></trkpt>
<trkpt lat="45.147159" lon="5.710394"><ele>230.0</ele></trkpt>
<trkpt lat="45.146933" lon="5.710469"><ele>230.5</ele></trkpt>
<trkpt lat="45.146678" lon="5.710550"><ele>230.75</ele></trkpt>
<trkpt lat="45.146074" lon="5.710734"><ele>230.5</ele></trkpt>
<trkpt lat="45.145914" lon="5.710758"><ele>230.5</ele></trkpt>
<trkpt lat="45.145725" lon="5.710758"><ele>230.5</ele></trkpt>
<trkpt lat="45.145026" lon="5.710656"><ele>231.0</ele></trkpt>
<trkpt lat="45.144914" lon="5.710615"><ele>231.25</ele></trkpt>
<trkpt lat="45.144814" lon="5.710550"><ele>231.5</ele></trkpt>
<trkpt lat="45.144787" lon="5.710516"><ele>231.5</ele></trkpt>
<trkpt lat="45.144773" lon="5.710489"><ele>231.75</ele></trkpt>
<trkpt lat="45.144765" lon="5.710454"><ele>231.75</ele></trkpt>
<trkpt lat="45.144730" lon="5.710444"><ele>231.75</ele></trkpt>
<trkpt lat="45.144689" lon="5.710428"><ele>232.0</ele></trkpt>
<trkpt lat="45.144668" lon="5.710560"><ele>232.0</ele></trkpt>
<trkpt lat="45.144600" lon="5.710627"><ele>232.0</ele></trkpt>
<trkpt lat="45.144558" lon="5.710778"><ele>232.0</ele></trkpt>
<trkpt lat="45.144531" lon="5.710910"><ele>232.0</ele></trkpt>
<trkpt lat="45.144432" lon="5.711117"><ele>231.75</ele></trkpt>
<trkpt lat="45.144337" lon="5.711344"><ele>232.0</ele></trkpt>
<trkpt lat="45.144139" lon="5.711887"><ele>232.0</ele></trkpt>
<trkpt lat="45.143879" lon="5.712736"><ele>232.0</ele></trkpt>
<trkpt lat="45.143566" lon="5.713702"><ele>232.0</ele></trkpt>
<trkpt lat="45.143484" lon="5.713971"><ele>232.0</ele></trkpt>
<trkpt lat="45.143441" lon="5.714100"><ele>232.0</ele></trkpt>
<trkpt lat="45.143392" lon="5.714249"><ele>232.0</ele></trkpt>
<trkpt lat="45.143354" lon="5.714368"><ele>232.0</ele></trkpt>
<trkpt lat="45.143120" lon="5.715057"><ele>232.0</ele></trkpt>
<trkpt lat="45.143082" lon="5.715136"><ele>232.0</ele></trkpt>
<trkpt lat="45.143030" lon="5.715244"><ele>232.0</ele></trkpt>
<trkpt lat="45.142966" lon="5.715311"><ele>232.0</ele></trkpt>
<trkpt lat="45.142930" lon="5.715332"><ele>232.0</ele></trkpt>
<trkpt lat="45.142790" lon="5.715361"><ele>231.75</ele></trkpt>
<trkpt lat="45.142601" lon="5.715268"><ele>232.5</ele></trkpt>
<trkpt lat="45.142451" lon="5.715182"><ele>232.5</ele></trkpt>
<trkpt lat="45.142283" lon="5.715085"><ele>232.25</ele></trkpt>
<trkpt lat="45.142169" lon="5.715020"><ele>232.0</ele></trkpt>
<trkpt lat="45.142102" lon="5.714981"><ele>232.25</ele></trkpt>
<trkpt lat="45.140936" lon="5.714302"><ele>233.0</ele></trkpt>
<trkpt lat="45.140856" lon="5.714253"><ele>233.0</ele></trkpt>
<trkpt lat="45.140754" lon="5.714193"><ele>233.0</ele></trkpt>
<trkpt lat="45.140269" lon="5.713934"><ele>234.0</ele></trkpt>
<trkpt lat="45.140163" lon="5.713859"><ele>234.0</ele></trkpt>
<trkpt lat="45.140078" lon="5.713726"><ele>234.0</ele></trkpt>
<trkpt lat="45.140012" lon="5.713643"><ele>234.0</ele></trkpt>
<trkpt lat="45.139940" lon="5.713572"><ele>234.0</ele></trkpt>
<trkpt lat="45.138957" lon="5.713047"><ele>234.0</ele></trkpt>
<trkpt lat="45.138837" lon="5.712983"><ele>234.0</ele></trkpt>
<trkpt lat="45.138752" lon="5.712938"><ele>234.25</ele></trkpt>
<trkpt lat="45.138613" lon="5.712874"><ele>234.25</ele></trkpt>
<trkpt lat="45.138289" lon="5.712725"><ele>234.75</ele></trkpt>
<trkpt lat="45.138125" lon="5.712647"><ele>234.75</ele></trkpt>
<trkpt lat="45.138093" lon="5.712637"><ele>234.75</ele></trkpt>
<trkpt lat="45.138058" lon="5.712641"><ele>234.75</ele></trkpt>
<trkpt lat="45.138015" lon="5.712663"><ele>235.0</ele></trkpt>
<trkpt lat="45.137954" lon="5.712670"><ele>235.0</ele></trkpt>
<trkpt lat="45.137875" lon="5.712642"><ele>235.0</ele></trkpt>
<trkpt lat="45.137454" lon="5.712449"><ele>235.0</ele></trkpt>
<trkpt lat="45.137346" lon="5.712404"><ele>235.0</ele></trkpt>
<trkpt lat="45.137215" lon="5.712341"><ele>235.0</ele></trkpt>
<trkpt lat="45.136244" lon="5.711920"><ele>235.75</ele></trkpt>
<trkpt lat="45.136101" lon="5.711867"><ele>235.75</ele></trkpt>
<trkpt lat="45.136052" lon="5.711919"><ele>235.75</ele></trkpt>
<trkpt lat="45.136033" lon="5.711942"><ele>235.5</ele></trkpt>
<trkpt lat="45.135987" lon="5.712008"><ele>235.5</ele></trkpt>
<trkpt lat="45.135948" lon="5.712065"><ele>235.5</ele></trkpt>
<trkpt lat="45.135915" lon="5.712127"><ele>235.75</ele></trkpt>
<trkpt lat="45.135736" lon="5.712489"><ele>236.0</ele></trkpt>
<trkpt lat="45.135648" lon="5.712681"><ele>235.75</ele></trkpt>
<trkpt lat="45.135496" lon="5.712996"><ele>236.0</ele></trkpt>
<trkpt lat="45.135303" lon="5.713411"><ele>236.75</ele></trkpt>
<trkpt lat="45.135281" lon="5.713453"><ele>236.75</ele></trkpt>
<trkpt lat="45.135125" lon="5.713799"><ele>236.75</ele></trkpt>
<trkpt lat="45.135087" lon="5.713902"><ele>237.0</ele></trkpt>
<trkpt lat="45.135057" lon="5.714002"><ele>237.0</ele></trkpt>
<trkpt lat="45.134995" lon="5.714121"><ele>237.0</ele></trkpt>
<trkpt lat="45.134972" lon="5.714156"><ele>237.0</ele></trkpt>
<trkpt lat="45.134940" lon="5.714198"><ele>237.25</ele></trkpt>
<trkpt lat="45.134912" lon="5.714188"><ele>237.25</ele></trkpt>
<trkpt lat="45.134886" lon="5.714190"><ele>237.25</ele></trkpt>
<trkpt lat="45.134861" lon="5.714204"><ele>237.5</ele></trkpt>
<trkpt lat="45.134840" lon="5.714227"><ele>237.75</ele></trkpt>
<trkpt lat="45.134825" lon="5.714257"><ele>237.75</ele></trkpt>
<trkpt lat="45.134817" lon="5.714293"><ele>238.0</ele></trkpt>
<trkpt lat="45.134748" lon="5.714395"><ele>238.5</ele></trkpt>
<trkpt lat="45.134630" lon="5.714494"><ele>239.25</ele></trkpt>
<trkpt lat="45.134545" lon="5.714568"><ele>239.75</ele></trkpt>
<trkpt lat="45.134462" lon="5.714670"><ele>240.0</ele></trkpt>
<trkpt lat="45.134429" lon="5.714699"><ele>240.0</ele></trkpt>
<trkpt lat="45.134044" lon="5.715029"><ele>242.25</ele></trkpt>
<trkpt lat="45.133394" lon="5.715590"><ele>244.5</ele></trkpt>
<trkpt lat="45.132789" lon="5.716127"><ele>248.75</ele></trkpt>
<trkpt lat="45.132290" lon="5.716534"><ele>252.75</ele></trkpt>
<trkpt lat="45.132159" lon="5.716663"><ele>253.25</ele></trkpt>
<trkpt lat="45.131962" lon="5.716935"><ele>253.0</ele></trkpt>
<trkpt lat="45.131871" lon="5.717073"><ele>254.25</ele></trkpt>
<trkpt lat="45.131796" lon="5.717148"><ele>254.75</ele></trkpt>
<trkpt lat="45.131718" lon="5.717209"><ele>254.75</ele></trkpt>
<trkpt lat="45.131546" lon="5.717297"><ele>257.25</ele></trkpt>
<trkpt lat="45.131447" lon="5.717377"><ele>258.25</ele></trkpt>
<trkpt lat="45.131023" lon="5.717848"><ele>262.25</ele></trkpt>
<trkpt lat="45.130952" lon="5.717894"><ele>263.5</ele></trkpt>
<trkpt lat="45.130726" lon="5.718168"><ele>264.75</ele></trkpt>
<trkpt lat="45.130391" lon="5.718642"><ele>267.0</ele></trkpt>
<trkpt lat="45.130021" lon="5.719202"><ele>267.25</ele></trkpt>
<trkpt lat="45.129995" lon="5.719249"><ele>267.25</ele></trkpt>
<trkpt lat="45.129939" lon="5.719385"><ele>269.0</ele></trkpt>
<trkpt lat="45.129459" lon="5.720185"><ele>270.25</ele></trkpt>
<trkpt lat="45.128419" lon="5.721830"><ele>279.5</ele></trkpt>
<trkpt lat="45.128286" lon="5.722100"><ele>280.75</ele></trkpt>
<trkpt lat="45.127977" lon="5.722711"><ele>284.75</ele></trkpt>
<trkpt lat="45.127932" lon="5.722832"><ele>285.5</ele></trkpt>
<trkpt lat="45.127535" lon="5.723507"><ele>288.0</ele></trkpt>
<trkpt lat="45.127341" lon="5.723703"><ele>289.75</ele></trkpt>
<trkpt lat="45.127118" lon="5.723909"><ele>291.0</ele></trkpt>
<trkpt lat="45.127016" lon="5.724023"><ele>292.75</ele></trkpt>
<trkpt lat="45.126641" lon="5.724252"><ele>295.0</ele></trkpt>
<trkpt lat="45.126053" lon="5.724671"><ele>298.0</ele></trkpt>
<trkpt lat="45.125785" lon="5.724905"><ele>299.0</ele></trkpt>
<trkpt lat="45.125481" lon="5.725202"><ele>300.5</ele></trkpt>
<trkpt lat="45.125457" lon="5.725227"><ele>300.5</ele></trkpt>
<trkpt lat="45.125097" lon="5.725561"><ele>301.25</ele></trkpt>
<trkpt lat="45.124752" lon="5.725894"><ele>304.5</ele></trkpt>
<trkpt lat="45.124424" lon="5.726161"><ele>305.5</ele></trkpt>
<trkpt lat="45.124177" lon="5.726302"><ele>307.0</ele></trkpt>
<trkpt lat="45.123811" lon="5.726446"><ele>309.75</ele></trkpt>
<trkpt lat="45.123571" lon="5.726495"><ele>311.75</ele></trkpt>
<trkpt lat="45.123114" lon="5.726564"><ele>315.75</ele></trkpt>
<trkpt lat="45.122725" lon="5.726539"><ele>318.75</ele></trkpt>
<trkpt lat="45.122444" lon="5.726510"><ele>320.0</ele></trkpt>
<trkpt lat="45.122184" lon="5.726510"><ele>321.5</ele></trkpt>
<trkpt lat="45.122016" lon="5.726530"><ele>322.75</ele></trkpt>
<trkpt lat="45.121618" lon="5.726657"><ele>325.5</ele></trkpt>
<trkpt lat="45.119586" lon="5.727410"><ele>343.25</ele></trkpt>
<trkpt lat="45.119387" lon="5.727510"><ele>345.0</ele></trkpt>
<trkpt lat="45.119238" lon="5.727596"><ele>346.75</ele></trkpt>
<trkpt lat="45.119048" lon="5.727759"><ele>348.0</ele></trkpt>
<trkpt lat="45.118509" lon="5.728439"><ele>352.75</ele></trkpt>
<trkpt lat="45.118277" lon="5.728719"><ele>354.25</ele></trkpt>
<trkpt lat="45.118174" lon="5.728822"><ele>355.75</ele></trkpt>
<trkpt lat="45.118018" lon="5.728969"><ele>358.0</ele></trkpt>
<trkpt lat="45.117727" lon="5.729328"><ele>363.5</ele></trkpt>
<trkpt lat="45.117412" lon="5.729688"><ele>366.75</ele></trkpt>
<trkpt lat="45.117217" lon="5.729895"><ele>367.25</ele></trkpt>
<trkpt lat="45.117091" lon="5.729981"><ele>368.0</ele></trkpt>
<trkpt lat="45.116927" lon="5.730049"><ele>369.0</ele></trkpt>
<trkpt lat="45.116030" lon="5.730353"><ele>372.0</ele></trkpt>
<trkpt lat="45.115649" lon="5.730450"><ele>372.75</ele></trkpt>
<trkpt lat="45.115342" lon="5.730450"><ele>373.75</ele></trkpt>
<trkpt lat="45.115129" lon="5.730407"><ele>374.5</ele></trkpt>
<trkpt lat="45.114976" lon="5.730385"><ele>374.5</ele></trkpt>
<trkpt lat="45.115051" lon="5.730548"><ele>373.75</ele></trkpt>
<trkpt lat="45.115206" lon="5.730838"><ele>373.0</ele></trkpt>
<trkpt lat="45.116250" lon="5.732798"><ele>378.0</ele></trkpt>
<trkpt lat="45.116928" lon="5.734452"><ele>382.0</ele></trkpt>
<trkpt lat="45.117051" lon="5.734707"><ele>383.0</ele></trkpt>
<trkpt lat="45.117378" lon="5.735214"><ele>379.25</ele></trkpt>
<trkpt lat="45.119145" lon="5.737671"><ele>377.75</ele></trkpt>
<trkpt lat="45.119301" lon="5.737920"><ele>377.5</ele></trkpt>
<trkpt lat="45.119336" lon="5.737996"><ele>377.5</ele></trkpt>
<trkpt lat="45.119412" lon="5.738441"><ele>377.75</ele></trkpt>
<trkpt lat="45.119549" lon="5.739362"><ele>378.25</ele></trkpt>
<trkpt lat="45.119641" lon="5.739722"><ele>378.75</ele></trkpt>
<trkpt lat="45.119870" lon="5.740484"><ele>380.0</ele></trkpt>
<trkpt lat="45.119972" lon="5.740948"><ele>381.0</ele></trkpt>
<trkpt lat="45.120214" lon="5.742605"><ele>380.0</ele></trkpt>
<trkpt lat="45.120214" lon="5.742777"><ele>380.0</ele></trkpt>
<trkpt lat="45.120191" lon="5.742878"><ele>379.5</ele></trkpt>
<trkpt lat="45.119855" lon="5.743361"><ele>379.5</ele></trkpt>
<trkpt lat="45.119724" lon="5.743660"><ele>379.75</ele></trkpt>
<trkpt lat="45.119574" lon="5.744076"><ele>379.5</ele></trkpt>
<trkpt lat="45.119432" lon="5.744446"><ele>380.0</ele></trkpt>
<trkpt lat="45.119231" lon="5.744975"><ele>380.0</ele></trkpt>
<trkpt lat="45.119195" lon="5.745074"><ele>380.0</ele></trkpt>
<trkpt lat="45.118936" lon="5.745748"><ele>381.0</ele></trkpt>
<trkpt lat="45.118803" lon="5.746098"><ele>381.0</ele></trkpt>
<trkpt lat="45.118563" lon="5.746571"><ele>380.25</ele></trkpt>
<trkpt lat="45.118258" lon="5.746982"><ele>381.25</ele></trkpt>
<trkpt lat="45.117945" lon="5.747467"><ele>381.25</ele></trkpt>
<trkpt lat="45.117939" lon="5.747486"><ele>381.25</ele></trkpt>
<trkpt lat="45.117902" lon="5.747489"><ele>381.5</ele></trkpt>
<trkpt lat="45.117885" lon="5.747505"><ele>381.5</ele></trkpt>
<trkpt lat="45.117872" lon="5.747547"><ele>381.5</ele></trkpt>
<trkpt lat="45.117877" lon="5.747585"><ele>381.5</ele></trkpt>
<trkpt lat="45.117843" lon="5.747688"><ele>381.75</ele></trkpt>
<trkpt lat="45.117819" lon="5.747725"><ele>381.75</ele></trkpt>
<trkpt lat="45.117774" lon="5.747793"><ele>381.75</ele></trkpt>
<trkpt lat="45.117476" lon="5.748204"><ele>381.5</ele></trkpt>
<trkpt lat="45.117453" lon="5.748233"><ele>381.5</ele></trkpt>
<trkpt lat="45.117389" lon="5.748278"><ele>381.75</ele></trkpt>
<trkpt lat="45.117344" lon="5.748330"><ele>382.0</ele></trkpt>
<trkpt lat="45.117302" lon="5.748428"><ele>382.0</ele></trkpt>
<trkpt lat="45.117125" lon="5.748702"><ele>382.0</ele></trkpt>
<trkpt lat="45.117093" lon="5.748751"><ele>381.75</ele></trkpt>
<trkpt lat="45.116783" lon="5.749348"><ele>381.75</ele></trkpt>
<trkpt lat="45.116734" lon="5.749427"><ele>381.75</ele></trkpt>
<trkpt lat="45.116692" lon="5.749494"><ele>381.75</ele></trkpt>
<trkpt lat="45.116632" lon="5.749590"><ele>382.0</ele></trkpt>
<trkpt lat="45.116572" lon="5.749666"><ele>382.25</ele></trkpt>
<trkpt lat="45.116458" lon="5.749809"><ele>382.25</ele></trkpt>
<trkpt lat="45.116432" lon="5.749849"><ele>382.25</ele></trkpt>
<trkpt lat="45.116420" lon="5.749867"><ele>382.25</ele></trkpt>
<trkpt lat="45.116230" lon="5.750158"><ele>382.75</ele></trkpt>
<trkpt lat="45.116031" lon="5.750422"><ele>383.25</ele></trkpt>
<trkpt lat="45.115944" lon="5.750511"><ele>383.5</ele></trkpt>
<trkpt lat="45.115890" lon="5.750565"><ele>383.75</ele></trkpt>
<trkpt lat="45.115874" lon="5.750581"><ele>383.75</ele></trkpt>
<trkpt lat="45.115847" lon="5.750609"><ele>383.75</ele></trkpt>
<trkpt lat="45.115813" lon="5.750642"><ele>384.0</ele></trkpt>
<trkpt lat="45.115790" lon="5.750666"><ele>384.0</ele></trkpt>
<trkpt lat="45.115760" lon="5.750724"><ele>384.25</ele></trkpt>
<trkpt lat="45.115741" lon="5.750766"><ele>384.25</ele></trkpt>
<trkpt lat="45.115713" lon="5.750826"><ele>384.25</ele></trkpt>
<trkpt lat="45.115674" lon="5.751042"><ele>385.0</ele></trkpt>
<trkpt lat="45.115584" lon="5.751834"><ele>387.5</ele></trkpt>
<trkpt lat="45.115560" lon="5.752000"><ele>387.75</ele></trkpt>
<trkpt lat="45.115513" lon="5.752240"><ele>387.5</ele></trkpt>
<trkpt lat="45.115509" lon="5.752278"><ele>387.5</ele></trkpt>
<trkpt lat="45.115505" lon="5.752321"><ele>387.5</ele></trkpt>
<trkpt lat="45.115487" lon="5.752742"><ele>387.5</ele></trkpt>
<trkpt lat="45.115493" lon="5.752889"><ele>388.0</ele></trkpt>
<trkpt lat="45.115491" lon="5.752963"><ele>388.25</ele></trkpt>
<trkpt lat="45.115487" lon="5.753100"><ele>388.75</ele></trkpt>
<trkpt lat="45.115487" lon="5.753123"><ele>388.75</ele></trkpt>
<trkpt lat="45.115487" lon="5.753194"><ele>388.75</ele></trkpt>
<trkpt lat="45.115493" lon="5.753644"><ele>390.0</ele></trkpt>
<trkpt lat="45.115481" lon="5.753874"><ele>390.25</ele></trkpt>
<trkpt lat="45.115464" lon="5.754057"><ele>390.5</ele></trkpt>
<trkpt lat="45.115432" lon="5.754335"><ele>391.5</ele></trkpt>
<trkpt lat="45.115380" lon="5.754718"><ele>392.5</ele></trkpt>
<trkpt lat="45.115353" lon="5.754890"><ele>392.75</ele></trkpt>
<trkpt lat="45.115241" lon="5.755324"><ele>394.25</ele></trkpt>
<trkpt lat="45.115264" lon="5.755406"><ele>394.25</ele></trkpt>
<trkpt lat="45.115725" lon="5.756070"><ele>394.0</ele></trkpt>
<trkpt lat="45.116048" lon="5.756502"><ele>393.75</ele></trkpt>
<trkpt lat="45.116095" lon="5.756590"><ele>393.75</ele></trkpt>
<trkpt lat="45.116111" lon="5.756677"><ele>393.75</ele></trkpt>
<trkpt lat="45.116111" lon="5.756790"><ele>393.5</ele></trkpt>
<trkpt lat="45.116065" lon="5.757433"><ele>393.0</ele></trkpt>
<trkpt lat="45.116066" lon="5.757583"><ele>393.0</ele></trkpt>
<trkpt lat="45.116064" lon="5.757767"><ele>393.0</ele></trkpt>
<trkpt lat="45.116062" lon="5.757852"><ele>392.5</ele></trkpt>
<trkpt lat="45.116056" lon="5.757918"><ele>392.25</ele></trkpt>
<trkpt lat="45.116006" lon="5.757941"><ele>392.25</ele></trkpt>
<trkpt lat="45.115986" lon="5.757966"><ele>392.25</ele></trkpt>
<trkpt lat="45.115972" lon="5.757998"><ele>392.0</ele></trkpt>
<trkpt lat="45.115964" lon="5.758038"><ele>392.0</ele></trkpt>
<trkpt lat="45.115966" lon="5.758080"><ele>392.0</ele></trkpt>
<trkpt lat="45.115976" lon="5.758118"><ele>392.0</ele></trkpt>
<trkpt lat="45.115994" lon="5.758151"><ele>392.0</ele></trkpt>
<trkpt lat="45.116011" lon="5.758303"><ele>392.0</ele></trkpt>
<trkpt lat="45.116009" lon="5.758344"><ele>391.75</ele></trkpt>
<trkpt lat="45.116010" lon="5.758646"><ele>391.25</ele></trkpt>
<trkpt lat="45.116008" lon="5.758909"><ele>391.25</ele></trkpt>
<trkpt lat="45.116004" lon="5.759022"><ele>391.25</ele></trkpt>
<trkpt lat="45.115995" lon="5.759088"><ele>391.25</ele></trkpt>
<trkpt lat="45.115959" lon="5.759213"><ele>391.5</ele></trkpt>
<trkpt lat="45.115926" lon="5.759293"><ele>391.5</ele></trkpt>
<trkpt lat="45.115862" lon="5.759518"><ele>391.75</ele></trkpt>
<trkpt lat="45.115855" lon="5.759628"><ele>391.75</ele></trkpt>
<trkpt lat="45.115871" lon="5.759732"><ele>391.75</ele></trkpt>
<trkpt lat="45.115932" lon="5.759826"><ele>392.0</ele></trkpt>
<trkpt lat="45.116009" lon="5.759893"><ele>391.75</ele></trkpt>
<trkpt lat="45.116194" lon="5.759929"><ele>391.25</ele></trkpt>
<trkpt lat="45.116661" lon="5.759878"><ele>390.5</ele></trkpt>
<trkpt lat="45.116772" lon="5.759890"><ele>390.75</ele></trkpt>
<trkpt lat="45.117034" lon="5.759979"><ele>390.5</ele></trkpt>
<trkpt lat="45.117238" lon="5.760069"><ele>390.25</ele></trkpt>
<trkpt lat="45.117338" lon="5.760105"><ele>390.75</ele></trkpt>
<trkpt lat="45.117578" lon="5.760166"><ele>391.25</ele></trkpt>
<trkpt lat="45.117771" lon="5.760194"><ele>391.5</ele></trkpt>
<trkpt lat="45.118435" lon="5.760188"><ele>390.5</ele></trkpt>
<trkpt lat="45.118525" lon="5.760176"><ele>390.25</ele></trkpt>
<trkpt lat="45.118595" lon="5.760167"><ele>390.0</ele></trkpt>
<trkpt lat="45.118754" lon="5.760125"><ele>390.25</ele></trkpt>
<trkpt lat="45.118955" lon="5.760046"><ele>390.0</ele></trkpt>
<trkpt lat="45.119448" lon="5.759890"><ele>389.75</ele></trkpt>
<trkpt lat="45.119627" lon="5.759836"><ele>388.75</ele></trkpt>
<trkpt lat="45.119732" lon="5.759803"><ele>388.5</ele></trkpt>
<trkpt lat="45.119813" lon="5.759766"><ele>388.25</ele></trkpt>
<trkpt lat="45.119943" lon="5.759704"><ele>387.75</ele></trkpt>
<trkpt lat="45.120146" lon="5.759655"><ele>387.5</ele></trkpt>
<trkpt lat="45.120688" lon="5.759581"><ele>386.5</ele></trkpt>
<trkpt lat="45.120960" lon="5.759570"><ele>385.25</ele></trkpt>
<trkpt lat="45.121247" lon="5.759619"><ele>384.0</ele></trkpt>
<trkpt lat="45.121518" lon="5.759699"><ele>382.25</ele></trkpt>
<trkpt lat="45.121715" lon="5.759695"><ele>381.0</ele></trkpt>
<trkpt lat="45.121985" lon="5.759630"><ele>381.0</ele></trkpt>
<trkpt lat="45.122134" lon="5.759634"><ele>380.5</ele></trkpt>
<trkpt lat="45.122213" lon="5.759643"><ele>380.25</ele></trkpt>
<trkpt lat="45.122337" lon="5.759675"><ele>379.75</ele></trkpt>
<trkpt lat="45.122476" lon="5.759738"><ele>379.25</ele></trkpt>
<trkpt lat="45.122720" lon="5.759817"><ele>378.25</ele></trkpt>
<trkpt lat="45.122944" lon="5.759850"><ele>378.0</ele></trkpt>
<trkpt lat="45.123038" lon="5.759851"><ele>377.75</ele></trkpt>
<trkpt lat="45.123150" lon="5.759833"><ele>377.75</ele></trkpt>
<trkpt lat="45.123303" lon="5.759796"><ele>377.5</ele></trkpt>
<trkpt lat="45.123398" lon="5.759783"><ele>377.5</ele></trkpt>
<trkpt lat="45.123829" lon="5.759808"><ele>378.75</ele></trkpt>
<trkpt lat="45.124316" lon="5.760004"><ele>377.75</ele></trkpt>
<trkpt lat="45.124556" lon="5.760126"><ele>377.0</ele></trkpt>
<trkpt lat="45.124795" lon="5.760290"><ele>377.0</ele></trkpt>
<trkpt lat="45.124859" lon="5.760326"><ele>376.5</ele></trkpt>
<trkpt lat="45.125384" lon="5.760651"><ele>376.75</ele></trkpt>
<trkpt lat="45.125825" lon="5.760845"><ele>374.25</ele></trkpt>
<trkpt lat="45.126165" lon="5.761064"><ele>373.0</ele></trkpt>
<trkpt lat="45.126848" lon="5.761599"><ele>369.25</ele></trkpt>
<trkpt lat="45.127237" lon="5.761963"><ele>368.75</ele></trkpt>
<trkpt lat="45.127656" lon="5.762381"><ele>368.25</ele></trkpt>
<trkpt lat="45.127865" lon="5.762636"><ele>368.25</ele></trkpt>
<trkpt lat="45.128229" lon="5.763104"><ele>368.75</ele></trkpt>
<trkpt lat="45.128461" lon="5.763471"><ele>369.5</ele></trkpt>
<trkpt lat="45.128764" lon="5.763751"><ele>368.75</ele></trkpt>
<trkpt lat="45.129991" lon="5.764824"><ele>372.0</ele></trkpt>
<trkpt lat="45.130038" lon="5.764858"><ele>372.0</ele></trkpt>
<trkpt lat="45.131115" lon="5.765645"><ele>373.5</ele></trkpt>
<trkpt lat="45.131191" lon="5.765701"><ele>373.75</ele></trkpt>
<trkpt lat="45.131465" lon="5.765900"><ele>374.0</ele></trkpt>
<trkpt lat="45.132479" lon="5.766708"><ele>374.5</ele></trkpt>
<trkpt lat="45.132667" lon="5.766874"><ele>373.75</ele></trkpt>
<trkpt lat="45.132884" lon="5.767084"><ele>373.25</ele></trkpt>
<trkpt lat="45.132988" lon="5.767206"><ele>373.0</ele></trkpt>
<trkpt lat="45.133126" lon="5.767386"><ele>371.75</ele></trkpt>
<trkpt lat="45.133170" lon="5.767460"><ele>371.25</ele></trkpt>
<trkpt lat="45.133277" lon="5.767662"><ele>370.25</ele></trkpt>
<trkpt lat="45.133378" lon="5.767920"><ele>368.75</ele></trkpt>
<trkpt lat="45.133481" lon="5.768258"><ele>366.25</ele></trkpt>
<trkpt lat="45.133758" lon="5.769273"><ele>360.25</ele></trkpt>
<trkpt lat="45.133864" lon="5.769640"><ele>360.0</ele></trkpt>
<trkpt lat="45.133982" lon="5.769888"><ele>359.5</ele></trkpt>
<trkpt lat="45.134097" lon="5.770093"><ele>359.5</ele></trkpt>
<trkpt lat="45.134269" lon="5.770348"><ele>360.0</ele></trkpt>
<trkpt lat="45.134525" lon="5.770708"><ele>360.25</ele></trkpt>
<trkpt lat="45.134676" lon="5.770903"><ele>360.25</ele></trkpt>
<trkpt lat="45.134784" lon="5.771005"><ele>360.5</ele></trkpt>
<trkpt lat="45.134899" lon="5.771084"><ele>360.75</ele></trkpt>
<trkpt lat="45.135053" lon="5.771168"><ele>361.0</ele></trkpt>
<trkpt lat="45.135130" lon="5.771239"><ele>360.75</ele></trkpt>
<trkpt lat="45.135204" lon="5.771323"><ele>361.0</ele></trkpt>
<trkpt lat="45.135265" lon="5.771409"><ele>361.0</ele></trkpt>
<trkpt lat="45.135301" lon="5.771561"><ele>360.75</ele></trkpt>
<trkpt lat="45.135309" lon="5.771668"><ele>361.0</ele></trkpt>
<trkpt lat="45.135304" lon="5.771735"><ele>361.0</ele></trkpt>
<trkpt lat="45.135411" lon="5.771954"><ele>361.25</ele></trkpt>
<trkpt lat="45.135611" lon="5.771885"><ele>360.75</ele></trkpt>
<trkpt lat="45.135651" lon="5.771708"><ele>360.25</ele></trkpt>
<trkpt lat="45.135620" lon="5.771586"><ele>360.25</ele></trkpt>
<trkpt lat="45.135676" lon="5.771208"><ele>359.5</ele></trkpt>
<trkpt lat="45.135625" lon="5.771440"><ele>359.75</ele></trkpt>
<trkpt lat="45.135676" lon="5.771208"><ele>359.5</ele></trkpt>
<trkpt lat="45.135724" lon="5.771113"><ele>359.25</ele></trkpt>
<trkpt lat="45.135799" lon="5.770997"><ele>358.5</ele></trkpt>
<trkpt lat="45.135885" lon="5.770871"><ele>357.5</ele></trkpt>
<trkpt lat="45.136158" lon="5.770466"><ele>356.5</ele></trkpt>
<trkpt lat="45.136170" lon="5.770441"><ele>356.5</ele></trkpt>
<trkpt lat="45.136235" lon="5.770347"><ele>356.25</ele></trkpt>
<trkpt lat="45.136477" lon="5.769985"><ele>355.25</ele></trkpt>
<trkpt lat="45.136523" lon="5.769923"><ele>355.0</ele></trkpt>
<trkpt lat="45.136562" lon="5.769872"><ele>355.0</ele></trkpt>
<trkpt lat="45.136663" lon="5.769785"><ele>354.75</ele></trkpt>
<trkpt lat="45.136716" lon="5.769759"><ele>354.5</ele></trkpt>
<trkpt lat="45.137230" lon="5.769702"><ele>352.75</ele></trkpt>
<trkpt lat="45.137430" lon="5.769679"><ele>352.25</ele></trkpt>
<trkpt lat="45.137556" lon="5.769665"><ele>352.0</ele></trkpt>
<trkpt lat="45.137783" lon="5.769642"><ele>351.25</ele></trkpt>
<trkpt lat="45.137954" lon="5.769632"><ele>350.25</ele></trkpt>
<trkpt lat="45.138503" lon="5.769576"><ele>348.5</ele></trkpt>
<trkpt lat="45.138686" lon="5.769539"><ele>348.0</ele></trkpt>
<trkpt lat="45.138759" lon="5.769536"><ele>348.0</ele></trkpt>
<trkpt lat="45.138805" lon="5.769544"><ele>348.0</ele></trkpt>
<trkpt lat="45.138943" lon="5.769572"><ele>347.5</ele></trkpt>
<trkpt lat="45.139357" lon="5.769626"><ele>347.25</ele></trkpt>
<trkpt lat="45.140101" lon="5.769713"><ele>343.0</ele></trkpt>
<trkpt lat="45.140397" lon="5.769739"><ele>342.25</ele></trkpt>
<trkpt lat="45.140520" lon="5.769745"><ele>341.75</ele></trkpt>
<trkpt lat="45.141296" lon="5.769739"><ele>338.75</ele></trkpt>
<trkpt lat="45.141411" lon="5.769738"><ele>338.0</ele></trkpt>
<trkpt lat="45.141468" lon="5.769738"><ele>337.75</ele></trkpt>
<trkpt lat="45.141532" lon="5.769737"><ele>337.5</ele></trkpt>
<trkpt lat="45.142037" lon="5.769721"><ele>336.0</ele></trkpt>
<trkpt lat="45.142515" lon="5.769654"><ele>335.5</ele></trkpt>
<trkpt lat="45.142733" lon="5.769643"><ele>335.0</ele></trkpt>
<trkpt lat="45.142878" lon="5.769662"><ele>334.75</ele></trkpt>
<trkpt lat="45.143028" lon="5.769698"><ele>334.25</ele></trkpt>
<trkpt lat="45.143192" lon="5.769766"><ele>334.25</ele></trkpt>
<trkpt lat="45.143324" lon="5.769811"><ele>334.25</ele></trkpt>
<trkpt lat="45.143467" lon="5.769832"><ele>334.5</ele></trkpt>
<trkpt lat="45.143617" lon="5.769816"><ele>334.0</ele></trkpt>
<trkpt lat="45.143721" lon="5.769792"><ele>333.0</ele></trkpt>
<trkpt lat="45.143815" lon="5.769762"><ele>332.5</ele></trkpt>
<trkpt lat="45.144006" lon="5.769685"><ele>332.5</ele></trkpt>
<trkpt lat="45.144254" lon="5.769508"><ele>331.5</ele></trkpt>
<trkpt lat="45.144399" lon="5.769362"><ele>331.0</ele></trkpt>
<trkpt lat="45.144616" lon="5.769081"><ele>327.75</ele></trkpt>
<trkpt lat="45.144898" lon="5.768685"><ele>326.5</ele></trkpt>
<trkpt lat="45.144979" lon="5.768555"><ele>326.0</ele></trkpt>
<trkpt lat="45.145062" lon="5.768399"><ele>325.5</ele></trkpt>
<trkpt lat="45.145146" lon="5.768231"><ele>324.75</ele></trkpt>
<trkpt lat="45.145257" lon="5.767968"><ele>323.5</ele></trkpt>
<trkpt lat="45.145791" lon="5.766538"><ele>318.0</ele></trkpt>
<trkpt lat="45.145890" lon="5.766322"><ele>316.75</ele></trkpt>
<trkpt lat="45.146000" lon="5.766146"><ele>316.0</ele></trkpt>
<trkpt lat="45.146364" lon="5.765662"><ele>313.25</ele></trkpt>
<trkpt lat="45.146540" lon="5.765438"><ele>312.25</ele></trkpt>
<trkpt lat="45.146680" lon="5.765280"><ele>310.0</ele></trkpt>
<trkpt lat="45.146760" lon="5.765209"><ele>310.0</ele></trkpt>
<trkpt lat="45.147043" lon="5.765009"><ele>307.75</ele></trkpt>
<trkpt lat="45.147170" lon="5.764874"><ele>306.25</ele></trkpt>
<trkpt lat="45.147243" lon="5.764744"><ele>306.0</ele></trkpt>
<trkpt lat="45.147293" lon="5.764628"><ele>306.0</ele></trkpt>
<trkpt lat="45.147339" lon="5.764487"><ele>305.0</ele></trkpt>
<trkpt lat="45.147444" lon="5.764114"><ele>301.25</ele></trkpt>
<trkpt lat="45.147486" lon="5.764008"><ele>301.25</ele></trkpt>
<trkpt lat="45.147577" lon="5.763832"><ele>301.0</ele></trkpt>
<trkpt lat="45.147750" lon="5.763546"><ele>298.25</ele></trkpt>
<trkpt lat="45.147842" lon="5.763373"><ele>299.0</ele></trkpt>
<trkpt lat="45.147923" lon="5.763200"><ele>297.25</ele></trkpt>
<trkpt lat="45.147995" lon="5.763017"><ele>295.5</ele></trkpt>
<trkpt lat="45.148062" lon="5.762799"><ele>295.25</ele></trkpt>
<trkpt lat="45.148106" lon="5.762573"><ele>294.75</ele></trkpt>
<trkpt lat="45.148166" lon="5.762097"><ele>293.25</ele></trkpt>
<trkpt lat="45.148175" lon="5.762008"><ele>292.5</ele></trkpt>
<trkpt lat="45.148212" lon="5.761603"><ele>289.25</ele></trkpt>
<trkpt lat="45.148225" lon="5.761256"><ele>286.5</ele></trkpt>
<trkpt lat="45.148230" lon="5.760928"><ele>283.25</ele></trkpt>
<trkpt lat="45.148195" lon="5.760323"><ele>278.5</ele></trkpt>
<trkpt lat="45.148159" lon="5.759971"><ele>275.75</ele></trkpt>
<trkpt lat="45.148125" lon="5.759750"><ele>273.75</ele></trkpt>
<trkpt lat="45.148030" lon="5.759278"><ele>267.5</ele></trkpt>
<trkpt lat="45.147922" lon="5.758839"><ele>261.25</ele></trkpt>
<trkpt lat="45.147858" lon="5.758610"><ele>261.25</ele></trkpt>
<trkpt lat="45.147769" lon="5.758292"><ele>260.5</ele></trkpt>
<trkpt lat="45.147744" lon="5.758128"><ele>259.0</ele></trkpt>
<trkpt lat="45.147625" lon="5.757703"><ele>256.25</ele></trkpt>
<trkpt lat="45.147582" lon="5.757551"><ele>256.0</ele></trkpt>
<trkpt lat="45.147437" lon="5.757016"><ele>254.25</ele></trkpt>
<trkpt lat="45.147376" lon="5.756873"><ele>254.0</ele></trkpt>
<trkpt lat="45.147312" lon="5.756626"><ele>253.5</ele></trkpt>
<trkpt lat="45.147216" lon="5.756151"><ele>252.0</ele></trkpt>
<trkpt lat="45.147193" lon="5.755982"><ele>251.5</ele></trkpt>
<trkpt lat="45.147180" lon="5.755818"><ele>251.0</ele></trkpt>
<trkpt lat="45.147172" lon="5.755614"><ele>251.0</ele></trkpt>
<trkpt lat="45.147209" lon="5.755485"><ele>250.5</ele></trkpt>
<trkpt lat="45.147226" lon="5.755342"><ele>250.0</ele></trkpt>
<trkpt lat="45.147235" lon="5.755298"><ele>250.0</ele></trkpt>
<trkpt lat="45.147247" lon="5.755208"><ele>249.75</ele></trkpt>
<trkpt lat="45.147275" lon="5.755174"><ele>249.5</ele></trkpt>
<trkpt lat="45.147293" lon="5.755128"><ele>249.5</ele></trkpt>
<trkpt lat="45.147298" lon="5.755075"><ele>249.5</ele></trkpt>
<trkpt lat="45.147290" lon="5.755025"><ele>249.5</ele></trkpt>
<trkpt lat="45.147270" lon="5.754983"><ele>249.5</ele></trkpt>
<trkpt lat="45.147241" lon="5.754952"><ele>249.5</ele></trkpt>
<trkpt lat="45.147238" lon="5.754814"><ele>249.0</ele></trkpt>
<trkpt lat="45.147250" lon="5.754576"><ele>248.75</ele></trkpt>
<trkpt lat="45.147242" lon="5.754379"><ele>248.5</ele></trkpt>
<trkpt lat="45.147311" lon="5.754052"><ele>246.75</ele></trkpt>
<trkpt lat="45.147389" lon="5.753735"><ele>245.5</ele></trkpt>
<trkpt lat="45.147554" lon="5.753236"><ele>245.0</ele></trkpt>
<trkpt lat="45.147831" lon="5.752465"><ele>243.5</ele></trkpt>
<trkpt lat="45.148049" lon="5.752022"><ele>242.75</ele></trkpt>
<trkpt lat="45.148123" lon="5.751877"><ele>241.75</ele></trkpt>
<trkpt lat="45.148197" lon="5.751639"><ele>240.5</ele></trkpt>
<trkpt lat="45.148245" lon="5.751496"><ele>241.0</ele></trkpt>
<trkpt lat="45.148339" lon="5.751268"><ele>240.75</ele></trkpt>
<trkpt lat="45.148396" lon="5.751178"><ele>240.25</ele></trkpt>
<trkpt lat="45.148475" lon="5.750997"><ele>239.75</ele></trkpt>
<trkpt lat="45.148502" lon="5.750923"><ele>240.0</ele></trkpt>
<trkpt lat="45.148734" lon="5.750780"><ele>238.5</ele></trkpt>
<trkpt lat="45.148791" lon="5.750709"><ele>237.75</ele></trkpt>
<trkpt lat="45.148838" lon="5.750682"><ele>237.5</ele></trkpt>
<trkpt lat="45.148916" lon="5.750637"><ele>237.0</ele></trkpt>
<trkpt lat="45.149022" lon="5.750583"><ele>236.5</ele></trkpt>
<trkpt lat="45.149181" lon="5.750507"><ele>235.75</ele></trkpt>
<trkpt lat="45.149528" lon="5.750336"><ele>234.5</ele></trkpt>
<trkpt lat="45.149782" lon="5.750211"><ele>233.5</ele></trkpt>
<trkpt lat="45.149828" lon="5.750187"><ele>233.25</ele></trkpt>
<trkpt lat="45.149952" lon="5.750127"><ele>233.0</ele></trkpt>
<trkpt lat="45.150008" lon="5.750100"><ele>232.75</ele></trkpt>
<trkpt lat="45.150068" lon="5.750074"><ele>232.75</ele></trkpt>
<trkpt lat="45.150199" lon="5.750009"><ele>232.25</ele></trkpt>
<trkpt lat="45.150297" lon="5.749955"><ele>231.75</ele></trkpt>
<trkpt lat="45.150331" lon="5.749940"><ele>231.75</ele></trkpt>
<trkpt lat="45.150412" lon="5.749896"><ele>231.5</ele></trkpt>
<trkpt lat="45.150470" lon="5.749868"><ele>231.25</ele></trkpt>
<trkpt lat="45.150658" lon="5.749777"><ele>230.5</ele></trkpt>
<trkpt lat="45.150934" lon="5.749648"><ele>229.5</ele></trkpt>
<trkpt lat="45.151007" lon="5.749611"><ele>229.25</ele></trkpt>
<trkpt lat="45.151075" lon="5.749576"><ele>229.0</ele></trkpt>
<trkpt lat="45.151150" lon="5.749538"><ele>228.75</ele></trkpt>
<trkpt lat="45.151184" lon="5.749524"><ele>228.5</ele></trkpt>
<trkpt lat="45.151241" lon="5.749495"><ele>228.5</ele></trkpt>
<trkpt lat="45.151492" lon="5.749367"><ele>227.5</ele></trkpt>
<trkpt lat="45.151524" lon="5.749351"><ele>227.5</ele></trkpt>
<trkpt lat="45.151875" lon="5.749172"><ele>226.25</ele></trkpt>
<trkpt lat="45.152345" lon="5.748943"><ele>225.0</ele></trkpt>
<trkpt lat="45.152443" lon="5.748892"><ele>224.75</ele></trkpt>
<trkpt lat="45.152498" lon="5.748870"><ele>225.0</ele></trkpt>
<trkpt lat="45.152595" lon="5.748830"><ele>224.5</ele></trkpt>
<trkpt lat="45.152647" lon="5.748808"><ele>224.25</ele></trkpt>
<trkpt lat="45.152702" lon="5.748774"><ele>224.25</ele></trkpt>
<trkpt lat="45.152773" lon="5.748740"><ele>224.0</ele></trkpt>
<trkpt lat="45.152829" lon="5.748712"><ele>223.75</ele></trkpt>
<trkpt lat="45.152867" lon="5.748694"><ele>223.75</ele></trkpt>
<trkpt lat="45.152907" lon="5.748675"><ele>223.75</ele></trkpt>
<trkpt lat="45.152997" lon="5.748631"><ele>223.75</ele></trkpt>
<trkpt lat="45.153245" lon="5.748501"><ele>223.25</ele></trkpt>
<trkpt lat="45.153324" lon="5.748459"><ele>223.0</ele></trkpt>
<trkpt lat="45.153394" lon="5.748424"><ele>223.0</ele></trkpt>
<trkpt lat="45.153451" lon="5.748396"><ele>223.0</ele></trkpt>
<trkpt lat="45.153527" lon="5.748357"><ele>223.0</ele></trkpt>
<trkpt lat="45.153568" lon="5.748341"><ele>223.0</ele></trkpt>
<trkpt lat="45.153663" lon="5.748290"><ele>222.75</ele></trkpt>
<trkpt lat="45.154154" lon="5.748055"><ele>222.0</ele></trkpt>
<trkpt lat="45.154226" lon="5.748019"><ele>222.0</ele></trkpt>
<trkpt lat="45.154304" lon="5.747984"><ele>222.0</ele></trkpt>
<trkpt lat="45.154316" lon="5.748036"><ele>222.0</ele></trkpt>
<trkpt lat="45.154337" lon="5.748125"><ele>222.0</ele></trkpt>
<trkpt lat="45.154344" lon="5.748177"><ele>222.0</ele></trkpt>
<trkpt lat="45.154385" lon="5.748437"><ele>222.0</ele></trkpt>
<trkpt lat="45.154401" lon="5.748492"><ele>222.0</ele></trkpt>
<trkpt lat="45.154414" lon="5.748521"><ele>222.0</ele></trkpt>
<trkpt lat="45.154492" lon="5.748639"><ele>221.75</ele></trkpt>
<trkpt lat="45.154546" lon="5.748720"><ele>221.75</ele></trkpt>
<trkpt lat="45.154730" lon="5.748955"><ele>221.0</ele></trkpt>
<trkpt lat="45.154791" lon="5.749039"><ele>221.0</ele></trkpt>
<trkpt lat="45.155083" lon="5.749405"><ele>221.0</ele></trkpt>
<trkpt lat="45.155204" lon="5.749566"><ele>221.0</ele></trkpt>
<trkpt lat="45.155398" lon="5.749807"><ele>221.0</ele></trkpt>
<trkpt lat="45.155590" lon="5.750083"><ele>220.75</ele></trkpt>
<trkpt lat="45.155683" lon="5.750210"><ele>220.5</ele></trkpt>
<trkpt lat="45.156447" lon="5.751254"><ele>220.0</ele></trkpt>
<trkpt lat="45.156482" lon="5.751301"><ele>220.0</ele></trkpt>
<trkpt lat="45.156514" lon="5.751338"><ele>220.0</ele></trkpt>
<trkpt lat="45.156659" lon="5.751207"><ele>220.0</ele></trkpt>
<trkpt lat="45.156869" lon="5.751054"><ele>220.0</ele></trkpt>
<trkpt lat="45.157220" lon="5.750769"><ele>220.0</ele></trkpt>
<trkpt lat="45.157309" lon="5.750696"><ele>219.75</ele></trkpt>
<trkpt lat="45.157654" lon="5.750447"><ele>219.0</ele></trkpt>
<trkpt lat="45.157933" lon="5.750197"><ele>219.5</ele></trkpt>
<trkpt lat="45.158071" lon="5.750139"><ele>220.5</ele></trkpt>
<trkpt lat="45.158156" lon="5.750115"><ele>220.75</ele></trkpt>
<trkpt lat="45.158299" lon="5.750177"><ele>220.25</ele></trkpt>
<trkpt lat="45.158484" lon="5.750384"><ele>220.0</ele></trkpt>
<trkpt lat="45.158564" lon="5.750472"><ele>219.25</ele></trkpt>
<trkpt lat="45.158777" lon="5.750709"><ele>219.5</ele></trkpt>
<trkpt lat="45.158957" lon="5.750932"><ele>218.5</ele></trkpt>
<trkpt lat="45.159018" lon="5.751008"><ele>218.75</ele></trkpt>
<trkpt lat="45.159228" lon="5.751278"><ele>218.5</ele></trkpt>
<trkpt lat="45.159366" lon="5.751429"><ele>218.0</ele></trkpt>
<trkpt lat="45.159557" lon="5.751661"><ele>218.75</ele></trkpt>
<trkpt lat="45.159787" lon="5.751941"><ele>218.0</ele></trkpt>
<trkpt lat="45.160070" lon="5.752275"><ele>218.0</ele></trkpt>
<trkpt lat="45.160166" lon="5.752379"><ele>218.0</ele></trkpt>
<trkpt lat="45.160311" lon="5.752546"><ele>217.75</ele></trkpt>
<trkpt lat="45.160533" lon="5.752801"><ele>217.0</ele></trkpt>
<trkpt lat="45.160679" lon="5.752982"><ele>217.0</ele></trkpt>
<trkpt lat="45.160723" lon="5.753032"><ele>217.0</ele></trkpt>
<trkpt lat="45.160661" lon="5.753109"><ele>217.0</ele></trkpt>
<trkpt lat="45.160552" lon="5.753251"><ele>217.0</ele></trkpt>
<trkpt lat="45.160168" lon="5.753693"><ele>217.25</ele></trkpt>
<trkpt lat="45.160298" lon="5.753887"><ele>217.0</ele></trkpt>
<trkpt lat="45.160424" lon="5.754044"><ele>217.0</ele></trkpt>
<trkpt lat="45.160547" lon="5.754196"><ele>217.0</ele></trkpt>
<trkpt lat="45.160590" lon="5.754249"><ele>217.0</ele></trkpt>
<trkpt lat="45.160682" lon="5.754351"><ele>217.0</ele></trkpt>
<trkpt lat="45.160803" lon="5.754507"><ele>217.0</ele></trkpt>
<trkpt lat="45.160884" lon="5.754611"><ele>216.75</ele></trkpt>
<trkpt lat="45.161088" lon="5.754871"><ele>217.0</ele></trkpt>
<trkpt lat="45.161104" lon="5.754892"><ele>217.0</ele></trkpt>
<trkpt lat="45.161227" lon="5.755050"><ele>217.25</ele></trkpt>
<trkpt lat="45.161436" lon="5.754713"><ele>218.5</ele></trkpt>
<trkpt lat="45.161845" lon="5.754065"><ele>219.0</ele></trkpt>
<trkpt lat="45.162002" lon="5.753815"><ele>220.0</ele></trkpt>
<trkpt lat="45.162285" lon="5.753363"></trkpt>
<trkpt lat="45.162458" lon="5.753088"><ele>218.5</ele></trkpt>
<trkpt lat="45.163346" lon="5.751714"><ele>216.75</ele></trkpt>
<trkpt lat="45.163370" lon="5.751679"><ele>216.75</ele></trkpt>
<trkpt lat="45.163444" lon="5.751569"><ele>216.25</ele></trkpt>
<trkpt lat="45.163495" lon="5.751490"><ele>216.0</ele></trkpt>
<trkpt lat="45.163561" lon="5.751385"><ele>216.0</ele></trkpt>
<trkpt lat="45.163640" lon="5.751263"><ele>216.0</ele></trkpt>
<trkpt lat="45.163658" lon="5.751235"><ele>216.0</ele></trkpt>
<trkpt lat="45.163696" lon="5.751175"><ele>216.0</ele></trkpt>
<trkpt lat="45.163724" lon="5.751128"><ele>216.0</ele></trkpt>
<trkpt lat="45.163785" lon="5.751024"><ele>216.0</ele></trkpt>
<trkpt lat="45.163833" lon="5.750949"><ele>216.0</ele></trkpt>
<trkpt lat="45.163943" lon="5.750774"><ele>216.0</ele></trkpt>
<trkpt lat="45.164002" lon="5.750684"><ele>216.0</ele></trkpt>
<trkpt lat="45.164058" lon="5.750596"><ele>216.0</ele></trkpt>
<trkpt lat="45.164261" lon="5.750273"><ele>216.0</ele></trkpt>
<trkpt lat="45.164520" lon="5.749863"><ele>216.0</ele></trkpt>
<trkpt lat="45.164537" lon="5.749833"><ele>216.0</ele></trkpt>
<trkpt lat="45.164606" lon="5.749730"><ele>216.0</ele></trkpt>
<trkpt lat="45.164645" lon="5.749673"><ele>216.0</ele></trkpt>
<trkpt lat="45.164766" lon="5.749481"><ele>216.0</ele></trkpt>
<trkpt lat="45.164957" lon="5.749160"><ele>216.0</ele></trkpt>
<trkpt lat="45.165036" lon="5.749039"><ele>216.0</ele></trkpt>
<trkpt lat="45.165098" lon="5.748943"><ele>216.0</ele></trkpt>
<trkpt lat="45.165151" lon="5.748858"><ele>216.0</ele></trkpt>
<trkpt lat="45.165192" lon="5.748790"><ele>216.0</ele></trkpt>
<trkpt lat="45.165235" lon="5.748724"><ele>216.0</ele></trkpt>
<trkpt lat="45.165370" lon="5.748510"><ele>216.0</ele></trkpt>
<trkpt lat="45.165401" lon="5.748460"><ele>216.0</ele></trkpt>
<trkpt lat="45.165450" lon="5.748383"><ele>216.0</ele></trkpt>
<trkpt lat="45.165507" lon="5.748292"><ele>216.0</ele></trkpt>
<trkpt lat="45.165547" lon="5.748239"><ele>216.0</ele></trkpt>
<trkpt lat="45.165595" lon="5.748160"><ele>216.0</ele></trkpt>
<trkpt lat="45.165604" lon="5.748145"><ele>216.0</ele></trkpt>
<trkpt lat="45.165686" lon="5.748013"><ele>215.75</ele></trkpt>
<trkpt lat="45.165696" lon="5.747997"><ele>215.75</ele></trkpt>
<trkpt lat="45.165818" lon="5.747811"><ele>215.0</ele></trkpt>
<trkpt lat="45.165901" lon="5.747675"><ele>215.5</ele></trkpt>
<trkpt lat="45.165913" lon="5.747655"><ele>215.5</ele></trkpt>
<trkpt lat="45.166047" lon="5.747444"><ele>216.0</ele></trkpt>
<trkpt lat="45.166181" lon="5.747250"><ele>216.0</ele></trkpt>
<trkpt lat="45.166205" lon="5.747215"><ele>216.0</ele></trkpt>
<trkpt lat="45.166561" lon="5.746645"><ele>216.0</ele></trkpt>
<trkpt lat="45.166585" lon="5.746607"><ele>216.0</ele></trkpt>
<trkpt lat="45.166633" lon="5.746530"><ele>216.0</ele></trkpt>
<trkpt lat="45.166649" lon="5.746504"><ele>216.0</ele></trkpt>
<trkpt lat="45.166680" lon="5.746455"><ele>216.0</ele></trkpt>
<trkpt lat="45.166700" lon="5.746423"><ele>216.0</ele></trkpt>
<trkpt lat="45.166712" lon="5.746405"><ele>216.0</ele></trkpt>
<trkpt lat="45.166791" lon="5.746286"><ele>216.0</ele></trkpt>
<trkpt lat="45.166853" lon="5.746159"><ele>216.0</ele></trkpt>
<trkpt lat="45.167637" lon="5.744930"><ele>216.0</ele></trkpt>
<trkpt lat="45.167795" lon="5.744677"><ele>216.0</ele></trkpt>
<trkpt lat="45.168144" lon="5.744123"><ele>216.0</ele></trkpt>
<trkpt lat="45.168173" lon="5.744073"><ele>216.0</ele></trkpt>
<trkpt lat="45.168329" lon="5.744186"><ele>216.0</ele></trkpt>
<trkpt lat="45.168876" lon="5.744521"><ele>216.0</ele></trkpt>
<trkpt lat="45.169221" lon="5.744647"><ele>215.75</ele></trkpt>
<trkpt lat="45.169358" lon="5.744697"><ele>215.25</ele></trkpt>
<trkpt lat="45.169839" lon="5.744873"><ele>215.25</ele></trkpt>
<trkpt lat="45.170344" lon="5.745036"><ele>215.0</ele></trkpt>
<trkpt lat="45.170569" lon="5.745109"><ele>215.0</ele></trkpt>
<trkpt lat="45.170700" lon="5.745165"><ele>215.0</ele></trkpt>
<trkpt lat="45.171242" lon="5.745320"><ele>215.0</ele></trkpt>
<trkpt lat="45.171719" lon="5.745484"><ele>215.0</ele></trkpt>
<trkpt lat="45.172019" lon="5.745589"><ele>214.75</ele></trkpt>
<trkpt lat="45.172086" lon="5.745632"><ele>214.75</ele></trkpt>
<trkpt lat="45.172118" lon="5.745653"><ele>214.75</ele></trkpt>
<trkpt lat="45.172243" lon="5.745695"><ele>214.5</ele></trkpt>
<trkpt lat="45.172366" lon="5.745733"><ele>214.5</ele></trkpt>
<trkpt lat="45.172545" lon="5.745792"><ele>214.75</ele></trkpt>
<trkpt lat="45.172638" lon="5.745868"><ele>214.5</ele></trkpt>
<trkpt lat="45.172679" lon="5.745876"><ele>214.25</ele></trkpt>
<trkpt lat="45.172734" lon="5.745886"><ele>214.25</ele></trkpt>
<trkpt lat="45.172795" lon="5.745868"><ele>214.0</ele></trkpt>
<trkpt lat="45.172976" lon="5.745877"><ele>214.0</ele></trkpt>
<trkpt lat="45.173092" lon="5.745865"><ele>214.0</ele></trkpt>
<trkpt lat="45.173201" lon="5.745833"><ele>214.0</ele></trkpt>
<trkpt lat="45.173339" lon="5.745779"><ele>214.0</ele></trkpt>
<trkpt lat="45.173495" lon="5.745707"><ele>214.0</ele></trkpt>
<trkpt lat="45.174185" lon="5.745401"><ele>214.0</ele></trkpt>
<trkpt lat="45.174449" lon="5.745280"><ele>214.75</ele></trkpt>
<trkpt lat="45.174478" lon="5.745285"><ele>214.75</ele></trkpt>
<trkpt lat="45.174507" lon="5.745290"><ele>214.5</ele></trkpt>
<trkpt lat="45.174558" lon="5.745329"><ele>214.25</ele></trkpt>
<trkpt lat="45.174607" lon="5.745354"><ele>214.25</ele></trkpt>
<trkpt lat="45.174743" lon="5.745291"><ele>214.0</ele></trkpt>
<trkpt lat="45.174842" lon="5.745245"><ele>214.0</ele></trkpt>
<trkpt lat="45.174882" lon="5.745111"><ele>214.25</ele></trkpt>
<trkpt lat="45.175017" lon="5.744857"><ele>213.75</ele></trkpt>
<trkpt lat="45.175161" lon="5.744715"><ele>213.75</ele></trkpt>
<trkpt lat="45.175298" lon="5.744574"><ele>213.25</ele></trkpt>
<trkpt lat="45.175331" lon="5.744544"><ele>213.25</ele></trkpt>
<trkpt lat="45.175393" lon="5.744489"><ele>213.0</ele></trkpt>
<trkpt lat="45.175505" lon="5.744374"><ele>213.0</ele></trkpt>
<trkpt lat="45.175533" lon="5.744347"><ele>213.0</ele></trkpt>
<trkpt lat="45.175549" lon="5.744332"><ele>213.0</ele></trkpt>
<trkpt lat="45.175773" lon="5.744119"><ele>213.0</ele></trkpt>
<trkpt lat="45.176044" lon="5.743855"><ele>213.0</ele></trkpt>
<trkpt lat="45.176650" lon="5.743266"><ele>213.0</ele></trkpt>
<trkpt lat="45.176731" lon="5.743197"><ele>212.75</ele></trkpt>
<trkpt lat="45.176898" lon="5.743111"><ele>213.0</ele></trkpt>
<trkpt lat="45.177017" lon="5.743072"><ele>213.0</ele></trkpt>
<trkpt lat="45.177191" lon="5.743026"><ele>213.0</ele></trkpt>
<trkpt lat="45.177223" lon="5.743017"><ele>213.0</ele></trkpt>
<trkpt lat="45.177295" lon="5.742994"><ele>213.0</ele></trkpt>
<trkpt lat="45.177364" lon="5.742981"><ele>213.0</ele></trkpt>
<trkpt lat="45.177446" lon="5.742962"><ele>213.0</ele></trkpt>
<trkpt lat="45.177498" lon="5.742942"><ele>213.0</ele></trkpt>
<trkpt lat="45.177525" lon="5.742932"><ele>213.0</ele></trkpt>
<trkpt lat="45.177741" lon="5.742852"><ele>213.0</ele></trkpt>
<trkpt lat="45.177986" lon="5.742767"><ele>213.0</ele></trkpt>
<trkpt lat="45.178089" lon="5.742726"><ele>213.0</ele></trkpt>
<trkpt lat="45.178132" lon="5.742707"><ele>213.0</ele></trkpt>
<trkpt lat="45.178225" lon="5.742671"><ele>213.0</ele></trkpt>
<trkpt lat="45.178381" lon="5.742617"><ele>212.75</ele></trkpt>
<trkpt lat="45.178483" lon="5.742582"><ele>212.5</ele></trkpt>
<trkpt lat="45.178507" lon="5.742573"><ele>212.5</ele></trkpt>
<trkpt lat="45.178626" lon="5.742532"><ele>212.0</ele></trkpt>
<trkpt lat="45.178853" lon="5.742441"><ele>212.5</ele></trkpt>
<trkpt lat="45.178980" lon="5.742390"><ele>212.25</ele></trkpt>
<trkpt lat="45.179203" lon="5.742304"><ele>212.0</ele></trkpt>
<trkpt lat="45.179577" lon="5.742152"><ele>212.0</ele></trkpt>
<trkpt lat="45.179630" lon="5.742130"><ele>212.0</ele></trkpt>
<trkpt lat="45.179788" lon="5.742059"><ele>212.0</ele></trkpt>
<trkpt lat="45.179828" lon="5.742037"><ele>212.0</ele></trkpt>
<trkpt lat="45.180140" lon="5.741860"><ele>212.0</ele></trkpt>
<trkpt lat="45.180419" lon="5.741684"><ele>212.0</ele></trkpt>
<trkpt lat="45.180487" lon="5.741636"><ele>212.0</ele></trkpt>
<trkpt lat="45.180580" lon="5.741576"><ele>212.0</ele></trkpt>
<trkpt lat="45.180654" lon="5.741526"><ele>212.0</ele></trkpt>
<trkpt lat="45.180688" lon="5.741507"><ele>212.0</ele></trkpt>
<trkpt lat="45.181136" lon="5.741233"><ele>212.0</ele></trkpt>
<trkpt lat="45.181213" lon="5.741189"><ele>212.0</ele></trkpt>
<trkpt lat="45.181242" lon="5.741177"><ele>212.0</ele></trkpt>
<trkpt lat="45.181250" lon="5.741174"><ele>212.0</ele></trkpt>
<trkpt lat="45.181346" lon="5.741135"><ele>212.0</ele></trkpt>
<trkpt lat="45.181637" lon="5.741016"><ele>212.0</ele></trkpt>
<trkpt lat="45.181685" lon="5.740994"><ele>212.0</ele></trkpt>
<trkpt lat="45.181740" lon="5.740977"><ele>212.0</ele></trkpt>
<trkpt lat="45.181815" lon="5.740958"><ele>212.0</ele></trkpt>
<trkpt lat="45.182146" lon="5.740871"><ele>212.0</ele></trkpt>
<trkpt lat="45.182262" lon="5.740854"><ele>212.0</ele></trkpt>
<trkpt lat="45.182419" lon="5.740884"><ele>212.0</ele></trkpt>
<trkpt lat="45.182780" lon="5.740979"><ele>212.0</ele></trkpt>
<trkpt lat="45.183161" lon="5.741080"><ele>212.0</ele></trkpt>
<trkpt lat="45.183259" lon="5.741103"><ele>212.0</ele></trkpt>
<trkpt lat="45.183362" lon="5.741112"><ele>212.0</ele></trkpt>
<trkpt lat="45.183585" lon="5.741093"><ele>212.0</ele></trkpt>
<trkpt lat="45.183701" lon="5.741066"><ele>212.0</ele></trkpt>
<trkpt lat="45.183762" lon="5.741054"><ele>212.0</ele></trkpt>
<trkpt lat="45.183800" lon="5.741047"><ele>212.0</ele></trkpt>
<trkpt lat="45.183863" lon="5.741034"><ele>212.0</ele></trkpt>
<trkpt lat="45.183911" lon="5.741026"><ele>212.0</ele></trkpt>
<trkpt lat="45.183937" lon="5.741021"><ele>212.0</ele></trkpt>
<trkpt lat="45.184297" lon="5.740933"><ele>212.0</ele></trkpt>
<trkpt lat="45.184341" lon="5.740947"><ele>212.0</ele></trkpt>
<trkpt lat="45.184435" lon="5.740947"><ele>212.0</ele></trkpt>
<trkpt lat="45.184517" lon="5.740866"><ele>212.0</ele></trkpt>
<trkpt lat="45.184639" lon="5.741055"><ele>212.0</ele></trkpt>
<trkpt lat="45.184673" lon="5.741107"><ele>211.75</ele></trkpt>
<trkpt lat="45.184697" lon="5.741144"><ele>212.0</ele></trkpt>
<trkpt lat="45.184873" lon="5.741411"><ele>212.0</ele></trkpt>
<trkpt lat="45.185021" lon="5.741641"><ele>212.0</ele></trkpt>
<trkpt lat="45.185075" lon="5.741725"><ele>212.0</ele></trkpt>
<trkpt lat="45.185334" lon="5.742127"><ele>212.0</ele></trkpt>
<trkpt lat="45.185481" lon="5.742361"><ele>212.0</ele></trkpt>
<trkpt lat="45.185620" lon="5.742581"><ele>212.0</ele></trkpt>
<trkpt lat="45.185631" lon="5.742600"><ele>212.0</ele></trkpt>
<trkpt lat="45.185673" lon="5.742665"><ele>212.0</ele></trkpt>
<trkpt lat="45.185709" lon="5.742722"><ele>212.0</ele></trkpt>
<trkpt lat="45.185788" lon="5.742844"><ele>212.0</ele></trkpt>
<trkpt lat="45.185875" lon="5.742798"><ele>212.0</ele></trkpt>
<trkpt lat="45.185903" lon="5.742783"><ele>211.75</ele></trkpt>
<trkpt lat="45.185926" lon="5.742772"><ele>212.0</ele></trkpt>
<trkpt lat="45.186013" lon="5.742731"><ele>212.0</ele></trkpt>
<trkpt lat="45.186359" lon="5.742570"><ele>212.0</ele></trkpt>
<trkpt lat="45.186844" lon="5.742347"><ele>212.0</ele></trkpt>
<trkpt lat="45.186874" lon="5.742334"><ele>212.0</ele></trkpt>
<trkpt lat="45.186913" lon="5.742316"><ele>212.0</ele></trkpt>
<trkpt lat="45.186982" lon="5.742377"><ele>212.0</ele></trkpt>
<trkpt lat="45.187008" lon="5.742396"><ele>212.0</ele></trkpt>
<trkpt lat="45.187045" lon="5.742422"><ele>212.0</ele></trkpt>
<trkpt lat="45.187062" lon="5.742434"><ele>212.0</ele></trkpt>
<trkpt lat="45.187072" lon="5.742440"><ele>212.0</ele></trkpt>
<trkpt lat="45.187097" lon="5.742452"><ele>212.0</ele></trkpt>
<trkpt lat="45.187136" lon="5.742468"><ele>212.0</ele></trkpt>
<trkpt lat="45.187255" lon="5.742458"><ele>212.0</ele></trkpt>
<trkpt lat="45.187437" lon="5.742498"><ele>212.0</ele></trkpt>
<trkpt lat="45.187718" lon="5.742526"><ele>212.75</ele></trkpt>
<trkpt lat="45.187979" lon="5.742465"><ele>213.0</ele></trkpt>
<trkpt lat="45.188199" lon="5.742386"><ele>213.5</ele></trkpt>
<trkpt lat="45.188271" lon="5.742314"><ele>213.75</ele></trkpt>
<trkpt lat="45.188369" lon="5.742261"><ele>214.0</ele></trkpt>
<trkpt lat="45.188462" lon="5.742268"><ele>214.0</ele></trkpt>
<trkpt lat="45.188525" lon="5.742189"><ele>213.75</ele></trkpt>
<trkpt lat="45.188910" lon="5.741744"><ele>213.25</ele></trkpt>
<trkpt lat="45.189115" lon="5.741508"><ele>214.0</ele></trkpt>
<trkpt lat="45.189276" lon="5.741354"><ele>213.5</ele></trkpt>
<trkpt lat="45.189318" lon="5.741447"><ele>213.75</ele></trkpt>
<trkpt lat="45.189446" lon="5.741332"><ele>212.75</ele></trkpt>
<trkpt lat="45.189680" lon="5.741225"><ele>214.25</ele></trkpt>
<trkpt lat="45.189808" lon="5.741204"><ele>214.5</ele></trkpt>
<trkpt lat="45.190040" lon="5.741178"><ele>214.25</ele></trkpt>
<trkpt lat="45.190232" lon="5.741204"><ele>214.75</ele></trkpt>
<trkpt lat="45.190232" lon="5.741262"><ele>214.75</ele></trkpt>
<trkpt lat="45.190227" lon="5.741331"><ele>214.75</ele></trkpt>
<trkpt lat="45.190383" lon="5.741457"><ele>214.5</ele></trkpt>
<trkpt lat="45.190562" lon="5.741570"><ele>213.5</ele></trkpt>
<trkpt lat="45.190581" lon="5.741602"><ele>213.0</ele></trkpt>
<trkpt lat="45.190601" lon="5.741588"><ele>213.0</ele></trkpt>
<trkpt lat="45.190834" lon="5.741465"><ele>212.5</ele></trkpt>
<trkpt lat="45.190913" lon="5.741436"><ele>213.0</ele></trkpt>
<trkpt lat="45.191256" lon="5.741344"><ele>213.25</ele></trkpt>
<trkpt lat="45.191316" lon="5.741338"><ele>213.25</ele></trkpt>
<trkpt lat="45.191388" lon="5.741205"><ele>213.0</ele></trkpt>
<trkpt lat="45.191456" lon="5.741147"><ele>213.25</ele></trkpt>
<trkpt lat="45.191563" lon="5.741058"><ele>214.25</ele></trkpt>
<trkpt lat="45.191612" lon="5.741031"><ele>214.5</ele></trkpt>
<trkpt lat="45.191607" lon="5.740944"><ele>214.5</ele></trkpt>
<trkpt lat="45.191605" lon="5.740905"><ele>214.5</ele></trkpt>
<trkpt lat="45.191596" lon="5.740726"><ele>213.75</ele></trkpt>
<trkpt lat="45.191552" lon="5.739860"><ele>213.0</ele></trkpt>
<trkpt lat="45.191543" lon="5.739710"><ele>213.0</ele></trkpt>
<trkpt lat="45.191533" lon="5.739560"><ele>213.0</ele></trkpt>
<trkpt lat="45.191527" lon="5.739386"><ele>213.0</ele></trkpt>
<trkpt lat="45.191525" lon="5.739263"><ele>213.0</ele></trkpt>
<trkpt lat="45.191523" lon="5.739134"><ele>213.0</ele></trkpt>
<trkpt lat="45.191539" lon="5.739043"><ele>213.0</ele></trkpt>
<trkpt lat="45.191527" lon="5.738963"><ele>213.0</ele></trkpt>
<trkpt lat="45.191520" lon="5.738916"><ele>213.0</ele></trkpt>
<trkpt lat="45.191481" lon="5.738821"><ele>213.0</ele></trkpt>
<trkpt lat="45.191403" lon="5.738701"><ele>213.0</ele></trkpt>
<trkpt lat="45.191347" lon="5.738629"><ele>213.0</ele></trkpt>
<trkpt lat="45.191277" lon="5.738530"><ele>213.0</ele></trkpt>
<trkpt lat="45.191193" lon="5.738395"><ele>213.0</ele></trkpt>
<trkpt lat="45.191133" lon="5.738317"><ele>213.0</ele></trkpt>
<trkpt lat="45.191018" lon="5.738100"><ele>212.75</ele></trkpt>
<trkpt lat="45.190950" lon="5.737911"><ele>212.5</ele></trkpt>
<trkpt lat="45.190852" lon="5.737651"><ele>212.0</ele></trkpt>
<trkpt lat="45.190818" lon="5.737503"><ele>212.0</ele></trkpt>
<trkpt lat="45.190827" lon="5.737384"><ele>212.0</ele></trkpt>
<trkpt lat="45.190862" lon="5.737270"><ele>212.0</ele></trkpt>
<trkpt lat="45.191086" lon="5.736884"><ele>212.0</ele></trkpt>
<trkpt lat="45.191123" lon="5.736822"><ele>212.0</ele></trkpt>
<trkpt lat="45.191138" lon="5.736753"><ele>212.0</ele></trkpt>
<trkpt lat="45.191132" lon="5.736712"><ele>212.0</ele></trkpt>
<trkpt lat="45.191034" lon="5.736454"><ele>212.0</ele></trkpt>
<trkpt lat="45.190839" lon="5.735920"><ele>212.0</ele></trkpt>
<trkpt lat="45.190832" lon="5.735899"><ele>212.0</ele></trkpt>
<trkpt lat="45.190800" lon="5.735815"><ele>212.0</ele></trkpt>
<trkpt lat="45.190775" lon="5.735744"><ele>211.75</ele></trkpt>
<trkpt lat="45.190693" lon="5.735524"><ele>212.0</ele></trkpt>
<trkpt lat="45.190424" lon="5.734776"><ele>211.5</ele></trkpt>
<trkpt lat="45.190404" lon="5.734721"><ele>211.25</ele></trkpt>
<trkpt lat="45.190382" lon="5.734658"><ele>211.25</ele></trkpt>
<trkpt lat="45.190053" lon="5.733745"><ele>211.0</ele></trkpt>
<trkpt lat="45.190033" lon="5.733691"><ele>211.0</ele></trkpt>
<trkpt lat="45.190016" lon="5.733643"><ele>211.0</ele></trkpt>
<trkpt lat="45.189989" lon="5.733558"><ele>211.0</ele></trkpt>
<trkpt lat="45.189925" lon="5.733431"><ele>211.25</ele></trkpt>
<trkpt lat="45.189809" lon="5.733128"><ele>211.25</ele></trkpt>
<trkpt lat="45.189773" lon="5.733027"><ele>211.25</ele></trkpt>
<trkpt lat="45.189689" lon="5.732790"><ele>211.75</ele></trkpt>
<trkpt lat="45.189646" lon="5.732610"><ele>212.0</ele></trkpt>
<trkpt lat="45.189640" lon="5.732596"><ele>212.0</ele></trkpt>
<trkpt lat="45.189620" lon="5.732543"><ele>212.0</ele></trkpt>
<trkpt lat="45.189526" lon="5.732292"><ele>211.75</ele></trkpt>
<trkpt lat="45.189394" lon="5.731935"><ele>211.0</ele></trkpt>
<trkpt lat="45.189330" lon="5.731769"><ele>211.0</ele></trkpt>
<trkpt lat="45.189318" lon="5.731738"><ele>211.0</ele></trkpt>
<trkpt lat="45.189301" lon="5.731692"><ele>211.0</ele></trkpt>
<trkpt lat="45.189282" lon="5.731642"><ele>211.0</ele></trkpt>
<trkpt lat="45.189265" lon="5.731596"><ele>211.0</ele></trkpt>
<trkpt lat="45.189205" lon="5.731417"><ele>210.75</ele></trkpt>
<trkpt lat="45.189117" lon="5.731155"><ele>211.0</ele></trkpt>
<trkpt lat="45.189046" lon="5.730944"><ele>211.0</ele></trkpt>
<trkpt lat="45.189029" lon="5.730892"><ele>211.0</ele></trkpt>
<trkpt lat="45.189055" lon="5.730862"><ele>211.0</ele></trkpt>
<trkpt lat="45.189361" lon="5.730619"><ele>211.5</ele></trkpt>
<trkpt lat="45.189373" lon="5.730609"><ele>211.5</ele></trkpt>
<trkpt lat="45.189399" lon="5.730588"><ele>211.5</ele></trkpt>
<trkpt lat="45.189116" lon="5.729755"><ele>211.0</ele></trkpt>
<trkpt lat="45.189015" lon="5.729453"><ele>211.0</ele></trkpt>
<trkpt lat="45.188992" lon="5.729383"><ele>211.0</ele></trkpt>
<trkpt lat="45.188969" lon="5.729318"><ele>211.0</ele></trkpt>
<trkpt lat="45.188740" lon="5.728692"><ele>211.0</ele></trkpt>
<trkpt lat="45.188720" lon="5.728643"><ele>211.0</ele></trkpt>
<trkpt lat="45.188709" lon="5.728602"><ele>211.0</ele></trkpt>
<trkpt lat="45.188521" lon="5.728049"><ele>211.0</ele></trkpt>
<trkpt lat="45.188421" lon="5.727750"><ele>211.5</ele></trkpt>
<trkpt lat="45.188387" lon="5.727648"><ele>211.75</ele></trkpt>
<trkpt lat="45.188357" lon="5.727555"><ele>211.75</ele></trkpt>
<trkpt lat="45.188337" lon="5.727494"><ele>211.75</ele></trkpt>
<trkpt lat="45.188198" lon="5.727107"><ele>212.0</ele></trkpt>
<trkpt lat="45.188074" lon="5.726765"><ele>212.25</ele></trkpt>
<trkpt lat="45.188036" lon="5.726660"><ele>212.0</ele></trkpt>
<trkpt lat="45.188000" lon="5.726565"><ele>212.25</ele></trkpt>
<trkpt lat="45.187979" lon="5.726442"><ele>212.75</ele></trkpt>
<trkpt lat="45.187950" lon="5.726334"><ele>212.75</ele></trkpt>
<trkpt lat="45.187918" lon="5.725706"><ele>212.0</ele></trkpt>
<trkpt lat="45.187877" lon="5.725056"><ele>212.0</ele></trkpt>
<trkpt lat="45.187860" lon="5.724822"><ele>212.0</ele></trkpt>
<trkpt lat="45.187814" lon="5.724047"><ele>212.0</ele></trkpt>
<trkpt lat="45.187803" lon="5.723905"><ele>212.0</ele></trkpt>
<trkpt lat="45.187803" lon="5.723659"><ele>212.0</ele></trkpt>
<trkpt lat="45.187798" lon="5.723548"><ele>212.0</ele></trkpt>
<trkpt lat="45.187929" lon="5.723468"><ele>212.0</ele></trkpt>
<trkpt lat="45.187965" lon="5.723443"><ele>212.0</ele></trkpt>
<trkpt lat="45.188236" lon="5.723253"><ele>212.0</ele></trkpt>
<trkpt lat="45.188386" lon="5.723148"><ele>212.0</ele></trkpt>
<trkpt lat="45.188597" lon="5.722998"><ele>212.0</ele></trkpt>
<trkpt lat="45.188703" lon="5.722923"><ele>212.0</ele></trkpt>
<trkpt lat="45.188828" lon="5.722836"><ele>212.0</ele></trkpt>
<trkpt lat="45.188884" lon="5.722798"><ele>212.0</ele></trkpt>
<trkpt lat="45.188980" lon="5.722734"><ele>212.0</ele></trkpt>
<trkpt lat="45.189017" lon="5.722708"><ele>212.0</ele></trkpt>
<trkpt lat="45.189030" lon="5.722699"><ele>212.0</ele></trkpt>
<trkpt lat="45.189047" lon="5.722688"><ele>212.0</ele></trkpt>
<trkpt lat="45.189104" lon="5.722650"><ele>212.0</ele></trkpt>
<trkpt lat="45.189135" lon="5.722629"><ele>212.0</ele></trkpt>
<trkpt lat="45.189204" lon="5.722582"><ele>212.0</ele></trkpt>
<trkpt lat="45.189276" lon="5.722533"><ele>212.0</ele></trkpt>
<trkpt lat="45.189325" lon="5.722500"><ele>212.0</ele></trkpt>
<trkpt lat="45.189659" lon="5.722278"><ele>212.0</ele></trkpt>
<trkpt lat="45.189669" lon="5.722203"><ele>212.0</ele></trkpt>
<trkpt lat="45.189678" lon="5.722132"><ele>212.0</ele></trkpt>
<trkpt lat="45.189816" lon="5.721262"><ele>211.5</ele></trkpt>
<trkpt lat="45.189826" lon="5.721199"><ele>211.5</ele></trkpt>
<trkpt lat="45.189835" lon="5.721120"><ele>211.25</ele></trkpt>
<trkpt lat="45.189942" lon="5.720491"><ele>211.0</ele></trkpt>
<trkpt lat="45.190014" lon="5.720089"><ele>211.0</ele></trkpt>
<trkpt lat="45.190035" lon="5.719971"><ele>211.0</ele></trkpt>
<trkpt lat="45.190040" lon="5.719943"><ele>211.0</ele></trkpt>
<trkpt lat="45.189997" lon="5.719929"><ele>211.0</ele></trkpt>
<trkpt lat="45.189985" lon="5.719995"><ele>211.25</ele></trkpt>
</trkseg></trk></gpx>
