<?xml version="1.0" encoding="UTF-8"?>
<gpx version="1.1" creator="BRouter paired review" xmlns="http://www.topografix.com/GPX/1/1">
<trk><name>Route A</name><trkseg>
<trkpt lat="39.570008" lon="2.650010"><ele>19.75</ele></trkpt>
<trkpt lat="39.570000" lon="2.650021"><ele>20.0</ele></trkpt>
<trkpt lat="39.569927" lon="2.650221"><ele>20.0</ele></trkpt>
<trkpt lat="39.569899" lon="2.650341"><ele>20.0</ele></trkpt>
<trkpt lat="39.570003" lon="2.650470"><ele>20.5</ele></trkpt>
<trkpt lat="39.570017" lon="2.650502"><ele>20.75</ele></trkpt>
<trkpt lat="39.569961" lon="2.650576"><ele>20.75</ele></trkpt>
<trkpt lat="39.569961" lon="2.650583"><ele>20.75</ele></trkpt>
<trkpt lat="39.569917" lon="2.650621"><ele>20.75</ele></trkpt>
<trkpt lat="39.570323" lon="2.650951"><ele>21.0</ele></trkpt>
<trkpt lat="39.570347" lon="2.650971"><ele>21.0</ele></trkpt>
<trkpt lat="39.570397" lon="2.651013"><ele>21.0</ele></trkpt>
<trkpt lat="39.570664" lon="2.651217"><ele>21.25</ele></trkpt>
<trkpt lat="39.570751" lon="2.651275"><ele>21.5</ele></trkpt>
<trkpt lat="39.570766" lon="2.651307"><ele>21.75</ele></trkpt>
<trkpt lat="39.570778" lon="2.651365"><ele>21.75</ele></trkpt>
<trkpt lat="39.570779" lon="2.651452"><ele>21.75</ele></trkpt>
<trkpt lat="39.570776" lon="2.651552"><ele>21.75</ele></trkpt>
<trkpt lat="39.570761" lon="2.651898"><ele>21.5</ele></trkpt>
<trkpt lat="39.570691" lon="2.652024"><ele>21.25</ele></trkpt>
<trkpt lat="39.570629" lon="2.652138"><ele>21.0</ele></trkpt>
<trkpt lat="39.570607" lon="2.652178"><ele>21.0</ele></trkpt>
<trkpt lat="39.570485" lon="2.652424"><ele>21.75</ele></trkpt>
<trkpt lat="39.570387" lon="2.652622"><ele>21.5</ele></trkpt>
<trkpt lat="39.570443" lon="2.652847"><ele>21.0</ele></trkpt>
<trkpt lat="39.570493" lon="2.653046"><ele>21.0</ele></trkpt>
<trkpt lat="39.570484" lon="2.653139"><ele>21.0</ele></trkpt>
<trkpt lat="39.570460" lon="2.653526"><ele>21.0</ele></trkpt>
<trkpt lat="39.570518" lon="2.653815"><ele>20.75</ele></trkpt>
<trkpt lat="39.570526" lon="2.654021"><ele>20.75</ele></trkpt>
<trkpt lat="39.570416" lon="2.654269"><ele>20.25</ele></trkpt>
<trkpt lat="39.570250" lon="2.654809"><ele>19.75</ele></trkpt>
<trkpt lat="39.570247" lon="2.654962"><ele>19.75</ele></trkpt>
<trkpt lat="39.570247" lon="2.655002"><ele>19.75</ele></trkpt>
<trkpt lat="39.570267" lon="2.655642"><ele>19.5</ele></trkpt>
<trkpt lat="39.570283" lon="2.655897"><ele>18.75</ele></trkpt>
<trkpt lat="39.570253" lon="2.656376"><ele>18.0</ele></trkpt>
<trkpt lat="39.570251" lon="2.656412"><ele>18.0</ele></trkpt>
<trkpt lat="39.570247" lon="2.656477"><ele>18.0</ele></trkpt>
<trkpt lat="39.570139" lon="2.657268"><ele>16.75</ele></trkpt>
<trkpt lat="39.570117" lon="2.657439"><ele>16.0</ele></trkpt>
<trkpt lat="39.570357" lon="2.657341"><ele>16.5</ele></trkpt>
<trkpt lat="39.570930" lon="2.657001"><ele>17.25</ele></trkpt>
<trkpt lat="39.571141" lon="2.656876"><ele>18.0</ele></trkpt>
<trkpt lat="39.571340" lon="2.656789"><ele>18.0</ele></trkpt>
<trkpt lat="39.571427" lon="2.656772"><ele>17.75</ele></trkpt>
<trkpt lat="39.571508" lon="2.656769"><ele>17.75</ele></trkpt>
<trkpt lat="39.571680" lon="2.656791"><ele>17.5</ele></trkpt>
<trkpt lat="39.572038" lon="2.656838"><ele>18.0</ele></trkpt>
<trkpt lat="39.572399" lon="2.656889"><ele>18.5</ele></trkpt>
<trkpt lat="39.572592" lon="2.656917"><ele>19.0</ele></trkpt>
<trkpt lat="39.572646" lon="2.656916"><ele>19.0</ele></trkpt>
<trkpt lat="39.572721" lon="2.656896"><ele>19.0</ele></trkpt>
<trkpt lat="39.572794" lon="2.656845"><ele>19.0</ele></trkpt>
<trkpt lat="39.572882" lon="2.656755"><ele>19.0</ele></trkpt>
<trkpt lat="39.573035" lon="2.656550"><ele>19.25</ele></trkpt>
<trkpt lat="39.573423" lon="2.656038"><ele>20.5</ele></trkpt>
<trkpt lat="39.573548" lon="2.655885"><ele>20.75</ele></trkpt>
<trkpt lat="39.573623" lon="2.655808"><ele>21.0</ele></trkpt>
<trkpt lat="39.573677" lon="2.655778"><ele>21.0</ele></trkpt>
<trkpt lat="39.573811" lon="2.655750"><ele>21.5</ele></trkpt>
<trkpt lat="39.574319" lon="2.655670"><ele>21.5</ele></trkpt>
<trkpt lat="39.574809" lon="2.655577"><ele>22.25</ele></trkpt>
<trkpt lat="39.574899" lon="2.655556"><ele>22.5</ele></trkpt>
<trkpt lat="39.574980" lon="2.655498"><ele>22.75</ele></trkpt>
<trkpt lat="39.575085" lon="2.655325"><ele>23.25</ele></trkpt>
<trkpt lat="39.575137" lon="2.655200"><ele>23.25</ele></trkpt>
<trkpt lat="39.575198" lon="2.654879"><ele>22.5</ele></trkpt>
<trkpt lat="39.575324" lon="2.654595"><ele>23.0</ele></trkpt>
<trkpt lat="39.575429" lon="2.654423"></trkpt>
<trkpt lat="39.575697" lon="2.654084"><ele>24.25</ele></trkpt>
<trkpt lat="39.575734" lon="2.654057"><ele>24.25</ele></trkpt>
<trkpt lat="39.575900" lon="2.653860"><ele>24.0</ele></trkpt>
<trkpt lat="39.575926" lon="2.653835"><ele>24.25</ele></trkpt>
<trkpt lat="39.575996" lon="2.653802"><ele>24.5</ele></trkpt>
<trkpt lat="39.576082" lon="2.653788"><ele>24.75</ele></trkpt>
<trkpt lat="39.576092" lon="2.653774"><ele>24.75</ele></trkpt>
<trkpt lat="39.576267" lon="2.653590"><ele>24.75</ele></trkpt>
<trkpt lat="39.576335" lon="2.653538"><ele>24.75</ele></trkpt>
<trkpt lat="39.576487" lon="2.653436"><ele>25.0</ele></trkpt>
<trkpt lat="39.576799" lon="2.653225"><ele>25.0</ele></trkpt>
<trkpt lat="39.577293" lon="2.652892"><ele>25.5</ele></trkpt>
<trkpt lat="39.577418" lon="2.652968"><ele>25.75</ele></trkpt>
<trkpt lat="39.577451" lon="2.652989"><ele>25.75</ele></trkpt>
<trkpt lat="39.577684" lon="2.653131"><ele>26.0</ele></trkpt>
<trkpt lat="39.578198" lon="2.653447"><ele>25.75</ele></trkpt>
<trkpt lat="39.578776" lon="2.653801"><ele>25.75</ele></trkpt>
<trkpt lat="39.579471" lon="2.654227"><ele>26.0</ele></trkpt>
<trkpt lat="39.579653" lon="2.654338"><ele>26.75</ele></trkpt>
<trkpt lat="39.579642" lon="2.654388"><ele>26.5</ele></trkpt>
<trkpt lat="39.579645" lon="2.654453"><ele>26.5</ele></trkpt>
<trkpt lat="39.579659" lon="2.654496"><ele>26.5</ele></trkpt>
<trkpt lat="39.579690" lon="2.654542"><ele>26.5</ele></trkpt>
<trkpt lat="39.579741" lon="2.654573"><ele>26.5</ele></trkpt>
<trkpt lat="39.579791" lon="2.654575"><ele>26.5</ele></trkpt>
<trkpt lat="39.579846" lon="2.654545"><ele>26.75</ele></trkpt>
<trkpt lat="39.579884" lon="2.654486"><ele>26.75</ele></trkpt>
<trkpt lat="39.580035" lon="2.654578"><ele>27.0</ele></trkpt>
<trkpt lat="39.580694" lon="2.654982"><ele>27.0</ele></trkpt>
<trkpt lat="39.580729" lon="2.655003"><ele>27.0</ele></trkpt>
<trkpt lat="39.580982" lon="2.655159"><ele>27.5</ele></trkpt>
<trkpt lat="39.581221" lon="2.655306"><ele>28.0</ele></trkpt>
<trkpt lat="39.581278" lon="2.655337"><ele>28.0</ele></trkpt>
<trkpt lat="39.582146" lon="2.655870"><ele>28.0</ele></trkpt>
<trkpt lat="39.582797" lon="2.656271"><ele>29.0</ele></trkpt>
<trkpt lat="39.583415" lon="2.656652"><ele>29.0</ele></trkpt>
<trkpt lat="39.584090" lon="2.657066"><ele>29.5</ele></trkpt>
<trkpt lat="39.584698" lon="2.657440"><ele>30.0</ele></trkpt>
<trkpt lat="39.584741" lon="2.657466"><ele>30.0</ele></trkpt>
<trkpt lat="39.585372" lon="2.657854"><ele>31.0</ele></trkpt>
<trkpt lat="39.585962" lon="2.658218"><ele>31.25</ele></trkpt>
<trkpt lat="39.586597" lon="2.658608"><ele>32.0</ele></trkpt>
<trkpt lat="39.587238" lon="2.659002"><ele>32.25</ele></trkpt>
<trkpt lat="39.587850" lon="2.659379"><ele>33.0</ele></trkpt>
<trkpt lat="39.588260" lon="2.659625"><ele>33.25</ele></trkpt>
<trkpt lat="39.588308" lon="2.659660"><ele>33.0</ele></trkpt>
<trkpt lat="39.588405" lon="2.659723"><ele>33.25</ele></trkpt>
<trkpt lat="39.589023" lon="2.660102"><ele>34.0</ele></trkpt>
<trkpt lat="39.589638" lon="2.660480"><ele>33.75</ele></trkpt>
<trkpt lat="39.589923" lon="2.660650"><ele>33.75</ele></trkpt>
<trkpt lat="39.589962" lon="2.660665"><ele>33.75</ele></trkpt>
<trkpt lat="39.590015" lon="2.660674"><ele>34.0</ele></trkpt>
<trkpt lat="39.590487" lon="2.660649"><ele>34.0</ele></trkpt>
<trkpt lat="39.590626" lon="2.660663"><ele>34.0</ele></trkpt>
<trkpt lat="39.590655" lon="2.660666"><ele>34.0</ele></trkpt>
<trkpt lat="39.590685" lon="2.660674"><ele>34.0</ele></trkpt>
<trkpt lat="39.590727" lon="2.660698"><ele>34.0</ele></trkpt>
<trkpt lat="39.590750" lon="2.660717"><ele>34.0</ele></trkpt>
<trkpt lat="39.590770" lon="2.660758"><ele>34.0</ele></trkpt>
<trkpt lat="39.590770" lon="2.660772"><ele>34.0</ele></trkpt>
<trkpt lat="39.590771" lon="2.660788"><ele>34.0</ele></trkpt>
<trkpt lat="39.590786" lon="2.660878"><ele>34.0</ele></trkpt>
<trkpt lat="39.590809" lon="2.660921"><ele>34.0</ele></trkpt>
<trkpt lat="39.590837" lon="2.660957"><ele>34.0</ele></trkpt>
<trkpt lat="39.590896" lon="2.660990"><ele>34.25</ele></trkpt>
<trkpt lat="39.590956" lon="2.660993"><ele>34.5</ele></trkpt>
<trkpt lat="39.590987" lon="2.660982"><ele>34.75</ele></trkpt>
<trkpt lat="39.591118" lon="2.660889"><ele>35.0</ele></trkpt>
<trkpt lat="39.591211" lon="2.660862"><ele>35.25</ele></trkpt>
<trkpt lat="39.592474" lon="2.660804"><ele>36.0</ele></trkpt>
<trkpt lat="39.592517" lon="2.660808"><ele>36.0</ele></trkpt>
<trkpt lat="39.592555" lon="2.660822"><ele>36.0</ele></trkpt>
<trkpt lat="39.592649" lon="2.660884"><ele>36.0</ele></trkpt>
<trkpt lat="39.592713" lon="2.660925"><ele>36.0</ele></trkpt>
<trkpt lat="39.592743" lon="2.660930"><ele>36.0</ele></trkpt>
<trkpt lat="39.592780" lon="2.660925"><ele>36.0</ele></trkpt>
<trkpt lat="39.592849" lon="2.660891"><ele>36.0</ele></trkpt>
<trkpt lat="39.592874" lon="2.660866"><ele>36.0</ele></trkpt>
<trkpt lat="39.592898" lon="2.660827"><ele>36.0</ele></trkpt>
<trkpt lat="39.592915" lon="2.660783"><ele>36.0</ele></trkpt>
<trkpt lat="39.592928" lon="2.660687"><ele>36.25</ele></trkpt>
<trkpt lat="39.592928" lon="2.660671"><ele>36.25</ele></trkpt>
<trkpt lat="39.592927" lon="2.660655"><ele>36.25</ele></trkpt>
<trkpt lat="39.592946" lon="2.660618"><ele>36.25</ele></trkpt>
<trkpt lat="39.592982" lon="2.660586"><ele>36.5</ele></trkpt>
<trkpt lat="39.593005" lon="2.660578"><ele>36.75</ele></trkpt>
<trkpt lat="39.593066" lon="2.660575"><ele>36.75</ele></trkpt>
<trkpt lat="39.593263" lon="2.660548"><ele>37.0</ele></trkpt>
<trkpt lat="39.594091" lon="2.660537"><ele>38.0</ele></trkpt>
<trkpt lat="39.594349" lon="2.660471"><ele>38.0</ele></trkpt>
<trkpt lat="39.594542" lon="2.660366"><ele>38.0</ele></trkpt>
<trkpt lat="39.594686" lon="2.660194"><ele>38.75</ele></trkpt>
<trkpt lat="39.594858" lon="2.659894"><ele>39.0</ele></trkpt>
<trkpt lat="39.594975" lon="2.659592"><ele>39.0</ele></trkpt>
<trkpt lat="39.595086" lon="2.659344"><ele>39.5</ele></trkpt>
<trkpt lat="39.595166" lon="2.659161"><ele>40.0</ele></trkpt>
<trkpt lat="39.595509" lon="2.658490"><ele>40.75</ele></trkpt>
<trkpt lat="39.595735" lon="2.658058"><ele>41.5</ele></trkpt>
<trkpt lat="39.596164" lon="2.657245"><ele>42.75</ele></trkpt>
<trkpt lat="39.596474" lon="2.657212"><ele>42.5</ele></trkpt>
<trkpt lat="39.597804" lon="2.657134"><ele>43.0</ele></trkpt>
<trkpt lat="39.597952" lon="2.657027"><ele>43.5</ele></trkpt>
<trkpt lat="39.597998" lon="2.656858"><ele>43.75</ele></trkpt>
<trkpt lat="39.597999" lon="2.656151"><ele>44.75</ele></trkpt>
<trkpt lat="39.598039" lon="2.655892"><ele>45.0</ele></trkpt>
<trkpt lat="39.598035" lon="2.655464"><ele>46.0</ele></trkpt>
<trkpt lat="39.598023" lon="2.655343"><ele>46.0</ele></trkpt>
<trkpt lat="39.597966" lon="2.655190"><ele>46.5</ele></trkpt>
<trkpt lat="39.597958" lon="2.655098"><ele>46.75</ele></trkpt>
<trkpt lat="39.597966" lon="2.655033"><ele>46.75</ele></trkpt>
<trkpt lat="39.598001" lon="2.654966"><ele>47.0</ele></trkpt>
<trkpt lat="39.598076" lon="2.654908"><ele>46.75</ele></trkpt>
<trkpt lat="39.598153" lon="2.654875"><ele>46.5</ele></trkpt>
<trkpt lat="39.598245" lon="2.654849"><ele>46.25</ele></trkpt>
<trkpt lat="39.598318" lon="2.654839"><ele>46.0</ele></trkpt>
<trkpt lat="39.598599" lon="2.654827"><ele>46.0</ele></trkpt>
<trkpt lat="39.599347" lon="2.654858"><ele>46.25</ele></trkpt>
<trkpt lat="39.599495" lon="2.654917"><ele>46.25</ele></trkpt>
<trkpt lat="39.599592" lon="2.654955"><ele>46.5</ele></trkpt>
<trkpt lat="39.599868" lon="2.655043"><ele>47.0</ele></trkpt>
<trkpt lat="39.599968" lon="2.655073"><ele>47.0</ele></trkpt>
<trkpt lat="39.601149" lon="2.655101"><ele>49.25</ele></trkpt>
<trkpt lat="39.601381" lon="2.655121"><ele>49.5</ele></trkpt>
<trkpt lat="39.601613" lon="2.655140"><ele>49.75</ele></trkpt>
<trkpt lat="39.602101" lon="2.655184"><ele>50.5</ele></trkpt>
<trkpt lat="39.603372" lon="2.655197"><ele>51.0</ele></trkpt>
<trkpt lat="39.603942" lon="2.655223"><ele>51.0</ele></trkpt>
<trkpt lat="39.604090" lon="2.655231"><ele>51.0</ele></trkpt>
<trkpt lat="39.604227" lon="2.655134"><ele>51.0</ele></trkpt>
<trkpt lat="39.604702" lon="2.655146"><ele>51.0</ele></trkpt>
<trkpt lat="39.604945" lon="2.655137"><ele>51.0</ele></trkpt>
<trkpt lat="39.605092" lon="2.655067"><ele>51.0</ele></trkpt>
<trkpt lat="39.605161" lon="2.655069"><ele>51.0</ele></trkpt>
<trkpt lat="39.605361" lon="2.655077"><ele>51.25</ele></trkpt>
<trkpt lat="39.606496" lon="2.655108"><ele>52.5</ele></trkpt>
<trkpt lat="39.606650" lon="2.655126"><ele>52.5</ele></trkpt>
<trkpt lat="39.606807" lon="2.655174"><ele>52.5</ele></trkpt>
<trkpt lat="39.607019" lon="2.655288"><ele>53.0</ele></trkpt>
<trkpt lat="39.607280" lon="2.655497"><ele>53.0</ele></trkpt>
<trkpt lat="39.607331" lon="2.655583"><ele>53.0</ele></trkpt>
<trkpt lat="39.607388" lon="2.655630"><ele>53.0</ele></trkpt>
<trkpt lat="39.607452" lon="2.655654"><ele>53.0</ele></trkpt>
<trkpt lat="39.607519" lon="2.655653"><ele>53.0</ele></trkpt>
<trkpt lat="39.607582" lon="2.655626"><ele>53.0</ele></trkpt>
<trkpt lat="39.607637" lon="2.655576"><ele>53.25</ele></trkpt>
<trkpt lat="39.607673" lon="2.655517"><ele>53.5</ele></trkpt>
<trkpt lat="39.607699" lon="2.655438"><ele>53.75</ele></trkpt>
<trkpt lat="39.607707" lon="2.655358"><ele>53.75</ele></trkpt>
<trkpt lat="39.607704" lon="2.655329"><ele>53.75</ele></trkpt>
<trkpt lat="39.607695" lon="2.655266"><ele>54.0</ele></trkpt>
<trkpt lat="39.607728" lon="2.655169"><ele>54.0</ele></trkpt>
<trkpt lat="39.607756" lon="2.655123"><ele>54.0</ele></trkpt>
<trkpt lat="39.607792" lon="2.655087"><ele>53.75</ele></trkpt>
<trkpt lat="39.607876" lon="2.655073"><ele>54.0</ele></trkpt>
<trkpt lat="39.608058" lon="2.655053"><ele>54.0</ele></trkpt>
<trkpt lat="39.608195" lon="2.655029"><ele>54.0</ele></trkpt>
<trkpt lat="39.608256" lon="2.655011"><ele>54.0</ele></trkpt>
<trkpt lat="39.608385" lon="2.654947"><ele>54.0</ele></trkpt>
<trkpt lat="39.608788" lon="2.654715"><ele>54.75</ele></trkpt>
<trkpt lat="39.609698" lon="2.654445"><ele>55.75</ele></trkpt>
<trkpt lat="39.610499" lon="2.654219"><ele>56.75</ele></trkpt>
<trkpt lat="39.610749" lon="2.654153"><ele>56.75</ele></trkpt>
<trkpt lat="39.611933" lon="2.654030"><ele>58.0</ele></trkpt>
<trkpt lat="39.612204" lon="2.654049"><ele>58.0</ele></trkpt>
<trkpt lat="39.613358" lon="2.654182"><ele>60.0</ele></trkpt>
<trkpt lat="39.614131" lon="2.654280"><ele>60.75</ele></trkpt>
<trkpt lat="39.614616" lon="2.654371"><ele>61.0</ele></trkpt>
<trkpt lat="39.615921" lon="2.654613"><ele>61.0</ele></trkpt>
<trkpt lat="39.616252" lon="2.654717"><ele>61.0</ele></trkpt>
<trkpt lat="39.616706" lon="2.654790"><ele>61.0</ele></trkpt>
<trkpt lat="39.616916" lon="2.654824"><ele>61.0</ele></trkpt>
<trkpt lat="39.617146" lon="2.654917"><ele>61.5</ele></trkpt>
<trkpt lat="39.617184" lon="2.654980"><ele>61.75</ele></trkpt>
<trkpt lat="39.617236" lon="2.655022"><ele>62.0</ele></trkpt>
<trkpt lat="39.617296" lon="2.655040"><ele>62.0</ele></trkpt>
<trkpt lat="39.617356" lon="2.655031"><ele>62.0</ele></trkpt>
<trkpt lat="39.617391" lon="2.655012"><ele>62.0</ele></trkpt>
<trkpt lat="39.617422" lon="2.654985"><ele>62.0</ele></trkpt>
<trkpt lat="39.617448" lon="2.654950"><ele>62.0</ele></trkpt>
<trkpt lat="39.617478" lon="2.654879"><ele>62.25</ele></trkpt>
<trkpt lat="39.617487" lon="2.654800"><ele>62.5</ele></trkpt>
<trkpt lat="39.617476" lon="2.654721"><ele>62.75</ele></trkpt>
<trkpt lat="39.617444" lon="2.654652"><ele>62.75</ele></trkpt>
<trkpt lat="39.617472" lon="2.654465"><ele>62.75</ele></trkpt>
<trkpt lat="39.617489" lon="2.654356"><ele>62.75</ele></trkpt>
<trkpt lat="39.617109" lon="2.650701"><ele>66.5</ele></trkpt>
<trkpt lat="39.617036" lon="2.649960"><ele>67.0</ele></trkpt>
<trkpt lat="39.616819" lon="2.647745"><ele>68.0</ele></trkpt>
<trkpt lat="39.616733" lon="2.646910"><ele>68.0</ele></trkpt>
<trkpt lat="39.616697" lon="2.646900"><ele>68.0</ele></trkpt>
<trkpt lat="39.616445" lon="2.646835"><ele>67.0</ele></trkpt>
<trkpt lat="39.616178" lon="2.646706"><ele>66.75</ele></trkpt>
<trkpt lat="39.616112" lon="2.646553"><ele>67.0</ele></trkpt>
<trkpt lat="39.616112" lon="2.646449"><ele>67.0</ele></trkpt>
<trkpt lat="39.616156" lon="2.646289"><ele>67.75</ele></trkpt>
<trkpt lat="39.616198" lon="2.646254"><ele>67.75</ele></trkpt>
<trkpt lat="39.616234" lon="2.646207"><ele>68.0</ele></trkpt>
<trkpt lat="39.616272" lon="2.646117"><ele>68.25</ele></trkpt>
<trkpt lat="39.616284" lon="2.646015"><ele>68.25</ele></trkpt>
<trkpt lat="39.616269" lon="2.645914"><ele>68.25</ele></trkpt>
<trkpt lat="39.616254" lon="2.645872"><ele>68.25</ele></trkpt>
<trkpt lat="39.616253" lon="2.645721"><ele>68.25</ele></trkpt>
<trkpt lat="39.616264" lon="2.645649"><ele>68.25</ele></trkpt>
<trkpt lat="39.616318" lon="2.645546"><ele>68.25</ele></trkpt>
<trkpt lat="39.616398" lon="2.645500"><ele>68.0</ele></trkpt>
<trkpt lat="39.616485" lon="2.645452"><ele>68.5</ele></trkpt>
<trkpt lat="39.616589" lon="2.645394"><ele>69.25</ele></trkpt>
<trkpt lat="39.616911" lon="2.645143"><ele>70.0</ele></trkpt>
<trkpt lat="39.617133" lon="2.644991"><ele>70.0</ele></trkpt>
<trkpt lat="39.617785" lon="2.644535"><ele>71.0</ele></trkpt>
<trkpt lat="39.619326" lon="2.643570"><ele>73.5</ele></trkpt>
<trkpt lat="39.619819" lon="2.643101"><ele>74.25</ele></trkpt>
<trkpt lat="39.620884" lon="2.642083"><ele>76.0</ele></trkpt>
<trkpt lat="39.620973" lon="2.641972"><ele>76.5</ele></trkpt>
<trkpt lat="39.621326" lon="2.640989"><ele>77.75</ele></trkpt>
<trkpt lat="39.621217" lon="2.640557"><ele>76.75</ele></trkpt>
<trkpt lat="39.621128" lon="2.640242"><ele>77.0</ele></trkpt>
<trkpt lat="39.621099" lon="2.640109"><ele>76.75</ele></trkpt>
<trkpt lat="39.621021" lon="2.639841"><ele>76.5</ele></trkpt>
<trkpt lat="39.620154" lon="2.638959"><ele>75.5</ele></trkpt>
<trkpt lat="39.620129" lon="2.638877"><ele>75.25</ele></trkpt>
<trkpt lat="39.620095" lon="2.638765"><ele>75.5</ele></trkpt>
<trkpt lat="39.620133" lon="2.638679"><ele>75.75</ele></trkpt>
<trkpt lat="39.620166" lon="2.638603"><ele>76.0</ele></trkpt>
<trkpt lat="39.620250" lon="2.637865"><ele>76.75</ele></trkpt>
<trkpt lat="39.620274" lon="2.637152"><ele>77.0</ele></trkpt>
<trkpt lat="39.620115" lon="2.635538"><ele>79.5</ele></trkpt>
<trkpt lat="39.619831" lon="2.634251"><ele>87.5</ele></trkpt>
<trkpt lat="39.618449" lon="2.627642"><ele>89.75</ele></trkpt>
<trkpt lat="39.618542" lon="2.627556"><ele>89.75</ele></trkpt>
<trkpt lat="39.618882" lon="2.627389"><ele>90.0</ele></trkpt>
<trkpt lat="39.619328" lon="2.627170"><ele>91.0</ele></trkpt>
<trkpt lat="39.619569" lon="2.627068"><ele>91.0</ele></trkpt>
<trkpt lat="39.620014" lon="2.626880"><ele>92.0</ele></trkpt>
<trkpt lat="39.619995" lon="2.626146"><ele>92.75</ele></trkpt>
<trkpt lat="39.619970" lon="2.626009"><ele>92.75</ele></trkpt>
<trkpt lat="39.619849" lon="2.625796"><ele>92.5</ele></trkpt>
<trkpt lat="39.619838" lon="2.625620"><ele>92.75</ele></trkpt>
<trkpt lat="39.619748" lon="2.625443"><ele>93.0</ele></trkpt>
<trkpt lat="39.619640" lon="2.625233"><ele>93.0</ele></trkpt>
<trkpt lat="39.619580" lon="2.625071"><ele>93.25</ele></trkpt>
<trkpt lat="39.619520" lon="2.625052"><ele>93.0</ele></trkpt>
<trkpt lat="39.619329" lon="2.624809"><ele>93.0</ele></trkpt>
<trkpt lat="39.619170" lon="2.624656"><ele>93.0</ele></trkpt>
<trkpt lat="39.618790" lon="2.624515"><ele>91.25</ele></trkpt>
<trkpt lat="39.618733" lon="2.624486"><ele>90.75</ele></trkpt>
<trkpt lat="39.618764" lon="2.624334"><ele>90.75</ele></trkpt>
<trkpt lat="39.618904" lon="2.623791"><ele>90.0</ele></trkpt>
<trkpt lat="39.619020" lon="2.623533"><ele>88.5</ele></trkpt>
<trkpt lat="39.619140" lon="2.623317"><ele>88.25</ele></trkpt>
<trkpt lat="39.619196" lon="2.623215"><ele>87.5</ele></trkpt>
<trkpt lat="39.619302" lon="2.623086"><ele>87.25</ele></trkpt>
<trkpt lat="39.619333" lon="2.623007"><ele>87.0</ele></trkpt>
<trkpt lat="39.619347" lon="2.622910"><ele>86.5</ele></trkpt>
<trkpt lat="39.619329" lon="2.622833"><ele>85.5</ele></trkpt>
<trkpt lat="39.619141" lon="2.622641"><ele>83.5</ele></trkpt>
<trkpt lat="39.619096" lon="2.622546"><ele>83.5</ele></trkpt>
<trkpt lat="39.619090" lon="2.622351"><ele>81.5</ele></trkpt>
<trkpt lat="39.619238" lon="2.622009"><ele>79.0</ele></trkpt>
<trkpt lat="39.619532" lon="2.621420"><ele>78.25</ele></trkpt>
<trkpt lat="39.619615" lon="2.620150"><ele>76.5</ele></trkpt>
<trkpt lat="39.619646" lon="2.619280"><ele>78.0</ele></trkpt>
<trkpt lat="39.619658" lon="2.618927"><ele>78.25</ele></trkpt>
<trkpt lat="39.619689" lon="2.618334"><ele>77.75</ele></trkpt>
<trkpt lat="39.619695" lon="2.618002"><ele>78.5</ele></trkpt>
<trkpt lat="39.619732" lon="2.617228"><ele>78.25</ele></trkpt>
<trkpt lat="39.619848" lon="2.616408"><ele>79.25</ele></trkpt>
<trkpt lat="39.620205" lon="2.615551"><ele>79.25</ele></trkpt>
<trkpt lat="39.620472" lon="2.615128"><ele>81.5</ele></trkpt>
<trkpt lat="39.620665" lon="2.614868"><ele>81.5</ele></trkpt>
<trkpt lat="39.620849" lon="2.614653"><ele>81.0</ele></trkpt>
<trkpt lat="39.621045" lon="2.614411"><ele>81.75</ele></trkpt>
<trkpt lat="39.621151" lon="2.614089"><ele>83.5</ele></trkpt>
<trkpt lat="39.621184" lon="2.613868"><ele>84.5</ele></trkpt>
<trkpt lat="39.621236" lon="2.613515"><ele>84.25</ele></trkpt>
<trkpt lat="39.621332" lon="2.612968"><ele>84.0</ele></trkpt>
<trkpt lat="39.621473" lon="2.612411"><ele>83.75</ele></trkpt>
<trkpt lat="39.621483" lon="2.612168"><ele>83.25</ele></trkpt>
<trkpt lat="39.621400" lon="2.611824"><ele>83.5</ele></trkpt>
<trkpt lat="39.621293" lon="2.611498"><ele>83.25</ele></trkpt>
<trkpt lat="39.621020" lon="2.610628"><ele>82.5</ele></trkpt>
<trkpt lat="39.620856" lon="2.609764"><ele>83.5</ele></trkpt>
<trkpt lat="39.620771" lon="2.608728"><ele>83.0</ele></trkpt>
<trkpt lat="39.620739" lon="2.608028"><ele>82.5</ele></trkpt>
<trkpt lat="39.620726" lon="2.607742"><ele>82.25</ele></trkpt>
<trkpt lat="39.620707" lon="2.607559"><ele>82.0</ele></trkpt>
<trkpt lat="39.620674" lon="2.607522"><ele>81.5</ele></trkpt>
<trkpt lat="39.620514" lon="2.607351"><ele>81.5</ele></trkpt>
<trkpt lat="39.620429" lon="2.607177"><ele>84.75</ele></trkpt>
<trkpt lat="39.620466" lon="2.606467"><ele>84.0</ele></trkpt>
<trkpt lat="39.620525" lon="2.605640"><ele>85.75</ele></trkpt>
<trkpt lat="39.620543" lon="2.605538"><ele>86.0</ele></trkpt>
<trkpt lat="39.620548" lon="2.605438"><ele>86.25</ele></trkpt>
<trkpt lat="39.620553" lon="2.605182"><ele>87.25</ele></trkpt>
<trkpt lat="39.620558" lon="2.604935"><ele>87.75</ele></trkpt>
<trkpt lat="39.620602" lon="2.604559"><ele>87.0</ele></trkpt>
<trkpt lat="39.620642" lon="2.604132"><ele>87.0</ele></trkpt>
<trkpt lat="39.620657" lon="2.603712"><ele>86.75</ele></trkpt>
<trkpt lat="39.620502" lon="2.602229"><ele>90.5</ele></trkpt>
<trkpt lat="39.620442" lon="2.601855"><ele>91.5</ele></trkpt>
<trkpt lat="39.620373" lon="2.601532"><ele>91.5</ele></trkpt>
<trkpt lat="39.620217" lon="2.601196"><ele>92.5</ele></trkpt>
<trkpt lat="39.620074" lon="2.601029"><ele>93.25</ele></trkpt>
<trkpt lat="39.619923" lon="2.600918"><ele>94.5</ele></trkpt>
<trkpt lat="39.619890" lon="2.600894"><ele>94.5</ele></trkpt>
<trkpt lat="39.619494" lon="2.600779"><ele>97.25</ele></trkpt>
<trkpt lat="39.619387" lon="2.600754"><ele>98.5</ele></trkpt>
<trkpt lat="39.619237" lon="2.600674"><ele>99.0</ele></trkpt>
<trkpt lat="39.619150" lon="2.600573"><ele>99.0</ele></trkpt>
<trkpt lat="39.618998" lon="2.600291"><ele>98.75</ele></trkpt>
<trkpt lat="39.618832" lon="2.599829"><ele>97.0</ele></trkpt>
<trkpt lat="39.618737" lon="2.599488"><ele>95.25</ele></trkpt>
<trkpt lat="39.618640" lon="2.599001"><ele>94.5</ele></trkpt>
<trkpt lat="39.618110" lon="2.595905"><ele>99.0</ele></trkpt>
<trkpt lat="39.618055" lon="2.595096"><ele>100.0</ele></trkpt>
<trkpt lat="39.618032" lon="2.594329"><ele>101.25</ele></trkpt>
<trkpt lat="39.618024" lon="2.594119"><ele>101.25</ele></trkpt>
<trkpt lat="39.617994" lon="2.593843"><ele>102.0</ele></trkpt>
<trkpt lat="39.617910" lon="2.593523"><ele>103.0</ele></trkpt>
<trkpt lat="39.617832" lon="2.593292"><ele>102.5</ele></trkpt>
<trkpt lat="39.617715" lon="2.593119"><ele>102.75</ele></trkpt>
<trkpt lat="39.617454" lon="2.592969"><ele>103.75</ele></trkpt>
<trkpt lat="39.616985" lon="2.592857"><ele>106.5</ele></trkpt>
<trkpt lat="39.616771" lon="2.592634"><ele>107.5</ele></trkpt>
<trkpt lat="39.616694" lon="2.592373"><ele>105.5</ele></trkpt>
<trkpt lat="39.616665" lon="2.591835"><ele>106.0</ele></trkpt>
<trkpt lat="39.616657" lon="2.591246"><ele>106.5</ele></trkpt>
<trkpt lat="39.616658" lon="2.590803"><ele>107.25</ele></trkpt>
<trkpt lat="39.616643" lon="2.590628"><ele>108.0</ele></trkpt>
<trkpt lat="39.616560" lon="2.590361"><ele>108.75</ele></trkpt>
<trkpt lat="39.616306" lon="2.589801"><ele>110.75</ele></trkpt>
<trkpt lat="39.616017" lon="2.589304"><ele>111.25</ele></trkpt>
<trkpt lat="39.615750" lon="2.588992"><ele>111.0</ele></trkpt>
<trkpt lat="39.615507" lon="2.588739"><ele>111.75</ele></trkpt>
<trkpt lat="39.615353" lon="2.588603"><ele>112.25</ele></trkpt>
<trkpt lat="39.615279" lon="2.588538"><ele>112.25</ele></trkpt>
<trkpt lat="39.614605" lon="2.588047"><ele>114.0</ele></trkpt>
<trkpt lat="39.614494" lon="2.587973"><ele>114.75</ele></trkpt>
<trkpt lat="39.614493" lon="2.587972"><ele>114.0</ele></trkpt>
<trkpt lat="39.613852" lon="2.587544"><ele>114.75</ele></trkpt>
<trkpt lat="39.613514" lon="2.587339"><ele>115.75</ele></trkpt>
<trkpt lat="39.613345" lon="2.587192"><ele>114.5</ele></trkpt>
<trkpt lat="39.613225" lon="2.587053"><ele>117.0</ele></trkpt>
<trkpt lat="39.613162" lon="2.586904"><ele>116.25</ele></trkpt>
<trkpt lat="39.613064" lon="2.586563"><ele>115.5</ele></trkpt>
<trkpt lat="39.612984" lon="2.586507"><ele>117.25</ele></trkpt>
<trkpt lat="39.612931" lon="2.586448"><ele>118.25</ele></trkpt>
<trkpt lat="39.612652" lon="2.585325"><ele>123.0</ele></trkpt>
<trkpt lat="39.612447" lon="2.584227"><ele>125.5</ele></trkpt>
<trkpt lat="39.612375" lon="2.583882"><ele>126.25</ele></trkpt>
<trkpt lat="39.612300" lon="2.583575"><ele>127.25</ele></trkpt>
<trkpt lat="39.612114" lon="2.583306"><ele>128.75</ele></trkpt>
<trkpt lat="39.611880" lon="2.583100"><ele>131.25</ele></trkpt>
<trkpt lat="39.611421" lon="2.582765"><ele>135.25</ele></trkpt>
<trkpt lat="39.611250" lon="2.582676"><ele>136.5</ele></trkpt>
<trkpt lat="39.611089" lon="2.582605"><ele>137.5</ele></trkpt>
<trkpt lat="39.610770" lon="2.582451"><ele>139.0</ele></trkpt>
<trkpt lat="39.610456" lon="2.582286"><ele>139.5</ele></trkpt>
<trkpt lat="39.610324" lon="2.582117"><ele>140.5</ele></trkpt>
<trkpt lat="39.610291" lon="2.581346"><ele>142.75</ele></trkpt>
<trkpt lat="39.609896" lon="2.580815"><ele>146.0</ele></trkpt>
<trkpt lat="39.609776" lon="2.580599"><ele>146.25</ele></trkpt>
<trkpt lat="39.609733" lon="2.580402"><ele>146.75</ele></trkpt>
<trkpt lat="39.609719" lon="2.580199"><ele>147.0</ele></trkpt>
<trkpt lat="39.609689" lon="2.580001"><ele>147.25</ele></trkpt>
<trkpt lat="39.609530" lon="2.579691"><ele>147.5</ele></trkpt>
<trkpt lat="39.608885" lon="2.578673"><ele>152.0</ele></trkpt>
<trkpt lat="39.608691" lon="2.578441"><ele>153.5</ele></trkpt>
<trkpt lat="39.608385" lon="2.578185"><ele>155.0</ele></trkpt>
<trkpt lat="39.608307" lon="2.578136"><ele>155.25</ele></trkpt>
<trkpt lat="39.607986" lon="2.577932"><ele>155.25</ele></trkpt>
<trkpt lat="39.607853" lon="2.577905"><ele>155.5</ele></trkpt>
<trkpt lat="39.607774" lon="2.577909"><ele>156.25</ele></trkpt>
<trkpt lat="39.607633" lon="2.577972"><ele>156.5</ele></trkpt>
<trkpt lat="39.607359" lon="2.578234"><ele>160.0</ele></trkpt>
<trkpt lat="39.607222" lon="2.578382"><ele>160.5</ele></trkpt>
<trkpt lat="39.607150" lon="2.578431"><ele>162.0</ele></trkpt>
<trkpt lat="39.607039" lon="2.578506"><ele>162.75</ele></trkpt>
<trkpt lat="39.606928" lon="2.578437"><ele>162.5</ele></trkpt>
<trkpt lat="39.606871" lon="2.578279"><ele>166.5</ele></trkpt>
<trkpt lat="39.607138" lon="2.577549"><ele>165.75</ele></trkpt>
<trkpt lat="39.607150" lon="2.577388"><ele>166.0</ele></trkpt>
<trkpt lat="39.607110" lon="2.577238"><ele>166.75</ele></trkpt>
<trkpt lat="39.607055" lon="2.577148"><ele>166.75</ele></trkpt>
<trkpt lat="39.606742" lon="2.576838"><ele>169.25</ele></trkpt>
<trkpt lat="39.606652" lon="2.576631"><ele>169.25</ele></trkpt>
<trkpt lat="39.606396" lon="2.575992"><ele>172.75</ele></trkpt>
<trkpt lat="39.606117" lon="2.575419"><ele>176.75</ele></trkpt>
<trkpt lat="39.605938" lon="2.575081"><ele>178.25</ele></trkpt>
<trkpt lat="39.605748" lon="2.574789"><ele>179.5</ele></trkpt>
<trkpt lat="39.605497" lon="2.574484"><ele>181.5</ele></trkpt>
<trkpt lat="39.605333" lon="2.574287"><ele>180.75</ele></trkpt>
<trkpt lat="39.605031" lon="2.573826"><ele>181.25</ele></trkpt>
<trkpt lat="39.604752" lon="2.573580"><ele>182.0</ele></trkpt>
<trkpt lat="39.604516" lon="2.573561"><ele>184.75</ele></trkpt>
<trkpt lat="39.604371" lon="2.573441"><ele>185.5</ele></trkpt>
<trkpt lat="39.604287" lon="2.573099"><ele>185.5</ele></trkpt>
<trkpt lat="39.604157" lon="2.572798"><ele>186.5</ele></trkpt>
<trkpt lat="39.603954" lon="2.572550"><ele>187.25</ele></trkpt>
<trkpt lat="39.603786" lon="2.572420"><ele>188.25</ele></trkpt>
<trkpt lat="39.603627" lon="2.572220"><ele>188.5</ele></trkpt>
<trkpt lat="39.603510" lon="2.572026"><ele>189.5</ele></trkpt>
<trkpt lat="39.603373" lon="2.571929"><ele>190.0</ele></trkpt>
<trkpt lat="39.603243" lon="2.571848"><ele>190.5</ele></trkpt>
<trkpt lat="39.603101" lon="2.571774"><ele>191.25</ele></trkpt>
<trkpt lat="39.602810" lon="2.571366"><ele>190.75</ele></trkpt>
<trkpt lat="39.602607" lon="2.571189"><ele>190.25</ele></trkpt>
<trkpt lat="39.602465" lon="2.571092"><ele>191.0</ele></trkpt>
<trkpt lat="39.601993" lon="2.569638"><ele>197.75</ele></trkpt>
<trkpt lat="39.601861" lon="2.569266"><ele>200.0</ele></trkpt>
<trkpt lat="39.601707" lon="2.568943"><ele>201.0</ele></trkpt>
<trkpt lat="39.601520" lon="2.568610"><ele>202.5</ele></trkpt>
<trkpt lat="39.601341" lon="2.568371"><ele>203.25</ele></trkpt>
<trkpt lat="39.601092" lon="2.568153"><ele>205.25</ele></trkpt>
<trkpt lat="39.600808" lon="2.567994"><ele>207.0</ele></trkpt>
<trkpt lat="39.600285" lon="2.568011"><ele>210.75</ele></trkpt>
<trkpt lat="39.599963" lon="2.568055"><ele>213.5</ele></trkpt>
<trkpt lat="39.599815" lon="2.568031"><ele>215.25</ele></trkpt>
<trkpt lat="39.599758" lon="2.567873"><ele>214.25</ele></trkpt>
<trkpt lat="39.599610" lon="2.567644"><ele>215.5</ele></trkpt>
<trkpt lat="39.599421" lon="2.567456"><ele>217.25</ele></trkpt>
<trkpt lat="39.599274" lon="2.567275"><ele>219.5</ele></trkpt>
<trkpt lat="39.599190" lon="2.566981"><ele>218.75</ele></trkpt>
<trkpt lat="39.599191" lon="2.566929"><ele>218.5</ele></trkpt>
<trkpt lat="39.599197" lon="2.566755"><ele>219.75</ele></trkpt>
<trkpt lat="39.599215" lon="2.566622"><ele>220.0</ele></trkpt>
<trkpt lat="39.599147" lon="2.566513"><ele>220.25</ele></trkpt>
<trkpt lat="39.599043" lon="2.566370"><ele>221.0</ele></trkpt>
<trkpt lat="39.598662" lon="2.566092"><ele>223.75</ele></trkpt>
<trkpt lat="39.598359" lon="2.565788"><ele>226.75</ele></trkpt>
<trkpt lat="39.598247" lon="2.565660"><ele>228.0</ele></trkpt>
<trkpt lat="39.598166" lon="2.565545"><ele>228.5</ele></trkpt>
<trkpt lat="39.597955" lon="2.564900"><ele>231.5</ele></trkpt>
<trkpt lat="39.597829" lon="2.564489"><ele>234.0</ele></trkpt>
<trkpt lat="39.597769" lon="2.564328"><ele>235.0</ele></trkpt>
<trkpt lat="39.597751" lon="2.564218"><ele>235.25</ele></trkpt>
<trkpt lat="39.597704" lon="2.564060"><ele>236.0</ele></trkpt>
<trkpt lat="39.597638" lon="2.564056"><ele>237.0</ele></trkpt>
<trkpt lat="39.597579" lon="2.564082"><ele>237.75</ele></trkpt>
<trkpt lat="39.597528" lon="2.564280"><ele>238.5</ele></trkpt>
<trkpt lat="39.597466" lon="2.564864"><ele>240.5</ele></trkpt>
<trkpt lat="39.597436" lon="2.564955"><ele>241.75</ele></trkpt>
<trkpt lat="39.597356" lon="2.564938"><ele>243.0</ele></trkpt>
<trkpt lat="39.597040" lon="2.564276"><ele>246.0</ele></trkpt>
<trkpt lat="39.596076" lon="2.562530"><ele>253.5</ele></trkpt>
<trkpt lat="39.595965" lon="2.562328"><ele>254.5</ele></trkpt>
<trkpt lat="39.595802" lon="2.561646"><ele>256.5</ele></trkpt>
<trkpt lat="39.595791" lon="2.561535"><ele>257.25</ele></trkpt>
<trkpt lat="39.595764" lon="2.561249"><ele>259.25</ele></trkpt>
<trkpt lat="39.595671" lon="2.561027"><ele>260.25</ele></trkpt>
<trkpt lat="39.595589" lon="2.560883"><ele>260.0</ele></trkpt>
<trkpt lat="39.595264" lon="2.560807"><ele>260.75</ele></trkpt>
<trkpt lat="39.594737" lon="2.560596"><ele>262.5</ele></trkpt>
<trkpt lat="39.594370" lon="2.560577"><ele>265.0</ele></trkpt>
<trkpt lat="39.594204" lon="2.560542"><ele>266.5</ele></trkpt>
<trkpt lat="39.594131" lon="2.560453"><ele>267.0</ele></trkpt>
<trkpt lat="39.594052" lon="2.560242"><ele>267.75</ele></trkpt>
<trkpt lat="39.594067" lon="2.560057"><ele>268.25</ele></trkpt>
<trkpt lat="39.594134" lon="2.559867"><ele>268.75</ele></trkpt>
<trkpt lat="39.594148" lon="2.559684"><ele>269.0</ele></trkpt>
<trkpt lat="39.594106" lon="2.559487"><ele>269.75</ele></trkpt>
<trkpt lat="39.593460" lon="2.558665"><ele>273.25</ele></trkpt>
<trkpt lat="39.593302" lon="2.558464"><ele>274.25</ele></trkpt>
<trkpt lat="39.593087" lon="2.557362"><ele>275.75</ele></trkpt>
<trkpt lat="39.592987" lon="2.557108"><ele>276.5</ele></trkpt>
<trkpt lat="39.592819" lon="2.556954"><ele>275.25</ele></trkpt>
<trkpt lat="39.592053" lon="2.556726"><ele>270.5</ele></trkpt>
<trkpt lat="39.591206" lon="2.556296"><ele>264.0</ele></trkpt>
<trkpt lat="39.590170" lon="2.556127"><ele>258.75</ele></trkpt>
<trkpt lat="39.589945" lon="2.556042"><ele>256.75</ele></trkpt>
<trkpt lat="39.589620" lon="2.556537"><ele>260.5</ele></trkpt>
<trkpt lat="39.589439" lon="2.556629"><ele>262.0</ele></trkpt>
<trkpt lat="39.588387" lon="2.556574"><ele>266.25</ele></trkpt>
<trkpt lat="39.587766" lon="2.556497"><ele>271.25</ele></trkpt>
<trkpt lat="39.587572" lon="2.556489"><ele>271.5</ele></trkpt>
<trkpt lat="39.587433" lon="2.556519"><ele>272.0</ele></trkpt>
<trkpt lat="39.587302" lon="2.556578"><ele>272.25</ele></trkpt>
<trkpt lat="39.587177" lon="2.556690"><ele>273.5</ele></trkpt>
<trkpt lat="39.587063" lon="2.556832"><ele>274.25</ele></trkpt>
<trkpt lat="39.586964" lon="2.557096"><ele>275.25</ele></trkpt>
<trkpt lat="39.586997" lon="2.557353"><ele>278.5</ele></trkpt>
<trkpt lat="39.586986" lon="2.557609"><ele>280.25</ele></trkpt>
<trkpt lat="39.586661" lon="2.558284"><ele>281.0</ele></trkpt>
<trkpt lat="39.586577" lon="2.558505"><ele>281.5</ele></trkpt>
<trkpt lat="39.586524" lon="2.558838"><ele>284.0</ele></trkpt>
<trkpt lat="39.586499" lon="2.559333"><ele>286.25</ele></trkpt>
<trkpt lat="39.586501" lon="2.559401"><ele>286.5</ele></trkpt>
<trkpt lat="39.586517" lon="2.559662"><ele>285.25</ele></trkpt>
<trkpt lat="39.586505" lon="2.559782"><ele>285.0</ele></trkpt>
<trkpt lat="39.586492" lon="2.559834"><ele>285.0</ele></trkpt>
<trkpt lat="39.586473" lon="2.559878"><ele>285.25</ele></trkpt>
<trkpt lat="39.586439" lon="2.559934"><ele>285.5</ele></trkpt>
<trkpt lat="39.586412" lon="2.559965"><ele>285.5</ele></trkpt>
<trkpt lat="39.586377" lon="2.559997"><ele>286.0</ele></trkpt>
<trkpt lat="39.586335" lon="2.560022"><ele>286.75</ele></trkpt>
<trkpt lat="39.586257" lon="2.560052"><ele>287.75</ele></trkpt>
<trkpt lat="39.586221" lon="2.560053"><ele>288.25</ele></trkpt>
<trkpt lat="39.586177" lon="2.560036"><ele>288.25</ele></trkpt>
<trkpt lat="39.586140" lon="2.559998"><ele>287.75</ele></trkpt>
<trkpt lat="39.586088" lon="2.559873"><ele>287.5</ele></trkpt>
<trkpt lat="39.586070" lon="2.559843"><ele>287.75</ele></trkpt>
<trkpt lat="39.586031" lon="2.559807"><ele>288.5</ele></trkpt>
<trkpt lat="39.586010" lon="2.559804"><ele>289.0</ele></trkpt>
<trkpt lat="39.585990" lon="2.559808"><ele>289.5</ele></trkpt>
<trkpt lat="39.585970" lon="2.559825"><ele>290.25</ele></trkpt>
<trkpt lat="39.585937" lon="2.559890"><ele>291.5</ele></trkpt>
<trkpt lat="39.585924" lon="2.559969"><ele>292.25</ele></trkpt>
<trkpt lat="39.585927" lon="2.560004"><ele>292.5</ele></trkpt>
<trkpt lat="39.585940" lon="2.560039"><ele>292.5</ele></trkpt>
<trkpt lat="39.585977" lon="2.560083"><ele>292.25</ele></trkpt>
<trkpt lat="39.586084" lon="2.560153"><ele>291.5</ele></trkpt>
<trkpt lat="39.586216" lon="2.560225"><ele>291.75</ele></trkpt>
<trkpt lat="39.586269" lon="2.560270"><ele>292.0</ele></trkpt>
<trkpt lat="39.586301" lon="2.560314"><ele>292.5</ele></trkpt>
<trkpt lat="39.586399" lon="2.560557"><ele>295.0</ele></trkpt>
<trkpt lat="39.586437" lon="2.560600"><ele>295.75</ele></trkpt>
<trkpt lat="39.586487" lon="2.560619"><ele>296.25</ele></trkpt>
<trkpt lat="39.586522" lon="2.560621"><ele>296.5</ele></trkpt>
<trkpt lat="39.586552" lon="2.560613"><ele>296.5</ele></trkpt>
<trkpt lat="39.586581" lon="2.560595"><ele>296.5</ele></trkpt>
<trkpt lat="39.586645" lon="2.560519"><ele>295.25</ele></trkpt>
<trkpt lat="39.586759" lon="2.560362"><ele>295.25</ele></trkpt>
<trkpt lat="39.586885" lon="2.560175"><ele>295.5</ele></trkpt>
<trkpt lat="39.586933" lon="2.560131"><ele>296.0</ele></trkpt>
<trkpt lat="39.586971" lon="2.560123"><ele>297.0</ele></trkpt>
<trkpt lat="39.586994" lon="2.560127"><ele>297.75</ele></trkpt>
<trkpt lat="39.587028" lon="2.560154"><ele>298.75</ele></trkpt>
<trkpt lat="39.587047" lon="2.560192"><ele>299.0</ele></trkpt>
<trkpt lat="39.587047" lon="2.560247"><ele>299.0</ele></trkpt>
<trkpt lat="39.587036" lon="2.560279"><ele>299.0</ele></trkpt>
<trkpt lat="39.586993" lon="2.560350"><ele>300.0</ele></trkpt>
<trkpt lat="39.586879" lon="2.560495"><ele>300.75</ele></trkpt>
<trkpt lat="39.586744" lon="2.560717"><ele>302.5</ele></trkpt>
<trkpt lat="39.586476" lon="2.561088"><ele>304.5</ele></trkpt>
<trkpt lat="39.586393" lon="2.561242"><ele>305.25</ele></trkpt>
<trkpt lat="39.586359" lon="2.561404"><ele>308.0</ele></trkpt>
<trkpt lat="39.586339" lon="2.561610"><ele>309.5</ele></trkpt>
<trkpt lat="39.586306" lon="2.561743"><ele>310.75</ele></trkpt>
<trkpt lat="39.586261" lon="2.561776"><ele>311.25</ele></trkpt>
<trkpt lat="39.586219" lon="2.561783"><ele>311.5</ele></trkpt>
<trkpt lat="39.586173" lon="2.561756"><ele>311.5</ele></trkpt>
<trkpt lat="39.586151" lon="2.561715"><ele>311.25</ele></trkpt>
<trkpt lat="39.586121" lon="2.561623"><ele>310.25</ele></trkpt>
<trkpt lat="39.586035" lon="2.561471"><ele>309.5</ele></trkpt>
<trkpt lat="39.585847" lon="2.561347"><ele>311.5</ele></trkpt>
<trkpt lat="39.585637" lon="2.561225"><ele>312.75</ele></trkpt>
<trkpt lat="39.585243" lon="2.561173"><ele>314.0</ele></trkpt>
<trkpt lat="39.585128" lon="2.561114"><ele>315.25</ele></trkpt>
<trkpt lat="39.585031" lon="2.560963"><ele>316.5</ele></trkpt>
<trkpt lat="39.584977" lon="2.560609"><ele>316.5</ele></trkpt>
<trkpt lat="39.584895" lon="2.560479"><ele>316.0</ele></trkpt>
<trkpt lat="39.584726" lon="2.560438"><ele>317.25</ele></trkpt>
<trkpt lat="39.584560" lon="2.560418"><ele>319.25</ele></trkpt>
<trkpt lat="39.584459" lon="2.560397"><ele>319.75</ele></trkpt>
<trkpt lat="39.584047" lon="2.560320"><ele>321.75</ele></trkpt>
<trkpt lat="39.583869" lon="2.560278"><ele>322.25</ele></trkpt>
<trkpt lat="39.583712" lon="2.560226"><ele>323.0</ele></trkpt>
<trkpt lat="39.583468" lon="2.560135"><ele>323.5</ele></trkpt>
<trkpt lat="39.583413" lon="2.560130"><ele>323.75</ele></trkpt>
<trkpt lat="39.583281" lon="2.560140"><ele>324.25</ele></trkpt>
<trkpt lat="39.583108" lon="2.560207"><ele>325.25</ele></trkpt>
<trkpt lat="39.582782" lon="2.560387"><ele>327.25</ele></trkpt>
<trkpt lat="39.582493" lon="2.560522"><ele>328.5</ele></trkpt>
<trkpt lat="39.582424" lon="2.560612"><ele>328.25</ele></trkpt>
<trkpt lat="39.582412" lon="2.560731"><ele>328.5</ele></trkpt>
<trkpt lat="39.582509" lon="2.561114"><ele>332.5</ele></trkpt>
<trkpt lat="39.582506" lon="2.561282"><ele>333.5</ele></trkpt>
<trkpt lat="39.582496" lon="2.561395"><ele>334.0</ele></trkpt>
<trkpt lat="39.582457" lon="2.561466"><ele>334.75</ele></trkpt>
<trkpt lat="39.582384" lon="2.561539"><ele>335.75</ele></trkpt>
<trkpt lat="39.582192" lon="2.561590"><ele>335.25</ele></trkpt>
<trkpt lat="39.582107" lon="2.561654"><ele>335.25</ele></trkpt>
<trkpt lat="39.581708" lon="2.562144"><ele>340.0</ele></trkpt>
<trkpt lat="39.581654" lon="2.562168"><ele>339.5</ele></trkpt>
<trkpt lat="39.581377" lon="2.562254"><ele>341.25</ele></trkpt>
<trkpt lat="39.581257" lon="2.562279"><ele>342.75</ele></trkpt>
<trkpt lat="39.581179" lon="2.562276"><ele>342.75</ele></trkpt>
<trkpt lat="39.581049" lon="2.562257"><ele>343.5</ele></trkpt>
<trkpt lat="39.580987" lon="2.562210"><ele>343.5</ele></trkpt>
<trkpt lat="39.580954" lon="2.562151"><ele>344.75</ele></trkpt>
<trkpt lat="39.580961" lon="2.562090"><ele>345.0</ele></trkpt>
<trkpt lat="39.580979" lon="2.562011"><ele>344.75</ele></trkpt>
<trkpt lat="39.581061" lon="2.561854"><ele>344.5</ele></trkpt>
<trkpt lat="39.581168" lon="2.561629"><ele>343.75</ele></trkpt>
<trkpt lat="39.581186" lon="2.561492"><ele>343.75</ele></trkpt>
<trkpt lat="39.581185" lon="2.561351"><ele>344.25</ele></trkpt>
<trkpt lat="39.581143" lon="2.561297"><ele>346.5</ele></trkpt>
<trkpt lat="39.581092" lon="2.561280"><ele>348.75</ele></trkpt>
<trkpt lat="39.581064" lon="2.561351"><ele>350.5</ele></trkpt>
<trkpt lat="39.581049" lon="2.561556"><ele>349.75</ele></trkpt>
<trkpt lat="39.581025" lon="2.561625"><ele>350.0</ele></trkpt>
<trkpt lat="39.580943" lon="2.561731"><ele>351.0</ele></trkpt>
<trkpt lat="39.580719" lon="2.561901"><ele>354.0</ele></trkpt>
<trkpt lat="39.580449" lon="2.562156"><ele>357.25</ele></trkpt>
<trkpt lat="39.580381" lon="2.562226"><ele>357.75</ele></trkpt>
<trkpt lat="39.580347" lon="2.562305"><ele>358.5</ele></trkpt>
<trkpt lat="39.580345" lon="2.562422"><ele>359.0</ele></trkpt>
<trkpt lat="39.580393" lon="2.562498"><ele>358.5</ele></trkpt>
<trkpt lat="39.580586" lon="2.562615"><ele>360.0</ele></trkpt>
<trkpt lat="39.580806" lon="2.562704"><ele>360.75</ele></trkpt>
<trkpt lat="39.581045" lon="2.562764"><ele>361.75</ele></trkpt>
<trkpt lat="39.581289" lon="2.562791"><ele>363.0</ele></trkpt>
<trkpt lat="39.581680" lon="2.562810"><ele>366.75</ele></trkpt>
<trkpt lat="39.581806" lon="2.562764"><ele>368.0</ele></trkpt>
<trkpt lat="39.582175" lon="2.562547"><ele>369.0</ele></trkpt>
<trkpt lat="39.582366" lon="2.562402"><ele>368.5</ele></trkpt>
<trkpt lat="39.582417" lon="2.562393"><ele>369.0</ele></trkpt>
<trkpt lat="39.582469" lon="2.562404"><ele>370.0</ele></trkpt>
<trkpt lat="39.582475" lon="2.562460"><ele>371.5</ele></trkpt>
<trkpt lat="39.582453" lon="2.562510"><ele>372.5</ele></trkpt>
<trkpt lat="39.582382" lon="2.562576"><ele>372.75</ele></trkpt>
<trkpt lat="39.582283" lon="2.562646"><ele>373.0</ele></trkpt>
<trkpt lat="39.582203" lon="2.562800"><ele>375.0</ele></trkpt>
<trkpt lat="39.582124" lon="2.562995"><ele>376.5</ele></trkpt>
<trkpt lat="39.582040" lon="2.563231"><ele>378.0</ele></trkpt>
<trkpt lat="39.581935" lon="2.563561"><ele>379.5</ele></trkpt>
<trkpt lat="39.581954" lon="2.563793"><ele>380.0</ele></trkpt>
<trkpt lat="39.581994" lon="2.564047"><ele>378.25</ele></trkpt>
<trkpt lat="39.581990" lon="2.564123"><ele>377.25</ele></trkpt>
<trkpt lat="39.581950" lon="2.564208"><ele>376.5</ele></trkpt>
<trkpt lat="39.581789" lon="2.564392"><ele>376.0</ele></trkpt>
<trkpt lat="39.581718" lon="2.564564"><ele>374.75</ele></trkpt>
<trkpt lat="39.581694" lon="2.564765"><ele>372.75</ele></trkpt>
<trkpt lat="39.581616" lon="2.565113"><ele>370.25</ele></trkpt>
<trkpt lat="39.581349" lon="2.565889"><ele>366.75</ele></trkpt>
<trkpt lat="39.581289" lon="2.566133"><ele>365.75</ele></trkpt>
<trkpt lat="39.581301" lon="2.566391"><ele>363.25</ele></trkpt>
<trkpt lat="39.581337" lon="2.566721"><ele>360.75</ele></trkpt>
<trkpt lat="39.581266" lon="2.567405"><ele>357.25</ele></trkpt>
<trkpt lat="39.580889" lon="2.568212"><ele>351.25</ele></trkpt>
<trkpt lat="39.580788" lon="2.568366"><ele>349.75</ele></trkpt>
<trkpt lat="39.580684" lon="2.568469"><ele>349.0</ele></trkpt>
<trkpt lat="39.580484" lon="2.568632"><ele>347.0</ele></trkpt>
<trkpt lat="39.579989" lon="2.568861"><ele>343.75</ele></trkpt>
<trkpt lat="39.579918" lon="2.568945"><ele>343.75</ele></trkpt>
<trkpt lat="39.579885" lon="2.569056"><ele>343.25</ele></trkpt>
<trkpt lat="39.579897" lon="2.569205"><ele>341.75</ele></trkpt>
<trkpt lat="39.580015" lon="2.569374"><ele>339.75</ele></trkpt>
<trkpt lat="39.580201" lon="2.569562"><ele>336.75</ele></trkpt>
<trkpt lat="39.580319" lon="2.569704"><ele>335.75</ele></trkpt>
<trkpt lat="39.580365" lon="2.569824"><ele>335.0</ele></trkpt>
<trkpt lat="39.580349" lon="2.569928"><ele>334.5</ele></trkpt>
<trkpt lat="39.580304" lon="2.570012"><ele>333.75</ele></trkpt>
<trkpt lat="39.580084" lon="2.570288"><ele>331.75</ele></trkpt>
<trkpt lat="39.579890" lon="2.570626"><ele>330.5</ele></trkpt>
<trkpt lat="39.579931" lon="2.571137"><ele>326.5</ele></trkpt>
<trkpt lat="39.579994" lon="2.571465"><ele>325.0</ele></trkpt>
<trkpt lat="39.580075" lon="2.571792"><ele>324.25</ele></trkpt>
<trkpt lat="39.580312" lon="2.572661"><ele>324.25</ele></trkpt>
<trkpt lat="39.580464" lon="2.573140"><ele>324.0</ele></trkpt>
<trkpt lat="39.580587" lon="2.573636"><ele>322.75</ele></trkpt>
<trkpt lat="39.580575" lon="2.573871"><ele>322.25</ele></trkpt>
<trkpt lat="39.580547" lon="2.574100"><ele>319.75</ele></trkpt>
<trkpt lat="39.580589" lon="2.574182"><ele>318.75</ele></trkpt>
<trkpt lat="39.580736" lon="2.574261"><ele>317.5</ele></trkpt>
<trkpt lat="39.580845" lon="2.574327"><ele>316.5</ele></trkpt>
<trkpt lat="39.581190" lon="2.574678"><ele>317.25</ele></trkpt>
<trkpt lat="39.581187" lon="2.574771"><ele>315.5</ele></trkpt>
<trkpt lat="39.581143" lon="2.574820"><ele>312.75</ele></trkpt>
<trkpt lat="39.581108" lon="2.574815"><ele>311.5</ele></trkpt>
<trkpt lat="39.580989" lon="2.574725"><ele>310.25</ele></trkpt>
<trkpt lat="39.580865" lon="2.574561"><ele>311.0</ele></trkpt>
<trkpt lat="39.580776" lon="2.574500"><ele>311.5</ele></trkpt>
<trkpt lat="39.580706" lon="2.574476"><ele>311.75</ele></trkpt>
<trkpt lat="39.580640" lon="2.574507"><ele>310.75</ele></trkpt>
<trkpt lat="39.580619" lon="2.574577"><ele>308.75</ele></trkpt>
<trkpt lat="39.580624" lon="2.574641"><ele>307.25</ele></trkpt>
<trkpt lat="39.580754" lon="2.574779"><ele>305.25</ele></trkpt>
<trkpt lat="39.581048" lon="2.575241"><ele>302.0</ele></trkpt>
<trkpt lat="39.581069" lon="2.575306"><ele>301.5</ele></trkpt>
<trkpt lat="39.581061" lon="2.575339"><ele>301.25</ele></trkpt>
<trkpt lat="39.581014" lon="2.575363"><ele>299.5</ele></trkpt>
<trkpt lat="39.580940" lon="2.575313"><ele>298.0</ele></trkpt>
<trkpt lat="39.580859" lon="2.575213"><ele>298.0</ele></trkpt>
<trkpt lat="39.580718" lon="2.575133"><ele>297.25</ele></trkpt>
<trkpt lat="39.580625" lon="2.575142"><ele>295.75</ele></trkpt>
<trkpt lat="39.580481" lon="2.575182"><ele>293.25</ele></trkpt>
<trkpt lat="39.580209" lon="2.575212"><ele>291.5</ele></trkpt>
<trkpt lat="39.579806" lon="2.575314"><ele>289.0</ele></trkpt>
<trkpt lat="39.579716" lon="2.575307"><ele>289.0</ele></trkpt>
<trkpt lat="39.579631" lon="2.575278"><ele>287.25</ele></trkpt>
<trkpt lat="39.579567" lon="2.575223"><ele>287.0</ele></trkpt>
<trkpt lat="39.579407" lon="2.575010"><ele>287.5</ele></trkpt>
<trkpt lat="39.579375" lon="2.574959"><ele>288.0</ele></trkpt>
<trkpt lat="39.579325" lon="2.574938"><ele>287.0</ele></trkpt>
<trkpt lat="39.579298" lon="2.574974"><ele>285.25</ele></trkpt>
<trkpt lat="39.579299" lon="2.575013"><ele>284.25</ele></trkpt>
<trkpt lat="39.579538" lon="2.575398"><ele>282.0</ele></trkpt>
<trkpt lat="39.579742" lon="2.575784"><ele>279.0</ele></trkpt>
<trkpt lat="39.579824" lon="2.575907"><ele>275.25</ele></trkpt>
<trkpt lat="39.579901" lon="2.575916"><ele>275.0</ele></trkpt>
<trkpt lat="39.579961" lon="2.575891"><ele>276.0</ele></trkpt>
<trkpt lat="39.580029" lon="2.575806"><ele>277.75</ele></trkpt>
<trkpt lat="39.580131" lon="2.575597"><ele>279.25</ele></trkpt>
<trkpt lat="39.580191" lon="2.575542"><ele>279.0</ele></trkpt>
<trkpt lat="39.580234" lon="2.575548"><ele>277.5</ele></trkpt>
<trkpt lat="39.580261" lon="2.575605"><ele>275.25</ele></trkpt>
<trkpt lat="39.580253" lon="2.575704"><ele>273.5</ele></trkpt>
<trkpt lat="39.580196" lon="2.575864"><ele>271.25</ele></trkpt>
<trkpt lat="39.580119" lon="2.575983"><ele>269.25</ele></trkpt>
<trkpt lat="39.579993" lon="2.576082"><ele>269.75</ele></trkpt>
<trkpt lat="39.579867" lon="2.576122"><ele>267.75</ele></trkpt>
<trkpt lat="39.579766" lon="2.576112"><ele>268.0</ele></trkpt>
<trkpt lat="39.579676" lon="2.576050"><ele>268.0</ele></trkpt>
<trkpt lat="39.579599" lon="2.575968"><ele>267.5</ele></trkpt>
<trkpt lat="39.579459" lon="2.575747"><ele>269.0</ele></trkpt>
<trkpt lat="39.579260" lon="2.575597"><ele>267.0</ele></trkpt>
<trkpt lat="39.579184" lon="2.575556"><ele>264.5</ele></trkpt>
<trkpt lat="39.579137" lon="2.575584"><ele>265.25</ele></trkpt>
<trkpt lat="39.579109" lon="2.575687"><ele>265.25</ele></trkpt>
<trkpt lat="39.579098" lon="2.575800"><ele>264.0</ele></trkpt>
<trkpt lat="39.579161" lon="2.576241"><ele>260.25</ele></trkpt>
<trkpt lat="39.579223" lon="2.576387"><ele>258.25</ele></trkpt>
<trkpt lat="39.579217" lon="2.576605"><ele>256.25</ele></trkpt>
<trkpt lat="39.579061" lon="2.576902"><ele>256.75</ele></trkpt>
<trkpt lat="39.578961" lon="2.577199"><ele>254.0</ele></trkpt>
<trkpt lat="39.578881" lon="2.577563"><ele>252.0</ele></trkpt>
<trkpt lat="39.578821" lon="2.578034"><ele>248.25</ele></trkpt>
<trkpt lat="39.578871" lon="2.578195"><ele>246.25</ele></trkpt>
<trkpt lat="39.578913" lon="2.578368"><ele>245.0</ele></trkpt>
<trkpt lat="39.578938" lon="2.578527"><ele>244.0</ele></trkpt>
<trkpt lat="39.578937" lon="2.578654"><ele>243.5</ele></trkpt>
<trkpt lat="39.578887" lon="2.578799"><ele>243.0</ele></trkpt>
<trkpt lat="39.578845" lon="2.578873"><ele>242.75</ele></trkpt>
<trkpt lat="39.578784" lon="2.578915"><ele>243.25</ele></trkpt>
<trkpt lat="39.578740" lon="2.578989"><ele>242.75</ele></trkpt>
<trkpt lat="39.578731" lon="2.579055"><ele>241.75</ele></trkpt>
<trkpt lat="39.578755" lon="2.579090"><ele>240.75</ele></trkpt>
<trkpt lat="39.578805" lon="2.579097"><ele>239.25</ele></trkpt>
<trkpt lat="39.579069" lon="2.578970"><ele>237.25</ele></trkpt>
<trkpt lat="39.579172" lon="2.578957"><ele>235.75</ele></trkpt>
<trkpt lat="39.579238" lon="2.579012"><ele>234.0</ele></trkpt>
<trkpt lat="39.579310" lon="2.579141"><ele>232.5</ele></trkpt>
<trkpt lat="39.579360" lon="2.579170"><ele>232.0</ele></trkpt>
<trkpt lat="39.579402" lon="2.579131"><ele>232.0</ele></trkpt>
<trkpt lat="39.579413" lon="2.579053"><ele>231.5</ele></trkpt>
<trkpt lat="39.579395" lon="2.578906"><ele>231.25</ele></trkpt>
<trkpt lat="39.579367" lon="2.578481"><ele>230.75</ele></trkpt>
<trkpt lat="39.579371" lon="2.578278"><ele>230.25</ele></trkpt>
<trkpt lat="39.579404" lon="2.577943"><ele>229.25</ele></trkpt>
<trkpt lat="39.579473" lon="2.577834"><ele>228.75</ele></trkpt>
<trkpt lat="39.579593" lon="2.577715"><ele>228.25</ele></trkpt>
<trkpt lat="39.579670" lon="2.577649"><ele>227.75</ele></trkpt>
<trkpt lat="39.579775" lon="2.577628"><ele>226.75</ele></trkpt>
<trkpt lat="39.579937" lon="2.577673"><ele>224.75</ele></trkpt>
<trkpt lat="39.580158" lon="2.577763"><ele>223.25</ele></trkpt>
<trkpt lat="39.580682" lon="2.578168"><ele>219.5</ele></trkpt>
<trkpt lat="39.580694" lon="2.578230"><ele>218.75</ele></trkpt>
<trkpt lat="39.580689" lon="2.578301"><ele>217.75</ele></trkpt>
<trkpt lat="39.580644" lon="2.578356"><ele>216.5</ele></trkpt>
<trkpt lat="39.580585" lon="2.578375"><ele>215.5</ele></trkpt>
<trkpt lat="39.580484" lon="2.578356"><ele>215.25</ele></trkpt>
<trkpt lat="39.580412" lon="2.578355"><ele>215.0</ele></trkpt>
<trkpt lat="39.580312" lon="2.578367"><ele>214.5</ele></trkpt>
<trkpt lat="39.580230" lon="2.578442"><ele>214.25</ele></trkpt>
<trkpt lat="39.580221" lon="2.578493"><ele>213.75</ele></trkpt>
<trkpt lat="39.580242" lon="2.578533"><ele>213.0</ele></trkpt>
<trkpt lat="39.580292" lon="2.578597"><ele>212.0</ele></trkpt>
<trkpt lat="39.580416" lon="2.578668"><ele>211.5</ele></trkpt>
<trkpt lat="39.580529" lon="2.578784"><ele>210.75</ele></trkpt>
<trkpt lat="39.580717" lon="2.579219"><ele>208.5</ele></trkpt>
<trkpt lat="39.580809" lon="2.579557"><ele>205.75</ele></trkpt>
<trkpt lat="39.580813" lon="2.580026"><ele>202.25</ele></trkpt>
<trkpt lat="39.580890" lon="2.580677"><ele>197.25</ele></trkpt>
<trkpt lat="39.580996" lon="2.581224"><ele>193.75</ele></trkpt>
<trkpt lat="39.580981" lon="2.581682"><ele>190.5</ele></trkpt>
<trkpt lat="39.580961" lon="2.582045"><ele>188.5</ele></trkpt>
<trkpt lat="39.580923" lon="2.582388"><ele>186.25</ele></trkpt>
<trkpt lat="39.580825" lon="2.583413"><ele>179.5</ele></trkpt>
<trkpt lat="39.580785" lon="2.583628"><ele>178.5</ele></trkpt>
<trkpt lat="39.580775" lon="2.583682"><ele>178.0</ele></trkpt>
<trkpt lat="39.580716" lon="2.583752"><ele>177.0</ele></trkpt>
<trkpt lat="39.580614" lon="2.583801"><ele>176.0</ele></trkpt>
<trkpt lat="39.580307" lon="2.583849"><ele>174.25</ele></trkpt>
<trkpt lat="39.580170" lon="2.583896"><ele>173.75</ele></trkpt>
<trkpt lat="39.580101" lon="2.583977"><ele>173.25</ele></trkpt>
<trkpt lat="39.580040" lon="2.584073"><ele>172.0</ele></trkpt>
<trkpt lat="39.579434" lon="2.585721"><ele>162.75</ele></trkpt>
<trkpt lat="39.579292" lon="2.586151"><ele>160.0</ele></trkpt>
<trkpt lat="39.579214" lon="2.586679"><ele>157.75</ele></trkpt>
<trkpt lat="39.579166" lon="2.587344"><ele>155.5</ele></trkpt>
<trkpt lat="39.579113" lon="2.587535"><ele>155.0</ele></trkpt>
<trkpt lat="39.578337" lon="2.589467"><ele>155.0</ele></trkpt>
<trkpt lat="39.578210" lon="2.589788"><ele>156.0</ele></trkpt>
<trkpt lat="39.578098" lon="2.589964"><ele>156.0</ele></trkpt>
<trkpt lat="39.577976" lon="2.590123"><ele>156.75</ele></trkpt>
<trkpt lat="39.577580" lon="2.590845"><ele>156.0</ele></trkpt>
<trkpt lat="39.577503" lon="2.590948"><ele>155.0</ele></trkpt>
<trkpt lat="39.577471" lon="2.591089"><ele>154.75</ele></trkpt>
<trkpt lat="39.577438" lon="2.591368"><ele>154.25</ele></trkpt>
<trkpt lat="39.577371" lon="2.591752"><ele>151.75</ele></trkpt>
<trkpt lat="39.577295" lon="2.592176"><ele>147.0</ele></trkpt>
<trkpt lat="39.577250" lon="2.592500"><ele>145.0</ele></trkpt>
<trkpt lat="39.577264" lon="2.592770"><ele>144.25</ele></trkpt>
<trkpt lat="39.577292" lon="2.592987"><ele>143.75</ele></trkpt>
<trkpt lat="39.577288" lon="2.593073"><ele>143.5</ele></trkpt>
<trkpt lat="39.577283" lon="2.593172"><ele>143.5</ele></trkpt>
<trkpt lat="39.577240" lon="2.593245"><ele>142.5</ele></trkpt>
<trkpt lat="39.577182" lon="2.593301"><ele>141.5</ele></trkpt>
<trkpt lat="39.577085" lon="2.593281"><ele>140.0</ele></trkpt>
<trkpt lat="39.577043" lon="2.593170"><ele>140.0</ele></trkpt>
<trkpt lat="39.577040" lon="2.593064"><ele>140.25</ele></trkpt>
<trkpt lat="39.576979" lon="2.593003"><ele>139.5</ele></trkpt>
<trkpt lat="39.576933" lon="2.592984"><ele>138.75</ele></trkpt>
<trkpt lat="39.576880" lon="2.593030"><ele>137.5</ele></trkpt>
<trkpt lat="39.576853" lon="2.593166"><ele>136.75</ele></trkpt>
<trkpt lat="39.576776" lon="2.593445"><ele>135.75</ele></trkpt>
<trkpt lat="39.576616" lon="2.593644"><ele>134.25</ele></trkpt>
<trkpt lat="39.576502" lon="2.593774"><ele>134.5</ele></trkpt>
<trkpt lat="39.576408" lon="2.593896"><ele>131.75</ele></trkpt>
<trkpt lat="39.576162" lon="2.594001"><ele>128.0</ele></trkpt>
<trkpt lat="39.576010" lon="2.594042"><ele>126.25</ele></trkpt>
<trkpt lat="39.575668" lon="2.594347"><ele>123.5</ele></trkpt>
<trkpt lat="39.575605" lon="2.594466"><ele>123.0</ele></trkpt>
<trkpt lat="39.575593" lon="2.594516"><ele>122.25</ele></trkpt>
<trkpt lat="39.575616" lon="2.594560"><ele>122.0</ele></trkpt>
<trkpt lat="39.575703" lon="2.594599"><ele>121.75</ele></trkpt>
<trkpt lat="39.575812" lon="2.594599"><ele>122.0</ele></trkpt>
<trkpt lat="39.575977" lon="2.594621"><ele>121.0</ele></trkpt>
<trkpt lat="39.576137" lon="2.594691"><ele>119.5</ele></trkpt>
<trkpt lat="39.576275" lon="2.594821"><ele>118.75</ele></trkpt>
<trkpt lat="39.576427" lon="2.595141"><ele>117.0</ele></trkpt>
<trkpt lat="39.576609" lon="2.595649"><ele>114.0</ele></trkpt>
<trkpt lat="39.576739" lon="2.595930"><ele>111.75</ele></trkpt>
<trkpt lat="39.576846" lon="2.596273"><ele>109.75</ele></trkpt>
<trkpt lat="39.576866" lon="2.596391"><ele>109.0</ele></trkpt>
<trkpt lat="39.576825" lon="2.596435"><ele>108.75</ele></trkpt>
<trkpt lat="39.576760" lon="2.596379"><ele>108.0</ele></trkpt>
<trkpt lat="39.576650" lon="2.596183"><ele>107.5</ele></trkpt>
<trkpt lat="39.576588" lon="2.596130"><ele>107.5</ele></trkpt>
<trkpt lat="39.576508" lon="2.596120"><ele>107.25</ele></trkpt>
<trkpt lat="39.576417" lon="2.596195"><ele>106.75</ele></trkpt>
<trkpt lat="39.576233" lon="2.596552"><ele>104.0</ele></trkpt>
<trkpt lat="39.576107" lon="2.596837"><ele>102.75</ele></trkpt>
<trkpt lat="39.576068" lon="2.596974"><ele>102.75</ele></trkpt>
<trkpt lat="39.576073" lon="2.597144"><ele>102.25</ele></trkpt>
<trkpt lat="39.576105" lon="2.597496"><ele>100.75</ele></trkpt>
<trkpt lat="39.576093" lon="2.597823"><ele>98.75</ele></trkpt>
<trkpt lat="39.576064" lon="2.598107"><ele>97.75</ele></trkpt>
<trkpt lat="39.576076" lon="2.598707"><ele>95.75</ele></trkpt>
<trkpt lat="39.576147" lon="2.599050"><ele>93.75</ele></trkpt>
<trkpt lat="39.576244" lon="2.599644"><ele>92.0</ele></trkpt>
<trkpt lat="39.576158" lon="2.600230"><ele>89.75</ele></trkpt>
<trkpt lat="39.576095" lon="2.600483"><ele>88.25</ele></trkpt>
<trkpt lat="39.575827" lon="2.601257"><ele>86.5</ele></trkpt>
<trkpt lat="39.575704" lon="2.601657"><ele>86.0</ele></trkpt>
<trkpt lat="39.575590" lon="2.601961"><ele>85.75</ele></trkpt>
<trkpt lat="39.575421" lon="2.602161"><ele>87.0</ele></trkpt>
<trkpt lat="39.575146" lon="2.602330"><ele>88.0</ele></trkpt>
<trkpt lat="39.575015" lon="2.602458"><ele>88.75</ele></trkpt>
<trkpt lat="39.574946" lon="2.602613"><ele>90.0</ele></trkpt>
<trkpt lat="39.574837" lon="2.603013"><ele>93.75</ele></trkpt>
<trkpt lat="39.574763" lon="2.603720"><ele>98.5</ele></trkpt>
<trkpt lat="39.574613" lon="2.604277"><ele>100.75</ele></trkpt>
<trkpt lat="39.574411" lon="2.604825"><ele>99.0</ele></trkpt>
<trkpt lat="39.574348" lon="2.605059"><ele>98.75</ele></trkpt>
<trkpt lat="39.574278" lon="2.605478"><ele>96.0</ele></trkpt>
<trkpt lat="39.574164" lon="2.605875"><ele>92.5</ele></trkpt>
<trkpt lat="39.574112" lon="2.606043"><ele>91.25</ele></trkpt>
<trkpt lat="39.574004" lon="2.606307"><ele>89.5</ele></trkpt>
<trkpt lat="39.573947" lon="2.606573"><ele>88.0</ele></trkpt>
<trkpt lat="39.573939" lon="2.606663"><ele>87.5</ele></trkpt>
<trkpt lat="39.573957" lon="2.606763"><ele>87.75</ele></trkpt>
<trkpt lat="39.574065" lon="2.607006"><ele>87.0</ele></trkpt>
<trkpt lat="39.574158" lon="2.607327"><ele>84.75</ele></trkpt>
<trkpt lat="39.574223" lon="2.607562"><ele>83.75</ele></trkpt>
<trkpt lat="39.574261" lon="2.607788"><ele>83.5</ele></trkpt>
<trkpt lat="39.574317" lon="2.608010"><ele>83.0</ele></trkpt>
<trkpt lat="39.574324" lon="2.608092"><ele>82.75</ele></trkpt>
<trkpt lat="39.574314" lon="2.608428"><ele>82.5</ele></trkpt>
<trkpt lat="39.574334" lon="2.608681"><ele>81.75</ele></trkpt>
<trkpt lat="39.574338" lon="2.608839"><ele>80.0</ele></trkpt>
<trkpt lat="39.574319" lon="2.609199"><ele>77.75</ele></trkpt>
<trkpt lat="39.574290" lon="2.609305"><ele>77.75</ele></trkpt>
<trkpt lat="39.574255" lon="2.609482"><ele>78.25</ele></trkpt>
<trkpt lat="39.574224" lon="2.609584"><ele>78.25</ele></trkpt>
<trkpt lat="39.574173" lon="2.609714"><ele>78.0</ele></trkpt>
<trkpt lat="39.574106" lon="2.609845"><ele>77.25</ele></trkpt>
<trkpt lat="39.574049" lon="2.609952"><ele>77.0</ele></trkpt>
<trkpt lat="39.574037" lon="2.610008"><ele>76.75</ele></trkpt>
<trkpt lat="39.574032" lon="2.610073"><ele>76.75</ele></trkpt>
<trkpt lat="39.574036" lon="2.610137"><ele>76.5</ele></trkpt>
<trkpt lat="39.574063" lon="2.610230"><ele>76.25</ele></trkpt>
<trkpt lat="39.574096" lon="2.610290"><ele>76.0</ele></trkpt>
<trkpt lat="39.574155" lon="2.610345"><ele>75.5</ele></trkpt>
<trkpt lat="39.574176" lon="2.610414"><ele>74.75</ele></trkpt>
<trkpt lat="39.574185" lon="2.610511"><ele>74.0</ele></trkpt>
<trkpt lat="39.574094" lon="2.611075"><ele>75.0</ele></trkpt>
<trkpt lat="39.574046" lon="2.611336"><ele>75.25</ele></trkpt>
<trkpt lat="39.574019" lon="2.611424"><ele>75.25</ele></trkpt>
<trkpt lat="39.573977" lon="2.611547"><ele>74.5</ele></trkpt>
<trkpt lat="39.573926" lon="2.611668"><ele>74.0</ele></trkpt>
<trkpt lat="39.573902" lon="2.611700"><ele>74.0</ele></trkpt>
<trkpt lat="39.573879" lon="2.611715"><ele>73.75</ele></trkpt>
<trkpt lat="39.573807" lon="2.611756"><ele>73.5</ele></trkpt>
<trkpt lat="39.573772" lon="2.611795"><ele>73.25</ele></trkpt>
<trkpt lat="39.573722" lon="2.611879"><ele>72.75</ele></trkpt>
<trkpt lat="39.573708" lon="2.611928"><ele>72.5</ele></trkpt>
<trkpt lat="39.573694" lon="2.611988"><ele>72.25</ele></trkpt>
<trkpt lat="39.573690" lon="2.612042"><ele>72.0</ele></trkpt>
<trkpt lat="39.573694" lon="2.612097"><ele>72.0</ele></trkpt>
<trkpt lat="39.573705" lon="2.612154"><ele>71.75</ele></trkpt>
<trkpt lat="39.573749" lon="2.612249"><ele>71.75</ele></trkpt>
<trkpt lat="39.573780" lon="2.612288"><ele>71.75</ele></trkpt>
<trkpt lat="39.573811" lon="2.612336"><ele>72.0</ele></trkpt>
<trkpt lat="39.573822" lon="2.612370"><ele>71.75</ele></trkpt>
<trkpt lat="39.573834" lon="2.612449"><ele>71.75</ele></trkpt>
<trkpt lat="39.573834" lon="2.612494"><ele>71.5</ele></trkpt>
<trkpt lat="39.573700" lon="2.613180"><ele>70.0</ele></trkpt>
<trkpt lat="39.573693" lon="2.613213"><ele>70.0</ele></trkpt>
<trkpt lat="39.573537" lon="2.614004"><ele>69.5</ele></trkpt>
<trkpt lat="39.573453" lon="2.614394"><ele>69.5</ele></trkpt>
<trkpt lat="39.573209" lon="2.616094"><ele>69.75</ele></trkpt>
<trkpt lat="39.573202" lon="2.616189"><ele>69.75</ele></trkpt>
<trkpt lat="39.573176" lon="2.616350"><ele>70.0</ele></trkpt>
<trkpt lat="39.573081" lon="2.616659"><ele>68.75</ele></trkpt>
<trkpt lat="39.572851" lon="2.617209"><ele>67.25</ele></trkpt>
<trkpt lat="39.572506" lon="2.618419"><ele>61.75</ele></trkpt>
<trkpt lat="39.572188" lon="2.619719"><ele>56.75</ele></trkpt>
<trkpt lat="39.572128" lon="2.619929"><ele>56.0</ele></trkpt>
<trkpt lat="39.572042" lon="2.619941"><ele>56.0</ele></trkpt>
<trkpt lat="39.571963" lon="2.619990"><ele>56.0</ele></trkpt>
<trkpt lat="39.571902" lon="2.620068"><ele>55.75</ele></trkpt>
<trkpt lat="39.571862" lon="2.620172"><ele>55.25</ele></trkpt>
<trkpt lat="39.571853" lon="2.620256"><ele>55.0</ele></trkpt>
<trkpt lat="39.571871" lon="2.620398"><ele>55.0</ele></trkpt>
<trkpt lat="39.571926" lon="2.620500"><ele>55.0</ele></trkpt>
<trkpt lat="39.571976" lon="2.620788"><ele>54.0</ele></trkpt>
<trkpt lat="39.571986" lon="2.621291"><ele>52.25</ele></trkpt>
<trkpt lat="39.571982" lon="2.621467"><ele>51.5</ele></trkpt>
<trkpt lat="39.571972" lon="2.621961"><ele>49.75</ele></trkpt>
<trkpt lat="39.571935" lon="2.622205"><ele>49.0</ele></trkpt>
<trkpt lat="39.571900" lon="2.622443"><ele>49.0</ele></trkpt>
<trkpt lat="39.571683" lon="2.623666"><ele>44.75</ele></trkpt>
<trkpt lat="39.571547" lon="2.624539"><ele>40.25</ele></trkpt>
<trkpt lat="39.571479" lon="2.624881"><ele>39.0</ele></trkpt>
<trkpt lat="39.571313" lon="2.625421"><ele>36.0</ele></trkpt>
<trkpt lat="39.570993" lon="2.626368"><ele>31.5</ele></trkpt>
<trkpt lat="39.570709" lon="2.627347"><ele>27.25</ele></trkpt>
<trkpt lat="39.570648" lon="2.627792"><ele>24.75</ele></trkpt>
<trkpt lat="39.570573" lon="2.628506"><ele>22.25</ele></trkpt>
<trkpt lat="39.570599" lon="2.629192"><ele>19.75</ele></trkpt>
<trkpt lat="39.570601" lon="2.629274"><ele>19.75</ele></trkpt>
<trkpt lat="39.570631" lon="2.629891"><ele>18.25</ele></trkpt>
<trkpt lat="39.570655" lon="2.630279"><ele>17.75</ele></trkpt>
<trkpt lat="39.570657" lon="2.630365"><ele>17.5</ele></trkpt>
<trkpt lat="39.570660" lon="2.630470"><ele>17.25</ele></trkpt>
<trkpt lat="39.570634" lon="2.630760"><ele>17.0</ele></trkpt>
<trkpt lat="39.570562" lon="2.631578"><ele>14.25</ele></trkpt>
<trkpt lat="39.570482" lon="2.632477"><ele>11.75</ele></trkpt>
<trkpt lat="39.570172" lon="2.632812"><ele>10.0</ele></trkpt>
<trkpt lat="39.570142" lon="2.632845"><ele>10.0</ele></trkpt>
<trkpt lat="39.570066" lon="2.632926"><ele>10.0</ele></trkpt>
<trkpt lat="39.570136" lon="2.633047"><ele>10.0</ele></trkpt>
<trkpt lat="39.570276" lon="2.633289"><ele>10.0</ele></trkpt>
<trkpt lat="39.570408" lon="2.633516"><ele>10.25</ele></trkpt>
<trkpt lat="39.570531" lon="2.633727"><ele>11.25</ele></trkpt>
<trkpt lat="39.571014" lon="2.634562"><ele>14.0</ele></trkpt>
<trkpt lat="39.571169" lon="2.634816"><ele>15.25</ele></trkpt>
<trkpt lat="39.571582" lon="2.635520"><ele>16.0</ele></trkpt>
<trkpt lat="39.571637" lon="2.635615"><ele>15.75</ele></trkpt>
<trkpt lat="39.571748" lon="2.635810"><ele>16.0</ele></trkpt>
<trkpt lat="39.571775" lon="2.635855"><ele>15.75</ele></trkpt>
<trkpt lat="39.571978" lon="2.636202"><ele>15.5</ele></trkpt>
<trkpt lat="39.572055" lon="2.636335"><ele>15.5</ele></trkpt>
<trkpt lat="39.572173" lon="2.636533"><ele>15.5</ele></trkpt>
<trkpt lat="39.572238" lon="2.636636"><ele>16.0</ele></trkpt>
<trkpt lat="39.572327" lon="2.636786"><ele>16.0</ele></trkpt>
<trkpt lat="39.572398" lon="2.636910"><ele>16.5</ele></trkpt>
<trkpt lat="39.572675" lon="2.637369"><ele>17.5</ele></trkpt>
<trkpt lat="39.572696" lon="2.637406"><ele>17.5</ele></trkpt>
<trkpt lat="39.573061" lon="2.638034"><ele>19.0</ele></trkpt>
<trkpt lat="39.573115" lon="2.638129"><ele>19.0</ele></trkpt>
<trkpt lat="39.573092" lon="2.638223"><ele>19.0</ele></trkpt>
<trkpt lat="39.573002" lon="2.638584"><ele>18.5</ele></trkpt>
<trkpt lat="39.572823" lon="2.639306"><ele>19.0</ele></trkpt>
<trkpt lat="39.572763" lon="2.639546"><ele>18.75</ele></trkpt>
<trkpt lat="39.572577" lon="2.640368"><ele>18.25</ele></trkpt>
<trkpt lat="39.572313" lon="2.641527"><ele>16.5</ele></trkpt>
<trkpt lat="39.572553" lon="2.641589"><ele>17.0</ele></trkpt>
<trkpt lat="39.572622" lon="2.641605"><ele>17.0</ele></trkpt>
<trkpt lat="39.572604" lon="2.641755"><ele>15.0</ele></trkpt>
<trkpt lat="39.572567" lon="2.642058"><ele>13.25</ele></trkpt>
<trkpt lat="39.572553" lon="2.642160"><ele>15.5</ele></trkpt>
<trkpt lat="39.572541" lon="2.642281"><ele>16.75</ele></trkpt>
<trkpt lat="39.572462" lon="2.642933"><ele>15.0</ele></trkpt>
<trkpt lat="39.572360" lon="2.643726"><ele>13.0</ele></trkpt>
<trkpt lat="39.572350" lon="2.643828"><ele>13.0</ele></trkpt>
<trkpt lat="39.572315" lon="2.644044"><ele>12.25</ele></trkpt>
<trkpt lat="39.572116" lon="2.644756"><ele>10.5</ele></trkpt>
<trkpt lat="39.572102" lon="2.644808"><ele>10.5</ele></trkpt>
<trkpt lat="39.571933" lon="2.645397"><ele>9.75</ele></trkpt>
<trkpt lat="39.571906" lon="2.645493"><ele>9.75</ele></trkpt>
<trkpt lat="39.571739" lon="2.646074"><ele>8.25</ele></trkpt>
<trkpt lat="39.571694" lon="2.646227"><ele>8.0</ele></trkpt>
<trkpt lat="39.571636" lon="2.646433"><ele>7.75</ele></trkpt>
<trkpt lat="39.571552" lon="2.646723"><ele>6.75</ele></trkpt>
<trkpt lat="39.571508" lon="2.646858"><ele>6.5</ele></trkpt>
<trkpt lat="39.571346" lon="2.646804"><ele>6.25</ele></trkpt>
<trkpt lat="39.571043" lon="2.646733"><ele>4.75</ele></trkpt>
<trkpt lat="39.570957" lon="2.646708"><ele>4.75</ele></trkpt>
<trkpt lat="39.569930" lon="2.646448"><ele>4.0</ele></trkpt>
<trkpt lat="39.569511" lon="2.646338"><ele>3.25</ele></trkpt>
<trkpt lat="39.569356" lon="2.646307"><ele>3.0</ele></trkpt>
<trkpt lat="39.569246" lon="2.646328"><ele>3.0</ele></trkpt>
<trkpt lat="39.569199" lon="2.646390"><ele>3.0</ele></trkpt>
<trkpt lat="39.569137" lon="2.646326"><ele>3.0</ele></trkpt>
<trkpt lat="39.569075" lon="2.646287"><ele>3.0</ele></trkpt>
<trkpt lat="39.569044" lon="2.646261"><ele>3.0</ele></trkpt>
<trkpt lat="39.569009" lon="2.646249"><ele>3.0</ele></trkpt>
<trkpt lat="39.568973" lon="2.646253"><ele>3.0</ele></trkpt>
<trkpt lat="39.568939" lon="2.646271"><ele>3.0</ele></trkpt>
<trkpt lat="39.568926" lon="2.646284"><ele>3.0</ele></trkpt>
<trkpt lat="39.568720" lon="2.646393"><ele>3.0</ele></trkpt>
<trkpt lat="39.568622" lon="2.646418"><ele>3.0</ele></trkpt>
<trkpt lat="39.568650" lon="2.646519"><ele>3.75</ele></trkpt>
<trkpt lat="39.568773" lon="2.646969"><ele>6.5</ele></trkpt>
<trkpt lat="39.568803" lon="2.647077"><ele>7.25</ele></trkpt>
<trkpt lat="39.568869" lon="2.647318"><ele>8.5</ele></trkpt>
<trkpt lat="39.569046" lon="2.647872"><ele>12.0</ele></trkpt>
<trkpt lat="39.569249" lon="2.648549"><ele>14.25</ele></trkpt>
<trkpt lat="39.569407" lon="2.649030"><ele>16.5</ele></trkpt>
<trkpt lat="39.569409" lon="2.649104"><ele>17.25</ele></trkpt>
<trkpt lat="39.569387" lon="2.649152"><ele>18.0</ele></trkpt>
<trkpt lat="39.569092" lon="2.649440"><ele>19.25</ele></trkpt>
<trkpt lat="39.569434" lon="2.649919"><ele>20.0</ele></trkpt>
<trkpt lat="39.569458" lon="2.650013"><ele>20.0</ele></trkpt>
<trkpt lat="39.569463" lon="2.650160"><ele>20.0</ele></trkpt>
<trkpt lat="39.569476" lon="2.650262"><ele>20.0</ele></trkpt>
<trkpt lat="39.569622" lon="2.650367"><ele>20.0</ele></trkpt>
<trkpt lat="39.569672" lon="2.650408"><ele>20.0</ele></trkpt>
<trkpt lat="39.569817" lon="2.650536"><ele>20.25</ele></trkpt>
<trkpt lat="39.569836" lon="2.650552"><ele>20.25</ele></trkpt>
<trkpt lat="39.569917" lon="2.650621"><ele>20.75</ele></trkpt>
<trkpt lat="39.569961" lon="2.650583"><ele>20.75</ele></trkpt>
<trkpt lat="39.569961" lon="2.650576"><ele>20.75</ele></trkpt>
<trkpt lat="39.570017" lon="2.650502"><ele>20.75</ele></trkpt>
<trkpt lat="39.570003" lon="2.650470"><ele>20.5</ele></trkpt>
<trkpt lat="39.569899" lon="2.650341"><ele>20.0</ele></trkpt>
<trkpt lat="39.569927" lon="2.650221"><ele>20.0</ele></trkpt>
<trkpt lat="39.570000" lon="2.650021"><ele>20.0</ele></trkpt>
</trkseg></trk></gpx>
