<?xml version="1.0" encoding="UTF-8"?>
<!-- track-length = 28231 filtered ascend = 123 plain-ascend = 0 cost=92788 energy=.0kwh time=19m 2s AUTO selected ISO_GREEDY (score 0.854) after 1 candidate(s) in 371ms. short shared stem near start/end: 30m -->
<gpx
 xmlns="http://www.topografix.com/GPX/1/1"
 xmlns:xsi="http://www.w3.org/2001/XMLSchema-instance"
 xsi:schemaLocation="http://www.topografix.com/GPX/1/1 http://www.topografix.com/GPX/1/1/gpx.xsd"
 creator="BRouter-null" version="1.1">
 <trk>
  <name>unset</name>
  <trkseg>
   <trkpt lon="2.650010" lat="39.570008"><ele>19.75</ele></trkpt>
   <trkpt lon="2.650021" lat="39.570000"><ele>20.0</ele></trkpt>
   <trkpt lon="2.650221" lat="39.569927"><ele>20.0</ele></trkpt>
   <trkpt lon="2.650341" lat="39.569899"><ele>20.0</ele></trkpt>
   <trkpt lon="2.650470" lat="39.570003"><ele>20.5</ele></trkpt>
   <trkpt lon="2.650502" lat="39.570017"><ele>20.75</ele></trkpt>
   <trkpt lon="2.650576" lat="39.569961"><ele>20.75</ele></trkpt>
   <trkpt lon="2.650583" lat="39.569961"><ele>20.75</ele></trkpt>
   <trkpt lon="2.650621" lat="39.569917"><ele>20.75</ele></trkpt>
   <trkpt lon="2.650951" lat="39.570323"><ele>21.0</ele></trkpt>
   <trkpt lon="2.650971" lat="39.570347"><ele>21.0</ele></trkpt>
   <trkpt lon="2.651013" lat="39.570397"><ele>21.0</ele></trkpt>
   <trkpt lon="2.651217" lat="39.570664"><ele>21.25</ele></trkpt>
   <trkpt lon="2.651275" lat="39.570751"><ele>21.5</ele></trkpt>
   <trkpt lon="2.651307" lat="39.570766"><ele>21.75</ele></trkpt>
   <trkpt lon="2.651365" lat="39.570778"><ele>21.75</ele></trkpt>
   <trkpt lon="2.651452" lat="39.570779"><ele>21.75</ele></trkpt>
   <trkpt lon="2.651552" lat="39.570776"><ele>21.75</ele></trkpt>
   <trkpt lon="2.651898" lat="39.570761"><ele>21.5</ele></trkpt>
   <trkpt lon="2.652024" lat="39.570691"><ele>21.25</ele></trkpt>
   <trkpt lon="2.652138" lat="39.570629"><ele>21.0</ele></trkpt>
   <trkpt lon="2.652178" lat="39.570607"><ele>21.0</ele></trkpt>
   <trkpt lon="2.652424" lat="39.570485"><ele>21.75</ele></trkpt>
   <trkpt lon="2.652622" lat="39.570387"><ele>21.5</ele></trkpt>
   <trkpt lon="2.652847" lat="39.570443"><ele>21.0</ele></trkpt>
   <trkpt lon="2.653046" lat="39.570493"><ele>21.0</ele></trkpt>
   <trkpt lon="2.653139" lat="39.570484"><ele>21.0</ele></trkpt>
   <trkpt lon="2.653526" lat="39.570460"><ele>21.0</ele></trkpt>
   <trkpt lon="2.653815" lat="39.570518"><ele>20.75</ele></trkpt>
   <trkpt lon="2.654021" lat="39.570526"><ele>20.75</ele></trkpt>
   <trkpt lon="2.654269" lat="39.570416"><ele>20.25</ele></trkpt>
   <trkpt lon="2.654809" lat="39.570250"><ele>19.75</ele></trkpt>
   <trkpt lon="2.654962" lat="39.570247"><ele>19.75</ele></trkpt>
   <trkpt lon="2.655002" lat="39.570247"><ele>19.75</ele></trkpt>
   <trkpt lon="2.655642" lat="39.570267"><ele>19.5</ele></trkpt>
   <trkpt lon="2.655897" lat="39.570283"><ele>18.75</ele></trkpt>
   <trkpt lon="2.656376" lat="39.570253"><ele>18.0</ele></trkpt>
   <trkpt lon="2.656412" lat="39.570251"><ele>18.0</ele></trkpt>
   <trkpt lon="2.656216" lat="39.571292"><ele>18.5</ele></trkpt>
   <trkpt lon="2.656167" lat="39.571293"><ele>18.75</ele></trkpt>
   <trkpt lon="2.656026" lat="39.571285"><ele>19.0</ele></trkpt>
   <trkpt lon="2.655969" lat="39.571281"><ele>19.0</ele></trkpt>
   <trkpt lon="2.655932" lat="39.571279"><ele>19.0</ele></trkpt>
   <trkpt lon="2.655860" lat="39.571330"><ele>19.0</ele></trkpt>
   <trkpt lon="2.655630" lat="39.571644"><ele>19.75</ele></trkpt>
   <trkpt lon="2.655540" lat="39.571846"><ele>19.25</ele></trkpt>
   <trkpt lon="2.655523" lat="39.571899"><ele>19.25</ele></trkpt>
   <trkpt lon="2.655521" lat="39.571938"><ele>19.0</ele></trkpt>
   <trkpt lon="2.655469" lat="39.572049"><ele>19.0</ele></trkpt>
   <trkpt lon="2.655522" lat="39.572147"><ele>19.0</ele></trkpt>
   <trkpt lon="2.655540" lat="39.572185"><ele>19.0</ele></trkpt>
   <trkpt lon="2.655530" lat="39.572233"><ele>19.0</ele></trkpt>
   <trkpt lon="2.655293" lat="39.572708"><ele>19.5</ele></trkpt>
   <trkpt lon="2.655339" lat="39.572725"><ele>19.5</ele></trkpt>
   <trkpt lon="2.655316" lat="39.572769"><ele>19.75</ele></trkpt>
   <trkpt lon="2.655302" lat="39.572798"><ele>19.75</ele></trkpt>
   <trkpt lon="2.655179" lat="39.573076"><ele>21.0</ele></trkpt>
   <trkpt lon="2.655045" lat="39.573349"><ele>21.0</ele></trkpt>
   <trkpt lon="2.654750" lat="39.573916"><ele>22.75</ele></trkpt>
   <trkpt lon="2.654553" lat="39.574142"><ele>23.5</ele></trkpt>
   <trkpt lon="2.654369" lat="39.574351"><ele>23.75</ele></trkpt>
   <trkpt lon="2.654348" lat="39.574376"><ele>23.75</ele></trkpt>
   <trkpt lon="2.654282" lat="39.574450"><ele>24.0</ele></trkpt>
   <trkpt lon="2.654223" lat="39.574511"><ele>24.0</ele></trkpt>
   <trkpt lon="2.653826" lat="39.574918"><ele>24.0</ele></trkpt>
   <trkpt lon="2.653799" lat="39.574903"><ele>24.0</ele></trkpt>
   <trkpt lon="2.653771" lat="39.574931"><ele>24.0</ele></trkpt>
   <trkpt lon="2.654218" lat="39.575257"><ele>24.0</ele></trkpt>
   <trkpt lon="2.654288" lat="39.575300"><ele>24.0</ele></trkpt>
   <trkpt lon="2.654081" lat="39.575460"><ele>24.0</ele></trkpt>
   <trkpt lon="2.654170" lat="39.575524"><ele>24.0</ele></trkpt>
   <trkpt lon="2.654306" lat="39.575626"><ele>24.0</ele></trkpt>
   <trkpt lon="2.654492" lat="39.575763"><ele>24.0</ele></trkpt>
   <trkpt lon="2.654661" lat="39.575618"><ele>24.0</ele></trkpt>
   <trkpt lon="2.655104" lat="39.575929"><ele>24.0</ele></trkpt>
   <trkpt lon="2.655214" lat="39.576006"><ele>24.0</ele></trkpt>
   <trkpt lon="2.655267" lat="39.576159"><ele>24.0</ele></trkpt>
   <trkpt lon="2.655316" lat="39.576221"><ele>23.75</ele></trkpt>
   <trkpt lon="2.655392" lat="39.576278"><ele>23.5</ele></trkpt>
   <trkpt lon="2.655444" lat="39.576314"><ele>23.25</ele></trkpt>
   <trkpt lon="2.655849" lat="39.576519"><ele>23.25</ele></trkpt>
   <trkpt lon="2.656211" lat="39.576804"><ele>23.25</ele></trkpt>
   <trkpt lon="2.656421" lat="39.577007"><ele>23.0</ele></trkpt>
   <trkpt lon="2.656551" lat="39.577124"><ele>23.5</ele></trkpt>
   <trkpt lon="2.656597" lat="39.577152"><ele>23.5</ele></trkpt>
   <trkpt lon="2.656807" lat="39.577301"><ele>23.5</ele></trkpt>
   <trkpt lon="2.656910" lat="39.577408"><ele>23.5</ele></trkpt>
   <trkpt lon="2.657005" lat="39.577470"><ele>23.0</ele></trkpt>
   <trkpt lon="2.657160" lat="39.577618"><ele>22.0</ele></trkpt>
   <trkpt lon="2.657241" lat="39.577661"><ele>22.25</ele></trkpt>
   <trkpt lon="2.657300" lat="39.577675"><ele>22.75</ele></trkpt>
   <trkpt lon="2.657491" lat="39.577779"><ele>24.0</ele></trkpt>
   <trkpt lon="2.657625" lat="39.577869"><ele>24.0</ele></trkpt>
   <trkpt lon="2.658387" lat="39.578402"><ele>24.75</ele></trkpt>
   <trkpt lon="2.658399" lat="39.578422"><ele>24.75</ele></trkpt>
   <trkpt lon="2.658470" lat="39.578557"><ele>24.75</ele></trkpt>
   <trkpt lon="2.658510" lat="39.578609"><ele>24.75</ele></trkpt>
   <trkpt lon="2.658290" lat="39.578808"><ele>25.0</ele></trkpt>
   <trkpt lon="2.658290" lat="39.578828"><ele>25.0</ele></trkpt>
   <trkpt lon="2.658347" lat="39.578870"><ele>25.0</ele></trkpt>
   <trkpt lon="2.658391" lat="39.578902"><ele>25.0</ele></trkpt>
   <trkpt lon="2.658418" lat="39.578920"><ele>25.0</ele></trkpt>
   <trkpt lon="2.658995" lat="39.579321"><ele>24.25</ele></trkpt>
   <trkpt lon="2.659638" lat="39.579767"><ele>24.0</ele></trkpt>
   <trkpt lon="2.659701" lat="39.579811"><ele>24.25</ele></trkpt>
   <trkpt lon="2.661460" lat="39.581032"><ele>24.0</ele></trkpt>
   <trkpt lon="2.662227" lat="39.581564"><ele>24.0</ele></trkpt>
   <trkpt lon="2.662628" lat="39.581842"><ele>24.25</ele></trkpt>
   <trkpt lon="2.663031" lat="39.582122"><ele>24.5</ele></trkpt>
   <trkpt lon="2.663381" lat="39.582365"><ele>24.75</ele></trkpt>
   <trkpt lon="2.663850" lat="39.582694"><ele>25.0</ele></trkpt>
   <trkpt lon="2.664236" lat="39.582985"><ele>25.5</ele></trkpt>
   <trkpt lon="2.664612" lat="39.583270"><ele>25.75</ele></trkpt>
   <trkpt lon="2.664743" lat="39.583369"><ele>26.0</ele></trkpt>
   <trkpt lon="2.665112" lat="39.583635"><ele>26.0</ele></trkpt>
   <trkpt lon="2.665785" lat="39.583969"><ele>26.0</ele></trkpt>
   <trkpt lon="2.665937" lat="39.584000"><ele>26.25</ele></trkpt>
   <trkpt lon="2.666085" lat="39.584008"><ele>26.0</ele></trkpt>
   <trkpt lon="2.666120" lat="39.584041"><ele>26.0</ele></trkpt>
   <trkpt lon="2.666035" lat="39.584154"><ele>26.25</ele></trkpt>
   <trkpt lon="2.665926" lat="39.584296"><ele>26.75</ele></trkpt>
   <trkpt lon="2.665879" lat="39.584357"><ele>26.75</ele></trkpt>
   <trkpt lon="2.665370" lat="39.585017"><ele>27.75</ele></trkpt>
   <trkpt lon="2.665060" lat="39.585428"><ele>28.0</ele></trkpt>
   <trkpt lon="2.664719" lat="39.585883"><ele>28.0</ele></trkpt>
   <trkpt lon="2.664358" lat="39.586399"><ele>29.0</ele></trkpt>
   <trkpt lon="2.663910" lat="39.586711"><ele>29.0</ele></trkpt>
   <trkpt lon="2.663819" lat="39.586759"><ele>29.25</ele></trkpt>
   <trkpt lon="2.663904" lat="39.586845"><ele>29.5</ele></trkpt>
   <trkpt lon="2.663961" lat="39.586928"><ele>29.75</ele></trkpt>
   <trkpt lon="2.663901" lat="39.586968"><ele>29.75</ele></trkpt>
   <trkpt lon="2.664909" lat="39.587823"><ele>27.75</ele></trkpt>
   <trkpt lon="2.665309" lat="39.588220"><ele>28.0</ele></trkpt>
   <trkpt lon="2.665712" lat="39.588662"><ele>29.25</ele></trkpt>
   <trkpt lon="2.666025" lat="39.589043"><ele>30.5</ele></trkpt>
   <trkpt lon="2.666422" lat="39.589609"><ele>30.75</ele></trkpt>
   <trkpt lon="2.667363" lat="39.590764"><ele>31.5</ele></trkpt>
   <trkpt lon="2.667494" lat="39.590915"><ele>31.25</ele></trkpt>
   <trkpt lon="2.668049" lat="39.591569"><ele>32.0</ele></trkpt>
   <trkpt lon="2.668114" lat="39.591568"><ele>32.0</ele></trkpt>
   <trkpt lon="2.668146" lat="39.591573"><ele>32.0</ele></trkpt>
   <trkpt lon="2.668190" lat="39.591638"><ele>32.25</ele></trkpt>
   <trkpt lon="2.668634" lat="39.592135"><ele>33.0</ele></trkpt>
   <trkpt lon="2.668839" lat="39.592315"><ele>33.0</ele></trkpt>
   <trkpt lon="2.668989" lat="39.592428"><ele>33.0</ele></trkpt>
   <trkpt lon="2.669125" lat="39.592502"><ele>33.0</ele></trkpt>
   <trkpt lon="2.669258" lat="39.592562"><ele>33.0</ele></trkpt>
   <trkpt lon="2.669440" lat="39.592614"><ele>33.0</ele></trkpt>
   <trkpt lon="2.669629" lat="39.592643"><ele>33.0</ele></trkpt>
   <trkpt lon="2.669778" lat="39.592656"><ele>32.75</ele></trkpt>
   <trkpt lon="2.669777" lat="39.592789"><ele>32.75</ele></trkpt>
   <trkpt lon="2.669775" lat="39.592829"><ele>32.75</ele></trkpt>
   <trkpt lon="2.669802" lat="39.592879"><ele>32.75</ele></trkpt>
   <trkpt lon="2.669842" lat="39.592910"><ele>32.75</ele></trkpt>
   <trkpt lon="2.669946" lat="39.593009"><ele>32.75</ele></trkpt>
   <trkpt lon="2.669845" lat="39.593098"><ele>32.75</ele></trkpt>
   <trkpt lon="2.669783" lat="39.593222"><ele>32.75</ele></trkpt>
   <trkpt lon="2.669772" lat="39.593338"><ele>32.75</ele></trkpt>
   <trkpt lon="2.669780" lat="39.593456"><ele>32.75</ele></trkpt>
   <trkpt lon="2.669802" lat="39.593534"><ele>32.5</ele></trkpt>
   <trkpt lon="2.669856" lat="39.593662"><ele>32.5</ele></trkpt>
   <trkpt lon="2.669939" lat="39.593790"><ele>32.5</ele></trkpt>
   <trkpt lon="2.670444" lat="39.594398"><ele>32.75</ele></trkpt>
   <trkpt lon="2.670461" lat="39.594472"><ele>33.0</ele></trkpt>
   <trkpt lon="2.670619" lat="39.594669"><ele>33.0</ele></trkpt>
   <trkpt lon="2.670641" lat="39.594722"><ele>33.0</ele></trkpt>
   <trkpt lon="2.670638" lat="39.594803"><ele>33.0</ele></trkpt>
   <trkpt lon="2.670608" lat="39.594821"><ele>33.25</ele></trkpt>
   <trkpt lon="2.670590" lat="39.594832"><ele>33.25</ele></trkpt>
   <trkpt lon="2.671089" lat="39.595452"><ele>33.5</ele></trkpt>
   <trkpt lon="2.671991" lat="39.596506"><ele>33.75</ele></trkpt>
   <trkpt lon="2.671990" lat="39.596522"><ele>33.75</ele></trkpt>
   <trkpt lon="2.671977" lat="39.596533"><ele>33.75</ele></trkpt>
   <trkpt lon="2.671886" lat="39.596576"><ele>34.0</ele></trkpt>
   <trkpt lon="2.671815" lat="39.596610"><ele>34.0</ele></trkpt>
   <trkpt lon="2.672106" lat="39.597053"><ele>34.0</ele></trkpt>
   <trkpt lon="2.672312" lat="39.597430"><ele>34.5</ele></trkpt>
   <trkpt lon="2.672361" lat="39.597534"><ele>35.0</ele></trkpt>
   <trkpt lon="2.672447" lat="39.597715"><ele>35.0</ele></trkpt>
   <trkpt lon="2.672642" lat="39.598390"><ele>35.0</ele></trkpt>
   <trkpt lon="2.672780" lat="39.598869"><ele>34.75</ele></trkpt>
   <trkpt lon="2.672793" lat="39.598913"><ele>35.0</ele></trkpt>
   <trkpt lon="2.672919" lat="39.599382"><ele>35.75</ele></trkpt>
   <trkpt lon="2.672932" lat="39.599421"><ele>35.75</ele></trkpt>
   <trkpt lon="2.673033" lat="39.599902"><ele>36.0</ele></trkpt>
   <trkpt lon="2.673044" lat="39.599942"><ele>36.0</ele></trkpt>
   <trkpt lon="2.673096" lat="39.600135"><ele>36.0</ele></trkpt>
   <trkpt lon="2.673099" lat="39.600189"><ele>36.0</ele></trkpt>
   <trkpt lon="2.673089" lat="39.600236"><ele>36.0</ele></trkpt>
   <trkpt lon="2.673056" lat="39.600290"><ele>36.0</ele></trkpt>
   <trkpt lon="2.672746" lat="39.600623"><ele>37.0</ele></trkpt>
   <trkpt lon="2.672724" lat="39.600647"><ele>37.0</ele></trkpt>
   <trkpt lon="2.672802" lat="39.600690"><ele>37.0</ele></trkpt>
   <trkpt lon="2.672852" lat="39.600719"><ele>37.0</ele></trkpt>
   <trkpt lon="2.672835" lat="39.600761"><ele>37.0</ele></trkpt>
   <trkpt lon="2.672837" lat="39.600796"><ele>37.0</ele></trkpt>
   <trkpt lon="2.672856" lat="39.600835"><ele>37.0</ele></trkpt>
   <trkpt lon="2.672894" lat="39.600870"><ele>37.0</ele></trkpt>
   <trkpt lon="2.672982" lat="39.600922"><ele>37.0</ele></trkpt>
   <trkpt lon="2.672975" lat="39.600956"><ele>37.0</ele></trkpt>
   <trkpt lon="2.672959" lat="39.601012"><ele>37.0</ele></trkpt>
   <trkpt lon="2.672979" lat="39.601024"><ele>37.0</ele></trkpt>
   <trkpt lon="2.673023" lat="39.601046"><ele>37.0</ele></trkpt>
   <trkpt lon="2.673047" lat="39.601070"><ele>37.0</ele></trkpt>
   <trkpt lon="2.673060" lat="39.601107"><ele>37.0</ele></trkpt>
   <trkpt lon="2.673044" lat="39.601161"><ele>37.0</ele></trkpt>
   <trkpt lon="2.673094" lat="39.601189"><ele>37.0</ele></trkpt>
   <trkpt lon="2.673323" lat="39.601319"><ele>37.0</ele></trkpt>
   <trkpt lon="2.673304" lat="39.601337"><ele>37.0</ele></trkpt>
   <trkpt lon="2.672777" lat="39.601838"><ele>38.0</ele></trkpt>
   <trkpt lon="2.672175" lat="39.602514"><ele>38.75</ele></trkpt>
   <trkpt lon="2.671942" lat="39.602776"><ele>38.75</ele></trkpt>
   <trkpt lon="2.671569" lat="39.603227"><ele>39.75</ele></trkpt>
   <trkpt lon="2.671251" lat="39.603579"><ele>40.0</ele></trkpt>
   <trkpt lon="2.670940" lat="39.603926"><ele>40.5</ele></trkpt>
   <trkpt lon="2.670670" lat="39.604239"><ele>41.0</ele></trkpt>
   <trkpt lon="2.670531" lat="39.604400"><ele>41.0</ele></trkpt>
   <trkpt lon="2.670412" lat="39.604539"><ele>41.25</ele></trkpt>
   <trkpt lon="2.669313" lat="39.605828"><ele>43.0</ele></trkpt>
   <trkpt lon="2.669649" lat="39.606001"><ele>43.0</ele></trkpt>
   <trkpt lon="2.669837" lat="39.606098"><ele>43.0</ele></trkpt>
   <trkpt lon="2.670337" lat="39.606356"><ele>43.0</ele></trkpt>
   <trkpt lon="2.673187" lat="39.607826"><ele>43.0</ele></trkpt>
   <trkpt lon="2.673033" lat="39.607998"><ele>43.75</ele></trkpt>
   <trkpt lon="2.673517" lat="39.608246"><ele>44.5</ele></trkpt>
   <trkpt lon="2.673533" lat="39.608314"><ele>44.75</ele></trkpt>
   <trkpt lon="2.673472" lat="39.608383"><ele>45.0</ele></trkpt>
   <trkpt lon="2.672638" lat="39.609345"><ele>45.5</ele></trkpt>
   <trkpt lon="2.673696" lat="39.609924"><ele>46.5</ele></trkpt>
   <trkpt lon="2.674526" lat="39.610558"><ele>47.0</ele></trkpt>
   <trkpt lon="2.674586" lat="39.610576"><ele>47.0</ele></trkpt>
   <trkpt lon="2.674647" lat="39.610551"><ele>46.75</ele></trkpt>
   <trkpt lon="2.675038" lat="39.610177"><ele>46.5</ele></trkpt>
   <trkpt lon="2.675384" lat="39.610399"><ele>46.75</ele></trkpt>
   <trkpt lon="2.676288" lat="39.610978"><ele>47.0</ele></trkpt>
   <trkpt lon="2.676829" lat="39.611326"><ele>48.0</ele></trkpt>
   <trkpt lon="2.677031" lat="39.611381"><ele>47.75</ele></trkpt>
   <trkpt lon="2.679504" lat="39.611958"><ele>47.0</ele></trkpt>
   <trkpt lon="2.679703" lat="39.612004"><ele>47.0</ele></trkpt>
   <trkpt lon="2.679739" lat="39.612005"><ele>46.75</ele></trkpt>
   <trkpt lon="2.680034" lat="39.612011"><ele>46.0</ele></trkpt>
   <trkpt lon="2.679929" lat="39.612299"><ele>47.0</ele></trkpt>
   <trkpt lon="2.680221" lat="39.612537"><ele>47.0</ele></trkpt>
   <trkpt lon="2.680327" lat="39.612624"><ele>47.0</ele></trkpt>
   <trkpt lon="2.680376" lat="39.612692"><ele>47.0</ele></trkpt>
   <trkpt lon="2.680706" lat="39.612950"><ele>47.5</ele></trkpt>
   <trkpt lon="2.680921" lat="39.613119"><ele>45.75</ele></trkpt>
   <trkpt lon="2.681379" lat="39.612815"><ele>46.75</ele></trkpt>
   <trkpt lon="2.681472" lat="39.612983"><ele>46.0</ele></trkpt>
   <trkpt lon="2.681534" lat="39.613061"><ele>46.5</ele></trkpt>
   <trkpt lon="2.681582" lat="39.613084"><ele>46.75</ele></trkpt>
   <trkpt lon="2.681466" lat="39.613104"><ele>46.5</ele></trkpt>
   <trkpt lon="2.681262" lat="39.613302"><ele>46.75</ele></trkpt>
   <trkpt lon="2.681051" lat="39.613739"><ele>47.25</ele></trkpt>
   <trkpt lon="2.680873" lat="39.614056"><ele>47.5</ele></trkpt>
   <trkpt lon="2.680569" lat="39.614557"><ele>48.25</ele></trkpt>
   <trkpt lon="2.680161" lat="39.615157"><ele>49.0</ele></trkpt>
   <trkpt lon="2.679699" lat="39.615557"><ele>49.0</ele></trkpt>
   <trkpt lon="2.679560" lat="39.615783"><ele>49.25</ele></trkpt>
   <trkpt lon="2.679330" lat="39.616198"><ele>49.5</ele></trkpt>
   <trkpt lon="2.678831" lat="39.616978"><ele>50.75</ele></trkpt>
   <trkpt lon="2.678573" lat="39.617483"><ele>51.5</ele></trkpt>
   <trkpt lon="2.678404" lat="39.617814"><ele>50.5</ele></trkpt>
   <trkpt lon="2.678392" lat="39.618151"><ele>51.0</ele></trkpt>
   <trkpt lon="2.678372" lat="39.618321"><ele>52.0</ele></trkpt>
   <trkpt lon="2.678266" lat="39.618948"><ele>53.0</ele></trkpt>
   <trkpt lon="2.678260" lat="39.619397"><ele>54.5</ele></trkpt>
   <trkpt lon="2.678320" lat="39.619643"><ele>54.75</ele></trkpt>
   <trkpt lon="2.678434" lat="39.619875"><ele>55.5</ele></trkpt>
   <trkpt lon="2.678524" lat="39.620158"><ele>56.0</ele></trkpt>
   <trkpt lon="2.678578" lat="39.620445"><ele>56.0</ele></trkpt>
   <trkpt lon="2.678627" lat="39.620811"><ele>56.0</ele></trkpt>
   <trkpt lon="2.678657" lat="39.621367"><ele>57.0</ele></trkpt>
   <trkpt lon="2.678717" lat="39.621701"><ele>57.25</ele></trkpt>
   <trkpt lon="2.678735" lat="39.622030"><ele>58.0</ele></trkpt>
   <trkpt lon="2.678735" lat="39.622837"><ele>59.0</ele></trkpt>
   <trkpt lon="2.678735" lat="39.623194"><ele>59.0</ele></trkpt>
   <trkpt lon="2.678807" lat="39.623551"><ele>59.75</ele></trkpt>
   <trkpt lon="2.678853" lat="39.623666"><ele>60.0</ele></trkpt>
   <trkpt lon="2.678958" lat="39.623931"><ele>60.0</ele></trkpt>
   <trkpt lon="2.679535" lat="39.624714"><ele>61.0</ele></trkpt>
   <trkpt lon="2.679568" lat="39.624769"><ele>61.0</ele></trkpt>
   <trkpt lon="2.680161" lat="39.625757"><ele>62.25</ele></trkpt>
   <trkpt lon="2.680566" lat="39.626458"><ele>63.0</ele></trkpt>
   <trkpt lon="2.680128" lat="39.627455"><ele>64.75</ele></trkpt>
   <trkpt lon="2.679734" lat="39.628351"><ele>66.0</ele></trkpt>
   <trkpt lon="2.678991" lat="39.630043"><ele>68.0</ele></trkpt>
   <trkpt lon="2.678305" lat="39.631588"><ele>70.0</ele></trkpt>
   <trkpt lon="2.676875" lat="39.634804"><ele>74.0</ele></trkpt>
   <trkpt lon="2.676794" lat="39.635003"><ele>74.25</ele></trkpt>
   <trkpt lon="2.676387" lat="39.636008"><ele>75.75</ele></trkpt>
   <trkpt lon="2.676474" lat="39.636811"><ele>77.0</ele></trkpt>
   <trkpt lon="2.676510" lat="39.636857"><ele>77.0</ele></trkpt>
   <trkpt lon="2.676523" lat="39.636910"><ele>77.25</ele></trkpt>
   <trkpt lon="2.676512" lat="39.636963"><ele>77.5</ele></trkpt>
   <trkpt lon="2.676479" lat="39.637010"><ele>77.5</ele></trkpt>
   <trkpt lon="2.676426" lat="39.637047"><ele>77.5</ele></trkpt>
   <trkpt lon="2.676360" lat="39.637067"><ele>77.5</ele></trkpt>
   <trkpt lon="2.676289" lat="39.637068"><ele>77.5</ele></trkpt>
   <trkpt lon="2.676222" lat="39.637051"><ele>77.5</ele></trkpt>
   <trkpt lon="2.676166" lat="39.637017"><ele>77.5</ele></trkpt>
   <trkpt lon="2.676129" lat="39.636970"><ele>77.75</ele></trkpt>
   <trkpt lon="2.675433" lat="39.637133"><ele>77.0</ele></trkpt>
   <trkpt lon="2.671523" lat="39.637964"><ele>76.75</ele></trkpt>
   <trkpt lon="2.669673" lat="39.638388"><ele>76.75</ele></trkpt>
   <trkpt lon="2.669138" lat="39.638511"><ele>76.0</ele></trkpt>
   <trkpt lon="2.668775" lat="39.638594"><ele>76.0</ele></trkpt>
   <trkpt lon="2.668648" lat="39.638623"><ele>76.0</ele></trkpt>
   <trkpt lon="2.667610" lat="39.638858"><ele>75.75</ele></trkpt>
   <trkpt lon="2.667000" lat="39.638996"><ele>76.0</ele></trkpt>
   <trkpt lon="2.666531" lat="39.639046"><ele>75.5</ele></trkpt>
   <trkpt lon="2.665834" lat="39.639036"><ele>75.5</ele></trkpt>
   <trkpt lon="2.665810" lat="39.639030"><ele>75.5</ele></trkpt>
   <trkpt lon="2.665762" lat="39.638953"><ele>75.25</ele></trkpt>
   <trkpt lon="2.665732" lat="39.638792"><ele>75.25</ele></trkpt>
   <trkpt lon="2.665668" lat="39.638684"><ele>76.0</ele></trkpt>
   <trkpt lon="2.665669" lat="39.638137"><ele>74.75</ele></trkpt>
   <trkpt lon="2.665587" lat="39.637263"><ele>73.25</ele></trkpt>
   <trkpt lon="2.665192" lat="39.635732"><ele>74.25</ele></trkpt>
   <trkpt lon="2.663990" lat="39.635999"><ele>74.5</ele></trkpt>
   <trkpt lon="2.663770" lat="39.636047"><ele>74.75</ele></trkpt>
   <trkpt lon="2.663224" lat="39.636010"><ele>75.0</ele></trkpt>
   <trkpt lon="2.662928" lat="39.635990"><ele>75.25</ele></trkpt>
   <trkpt lon="2.662870" lat="39.635986"><ele>75.25</ele></trkpt>
   <trkpt lon="2.662118" lat="39.635907"><ele>76.0</ele></trkpt>
   <trkpt lon="2.660956" lat="39.635801"><ele>76.75</ele></trkpt>
   <trkpt lon="2.660559" lat="39.635764"><ele>77.0</ele></trkpt>
   <trkpt lon="2.659731" lat="39.635688"><ele>77.75</ele></trkpt>
   <trkpt lon="2.659073" lat="39.635628"><ele>79.0</ele></trkpt>
   <trkpt lon="2.658216" lat="39.635549"><ele>80.0</ele></trkpt>
   <trkpt lon="2.657689" lat="39.635485"><ele>80.5</ele></trkpt>
   <trkpt lon="2.656517" lat="39.635514"><ele>80.75</ele></trkpt>
   <trkpt lon="2.655853" lat="39.635513"><ele>81.0</ele></trkpt>
   <trkpt lon="2.655792" lat="39.634827"><ele>81.0</ele></trkpt>
   <trkpt lon="2.655921" lat="39.634098"><ele>81.0</ele></trkpt>
   <trkpt lon="2.655993" lat="39.633691"><ele>80.25</ele></trkpt>
   <trkpt lon="2.656168" lat="39.633357"><ele>79.25</ele></trkpt>
   <trkpt lon="2.656198" lat="39.633173"><ele>79.0</ele></trkpt>
   <trkpt lon="2.656144" lat="39.632431"><ele>77.75</ele></trkpt>
   <trkpt lon="2.655985" lat="39.632099"><ele>77.25</ele></trkpt>
   <trkpt lon="2.655857" lat="39.631282"><ele>77.0</ele></trkpt>
   <trkpt lon="2.655800" lat="39.630368"><ele>75.25</ele></trkpt>
   <trkpt lon="2.655862" lat="39.628807"><ele>73.0</ele></trkpt>
   <trkpt lon="2.652512" lat="39.627902"><ele>75.75</ele></trkpt>
   <trkpt lon="2.651709" lat="39.627663"><ele>76.5</ele></trkpt>
   <trkpt lon="2.651639" lat="39.627634"><ele>76.25</ele></trkpt>
   <trkpt lon="2.651194" lat="39.627200"><ele>76.25</ele></trkpt>
   <trkpt lon="2.650678" lat="39.626912"><ele>76.25</ele></trkpt>
   <trkpt lon="2.650629" lat="39.626904"><ele>76.5</ele></trkpt>
   <trkpt lon="2.650466" lat="39.627021"><ele>77.0</ele></trkpt>
   <trkpt lon="2.650389" lat="39.627183"><ele>77.0</ele></trkpt>
   <trkpt lon="2.649948" lat="39.627159"><ele>77.75</ele></trkpt>
   <trkpt lon="2.648957" lat="39.627133"><ele>78.5</ele></trkpt>
   <trkpt lon="2.648925" lat="39.627074"><ele>78.25</ele></trkpt>
   <trkpt lon="2.648974" lat="39.627037"><ele>78.0</ele></trkpt>
   <trkpt lon="2.648911" lat="39.626715"><ele>77.75</ele></trkpt>
   <trkpt lon="2.648854" lat="39.626438"></trkpt>
   <trkpt lon="2.648811" lat="39.626369"></trkpt>
   <trkpt lon="2.648753" lat="39.626328"></trkpt>
   <trkpt lon="2.648684" lat="39.626301"></trkpt>
   <trkpt lon="2.648362" lat="39.626297"></trkpt>
   <trkpt lon="2.648276" lat="39.626276"></trkpt>
   <trkpt lon="2.648087" lat="39.625885"></trkpt>
   <trkpt lon="2.648064" lat="39.625892"></trkpt>
   <trkpt lon="2.648095" lat="39.625979"></trkpt>
   <trkpt lon="2.648113" lat="39.626059"><ele>78.75</ele></trkpt>
   <trkpt lon="2.648099" lat="39.626132"><ele>78.75</ele></trkpt>
   <trkpt lon="2.648051" lat="39.626235"><ele>78.5</ele></trkpt>
   <trkpt lon="2.648021" lat="39.626236"><ele>78.5</ele></trkpt>
   <trkpt lon="2.648062" lat="39.626082"><ele>79.0</ele></trkpt>
   <trkpt lon="2.648064" lat="39.626015"><ele>79.0</ele></trkpt>
   <trkpt lon="2.648046" lat="39.625960"><ele>79.0</ele></trkpt>
   <trkpt lon="2.648015" lat="39.625965"><ele>79.0</ele></trkpt>
   <trkpt lon="2.647956" lat="39.625974"><ele>79.0</ele></trkpt>
   <trkpt lon="2.647759" lat="39.625526"><ele>78.75</ele></trkpt>
   <trkpt lon="2.647663" lat="39.625255"><ele>78.5</ele></trkpt>
   <trkpt lon="2.647584" lat="39.624964"><ele>78.25</ele></trkpt>
   <trkpt lon="2.647535" lat="39.624849"><ele>78.0</ele></trkpt>
   <trkpt lon="2.647478" lat="39.624756"><ele>77.75</ele></trkpt>
   <trkpt lon="2.647364" lat="39.624638"><ele>77.5</ele></trkpt>
   <trkpt lon="2.647266" lat="39.624553"><ele>77.5</ele></trkpt>
   <trkpt lon="2.646975" lat="39.624360"><ele>77.5</ele></trkpt>
   <trkpt lon="2.646912" lat="39.624268"><ele>77.25</ele></trkpt>
   <trkpt lon="2.646899" lat="39.624138"><ele>77.0</ele></trkpt>
   <trkpt lon="2.646912" lat="39.624079"><ele>77.0</ele></trkpt>
   <trkpt lon="2.646920" lat="39.624044"><ele>77.0</ele></trkpt>
   <trkpt lon="2.647027" lat="39.623847"><ele>77.0</ele></trkpt>
   <trkpt lon="2.647018" lat="39.623740"><ele>76.5</ele></trkpt>
   <trkpt lon="2.647021" lat="39.623587"><ele>76.0</ele></trkpt>
   <trkpt lon="2.647054" lat="39.623482"><ele>76.0</ele></trkpt>
   <trkpt lon="2.647099" lat="39.623392"><ele>75.5</ele></trkpt>
   <trkpt lon="2.647255" lat="39.623212"><ele>75.5</ele></trkpt>
   <trkpt lon="2.647322" lat="39.623044"><ele>75.75</ele></trkpt>
   <trkpt lon="2.647322" lat="39.622952"><ele>75.75</ele></trkpt>
   <trkpt lon="2.647269" lat="39.622824"><ele>75.25</ele></trkpt>
   <trkpt lon="2.646548" lat="39.621523"><ele>74.0</ele></trkpt>
   <trkpt lon="2.646439" lat="39.621284"><ele>73.75</ele></trkpt>
   <trkpt lon="2.646289" lat="39.620871"><ele>74.0</ele></trkpt>
   <trkpt lon="2.646175" lat="39.620453"><ele>73.0</ele></trkpt>
   <trkpt lon="2.646077" lat="39.619597"><ele>72.0</ele></trkpt>
   <trkpt lon="2.646015" lat="39.619182"><ele>72.0</ele></trkpt>
   <trkpt lon="2.645931" lat="39.618316"><ele>70.75</ele></trkpt>
   <trkpt lon="2.645876" lat="39.617275"><ele>69.0</ele></trkpt>
   <trkpt lon="2.645880" lat="39.616610"><ele>68.0</ele></trkpt>
   <trkpt lon="2.645452" lat="39.616485"><ele>68.5</ele></trkpt>
   <trkpt lon="2.645394" lat="39.616589"><ele>69.25</ele></trkpt>
   <trkpt lon="2.645143" lat="39.616911"><ele>70.0</ele></trkpt>
   <trkpt lon="2.644991" lat="39.617133"><ele>70.0</ele></trkpt>
   <trkpt lon="2.644535" lat="39.617785"><ele>71.0</ele></trkpt>
   <trkpt lon="2.643570" lat="39.619326"><ele>73.5</ele></trkpt>
   <trkpt lon="2.643101" lat="39.619819"><ele>74.25</ele></trkpt>
   <trkpt lon="2.642083" lat="39.620884"><ele>76.0</ele></trkpt>
   <trkpt lon="2.641972" lat="39.620973"><ele>76.5</ele></trkpt>
   <trkpt lon="2.640989" lat="39.621326"><ele>77.75</ele></trkpt>
   <trkpt lon="2.640557" lat="39.621217"><ele>76.75</ele></trkpt>
   <trkpt lon="2.640242" lat="39.621128"><ele>77.0</ele></trkpt>
   <trkpt lon="2.640109" lat="39.621099"><ele>76.75</ele></trkpt>
   <trkpt lon="2.639841" lat="39.621021"><ele>76.5</ele></trkpt>
   <trkpt lon="2.638959" lat="39.620154"><ele>75.5</ele></trkpt>
   <trkpt lon="2.638877" lat="39.620129"><ele>75.25</ele></trkpt>
   <trkpt lon="2.638765" lat="39.620095"><ele>75.5</ele></trkpt>
   <trkpt lon="2.638679" lat="39.620133"><ele>75.75</ele></trkpt>
   <trkpt lon="2.638603" lat="39.620166"><ele>76.0</ele></trkpt>
   <trkpt lon="2.637865" lat="39.620250"><ele>76.75</ele></trkpt>
   <trkpt lon="2.637152" lat="39.620274"><ele>77.0</ele></trkpt>
   <trkpt lon="2.635538" lat="39.620115"><ele>79.5</ele></trkpt>
   <trkpt lon="2.634251" lat="39.619831"><ele>87.5</ele></trkpt>
   <trkpt lon="2.627642" lat="39.618449"><ele>89.75</ele></trkpt>
   <trkpt lon="2.627556" lat="39.618542"><ele>89.75</ele></trkpt>
   <trkpt lon="2.627389" lat="39.618882"><ele>90.0</ele></trkpt>
   <trkpt lon="2.627170" lat="39.619328"><ele>91.0</ele></trkpt>
   <trkpt lon="2.627068" lat="39.619569"><ele>91.0</ele></trkpt>
   <trkpt lon="2.626880" lat="39.620014"><ele>92.0</ele></trkpt>
   <trkpt lon="2.626146" lat="39.619995"><ele>92.75</ele></trkpt>
   <trkpt lon="2.626009" lat="39.619970"><ele>92.75</ele></trkpt>
   <trkpt lon="2.625796" lat="39.619849"><ele>92.5</ele></trkpt>
   <trkpt lon="2.625620" lat="39.619838"><ele>92.75</ele></trkpt>
   <trkpt lon="2.625443" lat="39.619748"><ele>93.0</ele></trkpt>
   <trkpt lon="2.625233" lat="39.619640"><ele>93.0</ele></trkpt>
   <trkpt lon="2.625071" lat="39.619580"><ele>93.25</ele></trkpt>
   <trkpt lon="2.625052" lat="39.619520"><ele>93.0</ele></trkpt>
   <trkpt lon="2.624809" lat="39.619329"><ele>93.0</ele></trkpt>
   <trkpt lon="2.624656" lat="39.619170"><ele>93.0</ele></trkpt>
   <trkpt lon="2.624515" lat="39.618790"><ele>91.25</ele></trkpt>
   <trkpt lon="2.624486" lat="39.618733"><ele>90.75</ele></trkpt>
   <trkpt lon="2.624334" lat="39.618764"><ele>90.75</ele></trkpt>
   <trkpt lon="2.623791" lat="39.618904"><ele>90.0</ele></trkpt>
   <trkpt lon="2.623533" lat="39.619020"><ele>88.5</ele></trkpt>
   <trkpt lon="2.623317" lat="39.619140"><ele>88.25</ele></trkpt>
   <trkpt lon="2.623215" lat="39.619196"><ele>87.5</ele></trkpt>
   <trkpt lon="2.623086" lat="39.619302"><ele>87.25</ele></trkpt>
   <trkpt lon="2.623007" lat="39.619333"><ele>87.0</ele></trkpt>
   <trkpt lon="2.622910" lat="39.619347"><ele>86.5</ele></trkpt>
   <trkpt lon="2.622833" lat="39.619329"><ele>85.5</ele></trkpt>
   <trkpt lon="2.622641" lat="39.619141"><ele>83.5</ele></trkpt>
   <trkpt lon="2.622546" lat="39.619096"><ele>83.5</ele></trkpt>
   <trkpt lon="2.622351" lat="39.619090"><ele>81.5</ele></trkpt>
   <trkpt lon="2.622009" lat="39.619238"><ele>79.0</ele></trkpt>
   <trkpt lon="2.621420" lat="39.619532"><ele>78.25</ele></trkpt>
   <trkpt lon="2.620150" lat="39.619615"><ele>76.5</ele></trkpt>
   <trkpt lon="2.619280" lat="39.619646"><ele>78.0</ele></trkpt>
   <trkpt lon="2.618927" lat="39.619658"><ele>78.25</ele></trkpt>
   <trkpt lon="2.618334" lat="39.619689"><ele>77.75</ele></trkpt>
   <trkpt lon="2.618002" lat="39.619695"><ele>78.5</ele></trkpt>
   <trkpt lon="2.617228" lat="39.619732"><ele>78.25</ele></trkpt>
   <trkpt lon="2.616408" lat="39.619848"><ele>79.25</ele></trkpt>
   <trkpt lon="2.615551" lat="39.620205"><ele>79.25</ele></trkpt>
   <trkpt lon="2.615128" lat="39.620472"><ele>81.5</ele></trkpt>
   <trkpt lon="2.614868" lat="39.620665"><ele>81.5</ele></trkpt>
   <trkpt lon="2.614653" lat="39.620849"><ele>81.0</ele></trkpt>
   <trkpt lon="2.614411" lat="39.621045"><ele>81.75</ele></trkpt>
   <trkpt lon="2.614089" lat="39.621151"><ele>83.5</ele></trkpt>
   <trkpt lon="2.613868" lat="39.621184"><ele>84.5</ele></trkpt>
   <trkpt lon="2.613515" lat="39.621236"><ele>84.25</ele></trkpt>
   <trkpt lon="2.612968" lat="39.621332"><ele>84.0</ele></trkpt>
   <trkpt lon="2.612411" lat="39.621473"><ele>83.75</ele></trkpt>
   <trkpt lon="2.612168" lat="39.621483"><ele>83.25</ele></trkpt>
   <trkpt lon="2.611824" lat="39.621400"><ele>83.5</ele></trkpt>
   <trkpt lon="2.611498" lat="39.621293"><ele>83.25</ele></trkpt>
   <trkpt lon="2.610628" lat="39.621020"><ele>82.5</ele></trkpt>
   <trkpt lon="2.609764" lat="39.620856"><ele>83.5</ele></trkpt>
   <trkpt lon="2.608728" lat="39.620771"><ele>83.0</ele></trkpt>
   <trkpt lon="2.608028" lat="39.620739"><ele>82.5</ele></trkpt>
   <trkpt lon="2.607742" lat="39.620726"><ele>82.25</ele></trkpt>
   <trkpt lon="2.607559" lat="39.620707"><ele>82.0</ele></trkpt>
   <trkpt lon="2.607522" lat="39.620674"><ele>81.5</ele></trkpt>
   <trkpt lon="2.607351" lat="39.620514"><ele>81.5</ele></trkpt>
   <trkpt lon="2.607177" lat="39.620429"><ele>84.75</ele></trkpt>
   <trkpt lon="2.606467" lat="39.620466"><ele>84.0</ele></trkpt>
   <trkpt lon="2.605640" lat="39.620525"><ele>85.75</ele></trkpt>
   <trkpt lon="2.605538" lat="39.620543"><ele>86.0</ele></trkpt>
   <trkpt lon="2.605438" lat="39.620548"><ele>86.25</ele></trkpt>
   <trkpt lon="2.605384" lat="39.620521"><ele>86.75</ele></trkpt>
   <trkpt lon="2.605350" lat="39.620468"><ele>87.25</ele></trkpt>
   <trkpt lon="2.605349" lat="39.620433"><ele>87.5</ele></trkpt>
   <trkpt lon="2.605349" lat="39.620395"><ele>87.75</ele></trkpt>
   <trkpt lon="2.605468" lat="39.620329"><ele>87.75</ele></trkpt>
   <trkpt lon="2.605675" lat="39.620223"><ele>89.5</ele></trkpt>
   <trkpt lon="2.605795" lat="39.620173"><ele>91.0</ele></trkpt>
   <trkpt lon="2.606015" lat="39.620118"><ele>91.75</ele></trkpt>
   <trkpt lon="2.606615" lat="39.620015"><ele>92.0</ele></trkpt>
   <trkpt lon="2.606855" lat="39.619964"><ele>93.25</ele></trkpt>
   <trkpt lon="2.607238" lat="39.619825"><ele>94.0</ele></trkpt>
   <trkpt lon="2.607459" lat="39.619746"><ele>94.0</ele></trkpt>
   <trkpt lon="2.607993" lat="39.619520"><ele>97.25</ele></trkpt>
   <trkpt lon="2.608627" lat="39.619324"><ele>99.25</ele></trkpt>
   <trkpt lon="2.609465" lat="39.619023"><ele>101.0</ele></trkpt>
   <trkpt lon="2.609617" lat="39.619020"><ele>101.25</ele></trkpt>
   <trkpt lon="2.609765" lat="39.619035"><ele>101.5</ele></trkpt>
   <trkpt lon="2.610025" lat="39.619092"><ele>102.25</ele></trkpt>
   <trkpt lon="2.610078" lat="39.619104"><ele>102.25</ele></trkpt>
   <trkpt lon="2.610213" lat="39.619119"><ele>102.25</ele></trkpt>
   <trkpt lon="2.610294" lat="39.619128"><ele>102.25</ele></trkpt>
   <trkpt lon="2.610510" lat="39.619122"><ele>102.5</ele></trkpt>
   <trkpt lon="2.610663" lat="39.619091"><ele>102.5</ele></trkpt>
   <trkpt lon="2.611415" lat="39.618822"><ele>102.75</ele></trkpt>
   <trkpt lon="2.612203" lat="39.618680"><ele>103.5</ele></trkpt>
   <trkpt lon="2.613031" lat="39.618598"><ele>101.25</ele></trkpt>
   <trkpt lon="2.613901" lat="39.618368"><ele>100.25</ele></trkpt>
   <trkpt lon="2.614455" lat="39.618237"><ele>99.75</ele></trkpt>
   <trkpt lon="2.614828" lat="39.618136"><ele>98.75</ele></trkpt>
   <trkpt lon="2.615132" lat="39.618023"><ele>98.75</ele></trkpt>
   <trkpt lon="2.615289" lat="39.617965"><ele>98.75</ele></trkpt>
   <trkpt lon="2.615395" lat="39.617887"><ele>99.25</ele></trkpt>
   <trkpt lon="2.615849" lat="39.617552"><ele>100.5</ele></trkpt>
   <trkpt lon="2.615959" lat="39.617423"><ele>101.5</ele></trkpt>
   <trkpt lon="2.616002" lat="39.617275"><ele>102.75</ele></trkpt>
   <trkpt lon="2.616022" lat="39.617174"><ele>103.5</ele></trkpt>
   <trkpt lon="2.616251" lat="39.615801"><ele>109.5</ele></trkpt>
   <trkpt lon="2.617898" lat="39.610823"><ele>102.25</ele></trkpt>
   <trkpt lon="2.618373" lat="39.609388"><ele>97.5</ele></trkpt>
   <trkpt lon="2.618826" lat="39.607973"><ele>89.75</ele></trkpt>
   <trkpt lon="2.618861" lat="39.607877"><ele>89.25</ele></trkpt>
   <trkpt lon="2.619458" lat="39.606093"><ele>85.75</ele></trkpt>
   <trkpt lon="2.620074" lat="39.604215"><ele>81.5</ele></trkpt>
   <trkpt lon="2.620090" lat="39.604173"><ele>81.5</ele></trkpt>
   <trkpt lon="2.620125" lat="39.604029"><ele>81.5</ele></trkpt>
   <trkpt lon="2.620377" lat="39.603297"><ele>78.75</ele></trkpt>
   <trkpt lon="2.620425" lat="39.603223"><ele>78.5</ele></trkpt>
   <trkpt lon="2.620476" lat="39.603186"><ele>78.25</ele></trkpt>
   <trkpt lon="2.620694" lat="39.603058"><ele>77.5</ele></trkpt>
   <trkpt lon="2.621125" lat="39.602821"><ele>76.0</ele></trkpt>
   <trkpt lon="2.621484" lat="39.602561"><ele>74.25</ele></trkpt>
   <trkpt lon="2.622533" lat="39.601853"><ele>71.5</ele></trkpt>
   <trkpt lon="2.622932" lat="39.601591"><ele>70.25</ele></trkpt>
   <trkpt lon="2.623891" lat="39.600936"><ele>66.75</ele></trkpt>
   <trkpt lon="2.625131" lat="39.600040"><ele>63.0</ele></trkpt>
   <trkpt lon="2.626032" lat="39.599389"><ele>60.25</ele></trkpt>
   <trkpt lon="2.626316" lat="39.599184"><ele>60.0</ele></trkpt>
   <trkpt lon="2.626462" lat="39.599052"><ele>59.25</ele></trkpt>
   <trkpt lon="2.626755" lat="39.598711"><ele>58.0</ele></trkpt>
   <trkpt lon="2.626877" lat="39.598512"><ele>57.5</ele></trkpt>
   <trkpt lon="2.626938" lat="39.598343"><ele>57.0</ele></trkpt>
   <trkpt lon="2.626954" lat="39.598165"><ele>57.0</ele></trkpt>
   <trkpt lon="2.626965" lat="39.598114"><ele>57.0</ele></trkpt>
   <trkpt lon="2.626993" lat="39.598068"><ele>57.0</ele></trkpt>
   <trkpt lon="2.627041" lat="39.598032"><ele>56.75</ele></trkpt>
   <trkpt lon="2.627117" lat="39.598004"><ele>56.75</ele></trkpt>
   <trkpt lon="2.627277" lat="39.597909"><ele>56.25</ele></trkpt>
   <trkpt lon="2.627615" lat="39.597623"><ele>55.25</ele></trkpt>
   <trkpt lon="2.627731" lat="39.597537"><ele>55.0</ele></trkpt>
   <trkpt lon="2.628585" lat="39.596484"><ele>49.5</ele></trkpt>
   <trkpt lon="2.628914" lat="39.596181"><ele>48.0</ele></trkpt>
   <trkpt lon="2.629025" lat="39.596097"><ele>48.0</ele></trkpt>
   <trkpt lon="2.629246" lat="39.595916"><ele>47.75</ele></trkpt>
   <trkpt lon="2.629876" lat="39.595447"><ele>45.75</ele></trkpt>
   <trkpt lon="2.630111" lat="39.595271"><ele>45.0</ele></trkpt>
   <trkpt lon="2.630830" lat="39.594686"><ele>44.0</ele></trkpt>
   <trkpt lon="2.630972" lat="39.594570"><ele>44.0</ele></trkpt>
   <trkpt lon="2.631072" lat="39.594485"><ele>44.0</ele></trkpt>
   <trkpt lon="2.631170" lat="39.594412"><ele>43.75</ele></trkpt>
   <trkpt lon="2.631324" lat="39.594278"><ele>43.75</ele></trkpt>
   <trkpt lon="2.631402" lat="39.594219"><ele>43.75</ele></trkpt>
   <trkpt lon="2.631691" lat="39.593995"><ele>44.0</ele></trkpt>
   <trkpt lon="2.631968" lat="39.593781"><ele>44.0</ele></trkpt>
   <trkpt lon="2.632133" lat="39.593653"><ele>43.75</ele></trkpt>
   <trkpt lon="2.632475" lat="39.593344"><ele>42.25</ele></trkpt>
   <trkpt lon="2.632826" lat="39.592984"><ele>42.0</ele></trkpt>
   <trkpt lon="2.632899" lat="39.592908"><ele>42.0</ele></trkpt>
   <trkpt lon="2.632962" lat="39.592736"><ele>42.0</ele></trkpt>
   <trkpt lon="2.632926" lat="39.592701"><ele>42.0</ele></trkpt>
   <trkpt lon="2.632902" lat="39.592661"><ele>42.0</ele></trkpt>
   <trkpt lon="2.632891" lat="39.592617"><ele>42.0</ele></trkpt>
   <trkpt lon="2.632899" lat="39.592560"><ele>42.0</ele></trkpt>
   <trkpt lon="2.632928" lat="39.592507"><ele>42.0</ele></trkpt>
   <trkpt lon="2.632978" lat="39.592464"><ele>42.0</ele></trkpt>
   <trkpt lon="2.633041" lat="39.592435"><ele>42.0</ele></trkpt>
   <trkpt lon="2.633113" lat="39.592423"><ele>42.0</ele></trkpt>
   <trkpt lon="2.633226" lat="39.592357"><ele>42.0</ele></trkpt>
   <trkpt lon="2.633267" lat="39.592333"><ele>42.0</ele></trkpt>
   <trkpt lon="2.633198" lat="39.592310"><ele>42.0</ele></trkpt>
   <trkpt lon="2.633169" lat="39.592300"><ele>42.0</ele></trkpt>
   <trkpt lon="2.633268" lat="39.592184"><ele>42.0</ele></trkpt>
   <trkpt lon="2.633719" lat="39.591259"><ele>42.5</ele></trkpt>
   <trkpt lon="2.633842" lat="39.590834"><ele>43.5</ele></trkpt>
   <trkpt lon="2.633935" lat="39.590421"><ele>44.0</ele></trkpt>
   <trkpt lon="2.634034" lat="39.590050"><ele>45.5</ele></trkpt>
   <trkpt lon="2.634136" lat="39.589735"><ele>44.75</ele></trkpt>
   <trkpt lon="2.634335" lat="39.589180"><ele>45.0</ele></trkpt>
   <trkpt lon="2.634358" lat="39.589070"><ele>44.5</ele></trkpt>
   <trkpt lon="2.634346" lat="39.588938"><ele>44.0</ele></trkpt>
   <trkpt lon="2.634298" lat="39.588835"><ele>44.25</ele></trkpt>
   <trkpt lon="2.634228" lat="39.588745"><ele>44.5</ele></trkpt>
   <trkpt lon="2.634222" lat="39.588732"><ele>44.25</ele></trkpt>
   <trkpt lon="2.634229" lat="39.588702"><ele>44.25</ele></trkpt>
   <trkpt lon="2.634249" lat="39.588678"><ele>44.0</ele></trkpt>
   <trkpt lon="2.634282" lat="39.588633"><ele>43.5</ele></trkpt>
   <trkpt lon="2.634319" lat="39.588558"><ele>44.0</ele></trkpt>
   <trkpt lon="2.634388" lat="39.588475"><ele>44.25</ele></trkpt>
   <trkpt lon="2.634690" lat="39.588234"><ele>43.5</ele></trkpt>
   <trkpt lon="2.634849" lat="39.588164"><ele>43.25</ele></trkpt>
   <trkpt lon="2.634906" lat="39.588107"><ele>43.25</ele></trkpt>
   <trkpt lon="2.634940" lat="39.588073"><ele>43.0</ele></trkpt>
   <trkpt lon="2.635008" lat="39.588022"><ele>44.0</ele></trkpt>
   <trkpt lon="2.635030" lat="39.588016"><ele>44.25</ele></trkpt>
   <trkpt lon="2.635249" lat="39.588104"><ele>44.25</ele></trkpt>
   <trkpt lon="2.635360" lat="39.588130"><ele>43.75</ele></trkpt>
   <trkpt lon="2.635483" lat="39.588137"><ele>43.0</ele></trkpt>
   <trkpt lon="2.635597" lat="39.588125"><ele>42.25</ele></trkpt>
   <trkpt lon="2.636028" lat="39.588034"><ele>40.0</ele></trkpt>
   <trkpt lon="2.636179" lat="39.587987"><ele>40.25</ele></trkpt>
   <trkpt lon="2.636299" lat="39.587940"><ele>40.75</ele></trkpt>
   <trkpt lon="2.636355" lat="39.587933"><ele>40.75</ele></trkpt>
   <trkpt lon="2.636439" lat="39.587951"><ele>39.75</ele></trkpt>
   <trkpt lon="2.636449" lat="39.587953"><ele>39.5</ele></trkpt>
   <trkpt lon="2.636519" lat="39.587968"><ele>38.75</ele></trkpt>
   <trkpt lon="2.636587" lat="39.587968"><ele>38.5</ele></trkpt>
   <trkpt lon="2.637019" lat="39.587868"><ele>36.75</ele></trkpt>
   <trkpt lon="2.637226" lat="39.587809"><ele>34.75</ele></trkpt>
   <trkpt lon="2.637453" lat="39.587734"><ele>33.75</ele></trkpt>
   <trkpt lon="2.637659" lat="39.587658"><ele>34.0</ele></trkpt>
   <trkpt lon="2.637893" lat="39.587559"><ele>32.5</ele></trkpt>
   <trkpt lon="2.638081" lat="39.587472"><ele>30.25</ele></trkpt>
   <trkpt lon="2.638439" lat="39.587281"><ele>28.25</ele></trkpt>
   <trkpt lon="2.638529" lat="39.587246"><ele>27.5</ele></trkpt>
   <trkpt lon="2.638707" lat="39.587129"></trkpt>
   <trkpt lon="2.638847" lat="39.587014"></trkpt>
   <trkpt lon="2.638955" lat="39.586914"><ele>27.0</ele></trkpt>
   <trkpt lon="2.638965" lat="39.586885"><ele>27.25</ele></trkpt>
   <trkpt lon="2.638964" lat="39.586859"><ele>27.25</ele></trkpt>
   <trkpt lon="2.639151" lat="39.586642"><ele>27.75</ele></trkpt>
   <trkpt lon="2.639346" lat="39.586333"><ele>27.25</ele></trkpt>
   <trkpt lon="2.639349" lat="39.586299"><ele>27.25</ele></trkpt>
   <trkpt lon="2.639498" lat="39.586093"><ele>27.25</ele></trkpt>
   <trkpt lon="2.639532" lat="39.586081"><ele>27.5</ele></trkpt>
   <trkpt lon="2.639701" lat="39.585889"><ele>28.0</ele></trkpt>
   <trkpt lon="2.639803" lat="39.585784"><ele>28.5</ele></trkpt>
   <trkpt lon="2.639855" lat="39.585730"><ele>28.75</ele></trkpt>
   <trkpt lon="2.639864" lat="39.585702"><ele>28.75</ele></trkpt>
   <trkpt lon="2.639862" lat="39.585664"><ele>29.0</ele></trkpt>
   <trkpt lon="2.639840" lat="39.585627"><ele>29.25</ele></trkpt>
   <trkpt lon="2.639815" lat="39.585608"><ele>29.25</ele></trkpt>
   <trkpt lon="2.639773" lat="39.585591"><ele>29.5</ele></trkpt>
   <trkpt lon="2.639754" lat="39.585566"><ele>29.75</ele></trkpt>
   <trkpt lon="2.639735" lat="39.585506"><ele>29.75</ele></trkpt>
   <trkpt lon="2.639716" lat="39.585454"><ele>29.75</ele></trkpt>
   <trkpt lon="2.639699" lat="39.585422"><ele>29.75</ele></trkpt>
   <trkpt lon="2.639693" lat="39.585411"><ele>29.75</ele></trkpt>
   <trkpt lon="2.639843" lat="39.585313"><ele>29.5</ele></trkpt>
   <trkpt lon="2.639958" lat="39.585203"><ele>29.25</ele></trkpt>
   <trkpt lon="2.640034" lat="39.585160"><ele>29.25</ele></trkpt>
   <trkpt lon="2.640122" lat="39.585124"><ele>29.5</ele></trkpt>
   <trkpt lon="2.640340" lat="39.585097"><ele>29.5</ele></trkpt>
   <trkpt lon="2.640380" lat="39.585088"><ele>29.25</ele></trkpt>
   <trkpt lon="2.640442" lat="39.585064"><ele>29.25</ele></trkpt>
   <trkpt lon="2.640509" lat="39.585031"><ele>29.0</ele></trkpt>
   <trkpt lon="2.640553" lat="39.584986"><ele>29.0</ele></trkpt>
   <trkpt lon="2.640961" lat="39.584504"><ele>28.5</ele></trkpt>
   <trkpt lon="2.641088" lat="39.584359"><ele>28.0</ele></trkpt>
   <trkpt lon="2.641230" lat="39.584211"><ele>28.0</ele></trkpt>
   <trkpt lon="2.641521" lat="39.583941"><ele>27.5</ele></trkpt>
   <trkpt lon="2.642460" lat="39.583147"><ele>26.0</ele></trkpt>
   <trkpt lon="2.642866" lat="39.582685"><ele>24.5</ele></trkpt>
   <trkpt lon="2.642980" lat="39.582560"><ele>24.25</ele></trkpt>
   <trkpt lon="2.643101" lat="39.582444"><ele>23.75</ele></trkpt>
   <trkpt lon="2.644238" lat="39.581671"><ele>23.0</ele></trkpt>
   <trkpt lon="2.644273" lat="39.581648"><ele>22.75</ele></trkpt>
   <trkpt lon="2.644279" lat="39.581640"><ele>22.5</ele></trkpt>
   <trkpt lon="2.644349" lat="39.581554"><ele>21.25</ele></trkpt>
   <trkpt lon="2.644386" lat="39.581509"><ele>20.0</ele></trkpt>
   <trkpt lon="2.644359" lat="39.581493"><ele>20.0</ele></trkpt>
   <trkpt lon="2.644137" lat="39.581368"><ele>21.5</ele></trkpt>
   <trkpt lon="2.642376" lat="39.580379"><ele>22.0</ele></trkpt>
   <trkpt lon="2.642401" lat="39.580351"><ele>22.0</ele></trkpt>
   <trkpt lon="2.642418" lat="39.580335"><ele>22.0</ele></trkpt>
   <trkpt lon="2.642438" lat="39.580316"><ele>22.0</ele></trkpt>
   <trkpt lon="2.642417" lat="39.580298"><ele>22.0</ele></trkpt>
   <trkpt lon="2.642313" lat="39.580204"><ele>21.75</ele></trkpt>
   <trkpt lon="2.642269" lat="39.580141"><ele>21.75</ele></trkpt>
   <trkpt lon="2.642248" lat="39.580099"><ele>21.75</ele></trkpt>
   <trkpt lon="2.642240" lat="39.580049"><ele>21.75</ele></trkpt>
   <trkpt lon="2.642254" lat="39.579993"><ele>21.75</ele></trkpt>
   <trkpt lon="2.642298" lat="39.579903"><ele>21.5</ele></trkpt>
   <trkpt lon="2.642459" lat="39.579684"><ele>21.25</ele></trkpt>
   <trkpt lon="2.642725" lat="39.579325"><ele>21.0</ele></trkpt>
   <trkpt lon="2.642747" lat="39.579274"><ele>21.25</ele></trkpt>
   <trkpt lon="2.642746" lat="39.579251"><ele>21.25</ele></trkpt>
   <trkpt lon="2.642820" lat="39.579152"><ele>21.5</ele></trkpt>
   <trkpt lon="2.642847" lat="39.579117"><ele>21.25</ele></trkpt>
   <trkpt lon="2.642864" lat="39.579094"><ele>21.25</ele></trkpt>
   <trkpt lon="2.642960" lat="39.579005"><ele>20.75</ele></trkpt>
   <trkpt lon="2.643868" lat="39.577789"><ele>21.0</ele></trkpt>
   <trkpt lon="2.643993" lat="39.577625"><ele>19.5</ele></trkpt>
   <trkpt lon="2.644036" lat="39.577146"><ele>19.75</ele></trkpt>
   <trkpt lon="2.644058" lat="39.576471"><ele>18.75</ele></trkpt>
   <trkpt lon="2.644083" lat="39.576373"><ele>19.0</ele></trkpt>
   <trkpt lon="2.644109" lat="39.576273"><ele>19.5</ele></trkpt>
   <trkpt lon="2.644118" lat="39.576120"><ele>21.0</ele></trkpt>
   <trkpt lon="2.644126" lat="39.576054"><ele>20.25</ele></trkpt>
   <trkpt lon="2.644114" lat="39.575751"><ele>17.0</ele></trkpt>
   <trkpt lon="2.643635" lat="39.574378"><ele>16.5</ele></trkpt>
   <trkpt lon="2.641873" lat="39.573204"><ele>14.5</ele></trkpt>
   <trkpt lon="2.641755" lat="39.572604"><ele>15.0</ele></trkpt>
   <trkpt lon="2.641732" lat="39.572534"><ele>15.5</ele></trkpt>
   <trkpt lon="2.641539" lat="39.571511"><ele>12.75</ele></trkpt>
   <trkpt lon="2.641514" lat="39.571453"><ele>13.0</ele></trkpt>
   <trkpt lon="2.641426" lat="39.571382"><ele>14.0</ele></trkpt>
   <trkpt lon="2.641104" lat="39.571043"><ele>12.0</ele></trkpt>
   <trkpt lon="2.640931" lat="39.570861"><ele>10.25</ele></trkpt>
   <trkpt lon="2.640924" lat="39.570853"><ele>10.25</ele></trkpt>
   <trkpt lon="2.640070" lat="39.569958"><ele>5.25</ele></trkpt>
   <trkpt lon="2.640040" lat="39.569936"><ele>5.25</ele></trkpt>
   <trkpt lon="2.640014" lat="39.569917"><ele>5.25</ele></trkpt>
   <trkpt lon="2.639992" lat="39.569876"><ele>4.75</ele></trkpt>
   <trkpt lon="2.639677" lat="39.569543"><ele>3.25</ele></trkpt>
   <trkpt lon="2.639629" lat="39.569525"><ele>3.25</ele></trkpt>
   <trkpt lon="2.639637" lat="39.569448"><ele>3.0</ele></trkpt>
   <trkpt lon="2.639647" lat="39.569350"><ele>2.25</ele></trkpt>
   <trkpt lon="2.639654" lat="39.569277"><ele>1.75</ele></trkpt>
   <trkpt lon="2.639657" lat="39.569250"><ele>1.75</ele></trkpt>
   <trkpt lon="2.639784" lat="39.569263"><ele>1.75</ele></trkpt>
   <trkpt lon="2.640193" lat="39.569299"><ele>2.25</ele></trkpt>
   <trkpt lon="2.640336" lat="39.569305"><ele>2.25</ele></trkpt>
   <trkpt lon="2.640470" lat="39.569301"><ele>2.0</ele></trkpt>
   <trkpt lon="2.640548" lat="39.569276"><ele>2.0</ele></trkpt>
   <trkpt lon="2.640702" lat="39.569183"><ele>2.0</ele></trkpt>
   <trkpt lon="2.640829" lat="39.569117"><ele>2.0</ele></trkpt>
   <trkpt lon="2.641026" lat="39.569134"><ele>2.0</ele></trkpt>
   <trkpt lon="2.641077" lat="39.569141"><ele>2.0</ele></trkpt>
   <trkpt lon="2.641283" lat="39.569177"><ele>2.0</ele></trkpt>
   <trkpt lon="2.641331" lat="39.569186"><ele>2.0</ele></trkpt>
   <trkpt lon="2.641477" lat="39.569141"><ele>1.75</ele></trkpt>
   <trkpt lon="2.641769" lat="39.569047"><ele>1.5</ele></trkpt>
   <trkpt lon="2.642222" lat="39.568870"><ele>2.0</ele></trkpt>
   <trkpt lon="2.642557" lat="39.568645"><ele>2.0</ele></trkpt>
   <trkpt lon="2.643217" lat="39.568203"><ele>2.0</ele></trkpt>
   <trkpt lon="2.643617" lat="39.567847"><ele>2.0</ele></trkpt>
   <trkpt lon="2.643654" lat="39.567839"><ele>2.0</ele></trkpt>
   <trkpt lon="2.643686" lat="39.567839"><ele>2.0</ele></trkpt>
   <trkpt lon="2.643802" lat="39.567882"><ele>2.0</ele></trkpt>
   <trkpt lon="2.643828" lat="39.567883"><ele>2.0</ele></trkpt>
   <trkpt lon="2.643972" lat="39.567779"><ele>2.0</ele></trkpt>
   <trkpt lon="2.644191" lat="39.567598"><ele>2.0</ele></trkpt>
   <trkpt lon="2.644583" lat="39.567162"><ele>2.75</ele></trkpt>
   <trkpt lon="2.644579" lat="39.567128"><ele>2.75</ele></trkpt>
   <trkpt lon="2.644504" lat="39.567026"><ele>2.25</ele></trkpt>
   <trkpt lon="2.644422" lat="39.566920"><ele>2.0</ele></trkpt>
   <trkpt lon="2.644426" lat="39.566890"><ele>2.0</ele></trkpt>
   <trkpt lon="2.644452" lat="39.566853"><ele>2.0</ele></trkpt>
   <trkpt lon="2.644489" lat="39.566812"><ele>2.0</ele></trkpt>
   <trkpt lon="2.644631" lat="39.566882"><ele>2.5</ele></trkpt>
   <trkpt lon="2.644765" lat="39.566950"><ele>2.75</ele></trkpt>
   <trkpt lon="2.644849" lat="39.566998"><ele>2.5</ele></trkpt>
   <trkpt lon="2.644956" lat="39.567048"><ele>2.25</ele></trkpt>
   <trkpt lon="2.645178" lat="39.567156"><ele>2.75</ele></trkpt>
   <trkpt lon="2.645277" lat="39.567267"><ele>2.75</ele></trkpt>
   <trkpt lon="2.645366" lat="39.567294"><ele>2.5</ele></trkpt>
   <trkpt lon="2.645858" lat="39.568014"><ele>2.0</ele></trkpt>
   <trkpt lon="2.646038" lat="39.567949"><ele>2.75</ele></trkpt>
   <trkpt lon="2.646404" lat="39.568599"><ele>3.0</ele></trkpt>
   <trkpt lon="2.646418" lat="39.568622"><ele>3.0</ele></trkpt>
   <trkpt lon="2.646519" lat="39.568650"><ele>3.75</ele></trkpt>
   <trkpt lon="2.646969" lat="39.568773"><ele>6.5</ele></trkpt>
   <trkpt lon="2.647077" lat="39.568803"><ele>7.25</ele></trkpt>
   <trkpt lon="2.647318" lat="39.568869"><ele>8.5</ele></trkpt>
   <trkpt lon="2.647872" lat="39.569046"><ele>12.0</ele></trkpt>
   <trkpt lon="2.648549" lat="39.569249"><ele>14.25</ele></trkpt>
   <trkpt lon="2.649030" lat="39.569407"><ele>16.5</ele></trkpt>
   <trkpt lon="2.649104" lat="39.569409"><ele>17.25</ele></trkpt>
   <trkpt lon="2.649152" lat="39.569387"><ele>18.0</ele></trkpt>
   <trkpt lon="2.649440" lat="39.569092"><ele>19.25</ele></trkpt>
   <trkpt lon="2.649919" lat="39.569434"><ele>20.0</ele></trkpt>
   <trkpt lon="2.650013" lat="39.569458"><ele>20.0</ele></trkpt>
   <trkpt lon="2.650160" lat="39.569463"><ele>20.0</ele></trkpt>
   <trkpt lon="2.650262" lat="39.569476"><ele>20.0</ele></trkpt>
   <trkpt lon="2.650367" lat="39.569622"><ele>20.0</ele></trkpt>
   <trkpt lon="2.650408" lat="39.569672"><ele>20.0</ele></trkpt>
   <trkpt lon="2.650536" lat="39.569817"><ele>20.25</ele></trkpt>
   <trkpt lon="2.650494" lat="39.569858"><ele>20.25</ele></trkpt>
   <trkpt lon="2.650329" lat="39.569891"><ele>20.0</ele></trkpt>
   <trkpt lon="2.650341" lat="39.569899"><ele>20.0</ele></trkpt>
   <trkpt lon="2.650221" lat="39.569927"><ele>20.0</ele></trkpt>
   <trkpt lon="2.650021" lat="39.570000"><ele>20.0</ele></trkpt>
  </trkseg>
 </trk>
</gpx>
