<?xml version="1.0" encoding="UTF-8"?>
<gpx version="1.1" creator="BRouter paired review" xmlns="http://www.topografix.com/GPX/1/1">
<trk><name>Route A</name><trkseg>
<trkpt lat="39.570008" lon="2.650010"><ele>19.75</ele></trkpt>
<trkpt lat="39.570000" lon="2.650021"><ele>20.0</ele></trkpt>
<trkpt lat="39.569927" lon="2.650221"><ele>20.0</ele></trkpt>
<trkpt lat="39.569899" lon="2.650341"><ele>20.0</ele></trkpt>
<trkpt lat="39.570003" lon="2.650470"><ele>20.5</ele></trkpt>
<trkpt lat="39.570017" lon="2.650502"><ele>20.75</ele></trkpt>
<trkpt lat="39.569961" lon="2.650576"><ele>20.75</ele></trkpt>
<trkpt lat="39.569961" lon="2.650583"><ele>20.75</ele></trkpt>
<trkpt lat="39.569917" lon="2.650621"><ele>20.75</ele></trkpt>
<trkpt lat="39.570323" lon="2.650951"><ele>21.0</ele></trkpt>
<trkpt lat="39.570347" lon="2.650971"><ele>21.0</ele></trkpt>
<trkpt lat="39.570397" lon="2.651013"><ele>21.0</ele></trkpt>
<trkpt lat="39.570664" lon="2.651217"><ele>21.25</ele></trkpt>
<trkpt lat="39.570751" lon="2.651275"><ele>21.5</ele></trkpt>
<trkpt lat="39.570766" lon="2.651307"><ele>21.75</ele></trkpt>
<trkpt lat="39.570778" lon="2.651365"><ele>21.75</ele></trkpt>
<trkpt lat="39.570779" lon="2.651452"><ele>21.75</ele></trkpt>
<trkpt lat="39.570776" lon="2.651552"><ele>21.75</ele></trkpt>
<trkpt lat="39.570761" lon="2.651898"><ele>21.5</ele></trkpt>
<trkpt lat="39.570691" lon="2.652024"><ele>21.25</ele></trkpt>
<trkpt lat="39.570629" lon="2.652138"><ele>21.0</ele></trkpt>
<trkpt lat="39.570607" lon="2.652178"><ele>21.0</ele></trkpt>
<trkpt lat="39.570485" lon="2.652424"><ele>21.75</ele></trkpt>
<trkpt lat="39.570387" lon="2.652622"><ele>21.5</ele></trkpt>
<trkpt lat="39.570443" lon="2.652847"><ele>21.0</ele></trkpt>
<trkpt lat="39.570493" lon="2.653046"><ele>21.0</ele></trkpt>
<trkpt lat="39.570484" lon="2.653139"><ele>21.0</ele></trkpt>
<trkpt lat="39.570460" lon="2.653526"><ele>21.0</ele></trkpt>
<trkpt lat="39.570518" lon="2.653815"><ele>20.75</ele></trkpt>
<trkpt lat="39.570526" lon="2.654021"><ele>20.75</ele></trkpt>
<trkpt lat="39.570416" lon="2.654269"><ele>20.25</ele></trkpt>
<trkpt lat="39.570250" lon="2.654809"><ele>19.75</ele></trkpt>
<trkpt lat="39.570247" lon="2.654962"><ele>19.75</ele></trkpt>
<trkpt lat="39.570247" lon="2.655002"><ele>19.75</ele></trkpt>
<trkpt lat="39.570267" lon="2.655642"><ele>19.5</ele></trkpt>
<trkpt lat="39.570283" lon="2.655897"><ele>18.75</ele></trkpt>
<trkpt lat="39.570253" lon="2.656376"><ele>18.0</ele></trkpt>
<trkpt lat="39.570251" lon="2.656412"><ele>18.0</ele></trkpt>
<trkpt lat="39.571292" lon="2.656216"><ele>18.5</ele></trkpt>
<trkpt lat="39.571293" lon="2.656167"><ele>18.75</ele></trkpt>
<trkpt lat="39.571285" lon="2.656026"><ele>19.0</ele></trkpt>
<trkpt lat="39.571281" lon="2.655969"><ele>19.0</ele></trkpt>
<trkpt lat="39.571279" lon="2.655932"><ele>19.0</ele></trkpt>
<trkpt lat="39.571330" lon="2.655860"><ele>19.0</ele></trkpt>
<trkpt lat="39.571644" lon="2.655630"><ele>19.75</ele></trkpt>
<trkpt lat="39.571846" lon="2.655540"><ele>19.25</ele></trkpt>
<trkpt lat="39.571899" lon="2.655523"><ele>19.25</ele></trkpt>
<trkpt lat="39.571938" lon="2.655521"><ele>19.0</ele></trkpt>
<trkpt lat="39.572049" lon="2.655469"><ele>19.0</ele></trkpt>
<trkpt lat="39.572147" lon="2.655522"><ele>19.0</ele></trkpt>
<trkpt lat="39.572185" lon="2.655540"><ele>19.0</ele></trkpt>
<trkpt lat="39.572233" lon="2.655530"><ele>19.0</ele></trkpt>
<trkpt lat="39.572708" lon="2.655293"><ele>19.5</ele></trkpt>
<trkpt lat="39.572725" lon="2.655339"><ele>19.5</ele></trkpt>
<trkpt lat="39.572769" lon="2.655316"><ele>19.75</ele></trkpt>
<trkpt lat="39.572798" lon="2.655302"><ele>19.75</ele></trkpt>
<trkpt lat="39.573076" lon="2.655179"><ele>21.0</ele></trkpt>
<trkpt lat="39.573349" lon="2.655045"><ele>21.0</ele></trkpt>
<trkpt lat="39.573916" lon="2.654750"><ele>22.75</ele></trkpt>
<trkpt lat="39.574142" lon="2.654553"><ele>23.5</ele></trkpt>
<trkpt lat="39.574351" lon="2.654369"><ele>23.75</ele></trkpt>
<trkpt lat="39.574376" lon="2.654348"><ele>23.75</ele></trkpt>
<trkpt lat="39.574450" lon="2.654282"><ele>24.0</ele></trkpt>
<trkpt lat="39.574511" lon="2.654223"><ele>24.0</ele></trkpt>
<trkpt lat="39.574918" lon="2.653826"><ele>24.0</ele></trkpt>
<trkpt lat="39.574903" lon="2.653799"><ele>24.0</ele></trkpt>
<trkpt lat="39.574931" lon="2.653771"><ele>24.0</ele></trkpt>
<trkpt lat="39.575257" lon="2.654218"><ele>24.0</ele></trkpt>
<trkpt lat="39.575300" lon="2.654288"><ele>24.0</ele></trkpt>
<trkpt lat="39.575460" lon="2.654081"><ele>24.0</ele></trkpt>
<trkpt lat="39.575524" lon="2.654170"><ele>24.0</ele></trkpt>
<trkpt lat="39.575626" lon="2.654306"><ele>24.0</ele></trkpt>
<trkpt lat="39.575763" lon="2.654492"><ele>24.0</ele></trkpt>
<trkpt lat="39.575618" lon="2.654661"><ele>24.0</ele></trkpt>
<trkpt lat="39.575929" lon="2.655104"><ele>24.0</ele></trkpt>
<trkpt lat="39.576006" lon="2.655214"><ele>24.0</ele></trkpt>
<trkpt lat="39.576159" lon="2.655267"><ele>24.0</ele></trkpt>
<trkpt lat="39.576221" lon="2.655316"><ele>23.75</ele></trkpt>
<trkpt lat="39.576278" lon="2.655392"><ele>23.5</ele></trkpt>
<trkpt lat="39.576314" lon="2.655444"><ele>23.25</ele></trkpt>
<trkpt lat="39.576519" lon="2.655849"><ele>23.25</ele></trkpt>
<trkpt lat="39.576804" lon="2.656211"><ele>23.25</ele></trkpt>
<trkpt lat="39.577007" lon="2.656421"><ele>23.0</ele></trkpt>
<trkpt lat="39.577124" lon="2.656551"><ele>23.5</ele></trkpt>
<trkpt lat="39.577152" lon="2.656597"><ele>23.5</ele></trkpt>
<trkpt lat="39.577301" lon="2.656807"><ele>23.5</ele></trkpt>
<trkpt lat="39.577408" lon="2.656910"><ele>23.5</ele></trkpt>
<trkpt lat="39.577470" lon="2.657005"><ele>23.0</ele></trkpt>
<trkpt lat="39.577618" lon="2.657160"><ele>22.0</ele></trkpt>
<trkpt lat="39.577661" lon="2.657241"><ele>22.25</ele></trkpt>
<trkpt lat="39.577675" lon="2.657300"><ele>22.75</ele></trkpt>
<trkpt lat="39.577779" lon="2.657491"><ele>24.0</ele></trkpt>
<trkpt lat="39.577869" lon="2.657625"><ele>24.0</ele></trkpt>
<trkpt lat="39.578402" lon="2.658387"><ele>24.75</ele></trkpt>
<trkpt lat="39.578422" lon="2.658399"><ele>24.75</ele></trkpt>
<trkpt lat="39.578557" lon="2.658470"><ele>24.75</ele></trkpt>
<trkpt lat="39.578609" lon="2.658510"><ele>24.75</ele></trkpt>
<trkpt lat="39.578808" lon="2.658290"><ele>25.0</ele></trkpt>
<trkpt lat="39.578828" lon="2.658290"><ele>25.0</ele></trkpt>
<trkpt lat="39.578870" lon="2.658347"><ele>25.0</ele></trkpt>
<trkpt lat="39.578902" lon="2.658391"><ele>25.0</ele></trkpt>
<trkpt lat="39.578920" lon="2.658418"><ele>25.0</ele></trkpt>
<trkpt lat="39.579321" lon="2.658995"><ele>24.25</ele></trkpt>
<trkpt lat="39.579767" lon="2.659638"><ele>24.0</ele></trkpt>
<trkpt lat="39.579811" lon="2.659701"><ele>24.25</ele></trkpt>
<trkpt lat="39.581032" lon="2.661460"><ele>24.0</ele></trkpt>
<trkpt lat="39.581564" lon="2.662227"><ele>24.0</ele></trkpt>
<trkpt lat="39.581842" lon="2.662628"><ele>24.25</ele></trkpt>
<trkpt lat="39.582122" lon="2.663031"><ele>24.5</ele></trkpt>
<trkpt lat="39.582365" lon="2.663381"><ele>24.75</ele></trkpt>
<trkpt lat="39.582694" lon="2.663850"><ele>25.0</ele></trkpt>
<trkpt lat="39.582985" lon="2.664236"><ele>25.5</ele></trkpt>
<trkpt lat="39.583270" lon="2.664612"><ele>25.75</ele></trkpt>
<trkpt lat="39.583369" lon="2.664743"><ele>26.0</ele></trkpt>
<trkpt lat="39.583635" lon="2.665112"><ele>26.0</ele></trkpt>
<trkpt lat="39.583969" lon="2.665785"><ele>26.0</ele></trkpt>
<trkpt lat="39.584000" lon="2.665937"><ele>26.25</ele></trkpt>
<trkpt lat="39.584008" lon="2.666085"><ele>26.0</ele></trkpt>
<trkpt lat="39.584041" lon="2.666120"><ele>26.0</ele></trkpt>
<trkpt lat="39.584154" lon="2.666035"><ele>26.25</ele></trkpt>
<trkpt lat="39.584296" lon="2.665926"><ele>26.75</ele></trkpt>
<trkpt lat="39.584357" lon="2.665879"><ele>26.75</ele></trkpt>
<trkpt lat="39.585017" lon="2.665370"><ele>27.75</ele></trkpt>
<trkpt lat="39.585428" lon="2.665060"><ele>28.0</ele></trkpt>
<trkpt lat="39.585883" lon="2.664719"><ele>28.0</ele></trkpt>
<trkpt lat="39.586399" lon="2.664358"><ele>29.0</ele></trkpt>
<trkpt lat="39.586711" lon="2.663910"><ele>29.0</ele></trkpt>
<trkpt lat="39.586759" lon="2.663819"><ele>29.25</ele></trkpt>
<trkpt lat="39.586845" lon="2.663904"><ele>29.5</ele></trkpt>
<trkpt lat="39.586928" lon="2.663961"><ele>29.75</ele></trkpt>
<trkpt lat="39.586968" lon="2.663901"><ele>29.75</ele></trkpt>
<trkpt lat="39.587823" lon="2.664909"><ele>27.75</ele></trkpt>
<trkpt lat="39.588220" lon="2.665309"><ele>28.0</ele></trkpt>
<trkpt lat="39.588662" lon="2.665712"><ele>29.25</ele></trkpt>
<trkpt lat="39.589043" lon="2.666025"><ele>30.5</ele></trkpt>
<trkpt lat="39.589609" lon="2.666422"><ele>30.75</ele></trkpt>
<trkpt lat="39.590764" lon="2.667363"><ele>31.5</ele></trkpt>
<trkpt lat="39.590915" lon="2.667494"><ele>31.25</ele></trkpt>
<trkpt lat="39.591569" lon="2.668049"><ele>32.0</ele></trkpt>
<trkpt lat="39.591568" lon="2.668114"><ele>32.0</ele></trkpt>
<trkpt lat="39.591573" lon="2.668146"><ele>32.0</ele></trkpt>
<trkpt lat="39.591638" lon="2.668190"><ele>32.25</ele></trkpt>
<trkpt lat="39.592135" lon="2.668634"><ele>33.0</ele></trkpt>
<trkpt lat="39.592315" lon="2.668839"><ele>33.0</ele></trkpt>
<trkpt lat="39.592428" lon="2.668989"><ele>33.0</ele></trkpt>
<trkpt lat="39.592502" lon="2.669125"><ele>33.0</ele></trkpt>
<trkpt lat="39.592562" lon="2.669258"><ele>33.0</ele></trkpt>
<trkpt lat="39.592614" lon="2.669440"><ele>33.0</ele></trkpt>
<trkpt lat="39.592643" lon="2.669629"><ele>33.0</ele></trkpt>
<trkpt lat="39.592656" lon="2.669778"><ele>32.75</ele></trkpt>
<trkpt lat="39.592789" lon="2.669777"><ele>32.75</ele></trkpt>
<trkpt lat="39.592829" lon="2.669775"><ele>32.75</ele></trkpt>
<trkpt lat="39.592879" lon="2.669802"><ele>32.75</ele></trkpt>
<trkpt lat="39.592910" lon="2.669842"><ele>32.75</ele></trkpt>
<trkpt lat="39.593009" lon="2.669946"><ele>32.75</ele></trkpt>
<trkpt lat="39.593098" lon="2.669845"><ele>32.75</ele></trkpt>
<trkpt lat="39.593222" lon="2.669783"><ele>32.75</ele></trkpt>
<trkpt lat="39.593338" lon="2.669772"><ele>32.75</ele></trkpt>
<trkpt lat="39.593456" lon="2.669780"><ele>32.75</ele></trkpt>
<trkpt lat="39.593534" lon="2.669802"><ele>32.5</ele></trkpt>
<trkpt lat="39.593662" lon="2.669856"><ele>32.5</ele></trkpt>
<trkpt lat="39.593790" lon="2.669939"><ele>32.5</ele></trkpt>
<trkpt lat="39.594398" lon="2.670444"><ele>32.75</ele></trkpt>
<trkpt lat="39.594472" lon="2.670461"><ele>33.0</ele></trkpt>
<trkpt lat="39.594669" lon="2.670619"><ele>33.0</ele></trkpt>
<trkpt lat="39.594722" lon="2.670641"><ele>33.0</ele></trkpt>
<trkpt lat="39.594803" lon="2.670638"><ele>33.0</ele></trkpt>
<trkpt lat="39.594821" lon="2.670608"><ele>33.25</ele></trkpt>
<trkpt lat="39.594832" lon="2.670590"><ele>33.25</ele></trkpt>
<trkpt lat="39.595452" lon="2.671089"><ele>33.5</ele></trkpt>
<trkpt lat="39.596506" lon="2.671991"><ele>33.75</ele></trkpt>
<trkpt lat="39.596522" lon="2.671990"><ele>33.75</ele></trkpt>
<trkpt lat="39.596533" lon="2.671977"><ele>33.75</ele></trkpt>
<trkpt lat="39.596576" lon="2.671886"><ele>34.0</ele></trkpt>
<trkpt lat="39.596610" lon="2.671815"><ele>34.0</ele></trkpt>
<trkpt lat="39.597053" lon="2.672106"><ele>34.0</ele></trkpt>
<trkpt lat="39.597430" lon="2.672312"><ele>34.5</ele></trkpt>
<trkpt lat="39.597534" lon="2.672361"><ele>35.0</ele></trkpt>
<trkpt lat="39.597715" lon="2.672447"><ele>35.0</ele></trkpt>
<trkpt lat="39.598390" lon="2.672642"><ele>35.0</ele></trkpt>
<trkpt lat="39.598869" lon="2.672780"><ele>34.75</ele></trkpt>
<trkpt lat="39.598913" lon="2.672793"><ele>35.0</ele></trkpt>
<trkpt lat="39.599382" lon="2.672919"><ele>35.75</ele></trkpt>
<trkpt lat="39.599421" lon="2.672932"><ele>35.75</ele></trkpt>
<trkpt lat="39.599902" lon="2.673033"><ele>36.0</ele></trkpt>
<trkpt lat="39.599942" lon="2.673044"><ele>36.0</ele></trkpt>
<trkpt lat="39.600135" lon="2.673096"><ele>36.0</ele></trkpt>
<trkpt lat="39.600189" lon="2.673099"><ele>36.0</ele></trkpt>
<trkpt lat="39.600236" lon="2.673089"><ele>36.0</ele></trkpt>
<trkpt lat="39.600290" lon="2.673056"><ele>36.0</ele></trkpt>
<trkpt lat="39.600623" lon="2.672746"><ele>37.0</ele></trkpt>
<trkpt lat="39.600647" lon="2.672724"><ele>37.0</ele></trkpt>
<trkpt lat="39.600690" lon="2.672802"><ele>37.0</ele></trkpt>
<trkpt lat="39.600719" lon="2.672852"><ele>37.0</ele></trkpt>
<trkpt lat="39.600761" lon="2.672835"><ele>37.0</ele></trkpt>
<trkpt lat="39.600796" lon="2.672837"><ele>37.0</ele></trkpt>
<trkpt lat="39.600835" lon="2.672856"><ele>37.0</ele></trkpt>
<trkpt lat="39.600870" lon="2.672894"><ele>37.0</ele></trkpt>
<trkpt lat="39.600922" lon="2.672982"><ele>37.0</ele></trkpt>
<trkpt lat="39.600956" lon="2.672975"><ele>37.0</ele></trkpt>
<trkpt lat="39.601012" lon="2.672959"><ele>37.0</ele></trkpt>
<trkpt lat="39.601024" lon="2.672979"><ele>37.0</ele></trkpt>
<trkpt lat="39.601046" lon="2.673023"><ele>37.0</ele></trkpt>
<trkpt lat="39.601070" lon="2.673047"><ele>37.0</ele></trkpt>
<trkpt lat="39.601107" lon="2.673060"><ele>37.0</ele></trkpt>
<trkpt lat="39.601161" lon="2.673044"><ele>37.0</ele></trkpt>
<trkpt lat="39.601189" lon="2.673094"><ele>37.0</ele></trkpt>
<trkpt lat="39.601319" lon="2.673323"><ele>37.0</ele></trkpt>
<trkpt lat="39.601337" lon="2.673304"><ele>37.0</ele></trkpt>
<trkpt lat="39.601838" lon="2.672777"><ele>38.0</ele></trkpt>
<trkpt lat="39.602514" lon="2.672175"><ele>38.75</ele></trkpt>
<trkpt lat="39.602776" lon="2.671942"><ele>38.75</ele></trkpt>
<trkpt lat="39.603227" lon="2.671569"><ele>39.75</ele></trkpt>
<trkpt lat="39.603579" lon="2.671251"><ele>40.0</ele></trkpt>
<trkpt lat="39.603926" lon="2.670940"><ele>40.5</ele></trkpt>
<trkpt lat="39.604239" lon="2.670670"><ele>41.0</ele></trkpt>
<trkpt lat="39.604400" lon="2.670531"><ele>41.0</ele></trkpt>
<trkpt lat="39.604539" lon="2.670412"><ele>41.25</ele></trkpt>
<trkpt lat="39.605828" lon="2.669313"><ele>43.0</ele></trkpt>
<trkpt lat="39.606001" lon="2.669649"><ele>43.0</ele></trkpt>
<trkpt lat="39.606098" lon="2.669837"><ele>43.0</ele></trkpt>
<trkpt lat="39.606356" lon="2.670337"><ele>43.0</ele></trkpt>
<trkpt lat="39.607826" lon="2.673187"><ele>43.0</ele></trkpt>
<trkpt lat="39.607998" lon="2.673033"><ele>43.75</ele></trkpt>
<trkpt lat="39.608246" lon="2.673517"><ele>44.5</ele></trkpt>
<trkpt lat="39.608314" lon="2.673533"><ele>44.75</ele></trkpt>
<trkpt lat="39.608383" lon="2.673472"><ele>45.0</ele></trkpt>
<trkpt lat="39.609345" lon="2.672638"><ele>45.5</ele></trkpt>
<trkpt lat="39.609924" lon="2.673696"><ele>46.5</ele></trkpt>
<trkpt lat="39.610558" lon="2.674526"><ele>47.0</ele></trkpt>
<trkpt lat="39.610576" lon="2.674586"><ele>47.0</ele></trkpt>
<trkpt lat="39.610551" lon="2.674647"><ele>46.75</ele></trkpt>
<trkpt lat="39.610177" lon="2.675038"><ele>46.5</ele></trkpt>
<trkpt lat="39.610399" lon="2.675384"><ele>46.75</ele></trkpt>
<trkpt lat="39.610978" lon="2.676288"><ele>47.0</ele></trkpt>
<trkpt lat="39.611326" lon="2.676829"><ele>48.0</ele></trkpt>
<trkpt lat="39.611381" lon="2.677031"><ele>47.75</ele></trkpt>
<trkpt lat="39.611958" lon="2.679504"><ele>47.0</ele></trkpt>
<trkpt lat="39.612004" lon="2.679703"><ele>47.0</ele></trkpt>
<trkpt lat="39.612005" lon="2.679739"><ele>46.75</ele></trkpt>
<trkpt lat="39.612011" lon="2.680034"><ele>46.0</ele></trkpt>
<trkpt lat="39.612299" lon="2.679929"><ele>47.0</ele></trkpt>
<trkpt lat="39.612537" lon="2.680221"><ele>47.0</ele></trkpt>
<trkpt lat="39.612624" lon="2.680327"><ele>47.0</ele></trkpt>
<trkpt lat="39.612692" lon="2.680376"><ele>47.0</ele></trkpt>
<trkpt lat="39.612950" lon="2.680706"><ele>47.5</ele></trkpt>
<trkpt lat="39.613119" lon="2.680921"><ele>45.75</ele></trkpt>
<trkpt lat="39.612815" lon="2.681379"><ele>46.75</ele></trkpt>
<trkpt lat="39.612983" lon="2.681472"><ele>46.0</ele></trkpt>
<trkpt lat="39.613061" lon="2.681534"><ele>46.5</ele></trkpt>
<trkpt lat="39.613084" lon="2.681582"><ele>46.75</ele></trkpt>
<trkpt lat="39.613104" lon="2.681466"><ele>46.5</ele></trkpt>
<trkpt lat="39.613302" lon="2.681262"><ele>46.75</ele></trkpt>
<trkpt lat="39.613739" lon="2.681051"><ele>47.25</ele></trkpt>
<trkpt lat="39.614056" lon="2.680873"><ele>47.5</ele></trkpt>
<trkpt lat="39.614557" lon="2.680569"><ele>48.25</ele></trkpt>
<trkpt lat="39.615157" lon="2.680161"><ele>49.0</ele></trkpt>
<trkpt lat="39.615557" lon="2.679699"><ele>49.0</ele></trkpt>
<trkpt lat="39.615783" lon="2.679560"><ele>49.25</ele></trkpt>
<trkpt lat="39.616198" lon="2.679330"><ele>49.5</ele></trkpt>
<trkpt lat="39.616978" lon="2.678831"><ele>50.75</ele></trkpt>
<trkpt lat="39.617483" lon="2.678573"><ele>51.5</ele></trkpt>
<trkpt lat="39.617814" lon="2.678404"><ele>50.5</ele></trkpt>
<trkpt lat="39.618151" lon="2.678392"><ele>51.0</ele></trkpt>
<trkpt lat="39.618321" lon="2.678372"><ele>52.0</ele></trkpt>
<trkpt lat="39.618948" lon="2.678266"><ele>53.0</ele></trkpt>
<trkpt lat="39.619397" lon="2.678260"><ele>54.5</ele></trkpt>
<trkpt lat="39.619643" lon="2.678320"><ele>54.75</ele></trkpt>
<trkpt lat="39.619875" lon="2.678434"><ele>55.5</ele></trkpt>
<trkpt lat="39.620158" lon="2.678524"><ele>56.0</ele></trkpt>
<trkpt lat="39.620445" lon="2.678578"><ele>56.0</ele></trkpt>
<trkpt lat="39.620811" lon="2.678627"><ele>56.0</ele></trkpt>
<trkpt lat="39.621367" lon="2.678657"><ele>57.0</ele></trkpt>
<trkpt lat="39.621701" lon="2.678717"><ele>57.25</ele></trkpt>
<trkpt lat="39.622030" lon="2.678735"><ele>58.0</ele></trkpt>
<trkpt lat="39.622837" lon="2.678735"><ele>59.0</ele></trkpt>
<trkpt lat="39.623194" lon="2.678735"><ele>59.0</ele></trkpt>
<trkpt lat="39.623551" lon="2.678807"><ele>59.75</ele></trkpt>
<trkpt lat="39.623666" lon="2.678853"><ele>60.0</ele></trkpt>
<trkpt lat="39.623931" lon="2.678958"><ele>60.0</ele></trkpt>
<trkpt lat="39.624714" lon="2.679535"><ele>61.0</ele></trkpt>
<trkpt lat="39.624769" lon="2.679568"><ele>61.0</ele></trkpt>
<trkpt lat="39.625757" lon="2.680161"><ele>62.25</ele></trkpt>
<trkpt lat="39.626458" lon="2.680566"><ele>63.0</ele></trkpt>
<trkpt lat="39.627455" lon="2.680128"><ele>64.75</ele></trkpt>
<trkpt lat="39.628351" lon="2.679734"><ele>66.0</ele></trkpt>
<trkpt lat="39.630043" lon="2.678991"><ele>68.0</ele></trkpt>
<trkpt lat="39.631588" lon="2.678305"><ele>70.0</ele></trkpt>
<trkpt lat="39.634804" lon="2.676875"><ele>74.0</ele></trkpt>
<trkpt lat="39.635003" lon="2.676794"><ele>74.25</ele></trkpt>
<trkpt lat="39.636008" lon="2.676387"><ele>75.75</ele></trkpt>
<trkpt lat="39.636811" lon="2.676474"><ele>77.0</ele></trkpt>
<trkpt lat="39.636857" lon="2.676510"><ele>77.0</ele></trkpt>
<trkpt lat="39.636910" lon="2.676523"><ele>77.25</ele></trkpt>
<trkpt lat="39.636963" lon="2.676512"><ele>77.5</ele></trkpt>
<trkpt lat="39.637010" lon="2.676479"><ele>77.5</ele></trkpt>
<trkpt lat="39.637047" lon="2.676426"><ele>77.5</ele></trkpt>
<trkpt lat="39.637067" lon="2.676360"><ele>77.5</ele></trkpt>
<trkpt lat="39.637068" lon="2.676289"><ele>77.5</ele></trkpt>
<trkpt lat="39.637051" lon="2.676222"><ele>77.5</ele></trkpt>
<trkpt lat="39.637017" lon="2.676166"><ele>77.5</ele></trkpt>
<trkpt lat="39.636970" lon="2.676129"><ele>77.75</ele></trkpt>
<trkpt lat="39.637133" lon="2.675433"><ele>77.0</ele></trkpt>
<trkpt lat="39.637964" lon="2.671523"><ele>76.75</ele></trkpt>
<trkpt lat="39.638388" lon="2.669673"><ele>76.75</ele></trkpt>
<trkpt lat="39.638511" lon="2.669138"><ele>76.0</ele></trkpt>
<trkpt lat="39.638594" lon="2.668775"><ele>76.0</ele></trkpt>
<trkpt lat="39.638623" lon="2.668648"><ele>76.0</ele></trkpt>
<trkpt lat="39.638858" lon="2.667610"><ele>75.75</ele></trkpt>
<trkpt lat="39.638996" lon="2.667000"><ele>76.0</ele></trkpt>
<trkpt lat="39.639046" lon="2.666531"><ele>75.5</ele></trkpt>
<trkpt lat="39.639036" lon="2.665834"><ele>75.5</ele></trkpt>
<trkpt lat="39.639030" lon="2.665810"><ele>75.5</ele></trkpt>
<trkpt lat="39.638953" lon="2.665762"><ele>75.25</ele></trkpt>
<trkpt lat="39.638792" lon="2.665732"><ele>75.25</ele></trkpt>
<trkpt lat="39.638684" lon="2.665668"><ele>76.0</ele></trkpt>
<trkpt lat="39.638137" lon="2.665669"><ele>74.75</ele></trkpt>
<trkpt lat="39.637263" lon="2.665587"><ele>73.25</ele></trkpt>
<trkpt lat="39.635732" lon="2.665192"><ele>74.25</ele></trkpt>
<trkpt lat="39.635999" lon="2.663990"><ele>74.5</ele></trkpt>
<trkpt lat="39.636047" lon="2.663770"><ele>74.75</ele></trkpt>
<trkpt lat="39.636010" lon="2.663224"><ele>75.0</ele></trkpt>
<trkpt lat="39.635990" lon="2.662928"><ele>75.25</ele></trkpt>
<trkpt lat="39.635986" lon="2.662870"><ele>75.25</ele></trkpt>
<trkpt lat="39.635907" lon="2.662118"><ele>76.0</ele></trkpt>
<trkpt lat="39.635801" lon="2.660956"><ele>76.75</ele></trkpt>
<trkpt lat="39.635764" lon="2.660559"><ele>77.0</ele></trkpt>
<trkpt lat="39.635688" lon="2.659731"><ele>77.75</ele></trkpt>
<trkpt lat="39.635628" lon="2.659073"><ele>79.0</ele></trkpt>
<trkpt lat="39.635549" lon="2.658216"><ele>80.0</ele></trkpt>
<trkpt lat="39.635485" lon="2.657689"><ele>80.5</ele></trkpt>
<trkpt lat="39.635514" lon="2.656517"><ele>80.75</ele></trkpt>
<trkpt lat="39.635513" lon="2.655853"><ele>81.0</ele></trkpt>
<trkpt lat="39.634827" lon="2.655792"><ele>81.0</ele></trkpt>
<trkpt lat="39.634098" lon="2.655921"><ele>81.0</ele></trkpt>
<trkpt lat="39.633691" lon="2.655993"><ele>80.25</ele></trkpt>
<trkpt lat="39.633357" lon="2.656168"><ele>79.25</ele></trkpt>
<trkpt lat="39.633173" lon="2.656198"><ele>79.0</ele></trkpt>
<trkpt lat="39.632431" lon="2.656144"><ele>77.75</ele></trkpt>
<trkpt lat="39.632099" lon="2.655985"><ele>77.25</ele></trkpt>
<trkpt lat="39.631282" lon="2.655857"><ele>77.0</ele></trkpt>
<trkpt lat="39.630368" lon="2.655800"><ele>75.25</ele></trkpt>
<trkpt lat="39.628807" lon="2.655862"><ele>73.0</ele></trkpt>
<trkpt lat="39.627902" lon="2.652512"><ele>75.75</ele></trkpt>
<trkpt lat="39.627663" lon="2.651709"><ele>76.5</ele></trkpt>
<trkpt lat="39.627634" lon="2.651639"><ele>76.25</ele></trkpt>
<trkpt lat="39.627200" lon="2.651194"><ele>76.25</ele></trkpt>
<trkpt lat="39.626912" lon="2.650678"><ele>76.25</ele></trkpt>
<trkpt lat="39.626904" lon="2.650629"><ele>76.5</ele></trkpt>
<trkpt lat="39.627021" lon="2.650466"><ele>77.0</ele></trkpt>
<trkpt lat="39.627183" lon="2.650389"><ele>77.0</ele></trkpt>
<trkpt lat="39.627159" lon="2.649948"><ele>77.75</ele></trkpt>
<trkpt lat="39.627133" lon="2.648957"><ele>78.5</ele></trkpt>
<trkpt lat="39.627074" lon="2.648925"><ele>78.25</ele></trkpt>
<trkpt lat="39.627037" lon="2.648974"><ele>78.0</ele></trkpt>
<trkpt lat="39.626715" lon="2.648911"><ele>77.75</ele></trkpt>
<trkpt lat="39.626438" lon="2.648854"></trkpt>
<trkpt lat="39.626369" lon="2.648811"></trkpt>
<trkpt lat="39.626328" lon="2.648753"></trkpt>
<trkpt lat="39.626301" lon="2.648684"></trkpt>
<trkpt lat="39.626297" lon="2.648362"></trkpt>
<trkpt lat="39.626276" lon="2.648276"></trkpt>
<trkpt lat="39.625885" lon="2.648087"></trkpt>
<trkpt lat="39.625892" lon="2.648064"></trkpt>
<trkpt lat="39.625979" lon="2.648095"></trkpt>
<trkpt lat="39.626059" lon="2.648113"><ele>78.75</ele></trkpt>
<trkpt lat="39.626132" lon="2.648099"><ele>78.75</ele></trkpt>
<trkpt lat="39.626235" lon="2.648051"><ele>78.5</ele></trkpt>
<trkpt lat="39.626236" lon="2.648021"><ele>78.5</ele></trkpt>
<trkpt lat="39.626082" lon="2.648062"><ele>79.0</ele></trkpt>
<trkpt lat="39.626015" lon="2.648064"><ele>79.0</ele></trkpt>
<trkpt lat="39.625960" lon="2.648046"><ele>79.0</ele></trkpt>
<trkpt lat="39.625965" lon="2.648015"><ele>79.0</ele></trkpt>
<trkpt lat="39.625974" lon="2.647956"><ele>79.0</ele></trkpt>
<trkpt lat="39.625526" lon="2.647759"><ele>78.75</ele></trkpt>
<trkpt lat="39.625255" lon="2.647663"><ele>78.5</ele></trkpt>
<trkpt lat="39.624964" lon="2.647584"><ele>78.25</ele></trkpt>
<trkpt lat="39.624849" lon="2.647535"><ele>78.0</ele></trkpt>
<trkpt lat="39.624756" lon="2.647478"><ele>77.75</ele></trkpt>
<trkpt lat="39.624638" lon="2.647364"><ele>77.5</ele></trkpt>
<trkpt lat="39.624553" lon="2.647266"><ele>77.5</ele></trkpt>
<trkpt lat="39.624360" lon="2.646975"><ele>77.5</ele></trkpt>
<trkpt lat="39.624268" lon="2.646912"><ele>77.25</ele></trkpt>
<trkpt lat="39.624138" lon="2.646899"><ele>77.0</ele></trkpt>
<trkpt lat="39.624079" lon="2.646912"><ele>77.0</ele></trkpt>
<trkpt lat="39.624044" lon="2.646920"><ele>77.0</ele></trkpt>
<trkpt lat="39.623847" lon="2.647027"><ele>77.0</ele></trkpt>
<trkpt lat="39.623740" lon="2.647018"><ele>76.5</ele></trkpt>
<trkpt lat="39.623587" lon="2.647021"><ele>76.0</ele></trkpt>
<trkpt lat="39.623482" lon="2.647054"><ele>76.0</ele></trkpt>
<trkpt lat="39.623392" lon="2.647099"><ele>75.5</ele></trkpt>
<trkpt lat="39.623212" lon="2.647255"><ele>75.5</ele></trkpt>
<trkpt lat="39.623044" lon="2.647322"><ele>75.75</ele></trkpt>
<trkpt lat="39.622952" lon="2.647322"><ele>75.75</ele></trkpt>
<trkpt lat="39.622824" lon="2.647269"><ele>75.25</ele></trkpt>
<trkpt lat="39.621523" lon="2.646548"><ele>74.0</ele></trkpt>
<trkpt lat="39.621284" lon="2.646439"><ele>73.75</ele></trkpt>
<trkpt lat="39.620871" lon="2.646289"><ele>74.0</ele></trkpt>
<trkpt lat="39.620453" lon="2.646175"><ele>73.0</ele></trkpt>
<trkpt lat="39.619597" lon="2.646077"><ele>72.0</ele></trkpt>
<trkpt lat="39.619182" lon="2.646015"><ele>72.0</ele></trkpt>
<trkpt lat="39.618316" lon="2.645931"><ele>70.75</ele></trkpt>
<trkpt lat="39.617275" lon="2.645876"><ele>69.0</ele></trkpt>
<trkpt lat="39.616610" lon="2.645880"><ele>68.0</ele></trkpt>
<trkpt lat="39.616485" lon="2.645452"><ele>68.5</ele></trkpt>
<trkpt lat="39.616589" lon="2.645394"><ele>69.25</ele></trkpt>
<trkpt lat="39.616911" lon="2.645143"><ele>70.0</ele></trkpt>
<trkpt lat="39.617133" lon="2.644991"><ele>70.0</ele></trkpt>
<trkpt lat="39.617785" lon="2.644535"><ele>71.0</ele></trkpt>
<trkpt lat="39.619326" lon="2.643570"><ele>73.5</ele></trkpt>
<trkpt lat="39.619819" lon="2.643101"><ele>74.25</ele></trkpt>
<trkpt lat="39.620884" lon="2.642083"><ele>76.0</ele></trkpt>
<trkpt lat="39.620973" lon="2.641972"><ele>76.5</ele></trkpt>
<trkpt lat="39.621326" lon="2.640989"><ele>77.75</ele></trkpt>
<trkpt lat="39.621217" lon="2.640557"><ele>76.75</ele></trkpt>
<trkpt lat="39.621128" lon="2.640242"><ele>77.0</ele></trkpt>
<trkpt lat="39.621099" lon="2.640109"><ele>76.75</ele></trkpt>
<trkpt lat="39.621021" lon="2.639841"><ele>76.5</ele></trkpt>
<trkpt lat="39.620154" lon="2.638959"><ele>75.5</ele></trkpt>
<trkpt lat="39.620129" lon="2.638877"><ele>75.25</ele></trkpt>
<trkpt lat="39.620095" lon="2.638765"><ele>75.5</ele></trkpt>
<trkpt lat="39.620133" lon="2.638679"><ele>75.75</ele></trkpt>
<trkpt lat="39.620166" lon="2.638603"><ele>76.0</ele></trkpt>
<trkpt lat="39.620250" lon="2.637865"><ele>76.75</ele></trkpt>
<trkpt lat="39.620274" lon="2.637152"><ele>77.0</ele></trkpt>
<trkpt lat="39.620115" lon="2.635538"><ele>79.5</ele></trkpt>
<trkpt lat="39.619831" lon="2.634251"><ele>87.5</ele></trkpt>
<trkpt lat="39.618449" lon="2.627642"><ele>89.75</ele></trkpt>
<trkpt lat="39.618542" lon="2.627556"><ele>89.75</ele></trkpt>
<trkpt lat="39.618882" lon="2.627389"><ele>90.0</ele></trkpt>
<trkpt lat="39.619328" lon="2.627170"><ele>91.0</ele></trkpt>
<trkpt lat="39.619569" lon="2.627068"><ele>91.0</ele></trkpt>
<trkpt lat="39.620014" lon="2.626880"><ele>92.0</ele></trkpt>
<trkpt lat="39.619995" lon="2.626146"><ele>92.75</ele></trkpt>
<trkpt lat="39.619970" lon="2.626009"><ele>92.75</ele></trkpt>
<trkpt lat="39.619849" lon="2.625796"><ele>92.5</ele></trkpt>
<trkpt lat="39.619838" lon="2.625620"><ele>92.75</ele></trkpt>
<trkpt lat="39.619748" lon="2.625443"><ele>93.0</ele></trkpt>
<trkpt lat="39.619640" lon="2.625233"><ele>93.0</ele></trkpt>
<trkpt lat="39.619580" lon="2.625071"><ele>93.25</ele></trkpt>
<trkpt lat="39.619520" lon="2.625052"><ele>93.0</ele></trkpt>
<trkpt lat="39.619329" lon="2.624809"><ele>93.0</ele></trkpt>
<trkpt lat="39.619170" lon="2.624656"><ele>93.0</ele></trkpt>
<trkpt lat="39.618790" lon="2.624515"><ele>91.25</ele></trkpt>
<trkpt lat="39.618733" lon="2.624486"><ele>90.75</ele></trkpt>
<trkpt lat="39.618764" lon="2.624334"><ele>90.75</ele></trkpt>
<trkpt lat="39.618904" lon="2.623791"><ele>90.0</ele></trkpt>
<trkpt lat="39.619020" lon="2.623533"><ele>88.5</ele></trkpt>
<trkpt lat="39.619140" lon="2.623317"><ele>88.25</ele></trkpt>
<trkpt lat="39.619196" lon="2.623215"><ele>87.5</ele></trkpt>
<trkpt lat="39.619302" lon="2.623086"><ele>87.25</ele></trkpt>
<trkpt lat="39.619333" lon="2.623007"><ele>87.0</ele></trkpt>
<trkpt lat="39.619347" lon="2.622910"><ele>86.5</ele></trkpt>
<trkpt lat="39.619329" lon="2.622833"><ele>85.5</ele></trkpt>
<trkpt lat="39.619141" lon="2.622641"><ele>83.5</ele></trkpt>
<trkpt lat="39.619096" lon="2.622546"><ele>83.5</ele></trkpt>
<trkpt lat="39.619090" lon="2.622351"><ele>81.5</ele></trkpt>
<trkpt lat="39.619238" lon="2.622009"><ele>79.0</ele></trkpt>
<trkpt lat="39.619532" lon="2.621420"><ele>78.25</ele></trkpt>
<trkpt lat="39.619615" lon="2.620150"><ele>76.5</ele></trkpt>
<trkpt lat="39.619646" lon="2.619280"><ele>78.0</ele></trkpt>
<trkpt lat="39.619658" lon="2.618927"><ele>78.25</ele></trkpt>
<trkpt lat="39.619689" lon="2.618334"><ele>77.75</ele></trkpt>
<trkpt lat="39.619695" lon="2.618002"><ele>78.5</ele></trkpt>
<trkpt lat="39.619732" lon="2.617228"><ele>78.25</ele></trkpt>
<trkpt lat="39.619848" lon="2.616408"><ele>79.25</ele></trkpt>
<trkpt lat="39.620205" lon="2.615551"><ele>79.25</ele></trkpt>
<trkpt lat="39.620472" lon="2.615128"><ele>81.5</ele></trkpt>
<trkpt lat="39.620665" lon="2.614868"><ele>81.5</ele></trkpt>
<trkpt lat="39.620849" lon="2.614653"><ele>81.0</ele></trkpt>
<trkpt lat="39.621045" lon="2.614411"><ele>81.75</ele></trkpt>
<trkpt lat="39.621151" lon="2.614089"><ele>83.5</ele></trkpt>
<trkpt lat="39.621184" lon="2.613868"><ele>84.5</ele></trkpt>
<trkpt lat="39.621236" lon="2.613515"><ele>84.25</ele></trkpt>
<trkpt lat="39.621332" lon="2.612968"><ele>84.0</ele></trkpt>
<trkpt lat="39.621473" lon="2.612411"><ele>83.75</ele></trkpt>
<trkpt lat="39.621483" lon="2.612168"><ele>83.25</ele></trkpt>
<trkpt lat="39.621400" lon="2.611824"><ele>83.5</ele></trkpt>
<trkpt lat="39.621293" lon="2.611498"><ele>83.25</ele></trkpt>
<trkpt lat="39.621020" lon="2.610628"><ele>82.5</ele></trkpt>
<trkpt lat="39.620856" lon="2.609764"><ele>83.5</ele></trkpt>
<trkpt lat="39.620771" lon="2.608728"><ele>83.0</ele></trkpt>
<trkpt lat="39.620739" lon="2.608028"><ele>82.5</ele></trkpt>
<trkpt lat="39.620726" lon="2.607742"><ele>82.25</ele></trkpt>
<trkpt lat="39.620707" lon="2.607559"><ele>82.0</ele></trkpt>
<trkpt lat="39.620674" lon="2.607522"><ele>81.5</ele></trkpt>
<trkpt lat="39.620514" lon="2.607351"><ele>81.5</ele></trkpt>
<trkpt lat="39.620429" lon="2.607177"><ele>84.75</ele></trkpt>
<trkpt lat="39.620466" lon="2.606467"><ele>84.0</ele></trkpt>
<trkpt lat="39.620525" lon="2.605640"><ele>85.75</ele></trkpt>
<trkpt lat="39.620543" lon="2.605538"><ele>86.0</ele></trkpt>
<trkpt lat="39.620548" lon="2.605438"><ele>86.25</ele></trkpt>
<trkpt lat="39.620521" lon="2.605384"><ele>86.75</ele></trkpt>
<trkpt lat="39.620468" lon="2.605350"><ele>87.25</ele></trkpt>
<trkpt lat="39.620433" lon="2.605349"><ele>87.5</ele></trkpt>
<trkpt lat="39.620395" lon="2.605349"><ele>87.75</ele></trkpt>
<trkpt lat="39.620329" lon="2.605468"><ele>87.75</ele></trkpt>
<trkpt lat="39.620223" lon="2.605675"><ele>89.5</ele></trkpt>
<trkpt lat="39.620173" lon="2.605795"><ele>91.0</ele></trkpt>
<trkpt lat="39.620118" lon="2.606015"><ele>91.75</ele></trkpt>
<trkpt lat="39.620015" lon="2.606615"><ele>92.0</ele></trkpt>
<trkpt lat="39.619964" lon="2.606855"><ele>93.25</ele></trkpt>
<trkpt lat="39.619825" lon="2.607238"><ele>94.0</ele></trkpt>
<trkpt lat="39.619746" lon="2.607459"><ele>94.0</ele></trkpt>
<trkpt lat="39.619520" lon="2.607993"><ele>97.25</ele></trkpt>
<trkpt lat="39.619324" lon="2.608627"><ele>99.25</ele></trkpt>
<trkpt lat="39.619023" lon="2.609465"><ele>101.0</ele></trkpt>
<trkpt lat="39.619020" lon="2.609617"><ele>101.25</ele></trkpt>
<trkpt lat="39.619035" lon="2.609765"><ele>101.5</ele></trkpt>
<trkpt lat="39.619092" lon="2.610025"><ele>102.25</ele></trkpt>
<trkpt lat="39.619104" lon="2.610078"><ele>102.25</ele></trkpt>
<trkpt lat="39.619119" lon="2.610213"><ele>102.25</ele></trkpt>
<trkpt lat="39.619128" lon="2.610294"><ele>102.25</ele></trkpt>
<trkpt lat="39.619122" lon="2.610510"><ele>102.5</ele></trkpt>
<trkpt lat="39.619091" lon="2.610663"><ele>102.5</ele></trkpt>
<trkpt lat="39.618822" lon="2.611415"><ele>102.75</ele></trkpt>
<trkpt lat="39.618680" lon="2.612203"><ele>103.5</ele></trkpt>
<trkpt lat="39.618598" lon="2.613031"><ele>101.25</ele></trkpt>
<trkpt lat="39.618368" lon="2.613901"><ele>100.25</ele></trkpt>
<trkpt lat="39.618237" lon="2.614455"><ele>99.75</ele></trkpt>
<trkpt lat="39.618136" lon="2.614828"><ele>98.75</ele></trkpt>
<trkpt lat="39.618023" lon="2.615132"><ele>98.75</ele></trkpt>
<trkpt lat="39.617965" lon="2.615289"><ele>98.75</ele></trkpt>
<trkpt lat="39.617887" lon="2.615395"><ele>99.25</ele></trkpt>
<trkpt lat="39.617552" lon="2.615849"><ele>100.5</ele></trkpt>
<trkpt lat="39.617423" lon="2.615959"><ele>101.5</ele></trkpt>
<trkpt lat="39.617275" lon="2.616002"><ele>102.75</ele></trkpt>
<trkpt lat="39.617174" lon="2.616022"><ele>103.5</ele></trkpt>
<trkpt lat="39.615801" lon="2.616251"><ele>109.5</ele></trkpt>
<trkpt lat="39.610823" lon="2.617898"><ele>102.25</ele></trkpt>
<trkpt lat="39.609388" lon="2.618373"><ele>97.5</ele></trkpt>
<trkpt lat="39.607973" lon="2.618826"><ele>89.75</ele></trkpt>
<trkpt lat="39.607877" lon="2.618861"><ele>89.25</ele></trkpt>
<trkpt lat="39.606093" lon="2.619458"><ele>85.75</ele></trkpt>
<trkpt lat="39.604215" lon="2.620074"><ele>81.5</ele></trkpt>
<trkpt lat="39.604173" lon="2.620090"><ele>81.5</ele></trkpt>
<trkpt lat="39.604029" lon="2.620125"><ele>81.5</ele></trkpt>
<trkpt lat="39.603297" lon="2.620377"><ele>78.75</ele></trkpt>
<trkpt lat="39.603223" lon="2.620425"><ele>78.5</ele></trkpt>
<trkpt lat="39.603186" lon="2.620476"><ele>78.25</ele></trkpt>
<trkpt lat="39.603058" lon="2.620694"><ele>77.5</ele></trkpt>
<trkpt lat="39.602821" lon="2.621125"><ele>76.0</ele></trkpt>
<trkpt lat="39.602561" lon="2.621484"><ele>74.25</ele></trkpt>
<trkpt lat="39.601853" lon="2.622533"><ele>71.5</ele></trkpt>
<trkpt lat="39.601591" lon="2.622932"><ele>70.25</ele></trkpt>
<trkpt lat="39.600936" lon="2.623891"><ele>66.75</ele></trkpt>
<trkpt lat="39.600040" lon="2.625131"><ele>63.0</ele></trkpt>
<trkpt lat="39.599389" lon="2.626032"><ele>60.25</ele></trkpt>
<trkpt lat="39.599184" lon="2.626316"><ele>60.0</ele></trkpt>
<trkpt lat="39.599052" lon="2.626462"><ele>59.25</ele></trkpt>
<trkpt lat="39.598711" lon="2.626755"><ele>58.0</ele></trkpt>
<trkpt lat="39.598512" lon="2.626877"><ele>57.5</ele></trkpt>
<trkpt lat="39.598343" lon="2.626938"><ele>57.0</ele></trkpt>
<trkpt lat="39.598165" lon="2.626954"><ele>57.0</ele></trkpt>
<trkpt lat="39.598114" lon="2.626965"><ele>57.0</ele></trkpt>
<trkpt lat="39.598068" lon="2.626993"><ele>57.0</ele></trkpt>
<trkpt lat="39.598032" lon="2.627041"><ele>56.75</ele></trkpt>
<trkpt lat="39.598004" lon="2.627117"><ele>56.75</ele></trkpt>
<trkpt lat="39.597909" lon="2.627277"><ele>56.25</ele></trkpt>
<trkpt lat="39.597623" lon="2.627615"><ele>55.25</ele></trkpt>
<trkpt lat="39.597537" lon="2.627731"><ele>55.0</ele></trkpt>
<trkpt lat="39.596484" lon="2.628585"><ele>49.5</ele></trkpt>
<trkpt lat="39.596181" lon="2.628914"><ele>48.0</ele></trkpt>
<trkpt lat="39.596097" lon="2.629025"><ele>48.0</ele></trkpt>
<trkpt lat="39.595916" lon="2.629246"><ele>47.75</ele></trkpt>
<trkpt lat="39.595447" lon="2.629876"><ele>45.75</ele></trkpt>
<trkpt lat="39.595271" lon="2.630111"><ele>45.0</ele></trkpt>
<trkpt lat="39.594686" lon="2.630830"><ele>44.0</ele></trkpt>
<trkpt lat="39.594570" lon="2.630972"><ele>44.0</ele></trkpt>
<trkpt lat="39.594485" lon="2.631072"><ele>44.0</ele></trkpt>
<trkpt lat="39.594412" lon="2.631170"><ele>43.75</ele></trkpt>
<trkpt lat="39.594278" lon="2.631324"><ele>43.75</ele></trkpt>
<trkpt lat="39.594219" lon="2.631402"><ele>43.75</ele></trkpt>
<trkpt lat="39.593995" lon="2.631691"><ele>44.0</ele></trkpt>
<trkpt lat="39.593781" lon="2.631968"><ele>44.0</ele></trkpt>
<trkpt lat="39.593653" lon="2.632133"><ele>43.75</ele></trkpt>
<trkpt lat="39.593344" lon="2.632475"><ele>42.25</ele></trkpt>
<trkpt lat="39.592984" lon="2.632826"><ele>42.0</ele></trkpt>
<trkpt lat="39.592908" lon="2.632899"><ele>42.0</ele></trkpt>
<trkpt lat="39.592736" lon="2.632962"><ele>42.0</ele></trkpt>
<trkpt lat="39.592701" lon="2.632926"><ele>42.0</ele></trkpt>
<trkpt lat="39.592661" lon="2.632902"><ele>42.0</ele></trkpt>
<trkpt lat="39.592617" lon="2.632891"><ele>42.0</ele></trkpt>
<trkpt lat="39.592560" lon="2.632899"><ele>42.0</ele></trkpt>
<trkpt lat="39.592507" lon="2.632928"><ele>42.0</ele></trkpt>
<trkpt lat="39.592464" lon="2.632978"><ele>42.0</ele></trkpt>
<trkpt lat="39.592435" lon="2.633041"><ele>42.0</ele></trkpt>
<trkpt lat="39.592423" lon="2.633113"><ele>42.0</ele></trkpt>
<trkpt lat="39.592357" lon="2.633226"><ele>42.0</ele></trkpt>
<trkpt lat="39.592333" lon="2.633267"><ele>42.0</ele></trkpt>
<trkpt lat="39.592310" lon="2.633198"><ele>42.0</ele></trkpt>
<trkpt lat="39.592300" lon="2.633169"><ele>42.0</ele></trkpt>
<trkpt lat="39.592184" lon="2.633268"><ele>42.0</ele></trkpt>
<trkpt lat="39.591259" lon="2.633719"><ele>42.5</ele></trkpt>
<trkpt lat="39.590834" lon="2.633842"><ele>43.5</ele></trkpt>
<trkpt lat="39.590421" lon="2.633935"><ele>44.0</ele></trkpt>
<trkpt lat="39.590050" lon="2.634034"><ele>45.5</ele></trkpt>
<trkpt lat="39.589735" lon="2.634136"><ele>44.75</ele></trkpt>
<trkpt lat="39.589180" lon="2.634335"><ele>45.0</ele></trkpt>
<trkpt lat="39.589070" lon="2.634358"><ele>44.5</ele></trkpt>
<trkpt lat="39.588938" lon="2.634346"><ele>44.0</ele></trkpt>
<trkpt lat="39.588835" lon="2.634298"><ele>44.25</ele></trkpt>
<trkpt lat="39.588745" lon="2.634228"><ele>44.5</ele></trkpt>
<trkpt lat="39.588732" lon="2.634222"><ele>44.25</ele></trkpt>
<trkpt lat="39.588702" lon="2.634229"><ele>44.25</ele></trkpt>
<trkpt lat="39.588678" lon="2.634249"><ele>44.0</ele></trkpt>
<trkpt lat="39.588633" lon="2.634282"><ele>43.5</ele></trkpt>
<trkpt lat="39.588558" lon="2.634319"><ele>44.0</ele></trkpt>
<trkpt lat="39.588475" lon="2.634388"><ele>44.25</ele></trkpt>
<trkpt lat="39.588234" lon="2.634690"><ele>43.5</ele></trkpt>
<trkpt lat="39.588164" lon="2.634849"><ele>43.25</ele></trkpt>
<trkpt lat="39.588107" lon="2.634906"><ele>43.25</ele></trkpt>
<trkpt lat="39.588073" lon="2.634940"><ele>43.0</ele></trkpt>
<trkpt lat="39.588022" lon="2.635008"><ele>44.0</ele></trkpt>
<trkpt lat="39.588016" lon="2.635030"><ele>44.25</ele></trkpt>
<trkpt lat="39.588104" lon="2.635249"><ele>44.25</ele></trkpt>
<trkpt lat="39.588130" lon="2.635360"><ele>43.75</ele></trkpt>
<trkpt lat="39.588137" lon="2.635483"><ele>43.0</ele></trkpt>
<trkpt lat="39.588125" lon="2.635597"><ele>42.25</ele></trkpt>
<trkpt lat="39.588034" lon="2.636028"><ele>40.0</ele></trkpt>
<trkpt lat="39.587987" lon="2.636179"><ele>40.25</ele></trkpt>
<trkpt lat="39.587940" lon="2.636299"><ele>40.75</ele></trkpt>
<trkpt lat="39.587933" lon="2.636355"><ele>40.75</ele></trkpt>
<trkpt lat="39.587951" lon="2.636439"><ele>39.75</ele></trkpt>
<trkpt lat="39.587953" lon="2.636449"><ele>39.5</ele></trkpt>
<trkpt lat="39.587968" lon="2.636519"><ele>38.75</ele></trkpt>
<trkpt lat="39.587968" lon="2.636587"><ele>38.5</ele></trkpt>
<trkpt lat="39.587868" lon="2.637019"><ele>36.75</ele></trkpt>
<trkpt lat="39.587809" lon="2.637226"><ele>34.75</ele></trkpt>
<trkpt lat="39.587734" lon="2.637453"><ele>33.75</ele></trkpt>
<trkpt lat="39.587658" lon="2.637659"><ele>34.0</ele></trkpt>
<trkpt lat="39.587559" lon="2.637893"><ele>32.5</ele></trkpt>
<trkpt lat="39.587472" lon="2.638081"><ele>30.25</ele></trkpt>
<trkpt lat="39.587281" lon="2.638439"><ele>28.25</ele></trkpt>
<trkpt lat="39.587246" lon="2.638529"><ele>27.5</ele></trkpt>
<trkpt lat="39.587129" lon="2.638707"></trkpt>
<trkpt lat="39.587014" lon="2.638847"></trkpt>
<trkpt lat="39.586914" lon="2.638955"><ele>27.0</ele></trkpt>
<trkpt lat="39.586885" lon="2.638965"><ele>27.25</ele></trkpt>
<trkpt lat="39.586859" lon="2.638964"><ele>27.25</ele></trkpt>
<trkpt lat="39.586642" lon="2.639151"><ele>27.75</ele></trkpt>
<trkpt lat="39.586333" lon="2.639346"><ele>27.25</ele></trkpt>
<trkpt lat="39.586299" lon="2.639349"><ele>27.25</ele></trkpt>
<trkpt lat="39.586093" lon="2.639498"><ele>27.25</ele></trkpt>
<trkpt lat="39.586081" lon="2.639532"><ele>27.5</ele></trkpt>
<trkpt lat="39.585889" lon="2.639701"><ele>28.0</ele></trkpt>
<trkpt lat="39.585784" lon="2.639803"><ele>28.5</ele></trkpt>
<trkpt lat="39.585730" lon="2.639855"><ele>28.75</ele></trkpt>
<trkpt lat="39.585702" lon="2.639864"><ele>28.75</ele></trkpt>
<trkpt lat="39.585664" lon="2.639862"><ele>29.0</ele></trkpt>
<trkpt lat="39.585627" lon="2.639840"><ele>29.25</ele></trkpt>
<trkpt lat="39.585608" lon="2.639815"><ele>29.25</ele></trkpt>
<trkpt lat="39.585591" lon="2.639773"><ele>29.5</ele></trkpt>
<trkpt lat="39.585566" lon="2.639754"><ele>29.75</ele></trkpt>
<trkpt lat="39.585506" lon="2.639735"><ele>29.75</ele></trkpt>
<trkpt lat="39.585454" lon="2.639716"><ele>29.75</ele></trkpt>
<trkpt lat="39.585422" lon="2.639699"><ele>29.75</ele></trkpt>
<trkpt lat="39.585411" lon="2.639693"><ele>29.75</ele></trkpt>
<trkpt lat="39.585313" lon="2.639843"><ele>29.5</ele></trkpt>
<trkpt lat="39.585203" lon="2.639958"><ele>29.25</ele></trkpt>
<trkpt lat="39.585160" lon="2.640034"><ele>29.25</ele></trkpt>
<trkpt lat="39.585124" lon="2.640122"><ele>29.5</ele></trkpt>
<trkpt lat="39.585097" lon="2.640340"><ele>29.5</ele></trkpt>
<trkpt lat="39.585088" lon="2.640380"><ele>29.25</ele></trkpt>
<trkpt lat="39.585064" lon="2.640442"><ele>29.25</ele></trkpt>
<trkpt lat="39.585031" lon="2.640509"><ele>29.0</ele></trkpt>
<trkpt lat="39.584986" lon="2.640553"><ele>29.0</ele></trkpt>
<trkpt lat="39.584504" lon="2.640961"><ele>28.5</ele></trkpt>
<trkpt lat="39.584359" lon="2.641088"><ele>28.0</ele></trkpt>
<trkpt lat="39.584211" lon="2.641230"><ele>28.0</ele></trkpt>
<trkpt lat="39.583941" lon="2.641521"><ele>27.5</ele></trkpt>
<trkpt lat="39.583147" lon="2.642460"><ele>26.0</ele></trkpt>
<trkpt lat="39.582685" lon="2.642866"><ele>24.5</ele></trkpt>
<trkpt lat="39.582560" lon="2.642980"><ele>24.25</ele></trkpt>
<trkpt lat="39.582444" lon="2.643101"><ele>23.75</ele></trkpt>
<trkpt lat="39.581671" lon="2.644238"><ele>23.0</ele></trkpt>
<trkpt lat="39.581648" lon="2.644273"><ele>22.75</ele></trkpt>
<trkpt lat="39.581640" lon="2.644279"><ele>22.5</ele></trkpt>
<trkpt lat="39.581554" lon="2.644349"><ele>21.25</ele></trkpt>
<trkpt lat="39.581509" lon="2.644386"><ele>20.0</ele></trkpt>
<trkpt lat="39.581493" lon="2.644359"><ele>20.0</ele></trkpt>
<trkpt lat="39.581368" lon="2.644137"><ele>21.5</ele></trkpt>
<trkpt lat="39.580379" lon="2.642376"><ele>22.0</ele></trkpt>
<trkpt lat="39.580351" lon="2.642401"><ele>22.0</ele></trkpt>
<trkpt lat="39.580335" lon="2.642418"><ele>22.0</ele></trkpt>
<trkpt lat="39.580316" lon="2.642438"><ele>22.0</ele></trkpt>
<trkpt lat="39.580298" lon="2.642417"><ele>22.0</ele></trkpt>
<trkpt lat="39.580204" lon="2.642313"><ele>21.75</ele></trkpt>
<trkpt lat="39.580141" lon="2.642269"><ele>21.75</ele></trkpt>
<trkpt lat="39.580099" lon="2.642248"><ele>21.75</ele></trkpt>
<trkpt lat="39.580049" lon="2.642240"><ele>21.75</ele></trkpt>
<trkpt lat="39.579993" lon="2.642254"><ele>21.75</ele></trkpt>
<trkpt lat="39.579903" lon="2.642298"><ele>21.5</ele></trkpt>
<trkpt lat="39.579684" lon="2.642459"><ele>21.25</ele></trkpt>
<trkpt lat="39.579325" lon="2.642725"><ele>21.0</ele></trkpt>
<trkpt lat="39.579274" lon="2.642747"><ele>21.25</ele></trkpt>
<trkpt lat="39.579251" lon="2.642746"><ele>21.25</ele></trkpt>
<trkpt lat="39.579152" lon="2.642820"><ele>21.5</ele></trkpt>
<trkpt lat="39.579117" lon="2.642847"><ele>21.25</ele></trkpt>
<trkpt lat="39.579094" lon="2.642864"><ele>21.25</ele></trkpt>
<trkpt lat="39.579005" lon="2.642960"><ele>20.75</ele></trkpt>
<trkpt lat="39.577789" lon="2.643868"><ele>21.0</ele></trkpt>
<trkpt lat="39.577625" lon="2.643993"><ele>19.5</ele></trkpt>
<trkpt lat="39.577146" lon="2.644036"><ele>19.75</ele></trkpt>
<trkpt lat="39.576471" lon="2.644058"><ele>18.75</ele></trkpt>
<trkpt lat="39.576373" lon="2.644083"><ele>19.0</ele></trkpt>
<trkpt lat="39.576273" lon="2.644109"><ele>19.5</ele></trkpt>
<trkpt lat="39.576120" lon="2.644118"><ele>21.0</ele></trkpt>
<trkpt lat="39.576054" lon="2.644126"><ele>20.25</ele></trkpt>
<trkpt lat="39.575751" lon="2.644114"><ele>17.0</ele></trkpt>
<trkpt lat="39.574378" lon="2.643635"><ele>16.5</ele></trkpt>
<trkpt lat="39.573204" lon="2.641873"><ele>14.5</ele></trkpt>
<trkpt lat="39.572604" lon="2.641755"><ele>15.0</ele></trkpt>
<trkpt lat="39.572534" lon="2.641732"><ele>15.5</ele></trkpt>
<trkpt lat="39.571511" lon="2.641539"><ele>12.75</ele></trkpt>
<trkpt lat="39.571453" lon="2.641514"><ele>13.0</ele></trkpt>
<trkpt lat="39.571382" lon="2.641426"><ele>14.0</ele></trkpt>
<trkpt lat="39.571043" lon="2.641104"><ele>12.0</ele></trkpt>
<trkpt lat="39.570861" lon="2.640931"><ele>10.25</ele></trkpt>
<trkpt lat="39.570853" lon="2.640924"><ele>10.25</ele></trkpt>
<trkpt lat="39.569958" lon="2.640070"><ele>5.25</ele></trkpt>
<trkpt lat="39.569936" lon="2.640040"><ele>5.25</ele></trkpt>
<trkpt lat="39.569917" lon="2.640014"><ele>5.25</ele></trkpt>
<trkpt lat="39.569876" lon="2.639992"><ele>4.75</ele></trkpt>
<trkpt lat="39.569543" lon="2.639677"><ele>3.25</ele></trkpt>
<trkpt lat="39.569525" lon="2.639629"><ele>3.25</ele></trkpt>
<trkpt lat="39.569448" lon="2.639637"><ele>3.0</ele></trkpt>
<trkpt lat="39.569350" lon="2.639647"><ele>2.25</ele></trkpt>
<trkpt lat="39.569277" lon="2.639654"><ele>1.75</ele></trkpt>
<trkpt lat="39.569250" lon="2.639657"><ele>1.75</ele></trkpt>
<trkpt lat="39.569263" lon="2.639784"><ele>1.75</ele></trkpt>
<trkpt lat="39.569299" lon="2.640193"><ele>2.25</ele></trkpt>
<trkpt lat="39.569305" lon="2.640336"><ele>2.25</ele></trkpt>
<trkpt lat="39.569301" lon="2.640470"><ele>2.0</ele></trkpt>
<trkpt lat="39.569276" lon="2.640548"><ele>2.0</ele></trkpt>
<trkpt lat="39.569183" lon="2.640702"><ele>2.0</ele></trkpt>
<trkpt lat="39.569117" lon="2.640829"><ele>2.0</ele></trkpt>
<trkpt lat="39.569134" lon="2.641026"><ele>2.0</ele></trkpt>
<trkpt lat="39.569141" lon="2.641077"><ele>2.0</ele></trkpt>
<trkpt lat="39.569177" lon="2.641283"><ele>2.0</ele></trkpt>
<trkpt lat="39.569186" lon="2.641331"><ele>2.0</ele></trkpt>
<trkpt lat="39.569141" lon="2.641477"><ele>1.75</ele></trkpt>
<trkpt lat="39.569047" lon="2.641769"><ele>1.5</ele></trkpt>
<trkpt lat="39.568870" lon="2.642222"><ele>2.0</ele></trkpt>
<trkpt lat="39.568645" lon="2.642557"><ele>2.0</ele></trkpt>
<trkpt lat="39.568203" lon="2.643217"><ele>2.0</ele></trkpt>
<trkpt lat="39.567847" lon="2.643617"><ele>2.0</ele></trkpt>
<trkpt lat="39.567839" lon="2.643654"><ele>2.0</ele></trkpt>
<trkpt lat="39.567839" lon="2.643686"><ele>2.0</ele></trkpt>
<trkpt lat="39.567882" lon="2.643802"><ele>2.0</ele></trkpt>
<trkpt lat="39.567883" lon="2.643828"><ele>2.0</ele></trkpt>
<trkpt lat="39.567779" lon="2.643972"><ele>2.0</ele></trkpt>
<trkpt lat="39.567598" lon="2.644191"><ele>2.0</ele></trkpt>
<trkpt lat="39.567162" lon="2.644583"><ele>2.75</ele></trkpt>
<trkpt lat="39.567128" lon="2.644579"><ele>2.75</ele></trkpt>
<trkpt lat="39.567026" lon="2.644504"><ele>2.25</ele></trkpt>
<trkpt lat="39.566920" lon="2.644422"><ele>2.0</ele></trkpt>
<trkpt lat="39.566890" lon="2.644426"><ele>2.0</ele></trkpt>
<trkpt lat="39.566853" lon="2.644452"><ele>2.0</ele></trkpt>
<trkpt lat="39.566812" lon="2.644489"><ele>2.0</ele></trkpt>
<trkpt lat="39.566882" lon="2.644631"><ele>2.5</ele></trkpt>
<trkpt lat="39.566950" lon="2.644765"><ele>2.75</ele></trkpt>
<trkpt lat="39.566998" lon="2.644849"><ele>2.5</ele></trkpt>
<trkpt lat="39.567048" lon="2.644956"><ele>2.25</ele></trkpt>
<trkpt lat="39.567156" lon="2.645178"><ele>2.75</ele></trkpt>
<trkpt lat="39.567267" lon="2.645277"><ele>2.75</ele></trkpt>
<trkpt lat="39.567294" lon="2.645366"><ele>2.5</ele></trkpt>
<trkpt lat="39.568014" lon="2.645858"><ele>2.0</ele></trkpt>
<trkpt lat="39.567949" lon="2.646038"><ele>2.75</ele></trkpt>
<trkpt lat="39.568599" lon="2.646404"><ele>3.0</ele></trkpt>
<trkpt lat="39.568622" lon="2.646418"><ele>3.0</ele></trkpt>
<trkpt lat="39.568650" lon="2.646519"><ele>3.75</ele></trkpt>
<trkpt lat="39.568773" lon="2.646969"><ele>6.5</ele></trkpt>
<trkpt lat="39.568803" lon="2.647077"><ele>7.25</ele></trkpt>
<trkpt lat="39.568869" lon="2.647318"><ele>8.5</ele></trkpt>
<trkpt lat="39.569046" lon="2.647872"><ele>12.0</ele></trkpt>
<trkpt lat="39.569249" lon="2.648549"><ele>14.25</ele></trkpt>
<trkpt lat="39.569407" lon="2.649030"><ele>16.5</ele></trkpt>
<trkpt lat="39.569409" lon="2.649104"><ele>17.25</ele></trkpt>
<trkpt lat="39.569387" lon="2.649152"><ele>18.0</ele></trkpt>
<trkpt lat="39.569092" lon="2.649440"><ele>19.25</ele></trkpt>
<trkpt lat="39.569434" lon="2.649919"><ele>20.0</ele></trkpt>
<trkpt lat="39.569458" lon="2.650013"><ele>20.0</ele></trkpt>
<trkpt lat="39.569463" lon="2.650160"><ele>20.0</ele></trkpt>
<trkpt lat="39.569476" lon="2.650262"><ele>20.0</ele></trkpt>
<trkpt lat="39.569622" lon="2.650367"><ele>20.0</ele></trkpt>
<trkpt lat="39.569672" lon="2.650408"><ele>20.0</ele></trkpt>
<trkpt lat="39.569817" lon="2.650536"><ele>20.25</ele></trkpt>
<trkpt lat="39.569858" lon="2.650494"><ele>20.25</ele></trkpt>
<trkpt lat="39.569891" lon="2.650329"><ele>20.0</ele></trkpt>
<trkpt lat="39.569899" lon="2.650341"><ele>20.0</ele></trkpt>
<trkpt lat="39.569927" lon="2.650221"><ele>20.0</ele></trkpt>
<trkpt lat="39.570000" lon="2.650021"><ele>20.0</ele></trkpt>
</trkseg></trk></gpx>
