<?xml version="1.0" encoding="UTF-8"?>
<!-- track-length = 30647 filtered ascend = 408 plain-ascend = 0 cost=56715 energy=.0kwh time=24m 25s AUTO selected ISO_GREEDY (score 0.879) after 1 candidate(s) in 939ms. short shared stem near start/end: 65m -->
<gpx
 xmlns="http://www.topografix.com/GPX/1/1"
 xmlns:xsi="http://www.w3.org/2001/XMLSchema-instance"
 xsi:schemaLocation="http://www.topografix.com/GPX/1/1 http://www.topografix.com/GPX/1/1/gpx.xsd"
 creator="BRouter-null" version="1.1">
 <trk>
  <name>unset</name>
  <trkseg>
   <trkpt lon="2.650010" lat="39.570008"><ele>19.75</ele></trkpt>
   <trkpt lon="2.650021" lat="39.570000"><ele>20.0</ele></trkpt>
   <trkpt lon="2.650221" lat="39.569927"><ele>20.0</ele></trkpt>
   <trkpt lon="2.650341" lat="39.569899"><ele>20.0</ele></trkpt>
   <trkpt lon="2.650470" lat="39.570003"><ele>20.5</ele></trkpt>
   <trkpt lon="2.650502" lat="39.570017"><ele>20.75</ele></trkpt>
   <trkpt lon="2.650576" lat="39.569961"><ele>20.75</ele></trkpt>
   <trkpt lon="2.650583" lat="39.569961"><ele>20.75</ele></trkpt>
   <trkpt lon="2.650621" lat="39.569917"><ele>20.75</ele></trkpt>
   <trkpt lon="2.650951" lat="39.570323"><ele>21.0</ele></trkpt>
   <trkpt lon="2.650971" lat="39.570347"><ele>21.0</ele></trkpt>
   <trkpt lon="2.651013" lat="39.570397"><ele>21.0</ele></trkpt>
   <trkpt lon="2.651217" lat="39.570664"><ele>21.25</ele></trkpt>
   <trkpt lon="2.651275" lat="39.570751"><ele>21.5</ele></trkpt>
   <trkpt lon="2.651307" lat="39.570766"><ele>21.75</ele></trkpt>
   <trkpt lon="2.651365" lat="39.570778"><ele>21.75</ele></trkpt>
   <trkpt lon="2.651452" lat="39.570779"><ele>21.75</ele></trkpt>
   <trkpt lon="2.651552" lat="39.570776"><ele>21.75</ele></trkpt>
   <trkpt lon="2.651898" lat="39.570761"><ele>21.5</ele></trkpt>
   <trkpt lon="2.652024" lat="39.570691"><ele>21.25</ele></trkpt>
   <trkpt lon="2.652138" lat="39.570629"><ele>21.0</ele></trkpt>
   <trkpt lon="2.652178" lat="39.570607"><ele>21.0</ele></trkpt>
   <trkpt lon="2.652424" lat="39.570485"><ele>21.75</ele></trkpt>
   <trkpt lon="2.652622" lat="39.570387"><ele>21.5</ele></trkpt>
   <trkpt lon="2.652847" lat="39.570443"><ele>21.0</ele></trkpt>
   <trkpt lon="2.653046" lat="39.570493"><ele>21.0</ele></trkpt>
   <trkpt lon="2.653139" lat="39.570484"><ele>21.0</ele></trkpt>
   <trkpt lon="2.653526" lat="39.570460"><ele>21.0</ele></trkpt>
   <trkpt lon="2.653815" lat="39.570518"><ele>20.75</ele></trkpt>
   <trkpt lon="2.654021" lat="39.570526"><ele>20.75</ele></trkpt>
   <trkpt lon="2.654269" lat="39.570416"><ele>20.25</ele></trkpt>
   <trkpt lon="2.654809" lat="39.570250"><ele>19.75</ele></trkpt>
   <trkpt lon="2.654962" lat="39.570247"><ele>19.75</ele></trkpt>
   <trkpt lon="2.655002" lat="39.570247"><ele>19.75</ele></trkpt>
   <trkpt lon="2.655642" lat="39.570267"><ele>19.5</ele></trkpt>
   <trkpt lon="2.655897" lat="39.570283"><ele>18.75</ele></trkpt>
   <trkpt lon="2.656376" lat="39.570253"><ele>18.0</ele></trkpt>
   <trkpt lon="2.656412" lat="39.570251"><ele>18.0</ele></trkpt>
   <trkpt lon="2.656477" lat="39.570247"><ele>18.0</ele></trkpt>
   <trkpt lon="2.657268" lat="39.570139"><ele>16.75</ele></trkpt>
   <trkpt lon="2.657439" lat="39.570117"><ele>16.0</ele></trkpt>
   <trkpt lon="2.657341" lat="39.570357"><ele>16.5</ele></trkpt>
   <trkpt lon="2.657001" lat="39.570930"><ele>17.25</ele></trkpt>
   <trkpt lon="2.656876" lat="39.571141"><ele>18.0</ele></trkpt>
   <trkpt lon="2.656789" lat="39.571340"><ele>18.0</ele></trkpt>
   <trkpt lon="2.656772" lat="39.571427"><ele>17.75</ele></trkpt>
   <trkpt lon="2.656769" lat="39.571508"><ele>17.75</ele></trkpt>
   <trkpt lon="2.656791" lat="39.571680"><ele>17.5</ele></trkpt>
   <trkpt lon="2.656838" lat="39.572038"><ele>18.0</ele></trkpt>
   <trkpt lon="2.656889" lat="39.572399"><ele>18.5</ele></trkpt>
   <trkpt lon="2.656917" lat="39.572592"><ele>19.0</ele></trkpt>
   <trkpt lon="2.656916" lat="39.572646"><ele>19.0</ele></trkpt>
   <trkpt lon="2.656896" lat="39.572721"><ele>19.0</ele></trkpt>
   <trkpt lon="2.656845" lat="39.572794"><ele>19.0</ele></trkpt>
   <trkpt lon="2.656755" lat="39.572882"><ele>19.0</ele></trkpt>
   <trkpt lon="2.656550" lat="39.573035"><ele>19.25</ele></trkpt>
   <trkpt lon="2.656038" lat="39.573423"><ele>20.5</ele></trkpt>
   <trkpt lon="2.655885" lat="39.573548"><ele>20.75</ele></trkpt>
   <trkpt lon="2.655808" lat="39.573623"><ele>21.0</ele></trkpt>
   <trkpt lon="2.655778" lat="39.573677"><ele>21.0</ele></trkpt>
   <trkpt lon="2.655750" lat="39.573811"><ele>21.5</ele></trkpt>
   <trkpt lon="2.655670" lat="39.574319"><ele>21.5</ele></trkpt>
   <trkpt lon="2.655577" lat="39.574809"><ele>22.25</ele></trkpt>
   <trkpt lon="2.655556" lat="39.574899"><ele>22.5</ele></trkpt>
   <trkpt lon="2.655498" lat="39.574980"><ele>22.75</ele></trkpt>
   <trkpt lon="2.655325" lat="39.575085"><ele>23.25</ele></trkpt>
   <trkpt lon="2.655200" lat="39.575137"><ele>23.25</ele></trkpt>
   <trkpt lon="2.654879" lat="39.575198"><ele>22.5</ele></trkpt>
   <trkpt lon="2.654595" lat="39.575324"><ele>23.0</ele></trkpt>
   <trkpt lon="2.654423" lat="39.575429"></trkpt>
   <trkpt lon="2.654084" lat="39.575697"><ele>24.25</ele></trkpt>
   <trkpt lon="2.654057" lat="39.575734"><ele>24.25</ele></trkpt>
   <trkpt lon="2.653860" lat="39.575900"><ele>24.0</ele></trkpt>
   <trkpt lon="2.653835" lat="39.575926"><ele>24.25</ele></trkpt>
   <trkpt lon="2.653802" lat="39.575996"><ele>24.5</ele></trkpt>
   <trkpt lon="2.653788" lat="39.576082"><ele>24.75</ele></trkpt>
   <trkpt lon="2.653774" lat="39.576092"><ele>24.75</ele></trkpt>
   <trkpt lon="2.653590" lat="39.576267"><ele>24.75</ele></trkpt>
   <trkpt lon="2.653538" lat="39.576335"><ele>24.75</ele></trkpt>
   <trkpt lon="2.653436" lat="39.576487"><ele>25.0</ele></trkpt>
   <trkpt lon="2.653225" lat="39.576799"><ele>25.0</ele></trkpt>
   <trkpt lon="2.652892" lat="39.577293"><ele>25.5</ele></trkpt>
   <trkpt lon="2.652968" lat="39.577418"><ele>25.75</ele></trkpt>
   <trkpt lon="2.652989" lat="39.577451"><ele>25.75</ele></trkpt>
   <trkpt lon="2.653131" lat="39.577684"><ele>26.0</ele></trkpt>
   <trkpt lon="2.653447" lat="39.578198"><ele>25.75</ele></trkpt>
   <trkpt lon="2.653801" lat="39.578776"><ele>25.75</ele></trkpt>
   <trkpt lon="2.654227" lat="39.579471"><ele>26.0</ele></trkpt>
   <trkpt lon="2.654338" lat="39.579653"><ele>26.75</ele></trkpt>
   <trkpt lon="2.654388" lat="39.579642"><ele>26.5</ele></trkpt>
   <trkpt lon="2.654453" lat="39.579645"><ele>26.5</ele></trkpt>
   <trkpt lon="2.654496" lat="39.579659"><ele>26.5</ele></trkpt>
   <trkpt lon="2.654542" lat="39.579690"><ele>26.5</ele></trkpt>
   <trkpt lon="2.654573" lat="39.579741"><ele>26.5</ele></trkpt>
   <trkpt lon="2.654575" lat="39.579791"><ele>26.5</ele></trkpt>
   <trkpt lon="2.654545" lat="39.579846"><ele>26.75</ele></trkpt>
   <trkpt lon="2.654486" lat="39.579884"><ele>26.75</ele></trkpt>
   <trkpt lon="2.654578" lat="39.580035"><ele>27.0</ele></trkpt>
   <trkpt lon="2.654982" lat="39.580694"><ele>27.0</ele></trkpt>
   <trkpt lon="2.655003" lat="39.580729"><ele>27.0</ele></trkpt>
   <trkpt lon="2.655159" lat="39.580982"><ele>27.5</ele></trkpt>
   <trkpt lon="2.655306" lat="39.581221"><ele>28.0</ele></trkpt>
   <trkpt lon="2.655337" lat="39.581278"><ele>28.0</ele></trkpt>
   <trkpt lon="2.655870" lat="39.582146"><ele>28.0</ele></trkpt>
   <trkpt lon="2.656271" lat="39.582797"><ele>29.0</ele></trkpt>
   <trkpt lon="2.656652" lat="39.583415"><ele>29.0</ele></trkpt>
   <trkpt lon="2.657066" lat="39.584090"><ele>29.5</ele></trkpt>
   <trkpt lon="2.657440" lat="39.584698"><ele>30.0</ele></trkpt>
   <trkpt lon="2.657466" lat="39.584741"><ele>30.0</ele></trkpt>
   <trkpt lon="2.657854" lat="39.585372"><ele>31.0</ele></trkpt>
   <trkpt lon="2.658218" lat="39.585962"><ele>31.25</ele></trkpt>
   <trkpt lon="2.658608" lat="39.586597"><ele>32.0</ele></trkpt>
   <trkpt lon="2.659002" lat="39.587238"><ele>32.25</ele></trkpt>
   <trkpt lon="2.659379" lat="39.587850"><ele>33.0</ele></trkpt>
   <trkpt lon="2.659625" lat="39.588260"><ele>33.25</ele></trkpt>
   <trkpt lon="2.659660" lat="39.588308"><ele>33.0</ele></trkpt>
   <trkpt lon="2.659723" lat="39.588405"><ele>33.25</ele></trkpt>
   <trkpt lon="2.660102" lat="39.589023"><ele>34.0</ele></trkpt>
   <trkpt lon="2.660480" lat="39.589638"><ele>33.75</ele></trkpt>
   <trkpt lon="2.660650" lat="39.589923"><ele>33.75</ele></trkpt>
   <trkpt lon="2.660665" lat="39.589962"><ele>33.75</ele></trkpt>
   <trkpt lon="2.660674" lat="39.590015"><ele>34.0</ele></trkpt>
   <trkpt lon="2.660649" lat="39.590487"><ele>34.0</ele></trkpt>
   <trkpt lon="2.660663" lat="39.590626"><ele>34.0</ele></trkpt>
   <trkpt lon="2.660666" lat="39.590655"><ele>34.0</ele></trkpt>
   <trkpt lon="2.660674" lat="39.590685"><ele>34.0</ele></trkpt>
   <trkpt lon="2.660698" lat="39.590727"><ele>34.0</ele></trkpt>
   <trkpt lon="2.660717" lat="39.590750"><ele>34.0</ele></trkpt>
   <trkpt lon="2.660758" lat="39.590770"><ele>34.0</ele></trkpt>
   <trkpt lon="2.660772" lat="39.590770"><ele>34.0</ele></trkpt>
   <trkpt lon="2.660788" lat="39.590771"><ele>34.0</ele></trkpt>
   <trkpt lon="2.660878" lat="39.590786"><ele>34.0</ele></trkpt>
   <trkpt lon="2.660921" lat="39.590809"><ele>34.0</ele></trkpt>
   <trkpt lon="2.660957" lat="39.590837"><ele>34.0</ele></trkpt>
   <trkpt lon="2.660990" lat="39.590896"><ele>34.25</ele></trkpt>
   <trkpt lon="2.660993" lat="39.590956"><ele>34.5</ele></trkpt>
   <trkpt lon="2.660982" lat="39.590987"><ele>34.75</ele></trkpt>
   <trkpt lon="2.660889" lat="39.591118"><ele>35.0</ele></trkpt>
   <trkpt lon="2.660862" lat="39.591211"><ele>35.25</ele></trkpt>
   <trkpt lon="2.660804" lat="39.592474"><ele>36.0</ele></trkpt>
   <trkpt lon="2.660808" lat="39.592517"><ele>36.0</ele></trkpt>
   <trkpt lon="2.660822" lat="39.592555"><ele>36.0</ele></trkpt>
   <trkpt lon="2.660884" lat="39.592649"><ele>36.0</ele></trkpt>
   <trkpt lon="2.660925" lat="39.592713"><ele>36.0</ele></trkpt>
   <trkpt lon="2.660930" lat="39.592743"><ele>36.0</ele></trkpt>
   <trkpt lon="2.660925" lat="39.592780"><ele>36.0</ele></trkpt>
   <trkpt lon="2.660891" lat="39.592849"><ele>36.0</ele></trkpt>
   <trkpt lon="2.660866" lat="39.592874"><ele>36.0</ele></trkpt>
   <trkpt lon="2.660827" lat="39.592898"><ele>36.0</ele></trkpt>
   <trkpt lon="2.660783" lat="39.592915"><ele>36.0</ele></trkpt>
   <trkpt lon="2.660687" lat="39.592928"><ele>36.25</ele></trkpt>
   <trkpt lon="2.660671" lat="39.592928"><ele>36.25</ele></trkpt>
   <trkpt lon="2.660655" lat="39.592927"><ele>36.25</ele></trkpt>
   <trkpt lon="2.660618" lat="39.592946"><ele>36.25</ele></trkpt>
   <trkpt lon="2.660586" lat="39.592982"><ele>36.5</ele></trkpt>
   <trkpt lon="2.660578" lat="39.593005"><ele>36.75</ele></trkpt>
   <trkpt lon="2.660575" lat="39.593066"><ele>36.75</ele></trkpt>
   <trkpt lon="2.660548" lat="39.593263"><ele>37.0</ele></trkpt>
   <trkpt lon="2.660537" lat="39.594091"><ele>38.0</ele></trkpt>
   <trkpt lon="2.660471" lat="39.594349"><ele>38.0</ele></trkpt>
   <trkpt lon="2.660366" lat="39.594542"><ele>38.0</ele></trkpt>
   <trkpt lon="2.660194" lat="39.594686"><ele>38.75</ele></trkpt>
   <trkpt lon="2.659894" lat="39.594858"><ele>39.0</ele></trkpt>
   <trkpt lon="2.659592" lat="39.594975"><ele>39.0</ele></trkpt>
   <trkpt lon="2.659344" lat="39.595086"><ele>39.5</ele></trkpt>
   <trkpt lon="2.659161" lat="39.595166"><ele>40.0</ele></trkpt>
   <trkpt lon="2.658490" lat="39.595509"><ele>40.75</ele></trkpt>
   <trkpt lon="2.658058" lat="39.595735"><ele>41.5</ele></trkpt>
   <trkpt lon="2.657245" lat="39.596164"><ele>42.75</ele></trkpt>
   <trkpt lon="2.657212" lat="39.596474"><ele>42.5</ele></trkpt>
   <trkpt lon="2.657134" lat="39.597804"><ele>43.0</ele></trkpt>
   <trkpt lon="2.657027" lat="39.597952"><ele>43.5</ele></trkpt>
   <trkpt lon="2.656858" lat="39.597998"><ele>43.75</ele></trkpt>
   <trkpt lon="2.656151" lat="39.597999"><ele>44.75</ele></trkpt>
   <trkpt lon="2.655892" lat="39.598039"><ele>45.0</ele></trkpt>
   <trkpt lon="2.655464" lat="39.598035"><ele>46.0</ele></trkpt>
   <trkpt lon="2.655343" lat="39.598023"><ele>46.0</ele></trkpt>
   <trkpt lon="2.655190" lat="39.597966"><ele>46.5</ele></trkpt>
   <trkpt lon="2.655098" lat="39.597958"><ele>46.75</ele></trkpt>
   <trkpt lon="2.655033" lat="39.597966"><ele>46.75</ele></trkpt>
   <trkpt lon="2.654966" lat="39.598001"><ele>47.0</ele></trkpt>
   <trkpt lon="2.654908" lat="39.598076"><ele>46.75</ele></trkpt>
   <trkpt lon="2.654875" lat="39.598153"><ele>46.5</ele></trkpt>
   <trkpt lon="2.654849" lat="39.598245"><ele>46.25</ele></trkpt>
   <trkpt lon="2.654839" lat="39.598318"><ele>46.0</ele></trkpt>
   <trkpt lon="2.654827" lat="39.598599"><ele>46.0</ele></trkpt>
   <trkpt lon="2.654858" lat="39.599347"><ele>46.25</ele></trkpt>
   <trkpt lon="2.654917" lat="39.599495"><ele>46.25</ele></trkpt>
   <trkpt lon="2.654955" lat="39.599592"><ele>46.5</ele></trkpt>
   <trkpt lon="2.655043" lat="39.599868"><ele>47.0</ele></trkpt>
   <trkpt lon="2.655073" lat="39.599968"><ele>47.0</ele></trkpt>
   <trkpt lon="2.655101" lat="39.601149"><ele>49.25</ele></trkpt>
   <trkpt lon="2.655121" lat="39.601381"><ele>49.5</ele></trkpt>
   <trkpt lon="2.655140" lat="39.601613"><ele>49.75</ele></trkpt>
   <trkpt lon="2.655184" lat="39.602101"><ele>50.5</ele></trkpt>
   <trkpt lon="2.655197" lat="39.603372"><ele>51.0</ele></trkpt>
   <trkpt lon="2.655223" lat="39.603942"><ele>51.0</ele></trkpt>
   <trkpt lon="2.655231" lat="39.604090"><ele>51.0</ele></trkpt>
   <trkpt lon="2.655134" lat="39.604227"><ele>51.0</ele></trkpt>
   <trkpt lon="2.655146" lat="39.604702"><ele>51.0</ele></trkpt>
   <trkpt lon="2.655137" lat="39.604945"><ele>51.0</ele></trkpt>
   <trkpt lon="2.655067" lat="39.605092"><ele>51.0</ele></trkpt>
   <trkpt lon="2.655069" lat="39.605161"><ele>51.0</ele></trkpt>
   <trkpt lon="2.655077" lat="39.605361"><ele>51.25</ele></trkpt>
   <trkpt lon="2.655108" lat="39.606496"><ele>52.5</ele></trkpt>
   <trkpt lon="2.655126" lat="39.606650"><ele>52.5</ele></trkpt>
   <trkpt lon="2.655174" lat="39.606807"><ele>52.5</ele></trkpt>
   <trkpt lon="2.655288" lat="39.607019"><ele>53.0</ele></trkpt>
   <trkpt lon="2.655497" lat="39.607280"><ele>53.0</ele></trkpt>
   <trkpt lon="2.655583" lat="39.607331"><ele>53.0</ele></trkpt>
   <trkpt lon="2.655630" lat="39.607388"><ele>53.0</ele></trkpt>
   <trkpt lon="2.655654" lat="39.607452"><ele>53.0</ele></trkpt>
   <trkpt lon="2.655653" lat="39.607519"><ele>53.0</ele></trkpt>
   <trkpt lon="2.655626" lat="39.607582"><ele>53.0</ele></trkpt>
   <trkpt lon="2.655576" lat="39.607637"><ele>53.25</ele></trkpt>
   <trkpt lon="2.655517" lat="39.607673"><ele>53.5</ele></trkpt>
   <trkpt lon="2.655438" lat="39.607699"><ele>53.75</ele></trkpt>
   <trkpt lon="2.655358" lat="39.607707"><ele>53.75</ele></trkpt>
   <trkpt lon="2.655329" lat="39.607704"><ele>53.75</ele></trkpt>
   <trkpt lon="2.655266" lat="39.607695"><ele>54.0</ele></trkpt>
   <trkpt lon="2.655169" lat="39.607728"><ele>54.0</ele></trkpt>
   <trkpt lon="2.655123" lat="39.607756"><ele>54.0</ele></trkpt>
   <trkpt lon="2.655087" lat="39.607792"><ele>53.75</ele></trkpt>
   <trkpt lon="2.655073" lat="39.607876"><ele>54.0</ele></trkpt>
   <trkpt lon="2.655053" lat="39.608058"><ele>54.0</ele></trkpt>
   <trkpt lon="2.655029" lat="39.608195"><ele>54.0</ele></trkpt>
   <trkpt lon="2.655011" lat="39.608256"><ele>54.0</ele></trkpt>
   <trkpt lon="2.654947" lat="39.608385"><ele>54.0</ele></trkpt>
   <trkpt lon="2.654715" lat="39.608788"><ele>54.75</ele></trkpt>
   <trkpt lon="2.654445" lat="39.609698"><ele>55.75</ele></trkpt>
   <trkpt lon="2.654219" lat="39.610499"><ele>56.75</ele></trkpt>
   <trkpt lon="2.654153" lat="39.610749"><ele>56.75</ele></trkpt>
   <trkpt lon="2.654030" lat="39.611933"><ele>58.0</ele></trkpt>
   <trkpt lon="2.654049" lat="39.612204"><ele>58.0</ele></trkpt>
   <trkpt lon="2.654182" lat="39.613358"><ele>60.0</ele></trkpt>
   <trkpt lon="2.654280" lat="39.614131"><ele>60.75</ele></trkpt>
   <trkpt lon="2.654371" lat="39.614616"><ele>61.0</ele></trkpt>
   <trkpt lon="2.654613" lat="39.615921"><ele>61.0</ele></trkpt>
   <trkpt lon="2.654717" lat="39.616252"><ele>61.0</ele></trkpt>
   <trkpt lon="2.654790" lat="39.616706"><ele>61.0</ele></trkpt>
   <trkpt lon="2.654824" lat="39.616916"><ele>61.0</ele></trkpt>
   <trkpt lon="2.654917" lat="39.617146"><ele>61.5</ele></trkpt>
   <trkpt lon="2.654980" lat="39.617184"><ele>61.75</ele></trkpt>
   <trkpt lon="2.655022" lat="39.617236"><ele>62.0</ele></trkpt>
   <trkpt lon="2.655040" lat="39.617296"><ele>62.0</ele></trkpt>
   <trkpt lon="2.655031" lat="39.617356"><ele>62.0</ele></trkpt>
   <trkpt lon="2.655012" lat="39.617391"><ele>62.0</ele></trkpt>
   <trkpt lon="2.654985" lat="39.617422"><ele>62.0</ele></trkpt>
   <trkpt lon="2.654950" lat="39.617448"><ele>62.0</ele></trkpt>
   <trkpt lon="2.654879" lat="39.617478"><ele>62.25</ele></trkpt>
   <trkpt lon="2.654800" lat="39.617487"><ele>62.5</ele></trkpt>
   <trkpt lon="2.654721" lat="39.617476"><ele>62.75</ele></trkpt>
   <trkpt lon="2.654652" lat="39.617444"><ele>62.75</ele></trkpt>
   <trkpt lon="2.654465" lat="39.617472"><ele>62.75</ele></trkpt>
   <trkpt lon="2.654356" lat="39.617489"><ele>62.75</ele></trkpt>
   <trkpt lon="2.650701" lat="39.617109"><ele>66.5</ele></trkpt>
   <trkpt lon="2.649960" lat="39.617036"><ele>67.0</ele></trkpt>
   <trkpt lon="2.647745" lat="39.616819"><ele>68.0</ele></trkpt>
   <trkpt lon="2.646910" lat="39.616733"><ele>68.0</ele></trkpt>
   <trkpt lon="2.646900" lat="39.616697"><ele>68.0</ele></trkpt>
   <trkpt lon="2.646835" lat="39.616445"><ele>67.0</ele></trkpt>
   <trkpt lon="2.646706" lat="39.616178"><ele>66.75</ele></trkpt>
   <trkpt lon="2.646553" lat="39.616112"><ele>67.0</ele></trkpt>
   <trkpt lon="2.646449" lat="39.616112"><ele>67.0</ele></trkpt>
   <trkpt lon="2.646289" lat="39.616156"><ele>67.75</ele></trkpt>
   <trkpt lon="2.646254" lat="39.616198"><ele>67.75</ele></trkpt>
   <trkpt lon="2.646207" lat="39.616234"><ele>68.0</ele></trkpt>
   <trkpt lon="2.646117" lat="39.616272"><ele>68.25</ele></trkpt>
   <trkpt lon="2.646015" lat="39.616284"><ele>68.25</ele></trkpt>
   <trkpt lon="2.645914" lat="39.616269"><ele>68.25</ele></trkpt>
   <trkpt lon="2.645872" lat="39.616254"><ele>68.25</ele></trkpt>
   <trkpt lon="2.645721" lat="39.616253"><ele>68.25</ele></trkpt>
   <trkpt lon="2.645649" lat="39.616264"><ele>68.25</ele></trkpt>
   <trkpt lon="2.645546" lat="39.616318"><ele>68.25</ele></trkpt>
   <trkpt lon="2.645500" lat="39.616398"><ele>68.0</ele></trkpt>
   <trkpt lon="2.645452" lat="39.616485"><ele>68.5</ele></trkpt>
   <trkpt lon="2.645394" lat="39.616589"><ele>69.25</ele></trkpt>
   <trkpt lon="2.645143" lat="39.616911"><ele>70.0</ele></trkpt>
   <trkpt lon="2.644991" lat="39.617133"><ele>70.0</ele></trkpt>
   <trkpt lon="2.644535" lat="39.617785"><ele>71.0</ele></trkpt>
   <trkpt lon="2.643570" lat="39.619326"><ele>73.5</ele></trkpt>
   <trkpt lon="2.643101" lat="39.619819"><ele>74.25</ele></trkpt>
   <trkpt lon="2.642083" lat="39.620884"><ele>76.0</ele></trkpt>
   <trkpt lon="2.641972" lat="39.620973"><ele>76.5</ele></trkpt>
   <trkpt lon="2.640989" lat="39.621326"><ele>77.75</ele></trkpt>
   <trkpt lon="2.640557" lat="39.621217"><ele>76.75</ele></trkpt>
   <trkpt lon="2.640242" lat="39.621128"><ele>77.0</ele></trkpt>
   <trkpt lon="2.640109" lat="39.621099"><ele>76.75</ele></trkpt>
   <trkpt lon="2.639841" lat="39.621021"><ele>76.5</ele></trkpt>
   <trkpt lon="2.638959" lat="39.620154"><ele>75.5</ele></trkpt>
   <trkpt lon="2.638877" lat="39.620129"><ele>75.25</ele></trkpt>
   <trkpt lon="2.638765" lat="39.620095"><ele>75.5</ele></trkpt>
   <trkpt lon="2.638679" lat="39.620133"><ele>75.75</ele></trkpt>
   <trkpt lon="2.638603" lat="39.620166"><ele>76.0</ele></trkpt>
   <trkpt lon="2.637865" lat="39.620250"><ele>76.75</ele></trkpt>
   <trkpt lon="2.637152" lat="39.620274"><ele>77.0</ele></trkpt>
   <trkpt lon="2.635538" lat="39.620115"><ele>79.5</ele></trkpt>
   <trkpt lon="2.634251" lat="39.619831"><ele>87.5</ele></trkpt>
   <trkpt lon="2.627642" lat="39.618449"><ele>89.75</ele></trkpt>
   <trkpt lon="2.627556" lat="39.618542"><ele>89.75</ele></trkpt>
   <trkpt lon="2.627389" lat="39.618882"><ele>90.0</ele></trkpt>
   <trkpt lon="2.627170" lat="39.619328"><ele>91.0</ele></trkpt>
   <trkpt lon="2.627068" lat="39.619569"><ele>91.0</ele></trkpt>
   <trkpt lon="2.626880" lat="39.620014"><ele>92.0</ele></trkpt>
   <trkpt lon="2.626146" lat="39.619995"><ele>92.75</ele></trkpt>
   <trkpt lon="2.626009" lat="39.619970"><ele>92.75</ele></trkpt>
   <trkpt lon="2.625796" lat="39.619849"><ele>92.5</ele></trkpt>
   <trkpt lon="2.625620" lat="39.619838"><ele>92.75</ele></trkpt>
   <trkpt lon="2.625443" lat="39.619748"><ele>93.0</ele></trkpt>
   <trkpt lon="2.625233" lat="39.619640"><ele>93.0</ele></trkpt>
   <trkpt lon="2.625071" lat="39.619580"><ele>93.25</ele></trkpt>
   <trkpt lon="2.625052" lat="39.619520"><ele>93.0</ele></trkpt>
   <trkpt lon="2.624809" lat="39.619329"><ele>93.0</ele></trkpt>
   <trkpt lon="2.624656" lat="39.619170"><ele>93.0</ele></trkpt>
   <trkpt lon="2.624515" lat="39.618790"><ele>91.25</ele></trkpt>
   <trkpt lon="2.624486" lat="39.618733"><ele>90.75</ele></trkpt>
   <trkpt lon="2.624334" lat="39.618764"><ele>90.75</ele></trkpt>
   <trkpt lon="2.623791" lat="39.618904"><ele>90.0</ele></trkpt>
   <trkpt lon="2.623533" lat="39.619020"><ele>88.5</ele></trkpt>
   <trkpt lon="2.623317" lat="39.619140"><ele>88.25</ele></trkpt>
   <trkpt lon="2.623215" lat="39.619196"><ele>87.5</ele></trkpt>
   <trkpt lon="2.623086" lat="39.619302"><ele>87.25</ele></trkpt>
   <trkpt lon="2.623007" lat="39.619333"><ele>87.0</ele></trkpt>
   <trkpt lon="2.622910" lat="39.619347"><ele>86.5</ele></trkpt>
   <trkpt lon="2.622833" lat="39.619329"><ele>85.5</ele></trkpt>
   <trkpt lon="2.622641" lat="39.619141"><ele>83.5</ele></trkpt>
   <trkpt lon="2.622546" lat="39.619096"><ele>83.5</ele></trkpt>
   <trkpt lon="2.622351" lat="39.619090"><ele>81.5</ele></trkpt>
   <trkpt lon="2.622009" lat="39.619238"><ele>79.0</ele></trkpt>
   <trkpt lon="2.621420" lat="39.619532"><ele>78.25</ele></trkpt>
   <trkpt lon="2.620150" lat="39.619615"><ele>76.5</ele></trkpt>
   <trkpt lon="2.619280" lat="39.619646"><ele>78.0</ele></trkpt>
   <trkpt lon="2.618927" lat="39.619658"><ele>78.25</ele></trkpt>
   <trkpt lon="2.618334" lat="39.619689"><ele>77.75</ele></trkpt>
   <trkpt lon="2.618002" lat="39.619695"><ele>78.5</ele></trkpt>
   <trkpt lon="2.617228" lat="39.619732"><ele>78.25</ele></trkpt>
   <trkpt lon="2.616408" lat="39.619848"><ele>79.25</ele></trkpt>
   <trkpt lon="2.615551" lat="39.620205"><ele>79.25</ele></trkpt>
   <trkpt lon="2.615128" lat="39.620472"><ele>81.5</ele></trkpt>
   <trkpt lon="2.614868" lat="39.620665"><ele>81.5</ele></trkpt>
   <trkpt lon="2.614653" lat="39.620849"><ele>81.0</ele></trkpt>
   <trkpt lon="2.614411" lat="39.621045"><ele>81.75</ele></trkpt>
   <trkpt lon="2.614089" lat="39.621151"><ele>83.5</ele></trkpt>
   <trkpt lon="2.613868" lat="39.621184"><ele>84.5</ele></trkpt>
   <trkpt lon="2.613515" lat="39.621236"><ele>84.25</ele></trkpt>
   <trkpt lon="2.612968" lat="39.621332"><ele>84.0</ele></trkpt>
   <trkpt lon="2.612411" lat="39.621473"><ele>83.75</ele></trkpt>
   <trkpt lon="2.612168" lat="39.621483"><ele>83.25</ele></trkpt>
   <trkpt lon="2.611824" lat="39.621400"><ele>83.5</ele></trkpt>
   <trkpt lon="2.611498" lat="39.621293"><ele>83.25</ele></trkpt>
   <trkpt lon="2.610628" lat="39.621020"><ele>82.5</ele></trkpt>
   <trkpt lon="2.609764" lat="39.620856"><ele>83.5</ele></trkpt>
   <trkpt lon="2.608728" lat="39.620771"><ele>83.0</ele></trkpt>
   <trkpt lon="2.608028" lat="39.620739"><ele>82.5</ele></trkpt>
   <trkpt lon="2.607742" lat="39.620726"><ele>82.25</ele></trkpt>
   <trkpt lon="2.607559" lat="39.620707"><ele>82.0</ele></trkpt>
   <trkpt lon="2.607522" lat="39.620674"><ele>81.5</ele></trkpt>
   <trkpt lon="2.607351" lat="39.620514"><ele>81.5</ele></trkpt>
   <trkpt lon="2.607177" lat="39.620429"><ele>84.75</ele></trkpt>
   <trkpt lon="2.606467" lat="39.620466"><ele>84.0</ele></trkpt>
   <trkpt lon="2.605640" lat="39.620525"><ele>85.75</ele></trkpt>
   <trkpt lon="2.605538" lat="39.620543"><ele>86.0</ele></trkpt>
   <trkpt lon="2.605438" lat="39.620548"><ele>86.25</ele></trkpt>
   <trkpt lon="2.605182" lat="39.620553"><ele>87.25</ele></trkpt>
   <trkpt lon="2.604935" lat="39.620558"><ele>87.75</ele></trkpt>
   <trkpt lon="2.604559" lat="39.620602"><ele>87.0</ele></trkpt>
   <trkpt lon="2.604132" lat="39.620642"><ele>87.0</ele></trkpt>
   <trkpt lon="2.603712" lat="39.620657"><ele>86.75</ele></trkpt>
   <trkpt lon="2.602229" lat="39.620502"><ele>90.5</ele></trkpt>
   <trkpt lon="2.601855" lat="39.620442"><ele>91.5</ele></trkpt>
   <trkpt lon="2.601532" lat="39.620373"><ele>91.5</ele></trkpt>
   <trkpt lon="2.601196" lat="39.620217"><ele>92.5</ele></trkpt>
   <trkpt lon="2.601029" lat="39.620074"><ele>93.25</ele></trkpt>
   <trkpt lon="2.600918" lat="39.619923"><ele>94.5</ele></trkpt>
   <trkpt lon="2.600894" lat="39.619890"><ele>94.5</ele></trkpt>
   <trkpt lon="2.600779" lat="39.619494"><ele>97.25</ele></trkpt>
   <trkpt lon="2.600754" lat="39.619387"><ele>98.5</ele></trkpt>
   <trkpt lon="2.600674" lat="39.619237"><ele>99.0</ele></trkpt>
   <trkpt lon="2.600573" lat="39.619150"><ele>99.0</ele></trkpt>
   <trkpt lon="2.600291" lat="39.618998"><ele>98.75</ele></trkpt>
   <trkpt lon="2.599829" lat="39.618832"><ele>97.0</ele></trkpt>
   <trkpt lon="2.599488" lat="39.618737"><ele>95.25</ele></trkpt>
   <trkpt lon="2.599001" lat="39.618640"><ele>94.5</ele></trkpt>
   <trkpt lon="2.595905" lat="39.618110"><ele>99.0</ele></trkpt>
   <trkpt lon="2.595096" lat="39.618055"><ele>100.0</ele></trkpt>
   <trkpt lon="2.594329" lat="39.618032"><ele>101.25</ele></trkpt>
   <trkpt lon="2.594119" lat="39.618024"><ele>101.25</ele></trkpt>
   <trkpt lon="2.593843" lat="39.617994"><ele>102.0</ele></trkpt>
   <trkpt lon="2.593523" lat="39.617910"><ele>103.0</ele></trkpt>
   <trkpt lon="2.593292" lat="39.617832"><ele>102.5</ele></trkpt>
   <trkpt lon="2.593119" lat="39.617715"><ele>102.75</ele></trkpt>
   <trkpt lon="2.592969" lat="39.617454"><ele>103.75</ele></trkpt>
   <trkpt lon="2.592857" lat="39.616985"><ele>106.5</ele></trkpt>
   <trkpt lon="2.592634" lat="39.616771"><ele>107.5</ele></trkpt>
   <trkpt lon="2.592373" lat="39.616694"><ele>105.5</ele></trkpt>
   <trkpt lon="2.591835" lat="39.616665"><ele>106.0</ele></trkpt>
   <trkpt lon="2.591246" lat="39.616657"><ele>106.5</ele></trkpt>
   <trkpt lon="2.590803" lat="39.616658"><ele>107.25</ele></trkpt>
   <trkpt lon="2.590628" lat="39.616643"><ele>108.0</ele></trkpt>
   <trkpt lon="2.590361" lat="39.616560"><ele>108.75</ele></trkpt>
   <trkpt lon="2.589801" lat="39.616306"><ele>110.75</ele></trkpt>
   <trkpt lon="2.589304" lat="39.616017"><ele>111.25</ele></trkpt>
   <trkpt lon="2.588992" lat="39.615750"><ele>111.0</ele></trkpt>
   <trkpt lon="2.588739" lat="39.615507"><ele>111.75</ele></trkpt>
   <trkpt lon="2.588603" lat="39.615353"><ele>112.25</ele></trkpt>
   <trkpt lon="2.588538" lat="39.615279"><ele>112.25</ele></trkpt>
   <trkpt lon="2.588047" lat="39.614605"><ele>114.0</ele></trkpt>
   <trkpt lon="2.587973" lat="39.614494"><ele>114.75</ele></trkpt>
   <trkpt lon="2.587544" lat="39.613852"><ele>114.75</ele></trkpt>
   <trkpt lon="2.587339" lat="39.613514"><ele>115.75</ele></trkpt>
   <trkpt lon="2.587192" lat="39.613345"><ele>114.5</ele></trkpt>
   <trkpt lon="2.587053" lat="39.613225"><ele>117.0</ele></trkpt>
   <trkpt lon="2.586904" lat="39.613162"><ele>116.25</ele></trkpt>
   <trkpt lon="2.586563" lat="39.613064"><ele>115.5</ele></trkpt>
   <trkpt lon="2.586507" lat="39.612984"><ele>117.25</ele></trkpt>
   <trkpt lon="2.586448" lat="39.612931"><ele>118.25</ele></trkpt>
   <trkpt lon="2.585325" lat="39.612652"><ele>123.0</ele></trkpt>
   <trkpt lon="2.584227" lat="39.612447"><ele>125.5</ele></trkpt>
   <trkpt lon="2.583882" lat="39.612375"><ele>126.25</ele></trkpt>
   <trkpt lon="2.583575" lat="39.612300"><ele>127.25</ele></trkpt>
   <trkpt lon="2.583306" lat="39.612114"><ele>128.75</ele></trkpt>
   <trkpt lon="2.583100" lat="39.611880"><ele>131.25</ele></trkpt>
   <trkpt lon="2.582765" lat="39.611421"><ele>135.25</ele></trkpt>
   <trkpt lon="2.582676" lat="39.611250"><ele>136.5</ele></trkpt>
   <trkpt lon="2.582605" lat="39.611089"><ele>137.5</ele></trkpt>
   <trkpt lon="2.582451" lat="39.610770"><ele>139.0</ele></trkpt>
   <trkpt lon="2.582286" lat="39.610456"><ele>139.5</ele></trkpt>
   <trkpt lon="2.582117" lat="39.610324"><ele>140.5</ele></trkpt>
   <trkpt lon="2.581346" lat="39.610291"><ele>142.75</ele></trkpt>
   <trkpt lon="2.580815" lat="39.609896"><ele>146.0</ele></trkpt>
   <trkpt lon="2.580599" lat="39.609776"><ele>146.25</ele></trkpt>
   <trkpt lon="2.580402" lat="39.609733"><ele>146.75</ele></trkpt>
   <trkpt lon="2.580199" lat="39.609719"><ele>147.0</ele></trkpt>
   <trkpt lon="2.580001" lat="39.609689"><ele>147.25</ele></trkpt>
   <trkpt lon="2.579691" lat="39.609530"><ele>147.5</ele></trkpt>
   <trkpt lon="2.578673" lat="39.608885"><ele>152.0</ele></trkpt>
   <trkpt lon="2.578441" lat="39.608691"><ele>153.5</ele></trkpt>
   <trkpt lon="2.578185" lat="39.608385"><ele>155.0</ele></trkpt>
   <trkpt lon="2.578136" lat="39.608307"><ele>155.25</ele></trkpt>
   <trkpt lon="2.577932" lat="39.607986"><ele>155.25</ele></trkpt>
   <trkpt lon="2.577905" lat="39.607853"><ele>155.5</ele></trkpt>
   <trkpt lon="2.577909" lat="39.607774"><ele>156.25</ele></trkpt>
   <trkpt lon="2.577972" lat="39.607633"><ele>156.5</ele></trkpt>
   <trkpt lon="2.578234" lat="39.607359"><ele>160.0</ele></trkpt>
   <trkpt lon="2.578382" lat="39.607222"><ele>160.5</ele></trkpt>
   <trkpt lon="2.578431" lat="39.607150"><ele>162.0</ele></trkpt>
   <trkpt lon="2.578506" lat="39.607039"><ele>162.75</ele></trkpt>
   <trkpt lon="2.578437" lat="39.606928"><ele>162.5</ele></trkpt>
   <trkpt lon="2.578279" lat="39.606871"><ele>166.5</ele></trkpt>
   <trkpt lon="2.577549" lat="39.607138"><ele>165.75</ele></trkpt>
   <trkpt lon="2.577388" lat="39.607150"><ele>166.0</ele></trkpt>
   <trkpt lon="2.577238" lat="39.607110"><ele>166.75</ele></trkpt>
   <trkpt lon="2.577148" lat="39.607055"><ele>166.75</ele></trkpt>
   <trkpt lon="2.576838" lat="39.606742"><ele>169.25</ele></trkpt>
   <trkpt lon="2.576631" lat="39.606652"><ele>169.25</ele></trkpt>
   <trkpt lon="2.575992" lat="39.606396"><ele>172.75</ele></trkpt>
   <trkpt lon="2.575419" lat="39.606117"><ele>176.75</ele></trkpt>
   <trkpt lon="2.575081" lat="39.605938"><ele>178.25</ele></trkpt>
   <trkpt lon="2.574789" lat="39.605748"><ele>179.5</ele></trkpt>
   <trkpt lon="2.574484" lat="39.605497"><ele>181.5</ele></trkpt>
   <trkpt lon="2.574287" lat="39.605333"><ele>180.75</ele></trkpt>
   <trkpt lon="2.573826" lat="39.605031"><ele>181.25</ele></trkpt>
   <trkpt lon="2.573580" lat="39.604752"><ele>182.0</ele></trkpt>
   <trkpt lon="2.573561" lat="39.604516"><ele>184.75</ele></trkpt>
   <trkpt lon="2.573441" lat="39.604371"><ele>185.5</ele></trkpt>
   <trkpt lon="2.573099" lat="39.604287"><ele>185.5</ele></trkpt>
   <trkpt lon="2.572798" lat="39.604157"><ele>186.5</ele></trkpt>
   <trkpt lon="2.572550" lat="39.603954"><ele>187.25</ele></trkpt>
   <trkpt lon="2.572420" lat="39.603786"><ele>188.25</ele></trkpt>
   <trkpt lon="2.572220" lat="39.603627"><ele>188.5</ele></trkpt>
   <trkpt lon="2.572026" lat="39.603510"><ele>189.5</ele></trkpt>
   <trkpt lon="2.571929" lat="39.603373"><ele>190.0</ele></trkpt>
   <trkpt lon="2.571848" lat="39.603243"><ele>190.5</ele></trkpt>
   <trkpt lon="2.571774" lat="39.603101"><ele>191.25</ele></trkpt>
   <trkpt lon="2.571366" lat="39.602810"><ele>190.75</ele></trkpt>
   <trkpt lon="2.571189" lat="39.602607"><ele>190.25</ele></trkpt>
   <trkpt lon="2.571092" lat="39.602465"><ele>191.0</ele></trkpt>
   <trkpt lon="2.569638" lat="39.601993"><ele>197.75</ele></trkpt>
   <trkpt lon="2.569266" lat="39.601861"><ele>200.0</ele></trkpt>
   <trkpt lon="2.568943" lat="39.601707"><ele>201.0</ele></trkpt>
   <trkpt lon="2.568610" lat="39.601520"><ele>202.5</ele></trkpt>
   <trkpt lon="2.568371" lat="39.601341"><ele>203.25</ele></trkpt>
   <trkpt lon="2.568153" lat="39.601092"><ele>205.25</ele></trkpt>
   <trkpt lon="2.567994" lat="39.600808"><ele>207.0</ele></trkpt>
   <trkpt lon="2.568011" lat="39.600285"><ele>210.75</ele></trkpt>
   <trkpt lon="2.568055" lat="39.599963"><ele>213.5</ele></trkpt>
   <trkpt lon="2.568031" lat="39.599815"><ele>215.25</ele></trkpt>
   <trkpt lon="2.567873" lat="39.599758"><ele>214.25</ele></trkpt>
   <trkpt lon="2.567644" lat="39.599610"><ele>215.5</ele></trkpt>
   <trkpt lon="2.567456" lat="39.599421"><ele>217.25</ele></trkpt>
   <trkpt lon="2.567275" lat="39.599274"><ele>219.5</ele></trkpt>
   <trkpt lon="2.566981" lat="39.599190"><ele>218.75</ele></trkpt>
   <trkpt lon="2.566929" lat="39.599191"><ele>218.5</ele></trkpt>
   <trkpt lon="2.566755" lat="39.599197"><ele>219.75</ele></trkpt>
   <trkpt lon="2.566622" lat="39.599215"><ele>220.0</ele></trkpt>
   <trkpt lon="2.566513" lat="39.599147"><ele>220.25</ele></trkpt>
   <trkpt lon="2.566370" lat="39.599043"><ele>221.0</ele></trkpt>
   <trkpt lon="2.566092" lat="39.598662"><ele>223.75</ele></trkpt>
   <trkpt lon="2.565788" lat="39.598359"><ele>226.75</ele></trkpt>
   <trkpt lon="2.565660" lat="39.598247"><ele>228.0</ele></trkpt>
   <trkpt lon="2.565545" lat="39.598166"><ele>228.5</ele></trkpt>
   <trkpt lon="2.564900" lat="39.597955"><ele>231.5</ele></trkpt>
   <trkpt lon="2.564489" lat="39.597829"><ele>234.0</ele></trkpt>
   <trkpt lon="2.564328" lat="39.597769"><ele>235.0</ele></trkpt>
   <trkpt lon="2.564218" lat="39.597751"><ele>235.25</ele></trkpt>
   <trkpt lon="2.564060" lat="39.597704"><ele>236.0</ele></trkpt>
   <trkpt lon="2.564056" lat="39.597638"><ele>237.0</ele></trkpt>
   <trkpt lon="2.564082" lat="39.597579"><ele>237.75</ele></trkpt>
   <trkpt lon="2.564280" lat="39.597528"><ele>238.5</ele></trkpt>
   <trkpt lon="2.564864" lat="39.597466"><ele>240.5</ele></trkpt>
   <trkpt lon="2.564955" lat="39.597436"><ele>241.75</ele></trkpt>
   <trkpt lon="2.564938" lat="39.597356"><ele>243.0</ele></trkpt>
   <trkpt lon="2.564276" lat="39.597040"><ele>246.0</ele></trkpt>
   <trkpt lon="2.562530" lat="39.596076"><ele>253.5</ele></trkpt>
   <trkpt lon="2.562328" lat="39.595965"><ele>254.5</ele></trkpt>
   <trkpt lon="2.561646" lat="39.595802"><ele>256.5</ele></trkpt>
   <trkpt lon="2.561535" lat="39.595791"><ele>257.25</ele></trkpt>
   <trkpt lon="2.561249" lat="39.595764"><ele>259.25</ele></trkpt>
   <trkpt lon="2.561027" lat="39.595671"><ele>260.25</ele></trkpt>
   <trkpt lon="2.560883" lat="39.595589"><ele>260.0</ele></trkpt>
   <trkpt lon="2.560807" lat="39.595264"><ele>260.75</ele></trkpt>
   <trkpt lon="2.560596" lat="39.594737"><ele>262.5</ele></trkpt>
   <trkpt lon="2.560577" lat="39.594370"><ele>265.0</ele></trkpt>
   <trkpt lon="2.560542" lat="39.594204"><ele>266.5</ele></trkpt>
   <trkpt lon="2.560453" lat="39.594131"><ele>267.0</ele></trkpt>
   <trkpt lon="2.560242" lat="39.594052"><ele>267.75</ele></trkpt>
   <trkpt lon="2.560057" lat="39.594067"><ele>268.25</ele></trkpt>
   <trkpt lon="2.559867" lat="39.594134"><ele>268.75</ele></trkpt>
   <trkpt lon="2.559684" lat="39.594148"><ele>269.0</ele></trkpt>
   <trkpt lon="2.559487" lat="39.594106"><ele>269.75</ele></trkpt>
   <trkpt lon="2.558665" lat="39.593460"><ele>273.25</ele></trkpt>
   <trkpt lon="2.558464" lat="39.593302"><ele>274.25</ele></trkpt>
   <trkpt lon="2.557362" lat="39.593087"><ele>275.75</ele></trkpt>
   <trkpt lon="2.557108" lat="39.592987"><ele>276.5</ele></trkpt>
   <trkpt lon="2.556954" lat="39.592819"><ele>275.25</ele></trkpt>
   <trkpt lon="2.556726" lat="39.592053"><ele>270.5</ele></trkpt>
   <trkpt lon="2.556296" lat="39.591206"><ele>264.0</ele></trkpt>
   <trkpt lon="2.556127" lat="39.590170"><ele>258.75</ele></trkpt>
   <trkpt lon="2.556042" lat="39.589945"><ele>256.75</ele></trkpt>
   <trkpt lon="2.556537" lat="39.589620"><ele>260.5</ele></trkpt>
   <trkpt lon="2.556629" lat="39.589439"><ele>262.0</ele></trkpt>
   <trkpt lon="2.556574" lat="39.588387"><ele>266.25</ele></trkpt>
   <trkpt lon="2.556497" lat="39.587766"><ele>271.25</ele></trkpt>
   <trkpt lon="2.556489" lat="39.587572"><ele>271.5</ele></trkpt>
   <trkpt lon="2.556519" lat="39.587433"><ele>272.0</ele></trkpt>
   <trkpt lon="2.556578" lat="39.587302"><ele>272.25</ele></trkpt>
   <trkpt lon="2.556690" lat="39.587177"><ele>273.5</ele></trkpt>
   <trkpt lon="2.556832" lat="39.587063"><ele>274.25</ele></trkpt>
   <trkpt lon="2.557096" lat="39.586964"><ele>275.25</ele></trkpt>
   <trkpt lon="2.557353" lat="39.586997"><ele>278.5</ele></trkpt>
   <trkpt lon="2.557609" lat="39.586986"><ele>280.25</ele></trkpt>
   <trkpt lon="2.558284" lat="39.586661"><ele>281.0</ele></trkpt>
   <trkpt lon="2.558505" lat="39.586577"><ele>281.5</ele></trkpt>
   <trkpt lon="2.558838" lat="39.586524"><ele>284.0</ele></trkpt>
   <trkpt lon="2.559333" lat="39.586499"><ele>286.25</ele></trkpt>
   <trkpt lon="2.559401" lat="39.586501"><ele>286.5</ele></trkpt>
   <trkpt lon="2.559662" lat="39.586517"><ele>285.25</ele></trkpt>
   <trkpt lon="2.559782" lat="39.586505"><ele>285.0</ele></trkpt>
   <trkpt lon="2.559834" lat="39.586492"><ele>285.0</ele></trkpt>
   <trkpt lon="2.559878" lat="39.586473"><ele>285.25</ele></trkpt>
   <trkpt lon="2.559934" lat="39.586439"><ele>285.5</ele></trkpt>
   <trkpt lon="2.559965" lat="39.586412"><ele>285.5</ele></trkpt>
   <trkpt lon="2.559997" lat="39.586377"><ele>286.0</ele></trkpt>
   <trkpt lon="2.560022" lat="39.586335"><ele>286.75</ele></trkpt>
   <trkpt lon="2.560052" lat="39.586257"><ele>287.75</ele></trkpt>
   <trkpt lon="2.560053" lat="39.586221"><ele>288.25</ele></trkpt>
   <trkpt lon="2.560036" lat="39.586177"><ele>288.25</ele></trkpt>
   <trkpt lon="2.559998" lat="39.586140"><ele>287.75</ele></trkpt>
   <trkpt lon="2.559873" lat="39.586088"><ele>287.5</ele></trkpt>
   <trkpt lon="2.559843" lat="39.586070"><ele>287.75</ele></trkpt>
   <trkpt lon="2.559807" lat="39.586031"><ele>288.5</ele></trkpt>
   <trkpt lon="2.559804" lat="39.586010"><ele>289.0</ele></trkpt>
   <trkpt lon="2.559808" lat="39.585990"><ele>289.5</ele></trkpt>
   <trkpt lon="2.559825" lat="39.585970"><ele>290.25</ele></trkpt>
   <trkpt lon="2.559890" lat="39.585937"><ele>291.5</ele></trkpt>
   <trkpt lon="2.559969" lat="39.585924"><ele>292.25</ele></trkpt>
   <trkpt lon="2.560004" lat="39.585927"><ele>292.5</ele></trkpt>
   <trkpt lon="2.560039" lat="39.585940"><ele>292.5</ele></trkpt>
   <trkpt lon="2.560083" lat="39.585977"><ele>292.25</ele></trkpt>
   <trkpt lon="2.560153" lat="39.586084"><ele>291.5</ele></trkpt>
   <trkpt lon="2.560225" lat="39.586216"><ele>291.75</ele></trkpt>
   <trkpt lon="2.560270" lat="39.586269"><ele>292.0</ele></trkpt>
   <trkpt lon="2.560314" lat="39.586301"><ele>292.5</ele></trkpt>
   <trkpt lon="2.560557" lat="39.586399"><ele>295.0</ele></trkpt>
   <trkpt lon="2.560600" lat="39.586437"><ele>295.75</ele></trkpt>
   <trkpt lon="2.560619" lat="39.586487"><ele>296.25</ele></trkpt>
   <trkpt lon="2.560621" lat="39.586522"><ele>296.5</ele></trkpt>
   <trkpt lon="2.560613" lat="39.586552"><ele>296.5</ele></trkpt>
   <trkpt lon="2.560595" lat="39.586581"><ele>296.5</ele></trkpt>
   <trkpt lon="2.560519" lat="39.586645"><ele>295.25</ele></trkpt>
   <trkpt lon="2.560362" lat="39.586759"><ele>295.25</ele></trkpt>
   <trkpt lon="2.560175" lat="39.586885"><ele>295.5</ele></trkpt>
   <trkpt lon="2.560131" lat="39.586933"><ele>296.0</ele></trkpt>
   <trkpt lon="2.560123" lat="39.586971"><ele>297.0</ele></trkpt>
   <trkpt lon="2.560127" lat="39.586994"><ele>297.75</ele></trkpt>
   <trkpt lon="2.560154" lat="39.587028"><ele>298.75</ele></trkpt>
   <trkpt lon="2.560192" lat="39.587047"><ele>299.0</ele></trkpt>
   <trkpt lon="2.560247" lat="39.587047"><ele>299.0</ele></trkpt>
   <trkpt lon="2.560279" lat="39.587036"><ele>299.0</ele></trkpt>
   <trkpt lon="2.560350" lat="39.586993"><ele>300.0</ele></trkpt>
   <trkpt lon="2.560495" lat="39.586879"><ele>300.75</ele></trkpt>
   <trkpt lon="2.560717" lat="39.586744"><ele>302.5</ele></trkpt>
   <trkpt lon="2.561088" lat="39.586476"><ele>304.5</ele></trkpt>
   <trkpt lon="2.561242" lat="39.586393"><ele>305.25</ele></trkpt>
   <trkpt lon="2.561404" lat="39.586359"><ele>308.0</ele></trkpt>
   <trkpt lon="2.561610" lat="39.586339"><ele>309.5</ele></trkpt>
   <trkpt lon="2.561743" lat="39.586306"><ele>310.75</ele></trkpt>
   <trkpt lon="2.561776" lat="39.586261"><ele>311.25</ele></trkpt>
   <trkpt lon="2.561783" lat="39.586219"><ele>311.5</ele></trkpt>
   <trkpt lon="2.561756" lat="39.586173"><ele>311.5</ele></trkpt>
   <trkpt lon="2.561715" lat="39.586151"><ele>311.25</ele></trkpt>
   <trkpt lon="2.561623" lat="39.586121"><ele>310.25</ele></trkpt>
   <trkpt lon="2.561471" lat="39.586035"><ele>309.5</ele></trkpt>
   <trkpt lon="2.561347" lat="39.585847"><ele>311.5</ele></trkpt>
   <trkpt lon="2.561225" lat="39.585637"><ele>312.75</ele></trkpt>
   <trkpt lon="2.561173" lat="39.585243"><ele>314.0</ele></trkpt>
   <trkpt lon="2.561114" lat="39.585128"><ele>315.25</ele></trkpt>
   <trkpt lon="2.560963" lat="39.585031"><ele>316.5</ele></trkpt>
   <trkpt lon="2.560609" lat="39.584977"><ele>316.5</ele></trkpt>
   <trkpt lon="2.560479" lat="39.584895"><ele>316.0</ele></trkpt>
   <trkpt lon="2.560438" lat="39.584726"><ele>317.25</ele></trkpt>
   <trkpt lon="2.560418" lat="39.584560"><ele>319.25</ele></trkpt>
   <trkpt lon="2.560397" lat="39.584459"><ele>319.75</ele></trkpt>
   <trkpt lon="2.560320" lat="39.584047"><ele>321.75</ele></trkpt>
   <trkpt lon="2.560278" lat="39.583869"><ele>322.25</ele></trkpt>
   <trkpt lon="2.560226" lat="39.583712"><ele>323.0</ele></trkpt>
   <trkpt lon="2.560135" lat="39.583468"><ele>323.5</ele></trkpt>
   <trkpt lon="2.560130" lat="39.583413"><ele>323.75</ele></trkpt>
   <trkpt lon="2.560140" lat="39.583281"><ele>324.25</ele></trkpt>
   <trkpt lon="2.560207" lat="39.583108"><ele>325.25</ele></trkpt>
   <trkpt lon="2.560387" lat="39.582782"><ele>327.25</ele></trkpt>
   <trkpt lon="2.560522" lat="39.582493"><ele>328.5</ele></trkpt>
   <trkpt lon="2.560612" lat="39.582424"><ele>328.25</ele></trkpt>
   <trkpt lon="2.560731" lat="39.582412"><ele>328.5</ele></trkpt>
   <trkpt lon="2.561114" lat="39.582509"><ele>332.5</ele></trkpt>
   <trkpt lon="2.561282" lat="39.582506"><ele>333.5</ele></trkpt>
   <trkpt lon="2.561395" lat="39.582496"><ele>334.0</ele></trkpt>
   <trkpt lon="2.561466" lat="39.582457"><ele>334.75</ele></trkpt>
   <trkpt lon="2.561539" lat="39.582384"><ele>335.75</ele></trkpt>
   <trkpt lon="2.561590" lat="39.582192"><ele>335.25</ele></trkpt>
   <trkpt lon="2.561654" lat="39.582107"><ele>335.25</ele></trkpt>
   <trkpt lon="2.562144" lat="39.581708"><ele>340.0</ele></trkpt>
   <trkpt lon="2.562168" lat="39.581654"><ele>339.5</ele></trkpt>
   <trkpt lon="2.562254" lat="39.581377"><ele>341.25</ele></trkpt>
   <trkpt lon="2.562279" lat="39.581257"><ele>342.75</ele></trkpt>
   <trkpt lon="2.562276" lat="39.581179"><ele>342.75</ele></trkpt>
   <trkpt lon="2.562257" lat="39.581049"><ele>343.5</ele></trkpt>
   <trkpt lon="2.562210" lat="39.580987"><ele>343.5</ele></trkpt>
   <trkpt lon="2.562151" lat="39.580954"><ele>344.75</ele></trkpt>
   <trkpt lon="2.562090" lat="39.580961"><ele>345.0</ele></trkpt>
   <trkpt lon="2.562011" lat="39.580979"><ele>344.75</ele></trkpt>
   <trkpt lon="2.561854" lat="39.581061"><ele>344.5</ele></trkpt>
   <trkpt lon="2.561629" lat="39.581168"><ele>343.75</ele></trkpt>
   <trkpt lon="2.561492" lat="39.581186"><ele>343.75</ele></trkpt>
   <trkpt lon="2.561351" lat="39.581185"><ele>344.25</ele></trkpt>
   <trkpt lon="2.561297" lat="39.581143"><ele>346.5</ele></trkpt>
   <trkpt lon="2.561280" lat="39.581092"><ele>348.75</ele></trkpt>
   <trkpt lon="2.561351" lat="39.581064"><ele>350.5</ele></trkpt>
   <trkpt lon="2.561556" lat="39.581049"><ele>349.75</ele></trkpt>
   <trkpt lon="2.561625" lat="39.581025"><ele>350.0</ele></trkpt>
   <trkpt lon="2.561731" lat="39.580943"><ele>351.0</ele></trkpt>
   <trkpt lon="2.561901" lat="39.580719"><ele>354.0</ele></trkpt>
   <trkpt lon="2.562156" lat="39.580449"><ele>357.25</ele></trkpt>
   <trkpt lon="2.562226" lat="39.580381"><ele>357.75</ele></trkpt>
   <trkpt lon="2.562305" lat="39.580347"><ele>358.5</ele></trkpt>
   <trkpt lon="2.562422" lat="39.580345"><ele>359.0</ele></trkpt>
   <trkpt lon="2.562498" lat="39.580393"><ele>358.5</ele></trkpt>
   <trkpt lon="2.562615" lat="39.580586"><ele>360.0</ele></trkpt>
   <trkpt lon="2.562704" lat="39.580806"><ele>360.75</ele></trkpt>
   <trkpt lon="2.562764" lat="39.581045"><ele>361.75</ele></trkpt>
   <trkpt lon="2.562791" lat="39.581289"><ele>363.0</ele></trkpt>
   <trkpt lon="2.562810" lat="39.581680"><ele>366.75</ele></trkpt>
   <trkpt lon="2.562764" lat="39.581806"><ele>368.0</ele></trkpt>
   <trkpt lon="2.562547" lat="39.582175"><ele>369.0</ele></trkpt>
   <trkpt lon="2.562402" lat="39.582366"><ele>368.5</ele></trkpt>
   <trkpt lon="2.562393" lat="39.582417"><ele>369.0</ele></trkpt>
   <trkpt lon="2.562404" lat="39.582469"><ele>370.0</ele></trkpt>
   <trkpt lon="2.562460" lat="39.582475"><ele>371.5</ele></trkpt>
   <trkpt lon="2.562510" lat="39.582453"><ele>372.5</ele></trkpt>
   <trkpt lon="2.562576" lat="39.582382"><ele>372.75</ele></trkpt>
   <trkpt lon="2.562646" lat="39.582283"><ele>373.0</ele></trkpt>
   <trkpt lon="2.562800" lat="39.582203"><ele>375.0</ele></trkpt>
   <trkpt lon="2.562995" lat="39.582124"><ele>376.5</ele></trkpt>
   <trkpt lon="2.563231" lat="39.582040"><ele>378.0</ele></trkpt>
   <trkpt lon="2.563561" lat="39.581935"><ele>379.5</ele></trkpt>
   <trkpt lon="2.563793" lat="39.581954"><ele>380.0</ele></trkpt>
   <trkpt lon="2.564047" lat="39.581994"><ele>378.25</ele></trkpt>
   <trkpt lon="2.564123" lat="39.581990"><ele>377.25</ele></trkpt>
   <trkpt lon="2.564208" lat="39.581950"><ele>376.5</ele></trkpt>
   <trkpt lon="2.564392" lat="39.581789"><ele>376.0</ele></trkpt>
   <trkpt lon="2.564564" lat="39.581718"><ele>374.75</ele></trkpt>
   <trkpt lon="2.564765" lat="39.581694"><ele>372.75</ele></trkpt>
   <trkpt lon="2.565113" lat="39.581616"><ele>370.25</ele></trkpt>
   <trkpt lon="2.565889" lat="39.581349"><ele>366.75</ele></trkpt>
   <trkpt lon="2.566133" lat="39.581289"><ele>365.75</ele></trkpt>
   <trkpt lon="2.566391" lat="39.581301"><ele>363.25</ele></trkpt>
   <trkpt lon="2.566721" lat="39.581337"><ele>360.75</ele></trkpt>
   <trkpt lon="2.567405" lat="39.581266"><ele>357.25</ele></trkpt>
   <trkpt lon="2.568212" lat="39.580889"><ele>351.25</ele></trkpt>
   <trkpt lon="2.568366" lat="39.580788"><ele>349.75</ele></trkpt>
   <trkpt lon="2.568469" lat="39.580684"><ele>349.0</ele></trkpt>
   <trkpt lon="2.568632" lat="39.580484"><ele>347.0</ele></trkpt>
   <trkpt lon="2.568861" lat="39.579989"><ele>343.75</ele></trkpt>
   <trkpt lon="2.568945" lat="39.579918"><ele>343.75</ele></trkpt>
   <trkpt lon="2.569056" lat="39.579885"><ele>343.25</ele></trkpt>
   <trkpt lon="2.569205" lat="39.579897"><ele>341.75</ele></trkpt>
   <trkpt lon="2.569374" lat="39.580015"><ele>339.75</ele></trkpt>
   <trkpt lon="2.569562" lat="39.580201"><ele>336.75</ele></trkpt>
   <trkpt lon="2.569704" lat="39.580319"><ele>335.75</ele></trkpt>
   <trkpt lon="2.569824" lat="39.580365"><ele>335.0</ele></trkpt>
   <trkpt lon="2.569928" lat="39.580349"><ele>334.5</ele></trkpt>
   <trkpt lon="2.570012" lat="39.580304"><ele>333.75</ele></trkpt>
   <trkpt lon="2.570288" lat="39.580084"><ele>331.75</ele></trkpt>
   <trkpt lon="2.570626" lat="39.579890"><ele>330.5</ele></trkpt>
   <trkpt lon="2.571137" lat="39.579931"><ele>326.5</ele></trkpt>
   <trkpt lon="2.571465" lat="39.579994"><ele>325.0</ele></trkpt>
   <trkpt lon="2.571792" lat="39.580075"><ele>324.25</ele></trkpt>
   <trkpt lon="2.572661" lat="39.580312"><ele>324.25</ele></trkpt>
   <trkpt lon="2.573140" lat="39.580464"><ele>324.0</ele></trkpt>
   <trkpt lon="2.573636" lat="39.580587"><ele>322.75</ele></trkpt>
   <trkpt lon="2.573871" lat="39.580575"><ele>322.25</ele></trkpt>
   <trkpt lon="2.574100" lat="39.580547"><ele>319.75</ele></trkpt>
   <trkpt lon="2.574182" lat="39.580589"><ele>318.75</ele></trkpt>
   <trkpt lon="2.574261" lat="39.580736"><ele>317.5</ele></trkpt>
   <trkpt lon="2.574327" lat="39.580845"><ele>316.5</ele></trkpt>
   <trkpt lon="2.574678" lat="39.581190"><ele>317.25</ele></trkpt>
   <trkpt lon="2.574771" lat="39.581187"><ele>315.5</ele></trkpt>
   <trkpt lon="2.574820" lat="39.581143"><ele>312.75</ele></trkpt>
   <trkpt lon="2.574815" lat="39.581108"><ele>311.5</ele></trkpt>
   <trkpt lon="2.574725" lat="39.580989"><ele>310.25</ele></trkpt>
   <trkpt lon="2.574561" lat="39.580865"><ele>311.0</ele></trkpt>
   <trkpt lon="2.574500" lat="39.580776"><ele>311.5</ele></trkpt>
   <trkpt lon="2.574476" lat="39.580706"><ele>311.75</ele></trkpt>
   <trkpt lon="2.574507" lat="39.580640"><ele>310.75</ele></trkpt>
   <trkpt lon="2.574577" lat="39.580619"><ele>308.75</ele></trkpt>
   <trkpt lon="2.574641" lat="39.580624"><ele>307.25</ele></trkpt>
   <trkpt lon="2.574779" lat="39.580754"><ele>305.25</ele></trkpt>
   <trkpt lon="2.575241" lat="39.581048"><ele>302.0</ele></trkpt>
   <trkpt lon="2.575306" lat="39.581069"><ele>301.5</ele></trkpt>
   <trkpt lon="2.575339" lat="39.581061"><ele>301.25</ele></trkpt>
   <trkpt lon="2.575363" lat="39.581014"><ele>299.5</ele></trkpt>
   <trkpt lon="2.575313" lat="39.580940"><ele>298.0</ele></trkpt>
   <trkpt lon="2.575213" lat="39.580859"><ele>298.0</ele></trkpt>
   <trkpt lon="2.575133" lat="39.580718"><ele>297.25</ele></trkpt>
   <trkpt lon="2.575142" lat="39.580625"><ele>295.75</ele></trkpt>
   <trkpt lon="2.575182" lat="39.580481"><ele>293.25</ele></trkpt>
   <trkpt lon="2.575212" lat="39.580209"><ele>291.5</ele></trkpt>
   <trkpt lon="2.575314" lat="39.579806"><ele>289.0</ele></trkpt>
   <trkpt lon="2.575307" lat="39.579716"><ele>289.0</ele></trkpt>
   <trkpt lon="2.575278" lat="39.579631"><ele>287.25</ele></trkpt>
   <trkpt lon="2.575223" lat="39.579567"><ele>287.0</ele></trkpt>
   <trkpt lon="2.575010" lat="39.579407"><ele>287.5</ele></trkpt>
   <trkpt lon="2.574959" lat="39.579375"><ele>288.0</ele></trkpt>
   <trkpt lon="2.574938" lat="39.579325"><ele>287.0</ele></trkpt>
   <trkpt lon="2.574974" lat="39.579298"><ele>285.25</ele></trkpt>
   <trkpt lon="2.575013" lat="39.579299"><ele>284.25</ele></trkpt>
   <trkpt lon="2.575398" lat="39.579538"><ele>282.0</ele></trkpt>
   <trkpt lon="2.575784" lat="39.579742"><ele>279.0</ele></trkpt>
   <trkpt lon="2.575907" lat="39.579824"><ele>275.25</ele></trkpt>
   <trkpt lon="2.575916" lat="39.579901"><ele>275.0</ele></trkpt>
   <trkpt lon="2.575891" lat="39.579961"><ele>276.0</ele></trkpt>
   <trkpt lon="2.575806" lat="39.580029"><ele>277.75</ele></trkpt>
   <trkpt lon="2.575597" lat="39.580131"><ele>279.25</ele></trkpt>
   <trkpt lon="2.575542" lat="39.580191"><ele>279.0</ele></trkpt>
   <trkpt lon="2.575548" lat="39.580234"><ele>277.5</ele></trkpt>
   <trkpt lon="2.575605" lat="39.580261"><ele>275.25</ele></trkpt>
   <trkpt lon="2.575704" lat="39.580253"><ele>273.5</ele></trkpt>
   <trkpt lon="2.575864" lat="39.580196"><ele>271.25</ele></trkpt>
   <trkpt lon="2.575983" lat="39.580119"><ele>269.25</ele></trkpt>
   <trkpt lon="2.576082" lat="39.579993"><ele>269.75</ele></trkpt>
   <trkpt lon="2.576122" lat="39.579867"><ele>267.75</ele></trkpt>
   <trkpt lon="2.576112" lat="39.579766"><ele>268.0</ele></trkpt>
   <trkpt lon="2.576050" lat="39.579676"><ele>268.0</ele></trkpt>
   <trkpt lon="2.575968" lat="39.579599"><ele>267.5</ele></trkpt>
   <trkpt lon="2.575747" lat="39.579459"><ele>269.0</ele></trkpt>
   <trkpt lon="2.575597" lat="39.579260"><ele>267.0</ele></trkpt>
   <trkpt lon="2.575556" lat="39.579184"><ele>264.5</ele></trkpt>
   <trkpt lon="2.575584" lat="39.579137"><ele>265.25</ele></trkpt>
   <trkpt lon="2.575687" lat="39.579109"><ele>265.25</ele></trkpt>
   <trkpt lon="2.575800" lat="39.579098"><ele>264.0</ele></trkpt>
   <trkpt lon="2.576241" lat="39.579161"><ele>260.25</ele></trkpt>
   <trkpt lon="2.576387" lat="39.579223"><ele>258.25</ele></trkpt>
   <trkpt lon="2.576605" lat="39.579217"><ele>256.25</ele></trkpt>
   <trkpt lon="2.576902" lat="39.579061"><ele>256.75</ele></trkpt>
   <trkpt lon="2.577199" lat="39.578961"><ele>254.0</ele></trkpt>
   <trkpt lon="2.577563" lat="39.578881"><ele>252.0</ele></trkpt>
   <trkpt lon="2.578034" lat="39.578821"><ele>248.25</ele></trkpt>
   <trkpt lon="2.578195" lat="39.578871"><ele>246.25</ele></trkpt>
   <trkpt lon="2.578368" lat="39.578913"><ele>245.0</ele></trkpt>
   <trkpt lon="2.578527" lat="39.578938"><ele>244.0</ele></trkpt>
   <trkpt lon="2.578654" lat="39.578937"><ele>243.5</ele></trkpt>
   <trkpt lon="2.578799" lat="39.578887"><ele>243.0</ele></trkpt>
   <trkpt lon="2.578873" lat="39.578845"><ele>242.75</ele></trkpt>
   <trkpt lon="2.578915" lat="39.578784"><ele>243.25</ele></trkpt>
   <trkpt lon="2.578989" lat="39.578740"><ele>242.75</ele></trkpt>
   <trkpt lon="2.579055" lat="39.578731"><ele>241.75</ele></trkpt>
   <trkpt lon="2.579090" lat="39.578755"><ele>240.75</ele></trkpt>
   <trkpt lon="2.579097" lat="39.578805"><ele>239.25</ele></trkpt>
   <trkpt lon="2.578970" lat="39.579069"><ele>237.25</ele></trkpt>
   <trkpt lon="2.578957" lat="39.579172"><ele>235.75</ele></trkpt>
   <trkpt lon="2.579012" lat="39.579238"><ele>234.0</ele></trkpt>
   <trkpt lon="2.579141" lat="39.579310"><ele>232.5</ele></trkpt>
   <trkpt lon="2.579170" lat="39.579360"><ele>232.0</ele></trkpt>
   <trkpt lon="2.579131" lat="39.579402"><ele>232.0</ele></trkpt>
   <trkpt lon="2.579053" lat="39.579413"><ele>231.5</ele></trkpt>
   <trkpt lon="2.578906" lat="39.579395"><ele>231.25</ele></trkpt>
   <trkpt lon="2.578481" lat="39.579367"><ele>230.75</ele></trkpt>
   <trkpt lon="2.578278" lat="39.579371"><ele>230.25</ele></trkpt>
   <trkpt lon="2.577943" lat="39.579404"><ele>229.25</ele></trkpt>
   <trkpt lon="2.577834" lat="39.579473"><ele>228.75</ele></trkpt>
   <trkpt lon="2.577715" lat="39.579593"><ele>228.25</ele></trkpt>
   <trkpt lon="2.577649" lat="39.579670"><ele>227.75</ele></trkpt>
   <trkpt lon="2.577628" lat="39.579775"><ele>226.75</ele></trkpt>
   <trkpt lon="2.577673" lat="39.579937"><ele>224.75</ele></trkpt>
   <trkpt lon="2.577763" lat="39.580158"><ele>223.25</ele></trkpt>
   <trkpt lon="2.578168" lat="39.580682"><ele>219.5</ele></trkpt>
   <trkpt lon="2.578230" lat="39.580694"><ele>218.75</ele></trkpt>
   <trkpt lon="2.578301" lat="39.580689"><ele>217.75</ele></trkpt>
   <trkpt lon="2.578356" lat="39.580644"><ele>216.5</ele></trkpt>
   <trkpt lon="2.578375" lat="39.580585"><ele>215.5</ele></trkpt>
   <trkpt lon="2.578356" lat="39.580484"><ele>215.25</ele></trkpt>
   <trkpt lon="2.578355" lat="39.580412"><ele>215.0</ele></trkpt>
   <trkpt lon="2.578367" lat="39.580312"><ele>214.5</ele></trkpt>
   <trkpt lon="2.578442" lat="39.580230"><ele>214.25</ele></trkpt>
   <trkpt lon="2.578493" lat="39.580221"><ele>213.75</ele></trkpt>
   <trkpt lon="2.578533" lat="39.580242"><ele>213.0</ele></trkpt>
   <trkpt lon="2.578597" lat="39.580292"><ele>212.0</ele></trkpt>
   <trkpt lon="2.578668" lat="39.580416"><ele>211.5</ele></trkpt>
   <trkpt lon="2.578784" lat="39.580529"><ele>210.75</ele></trkpt>
   <trkpt lon="2.579219" lat="39.580717"><ele>208.5</ele></trkpt>
   <trkpt lon="2.579557" lat="39.580809"><ele>205.75</ele></trkpt>
   <trkpt lon="2.580026" lat="39.580813"><ele>202.25</ele></trkpt>
   <trkpt lon="2.580677" lat="39.580890"><ele>197.25</ele></trkpt>
   <trkpt lon="2.581224" lat="39.580996"><ele>193.75</ele></trkpt>
   <trkpt lon="2.581682" lat="39.580981"><ele>190.5</ele></trkpt>
   <trkpt lon="2.582045" lat="39.580961"><ele>188.5</ele></trkpt>
   <trkpt lon="2.582388" lat="39.580923"><ele>186.25</ele></trkpt>
   <trkpt lon="2.583413" lat="39.580825"><ele>179.5</ele></trkpt>
   <trkpt lon="2.583628" lat="39.580785"><ele>178.5</ele></trkpt>
   <trkpt lon="2.583682" lat="39.580775"><ele>178.0</ele></trkpt>
   <trkpt lon="2.583752" lat="39.580716"><ele>177.0</ele></trkpt>
   <trkpt lon="2.583801" lat="39.580614"><ele>176.0</ele></trkpt>
   <trkpt lon="2.583849" lat="39.580307"><ele>174.25</ele></trkpt>
   <trkpt lon="2.583896" lat="39.580170"><ele>173.75</ele></trkpt>
   <trkpt lon="2.583977" lat="39.580101"><ele>173.25</ele></trkpt>
   <trkpt lon="2.584073" lat="39.580040"><ele>172.0</ele></trkpt>
   <trkpt lon="2.585721" lat="39.579434"><ele>162.75</ele></trkpt>
   <trkpt lon="2.586151" lat="39.579292"><ele>160.0</ele></trkpt>
   <trkpt lon="2.586679" lat="39.579214"><ele>157.75</ele></trkpt>
   <trkpt lon="2.587344" lat="39.579166"><ele>155.5</ele></trkpt>
   <trkpt lon="2.587535" lat="39.579113"><ele>155.0</ele></trkpt>
   <trkpt lon="2.589467" lat="39.578337"><ele>155.0</ele></trkpt>
   <trkpt lon="2.589788" lat="39.578210"><ele>156.0</ele></trkpt>
   <trkpt lon="2.589964" lat="39.578098"><ele>156.0</ele></trkpt>
   <trkpt lon="2.590123" lat="39.577976"><ele>156.75</ele></trkpt>
   <trkpt lon="2.590845" lat="39.577580"><ele>156.0</ele></trkpt>
   <trkpt lon="2.590948" lat="39.577503"><ele>155.0</ele></trkpt>
   <trkpt lon="2.591089" lat="39.577471"><ele>154.75</ele></trkpt>
   <trkpt lon="2.591368" lat="39.577438"><ele>154.25</ele></trkpt>
   <trkpt lon="2.591752" lat="39.577371"><ele>151.75</ele></trkpt>
   <trkpt lon="2.592176" lat="39.577295"><ele>147.0</ele></trkpt>
   <trkpt lon="2.592500" lat="39.577250"><ele>145.0</ele></trkpt>
   <trkpt lon="2.592770" lat="39.577264"><ele>144.25</ele></trkpt>
   <trkpt lon="2.592987" lat="39.577292"><ele>143.75</ele></trkpt>
   <trkpt lon="2.593073" lat="39.577288"><ele>143.5</ele></trkpt>
   <trkpt lon="2.593172" lat="39.577283"><ele>143.5</ele></trkpt>
   <trkpt lon="2.593245" lat="39.577240"><ele>142.5</ele></trkpt>
   <trkpt lon="2.593301" lat="39.577182"><ele>141.5</ele></trkpt>
   <trkpt lon="2.593281" lat="39.577085"><ele>140.0</ele></trkpt>
   <trkpt lon="2.593170" lat="39.577043"><ele>140.0</ele></trkpt>
   <trkpt lon="2.593064" lat="39.577040"><ele>140.25</ele></trkpt>
   <trkpt lon="2.593003" lat="39.576979"><ele>139.5</ele></trkpt>
   <trkpt lon="2.592984" lat="39.576933"><ele>138.75</ele></trkpt>
   <trkpt lon="2.593030" lat="39.576880"><ele>137.5</ele></trkpt>
   <trkpt lon="2.593166" lat="39.576853"><ele>136.75</ele></trkpt>
   <trkpt lon="2.593445" lat="39.576776"><ele>135.75</ele></trkpt>
   <trkpt lon="2.593644" lat="39.576616"><ele>134.25</ele></trkpt>
   <trkpt lon="2.593774" lat="39.576502"><ele>134.5</ele></trkpt>
   <trkpt lon="2.593896" lat="39.576408"><ele>131.75</ele></trkpt>
   <trkpt lon="2.594001" lat="39.576162"><ele>128.0</ele></trkpt>
   <trkpt lon="2.594042" lat="39.576010"><ele>126.25</ele></trkpt>
   <trkpt lon="2.594347" lat="39.575668"><ele>123.5</ele></trkpt>
   <trkpt lon="2.594466" lat="39.575605"><ele>123.0</ele></trkpt>
   <trkpt lon="2.594516" lat="39.575593"><ele>122.25</ele></trkpt>
   <trkpt lon="2.594560" lat="39.575616"><ele>122.0</ele></trkpt>
   <trkpt lon="2.594599" lat="39.575703"><ele>121.75</ele></trkpt>
   <trkpt lon="2.594599" lat="39.575812"><ele>122.0</ele></trkpt>
   <trkpt lon="2.594621" lat="39.575977"><ele>121.0</ele></trkpt>
   <trkpt lon="2.594691" lat="39.576137"><ele>119.5</ele></trkpt>
   <trkpt lon="2.594821" lat="39.576275"><ele>118.75</ele></trkpt>
   <trkpt lon="2.595141" lat="39.576427"><ele>117.0</ele></trkpt>
   <trkpt lon="2.595649" lat="39.576609"><ele>114.0</ele></trkpt>
   <trkpt lon="2.595930" lat="39.576739"><ele>111.75</ele></trkpt>
   <trkpt lon="2.596273" lat="39.576846"><ele>109.75</ele></trkpt>
   <trkpt lon="2.596391" lat="39.576866"><ele>109.0</ele></trkpt>
   <trkpt lon="2.596435" lat="39.576825"><ele>108.75</ele></trkpt>
   <trkpt lon="2.596379" lat="39.576760"><ele>108.0</ele></trkpt>
   <trkpt lon="2.596183" lat="39.576650"><ele>107.5</ele></trkpt>
   <trkpt lon="2.596130" lat="39.576588"><ele>107.5</ele></trkpt>
   <trkpt lon="2.596120" lat="39.576508"><ele>107.25</ele></trkpt>
   <trkpt lon="2.596195" lat="39.576417"><ele>106.75</ele></trkpt>
   <trkpt lon="2.596552" lat="39.576233"><ele>104.0</ele></trkpt>
   <trkpt lon="2.596837" lat="39.576107"><ele>102.75</ele></trkpt>
   <trkpt lon="2.596974" lat="39.576068"><ele>102.75</ele></trkpt>
   <trkpt lon="2.597144" lat="39.576073"><ele>102.25</ele></trkpt>
   <trkpt lon="2.597496" lat="39.576105"><ele>100.75</ele></trkpt>
   <trkpt lon="2.597823" lat="39.576093"><ele>98.75</ele></trkpt>
   <trkpt lon="2.598107" lat="39.576064"><ele>97.75</ele></trkpt>
   <trkpt lon="2.598707" lat="39.576076"><ele>95.75</ele></trkpt>
   <trkpt lon="2.599050" lat="39.576147"><ele>93.75</ele></trkpt>
   <trkpt lon="2.599644" lat="39.576244"><ele>92.0</ele></trkpt>
   <trkpt lon="2.600230" lat="39.576158"><ele>89.75</ele></trkpt>
   <trkpt lon="2.600483" lat="39.576095"><ele>88.25</ele></trkpt>
   <trkpt lon="2.601257" lat="39.575827"><ele>86.5</ele></trkpt>
   <trkpt lon="2.601657" lat="39.575704"><ele>86.0</ele></trkpt>
   <trkpt lon="2.601961" lat="39.575590"><ele>85.75</ele></trkpt>
   <trkpt lon="2.602161" lat="39.575421"><ele>87.0</ele></trkpt>
   <trkpt lon="2.602330" lat="39.575146"><ele>88.0</ele></trkpt>
   <trkpt lon="2.602458" lat="39.575015"><ele>88.75</ele></trkpt>
   <trkpt lon="2.602613" lat="39.574946"><ele>90.0</ele></trkpt>
   <trkpt lon="2.603013" lat="39.574837"><ele>93.75</ele></trkpt>
   <trkpt lon="2.603720" lat="39.574763"><ele>98.5</ele></trkpt>
   <trkpt lon="2.604277" lat="39.574613"><ele>100.75</ele></trkpt>
   <trkpt lon="2.604825" lat="39.574411"><ele>99.0</ele></trkpt>
   <trkpt lon="2.605059" lat="39.574348"><ele>98.75</ele></trkpt>
   <trkpt lon="2.605478" lat="39.574278"><ele>96.0</ele></trkpt>
   <trkpt lon="2.605875" lat="39.574164"><ele>92.5</ele></trkpt>
   <trkpt lon="2.606043" lat="39.574112"><ele>91.25</ele></trkpt>
   <trkpt lon="2.606307" lat="39.574004"><ele>89.5</ele></trkpt>
   <trkpt lon="2.606573" lat="39.573947"><ele>88.0</ele></trkpt>
   <trkpt lon="2.606663" lat="39.573939"><ele>87.5</ele></trkpt>
   <trkpt lon="2.606763" lat="39.573957"><ele>87.75</ele></trkpt>
   <trkpt lon="2.607006" lat="39.574065"><ele>87.0</ele></trkpt>
   <trkpt lon="2.607327" lat="39.574158"><ele>84.75</ele></trkpt>
   <trkpt lon="2.607562" lat="39.574223"><ele>83.75</ele></trkpt>
   <trkpt lon="2.607788" lat="39.574261"><ele>83.5</ele></trkpt>
   <trkpt lon="2.608010" lat="39.574317"><ele>83.0</ele></trkpt>
   <trkpt lon="2.608092" lat="39.574324"><ele>82.75</ele></trkpt>
   <trkpt lon="2.608428" lat="39.574314"><ele>82.5</ele></trkpt>
   <trkpt lon="2.608681" lat="39.574334"><ele>81.75</ele></trkpt>
   <trkpt lon="2.608839" lat="39.574338"><ele>80.0</ele></trkpt>
   <trkpt lon="2.609199" lat="39.574319"><ele>77.75</ele></trkpt>
   <trkpt lon="2.609305" lat="39.574290"><ele>77.75</ele></trkpt>
   <trkpt lon="2.609482" lat="39.574255"><ele>78.25</ele></trkpt>
   <trkpt lon="2.609584" lat="39.574224"><ele>78.25</ele></trkpt>
   <trkpt lon="2.609714" lat="39.574173"><ele>78.0</ele></trkpt>
   <trkpt lon="2.609845" lat="39.574106"><ele>77.25</ele></trkpt>
   <trkpt lon="2.609952" lat="39.574049"><ele>77.0</ele></trkpt>
   <trkpt lon="2.610008" lat="39.574037"><ele>76.75</ele></trkpt>
   <trkpt lon="2.610073" lat="39.574032"><ele>76.75</ele></trkpt>
   <trkpt lon="2.610137" lat="39.574036"><ele>76.5</ele></trkpt>
   <trkpt lon="2.610230" lat="39.574063"><ele>76.25</ele></trkpt>
   <trkpt lon="2.610290" lat="39.574096"><ele>76.0</ele></trkpt>
   <trkpt lon="2.610345" lat="39.574155"><ele>75.5</ele></trkpt>
   <trkpt lon="2.610414" lat="39.574176"><ele>74.75</ele></trkpt>
   <trkpt lon="2.610511" lat="39.574185"><ele>74.0</ele></trkpt>
   <trkpt lon="2.611075" lat="39.574094"><ele>75.0</ele></trkpt>
   <trkpt lon="2.611336" lat="39.574046"><ele>75.25</ele></trkpt>
   <trkpt lon="2.611424" lat="39.574019"><ele>75.25</ele></trkpt>
   <trkpt lon="2.611547" lat="39.573977"><ele>74.5</ele></trkpt>
   <trkpt lon="2.611668" lat="39.573926"><ele>74.0</ele></trkpt>
   <trkpt lon="2.611700" lat="39.573902"><ele>74.0</ele></trkpt>
   <trkpt lon="2.611715" lat="39.573879"><ele>73.75</ele></trkpt>
   <trkpt lon="2.611756" lat="39.573807"><ele>73.5</ele></trkpt>
   <trkpt lon="2.611795" lat="39.573772"><ele>73.25</ele></trkpt>
   <trkpt lon="2.611879" lat="39.573722"><ele>72.75</ele></trkpt>
   <trkpt lon="2.611928" lat="39.573708"><ele>72.5</ele></trkpt>
   <trkpt lon="2.611988" lat="39.573694"><ele>72.25</ele></trkpt>
   <trkpt lon="2.612042" lat="39.573690"><ele>72.0</ele></trkpt>
   <trkpt lon="2.612097" lat="39.573694"><ele>72.0</ele></trkpt>
   <trkpt lon="2.612154" lat="39.573705"><ele>71.75</ele></trkpt>
   <trkpt lon="2.612249" lat="39.573749"><ele>71.75</ele></trkpt>
   <trkpt lon="2.612288" lat="39.573780"><ele>71.75</ele></trkpt>
   <trkpt lon="2.612336" lat="39.573811"><ele>72.0</ele></trkpt>
   <trkpt lon="2.612370" lat="39.573822"><ele>71.75</ele></trkpt>
   <trkpt lon="2.612449" lat="39.573834"><ele>71.75</ele></trkpt>
   <trkpt lon="2.612494" lat="39.573834"><ele>71.5</ele></trkpt>
   <trkpt lon="2.613180" lat="39.573700"><ele>70.0</ele></trkpt>
   <trkpt lon="2.613213" lat="39.573693"><ele>70.0</ele></trkpt>
   <trkpt lon="2.614004" lat="39.573537"><ele>69.5</ele></trkpt>
   <trkpt lon="2.614394" lat="39.573453"><ele>69.5</ele></trkpt>
   <trkpt lon="2.616094" lat="39.573209"><ele>69.75</ele></trkpt>
   <trkpt lon="2.616189" lat="39.573202"><ele>69.75</ele></trkpt>
   <trkpt lon="2.616350" lat="39.573176"><ele>70.0</ele></trkpt>
   <trkpt lon="2.616659" lat="39.573081"><ele>68.75</ele></trkpt>
   <trkpt lon="2.617209" lat="39.572851"><ele>67.25</ele></trkpt>
   <trkpt lon="2.618419" lat="39.572506"><ele>61.75</ele></trkpt>
   <trkpt lon="2.619719" lat="39.572188"><ele>56.75</ele></trkpt>
   <trkpt lon="2.619929" lat="39.572128"><ele>56.0</ele></trkpt>
   <trkpt lon="2.619941" lat="39.572042"><ele>56.0</ele></trkpt>
   <trkpt lon="2.619990" lat="39.571963"><ele>56.0</ele></trkpt>
   <trkpt lon="2.620068" lat="39.571902"><ele>55.75</ele></trkpt>
   <trkpt lon="2.620172" lat="39.571862"><ele>55.25</ele></trkpt>
   <trkpt lon="2.620256" lat="39.571853"><ele>55.0</ele></trkpt>
   <trkpt lon="2.620398" lat="39.571871"><ele>55.0</ele></trkpt>
   <trkpt lon="2.620500" lat="39.571926"><ele>55.0</ele></trkpt>
   <trkpt lon="2.620788" lat="39.571976"><ele>54.0</ele></trkpt>
   <trkpt lon="2.621291" lat="39.571986"><ele>52.25</ele></trkpt>
   <trkpt lon="2.621467" lat="39.571982"><ele>51.5</ele></trkpt>
   <trkpt lon="2.621961" lat="39.571972"><ele>49.75</ele></trkpt>
   <trkpt lon="2.622205" lat="39.571935"><ele>49.0</ele></trkpt>
   <trkpt lon="2.622443" lat="39.571900"><ele>49.0</ele></trkpt>
   <trkpt lon="2.623666" lat="39.571683"><ele>44.75</ele></trkpt>
   <trkpt lon="2.624539" lat="39.571547"><ele>40.25</ele></trkpt>
   <trkpt lon="2.624881" lat="39.571479"><ele>39.0</ele></trkpt>
   <trkpt lon="2.625421" lat="39.571313"><ele>36.0</ele></trkpt>
   <trkpt lon="2.626368" lat="39.570993"><ele>31.5</ele></trkpt>
   <trkpt lon="2.627347" lat="39.570709"><ele>27.25</ele></trkpt>
   <trkpt lon="2.627792" lat="39.570648"><ele>24.75</ele></trkpt>
   <trkpt lon="2.628506" lat="39.570573"><ele>22.25</ele></trkpt>
   <trkpt lon="2.629192" lat="39.570599"><ele>19.75</ele></trkpt>
   <trkpt lon="2.629274" lat="39.570601"><ele>19.75</ele></trkpt>
   <trkpt lon="2.629891" lat="39.570631"><ele>18.25</ele></trkpt>
   <trkpt lon="2.630279" lat="39.570655"><ele>17.75</ele></trkpt>
   <trkpt lon="2.630365" lat="39.570657"><ele>17.5</ele></trkpt>
   <trkpt lon="2.630470" lat="39.570660"><ele>17.25</ele></trkpt>
   <trkpt lon="2.630760" lat="39.570634"><ele>17.0</ele></trkpt>
   <trkpt lon="2.631578" lat="39.570562"><ele>14.25</ele></trkpt>
   <trkpt lon="2.632477" lat="39.570482"><ele>11.75</ele></trkpt>
   <trkpt lon="2.632812" lat="39.570172"><ele>10.0</ele></trkpt>
   <trkpt lon="2.632845" lat="39.570142"><ele>10.0</ele></trkpt>
   <trkpt lon="2.632926" lat="39.570066"><ele>10.0</ele></trkpt>
   <trkpt lon="2.633047" lat="39.570136"><ele>10.0</ele></trkpt>
   <trkpt lon="2.633289" lat="39.570276"><ele>10.0</ele></trkpt>
   <trkpt lon="2.633516" lat="39.570408"><ele>10.25</ele></trkpt>
   <trkpt lon="2.633727" lat="39.570531"><ele>11.25</ele></trkpt>
   <trkpt lon="2.634562" lat="39.571014"><ele>14.0</ele></trkpt>
   <trkpt lon="2.634816" lat="39.571169"><ele>15.25</ele></trkpt>
   <trkpt lon="2.635520" lat="39.571582"><ele>16.0</ele></trkpt>
   <trkpt lon="2.635615" lat="39.571637"><ele>15.75</ele></trkpt>
   <trkpt lon="2.635810" lat="39.571748"><ele>16.0</ele></trkpt>
   <trkpt lon="2.635855" lat="39.571775"><ele>15.75</ele></trkpt>
   <trkpt lon="2.636202" lat="39.571978"><ele>15.5</ele></trkpt>
   <trkpt lon="2.636335" lat="39.572055"><ele>15.5</ele></trkpt>
   <trkpt lon="2.636533" lat="39.572173"><ele>15.5</ele></trkpt>
   <trkpt lon="2.636636" lat="39.572238"><ele>16.0</ele></trkpt>
   <trkpt lon="2.636786" lat="39.572327"><ele>16.0</ele></trkpt>
   <trkpt lon="2.636910" lat="39.572398"><ele>16.5</ele></trkpt>
   <trkpt lon="2.637369" lat="39.572675"><ele>17.5</ele></trkpt>
   <trkpt lon="2.637406" lat="39.572696"><ele>17.5</ele></trkpt>
   <trkpt lon="2.638034" lat="39.573061"><ele>19.0</ele></trkpt>
   <trkpt lon="2.638129" lat="39.573115"><ele>19.0</ele></trkpt>
   <trkpt lon="2.638223" lat="39.573092"><ele>19.0</ele></trkpt>
   <trkpt lon="2.638584" lat="39.573002"><ele>18.5</ele></trkpt>
   <trkpt lon="2.639306" lat="39.572823"><ele>19.0</ele></trkpt>
   <trkpt lon="2.639546" lat="39.572763"><ele>18.75</ele></trkpt>
   <trkpt lon="2.640368" lat="39.572577"><ele>18.25</ele></trkpt>
   <trkpt lon="2.641527" lat="39.572313"><ele>16.5</ele></trkpt>
   <trkpt lon="2.641589" lat="39.572553"><ele>17.0</ele></trkpt>
   <trkpt lon="2.641605" lat="39.572622"><ele>17.0</ele></trkpt>
   <trkpt lon="2.641755" lat="39.572604"><ele>15.0</ele></trkpt>
   <trkpt lon="2.642058" lat="39.572567"><ele>13.25</ele></trkpt>
   <trkpt lon="2.642160" lat="39.572553"><ele>15.5</ele></trkpt>
   <trkpt lon="2.642281" lat="39.572541"><ele>16.75</ele></trkpt>
   <trkpt lon="2.642933" lat="39.572462"><ele>15.0</ele></trkpt>
   <trkpt lon="2.643726" lat="39.572360"><ele>13.0</ele></trkpt>
   <trkpt lon="2.643828" lat="39.572350"><ele>13.0</ele></trkpt>
   <trkpt lon="2.644044" lat="39.572315"><ele>12.25</ele></trkpt>
   <trkpt lon="2.644756" lat="39.572116"><ele>10.5</ele></trkpt>
   <trkpt lon="2.644808" lat="39.572102"><ele>10.5</ele></trkpt>
   <trkpt lon="2.645397" lat="39.571933"><ele>9.75</ele></trkpt>
   <trkpt lon="2.645493" lat="39.571906"><ele>9.75</ele></trkpt>
   <trkpt lon="2.646074" lat="39.571739"><ele>8.25</ele></trkpt>
   <trkpt lon="2.646227" lat="39.571694"><ele>8.0</ele></trkpt>
   <trkpt lon="2.646433" lat="39.571636"><ele>7.75</ele></trkpt>
   <trkpt lon="2.646723" lat="39.571552"><ele>6.75</ele></trkpt>
   <trkpt lon="2.646858" lat="39.571508"><ele>6.5</ele></trkpt>
   <trkpt lon="2.646804" lat="39.571346"><ele>6.25</ele></trkpt>
   <trkpt lon="2.646733" lat="39.571043"><ele>4.75</ele></trkpt>
   <trkpt lon="2.646708" lat="39.570957"><ele>4.75</ele></trkpt>
   <trkpt lon="2.646448" lat="39.569930"><ele>4.0</ele></trkpt>
   <trkpt lon="2.646338" lat="39.569511"><ele>3.25</ele></trkpt>
   <trkpt lon="2.646307" lat="39.569356"><ele>3.0</ele></trkpt>
   <trkpt lon="2.646328" lat="39.569246"><ele>3.0</ele></trkpt>
   <trkpt lon="2.646390" lat="39.569199"><ele>3.0</ele></trkpt>
   <trkpt lon="2.646326" lat="39.569137"><ele>3.0</ele></trkpt>
   <trkpt lon="2.646287" lat="39.569075"><ele>3.0</ele></trkpt>
   <trkpt lon="2.646261" lat="39.569044"><ele>3.0</ele></trkpt>
   <trkpt lon="2.646249" lat="39.569009"><ele>3.0</ele></trkpt>
   <trkpt lon="2.646253" lat="39.568973"><ele>3.0</ele></trkpt>
   <trkpt lon="2.646271" lat="39.568939"><ele>3.0</ele></trkpt>
   <trkpt lon="2.646284" lat="39.568926"><ele>3.0</ele></trkpt>
   <trkpt lon="2.646393" lat="39.568720"><ele>3.0</ele></trkpt>
   <trkpt lon="2.646418" lat="39.568622"><ele>3.0</ele></trkpt>
   <trkpt lon="2.646519" lat="39.568650"><ele>3.75</ele></trkpt>
   <trkpt lon="2.646969" lat="39.568773"><ele>6.5</ele></trkpt>
   <trkpt lon="2.647077" lat="39.568803"><ele>7.25</ele></trkpt>
   <trkpt lon="2.647318" lat="39.568869"><ele>8.5</ele></trkpt>
   <trkpt lon="2.647872" lat="39.569046"><ele>12.0</ele></trkpt>
   <trkpt lon="2.648549" lat="39.569249"><ele>14.25</ele></trkpt>
   <trkpt lon="2.649030" lat="39.569407"><ele>16.5</ele></trkpt>
   <trkpt lon="2.649104" lat="39.569409"><ele>17.25</ele></trkpt>
   <trkpt lon="2.649152" lat="39.569387"><ele>18.0</ele></trkpt>
   <trkpt lon="2.649440" lat="39.569092"><ele>19.25</ele></trkpt>
   <trkpt lon="2.649919" lat="39.569434"><ele>20.0</ele></trkpt>
   <trkpt lon="2.650013" lat="39.569458"><ele>20.0</ele></trkpt>
   <trkpt lon="2.650160" lat="39.569463"><ele>20.0</ele></trkpt>
   <trkpt lon="2.650262" lat="39.569476"><ele>20.0</ele></trkpt>
   <trkpt lon="2.650367" lat="39.569622"><ele>20.0</ele></trkpt>
   <trkpt lon="2.650408" lat="39.569672"><ele>20.0</ele></trkpt>
   <trkpt lon="2.650536" lat="39.569817"><ele>20.25</ele></trkpt>
   <trkpt lon="2.650552" lat="39.569836"><ele>20.25</ele></trkpt>
   <trkpt lon="2.650621" lat="39.569917"><ele>20.75</ele></trkpt>
   <trkpt lon="2.650583" lat="39.569961"><ele>20.75</ele></trkpt>
   <trkpt lon="2.650576" lat="39.569961"><ele>20.75</ele></trkpt>
   <trkpt lon="2.650502" lat="39.570017"><ele>20.75</ele></trkpt>
   <trkpt lon="2.650470" lat="39.570003"><ele>20.5</ele></trkpt>
   <trkpt lon="2.650341" lat="39.569899"><ele>20.0</ele></trkpt>
   <trkpt lon="2.650221" lat="39.569927"><ele>20.0</ele></trkpt>
   <trkpt lon="2.650021" lat="39.570000"><ele>20.0</ele></trkpt>
  </trkseg>
 </trk>
</gpx>
