<?xml version="1.0" encoding="UTF-8"?>
<!-- track-length = 43651 filtered ascend = 898 plain-ascend = 0 cost=95500 energy=.2kwh time=2h 9m 57s AUTO selected ISO_GREEDY (score 0.870) after 1 candidate(s) in 417ms. minor mid-route overlap: 107m (below 4021m rejection cap) -->
<gpx
 xmlns="http://www.topografix.com/GPX/1/1"
 xmlns:xsi="http://www.w3.org/2001/XMLSchema-instance"
 xsi:schemaLocation="http://www.topografix.com/GPX/1/1 http://www.topografix.com/GPX/1/1/gpx.xsd"
 creator="BRouter-null" version="1.1">
 <trk>
  <name>unset</name>
  <trkseg>
   <trkpt lon="3.439799" lat="44.651609"><ele>1082.25</ele></trkpt>
   <trkpt lon="3.439793" lat="44.651512"><ele>1082.25</ele></trkpt>
   <trkpt lon="3.439994" lat="44.651082"><ele>1080.75</ele></trkpt>
   <trkpt lon="3.440301" lat="44.650550"><ele>1079.75</ele></trkpt>
   <trkpt lon="3.440704" lat="44.650202"><ele>1077.75</ele></trkpt>
   <trkpt lon="3.440975" lat="44.649867"><ele>1076.75</ele></trkpt>
   <trkpt lon="3.441111" lat="44.649713"><ele>1075.75</ele></trkpt>
   <trkpt lon="3.441112" lat="44.649551"><ele>1075.25</ele></trkpt>
   <trkpt lon="3.441007" lat="44.649464"><ele>1075.5</ele></trkpt>
   <trkpt lon="3.440771" lat="44.649356"><ele>1074.75</ele></trkpt>
   <trkpt lon="3.439975" lat="44.649021"><ele>1073.75</ele></trkpt>
   <trkpt lon="3.439858" lat="44.648913"><ele>1074.25</ele></trkpt>
   <trkpt lon="3.439726" lat="44.648701"><ele>1073.75</ele></trkpt>
   <trkpt lon="3.439635" lat="44.648525"><ele>1074.0</ele></trkpt>
   <trkpt lon="3.439426" lat="44.648350"><ele>1073.75</ele></trkpt>
   <trkpt lon="3.439070" lat="44.648161"><ele>1074.75</ele></trkpt>
   <trkpt lon="3.438690" lat="44.648005"><ele>1075.5</ele></trkpt>
   <trkpt lon="3.437971" lat="44.647712"><ele>1074.5</ele></trkpt>
   <trkpt lon="3.437216" lat="44.647537"><ele>1072.0</ele></trkpt>
   <trkpt lon="3.436441" lat="44.647347"><ele>1070.5</ele></trkpt>
   <trkpt lon="3.436135" lat="44.647155"><ele>1069.75</ele></trkpt>
   <trkpt lon="3.434605" lat="44.645835"><ele>1077.75</ele></trkpt>
   <trkpt lon="3.433569" lat="44.645160"><ele>1073.0</ele></trkpt>
   <trkpt lon="3.433310" lat="44.645017"><ele>1073.25</ele></trkpt>
   <trkpt lon="3.433061" lat="44.644989"><ele>1074.25</ele></trkpt>
   <trkpt lon="3.432773" lat="44.645037"><ele>1073.25</ele></trkpt>
   <trkpt lon="3.432332" lat="44.645276"><ele>1072.0</ele></trkpt>
   <trkpt lon="3.432159" lat="44.645337"><ele>1072.25</ele></trkpt>
   <trkpt lon="3.431740" lat="44.645359"><ele>1069.25</ele></trkpt>
   <trkpt lon="3.431507" lat="44.645399"><ele>1068.25</ele></trkpt>
   <trkpt lon="3.431152" lat="44.645528"><ele>1066.75</ele></trkpt>
   <trkpt lon="3.430721" lat="44.645753"><ele>1065.5</ele></trkpt>
   <trkpt lon="3.430347" lat="44.645835"><ele>1064.25</ele></trkpt>
   <trkpt lon="3.429658" lat="44.645947"><ele>1062.75</ele></trkpt>
   <trkpt lon="3.428784" lat="44.646088"><ele>1056.75</ele></trkpt>
   <trkpt lon="3.428253" lat="44.646186"><ele>1054.5</ele></trkpt>
   <trkpt lon="3.427460" lat="44.646333"><ele>1050.75</ele></trkpt>
   <trkpt lon="3.427125" lat="44.646415"><ele>1049.75</ele></trkpt>
   <trkpt lon="3.426856" lat="44.646552"><ele>1049.5</ele></trkpt>
   <trkpt lon="3.426712" lat="44.646640"><ele>1049.75</ele></trkpt>
   <trkpt lon="3.426588" lat="44.646647"><ele>1049.25</ele></trkpt>
   <trkpt lon="3.426410" lat="44.646632"><ele>1048.0</ele></trkpt>
   <trkpt lon="3.426241" lat="44.646614"><ele>1049.0</ele></trkpt>
   <trkpt lon="3.425955" lat="44.646668"><ele>1049.75</ele></trkpt>
   <trkpt lon="3.425456" lat="44.646784"><ele>1051.25</ele></trkpt>
   <trkpt lon="3.425371" lat="44.646809"><ele>1051.25</ele></trkpt>
   <trkpt lon="3.424900" lat="44.646947"><ele>1050.5</ele></trkpt>
   <trkpt lon="3.423145" lat="44.647241"><ele>1049.0</ele></trkpt>
   <trkpt lon="3.422301" lat="44.647343"><ele>1048.5</ele></trkpt>
   <trkpt lon="3.421773" lat="44.647329"><ele>1048.5</ele></trkpt>
   <trkpt lon="3.421150" lat="44.647200"><ele>1048.25</ele></trkpt>
   <trkpt lon="3.420479" lat="44.647070"><ele>1048.75</ele></trkpt>
   <trkpt lon="3.419951" lat="44.647063"><ele>1048.75</ele></trkpt>
   <trkpt lon="3.419222" lat="44.647138"><ele>1048.0</ele></trkpt>
   <trkpt lon="3.418590" lat="44.647295"><ele>1050.0</ele></trkpt>
   <trkpt lon="3.417822" lat="44.647575"><ele>1051.25</ele></trkpt>
   <trkpt lon="3.417526" lat="44.647692"><ele>1051.25</ele></trkpt>
   <trkpt lon="3.417301" lat="44.647706"><ele>1050.25</ele></trkpt>
   <trkpt lon="3.417116" lat="44.647599"><ele>1051.5</ele></trkpt>
   <trkpt lon="3.416794" lat="44.647366"><ele>1051.25</ele></trkpt>
   <trkpt lon="3.416493" lat="44.647209"><ele>1050.75</ele></trkpt>
   <trkpt lon="3.416258" lat="44.647011"><ele>1052.0</ele></trkpt>
   <trkpt lon="3.416069" lat="44.646863"><ele>1050.75</ele></trkpt>
   <trkpt lon="3.415990" lat="44.646757"><ele>1050.25</ele></trkpt>
   <trkpt lon="3.416003" lat="44.646634"><ele>1051.5</ele></trkpt>
   <trkpt lon="3.416115" lat="44.646415"><ele>1052.25</ele></trkpt>
   <trkpt lon="3.416154" lat="44.646293"><ele>1052.25</ele></trkpt>
   <trkpt lon="3.416135" lat="44.646204"><ele>1051.5</ele></trkpt>
   <trkpt lon="3.416048" lat="44.646033"><ele>1050.5</ele></trkpt>
   <trkpt lon="3.415607" lat="44.645624"><ele>1051.5</ele></trkpt>
   <trkpt lon="3.415444" lat="44.645460"><ele>1051.5</ele></trkpt>
   <trkpt lon="3.415291" lat="44.644887"><ele>1052.5</ele></trkpt>
   <trkpt lon="3.415195" lat="44.644723"><ele>1052.5</ele></trkpt>
   <trkpt lon="3.415041" lat="44.644628"><ele>1053.0</ele></trkpt>
   <trkpt lon="3.414782" lat="44.644669"><ele>1054.25</ele></trkpt>
   <trkpt lon="3.414188" lat="44.644955"><ele>1056.5</ele></trkpt>
   <trkpt lon="3.413785" lat="44.645092"><ele>1057.75</ele></trkpt>
   <trkpt lon="3.413497" lat="44.645126"><ele>1059.25</ele></trkpt>
   <trkpt lon="3.413258" lat="44.645051"><ele>1061.0</ele></trkpt>
   <trkpt lon="3.413133" lat="44.644901"><ele>1061.75</ele></trkpt>
   <trkpt lon="3.413163" lat="44.644575"><ele>1064.25</ele></trkpt>
   <trkpt lon="3.413210" lat="44.644075"><ele>1066.5</ele></trkpt>
   <trkpt lon="3.413344" lat="44.643386"><ele>1066.5</ele></trkpt>
   <trkpt lon="3.413545" lat="44.643011"><ele>1066.75</ele></trkpt>
   <trkpt lon="3.413680" lat="44.642806"><ele>1065.25</ele></trkpt>
   <trkpt lon="3.413881" lat="44.642690"><ele>1067.5</ele></trkpt>
   <trkpt lon="3.413914" lat="44.642617"><ele>1066.0</ele></trkpt>
   <trkpt lon="3.413925" lat="44.642575"></trkpt>
   <trkpt lon="3.413923" lat="44.642543"></trkpt>
   <trkpt lon="3.413886" lat="44.642460"><ele>1063.25</ele></trkpt>
   <trkpt lon="3.413819" lat="44.642352"><ele>1064.5</ele></trkpt>
   <trkpt lon="3.413731" lat="44.642315"><ele>1065.5</ele></trkpt>
   <trkpt lon="3.413643" lat="44.642302"><ele>1066.0</ele></trkpt>
   <trkpt lon="3.413469" lat="44.642318"><ele>1067.25</ele></trkpt>
   <trkpt lon="3.413225" lat="44.642416"><ele>1066.0</ele></trkpt>
   <trkpt lon="3.412941" lat="44.642422"><ele>1066.5</ele></trkpt>
   <trkpt lon="3.412588" lat="44.642384"><ele>1067.0</ele></trkpt>
   <trkpt lon="3.412327" lat="44.642258"><ele>1069.5</ele></trkpt>
   <trkpt lon="3.411852" lat="44.641527"><ele>1072.5</ele></trkpt>
   <trkpt lon="3.411721" lat="44.641352"><ele>1071.75</ele></trkpt>
   <trkpt lon="3.411422" lat="44.641134"><ele>1072.75</ele></trkpt>
   <trkpt lon="3.411131" lat="44.641003"><ele>1072.0</ele></trkpt>
   <trkpt lon="3.410908" lat="44.640948"><ele>1071.5</ele></trkpt>
   <trkpt lon="3.410693" lat="44.640986"><ele>1072.0</ele></trkpt>
   <trkpt lon="3.410087" lat="44.641248"><ele>1075.5</ele></trkpt>
   <trkpt lon="3.409780" lat="44.641335"><ele>1076.25</ele></trkpt>
   <trkpt lon="3.409228" lat="44.641346"><ele>1077.25</ele></trkpt>
   <trkpt lon="3.408860" lat="44.641265"><ele>1078.25</ele></trkpt>
   <trkpt lon="3.408798" lat="44.641244"><ele>1078.25</ele></trkpt>
   <trkpt lon="3.408645" lat="44.641194"><ele>1078.25</ele></trkpt>
   <trkpt lon="3.408254" lat="44.640910"><ele>1079.75</ele></trkpt>
   <trkpt lon="3.408070" lat="44.640801"><ele>1080.25</ele></trkpt>
   <trkpt lon="3.406389" lat="44.640511"><ele>1086.25</ele></trkpt>
   <trkpt lon="3.406075" lat="44.640380"><ele>1087.0</ele></trkpt>
   <trkpt lon="3.405852" lat="44.640222"><ele>1087.25</ele></trkpt>
   <trkpt lon="3.405722" lat="44.639987"><ele>1086.75</ele></trkpt>
   <trkpt lon="3.405619" lat="44.639890"><ele>1086.5</ele></trkpt>
   <trkpt lon="3.405535" lat="44.639805"><ele>1087.0</ele></trkpt>
   <trkpt lon="3.405305" lat="44.639798"><ele>1086.75</ele></trkpt>
   <trkpt lon="3.404996" lat="44.639878"><ele>1087.0</ele></trkpt>
   <trkpt lon="3.404512" lat="44.639988"><ele>1086.75</ele></trkpt>
   <trkpt lon="3.404110" lat="44.640040"><ele>1086.25</ele></trkpt>
   <trkpt lon="3.403708" lat="44.639988"><ele>1085.25</ele></trkpt>
   <trkpt lon="3.402801" lat="44.639607"><ele>1082.25</ele></trkpt>
   <trkpt lon="3.402554" lat="44.639541"><ele>1083.25</ele></trkpt>
   <trkpt lon="3.402286" lat="44.639541"><ele>1084.75</ele></trkpt>
   <trkpt lon="3.401565" lat="44.639688"><ele>1085.0</ele></trkpt>
   <trkpt lon="3.401132" lat="44.639761"><ele>1087.25</ele></trkpt>
   <trkpt lon="3.400781" lat="44.639768"><ele>1088.5</ele></trkpt>
   <trkpt lon="3.399967" lat="44.639629"><ele>1089.25</ele></trkpt>
   <trkpt lon="3.399902" lat="44.639608"><ele>1089.75</ele></trkpt>
   <trkpt lon="3.399699" lat="44.639541"><ele>1090.75</ele></trkpt>
   <trkpt lon="3.399335" lat="44.639139"><ele>1091.5</ele></trkpt>
   <trkpt lon="3.399171" lat="44.638928"><ele>1091.0</ele></trkpt>
   <trkpt lon="3.399147" lat="44.638816"><ele>1090.5</ele></trkpt>
   <trkpt lon="3.399178" lat="44.638729"><ele>1090.25</ele></trkpt>
   <trkpt lon="3.399234" lat="44.638623"><ele>1090.5</ele></trkpt>
   <trkpt lon="3.399349" lat="44.638536"><ele>1090.25</ele></trkpt>
   <trkpt lon="3.399385" lat="44.638474"><ele>1089.75</ele></trkpt>
   <trkpt lon="3.399452" lat="44.638361"><ele>1089.25</ele></trkpt>
   <trkpt lon="3.399421" lat="44.638185"><ele>1089.0</ele></trkpt>
   <trkpt lon="3.399209" lat="44.637843"><ele>1087.0</ele></trkpt>
   <trkpt lon="3.399142" lat="44.637576"><ele>1086.25</ele></trkpt>
   <trkpt lon="3.399140" lat="44.637411"><ele>1085.5</ele></trkpt>
   <trkpt lon="3.399308" lat="44.637019"><ele>1086.25</ele></trkpt>
   <trkpt lon="3.399369" lat="44.636899"><ele>1087.25</ele></trkpt>
   <trkpt lon="3.399421" lat="44.636608"><ele>1087.5</ele></trkpt>
   <trkpt lon="3.399586" lat="44.636041"><ele>1090.75</ele></trkpt>
   <trkpt lon="3.399802" lat="44.635858"><ele>1093.25</ele></trkpt>
   <trkpt lon="3.399967" lat="44.635762"><ele>1094.25</ele></trkpt>
   <trkpt lon="3.400669" lat="44.635671"><ele>1099.0</ele></trkpt>
   <trkpt lon="3.402121" lat="44.635528"><ele>1106.25</ele></trkpt>
   <trkpt lon="3.402564" lat="44.635521"><ele>1109.0</ele></trkpt>
   <trkpt lon="3.402791" lat="44.635345"><ele>1111.5</ele></trkpt>
   <trkpt lon="3.402842" lat="44.635110"><ele>1113.5</ele></trkpt>
   <trkpt lon="3.402976" lat="44.634707"><ele>1116.75</ele></trkpt>
   <trkpt lon="3.403182" lat="44.634326"><ele>1120.25</ele></trkpt>
   <trkpt lon="3.403584" lat="44.633864"><ele>1123.5</ele></trkpt>
   <trkpt lon="3.404223" lat="44.633284"><ele>1129.5</ele></trkpt>
   <trkpt lon="3.404584" lat="44.633006"><ele>1133.0</ele></trkpt>
   <trkpt lon="3.405120" lat="44.632786"><ele>1138.25</ele></trkpt>
   <trkpt lon="3.405470" lat="44.632573"><ele>1139.5</ele></trkpt>
   <trkpt lon="3.405728" lat="44.632353"><ele>1141.0</ele></trkpt>
   <trkpt lon="3.405842" lat="44.632239"><ele>1142.0</ele></trkpt>
   <trkpt lon="3.405862" lat="44.632225"><ele>1142.25</ele></trkpt>
   <trkpt lon="3.406108" lat="44.632057"><ele>1145.25</ele></trkpt>
   <trkpt lon="3.406415" lat="44.631875"><ele>1146.75</ele></trkpt>
   <trkpt lon="3.406868" lat="44.631611"><ele>1149.25</ele></trkpt>
   <trkpt lon="3.407022" lat="44.631442"><ele>1150.5</ele></trkpt>
   <trkpt lon="3.407262" lat="44.631216"><ele>1152.5</ele></trkpt>
   <trkpt lon="3.407456" lat="44.631114"><ele>1154.75</ele></trkpt>
   <trkpt lon="3.407705" lat="44.631069"><ele>1156.75</ele></trkpt>
   <trkpt lon="3.408400" lat="44.631057"><ele>1160.5</ele></trkpt>
   <trkpt lon="3.408673" lat="44.630988"><ele>1162.0</ele></trkpt>
   <trkpt lon="3.409334" lat="44.630637"><ele>1166.0</ele></trkpt>
   <trkpt lon="3.409839" lat="44.630219"><ele>1169.5</ele></trkpt>
   <trkpt lon="3.410282" lat="44.629764"><ele>1173.0</ele></trkpt>
   <trkpt lon="3.410874" lat="44.628998"><ele>1180.0</ele></trkpt>
   <trkpt lon="3.411119" lat="44.628842"><ele>1180.75</ele></trkpt>
   <trkpt lon="3.411440" lat="44.628661"><ele>1182.75</ele></trkpt>
   <trkpt lon="3.411696" lat="44.628564"><ele>1184.0</ele></trkpt>
   <trkpt lon="3.411993" lat="44.628481"><ele>1185.5</ele></trkpt>
   <trkpt lon="3.412374" lat="44.628364"><ele>1187.5</ele></trkpt>
   <trkpt lon="3.412724" lat="44.628173"><ele>1189.75</ele></trkpt>
   <trkpt lon="3.413107" lat="44.627835"><ele>1192.5</ele></trkpt>
   <trkpt lon="3.413386" lat="44.627588"><ele>1194.25</ele></trkpt>
   <trkpt lon="3.414177" lat="44.626890"><ele>1195.0</ele></trkpt>
   <trkpt lon="3.414414" lat="44.626655"><ele>1195.75</ele></trkpt>
   <trkpt lon="3.414528" lat="44.626428"><ele>1195.5</ele></trkpt>
   <trkpt lon="3.414672" lat="44.624888"><ele>1192.75</ele></trkpt>
   <trkpt lon="3.414837" lat="44.622629"><ele>1186.5</ele></trkpt>
   <trkpt lon="3.414960" lat="44.620927"><ele>1186.0</ele></trkpt>
   <trkpt lon="3.414983" lat="44.620489"><ele>1185.75</ele></trkpt>
   <trkpt lon="3.415022" lat="44.619710"><ele>1182.75</ele></trkpt>
   <trkpt lon="3.415063" lat="44.619328"><ele>1181.75</ele></trkpt>
   <trkpt lon="3.415278" lat="44.618917"><ele>1180.0</ele></trkpt>
   <trkpt lon="3.415315" lat="44.618846"><ele>1179.5</ele></trkpt>
   <trkpt lon="3.415362" lat="44.618756"><ele>1179.25</ele></trkpt>
   <trkpt lon="3.416424" lat="44.617407"><ele>1172.5</ele></trkpt>
   <trkpt lon="3.417681" lat="44.615984"><ele>1165.5</ele></trkpt>
   <trkpt lon="3.417949" lat="44.615661"><ele>1163.0</ele></trkpt>
   <trkpt lon="3.418031" lat="44.615338"><ele>1160.5</ele></trkpt>
   <trkpt lon="3.418031" lat="44.614707"><ele>1156.0</ele></trkpt>
   <trkpt lon="3.418526" lat="44.614201"><ele>1152.25</ele></trkpt>
   <trkpt lon="3.418979" lat="44.613922"><ele>1149.5</ele></trkpt>
   <trkpt lon="3.422342" lat="44.612201"><ele>1136.25</ele></trkpt>
   <trkpt lon="3.423033" lat="44.611830"><ele>1132.5</ele></trkpt>
   <trkpt lon="3.423778" lat="44.611357"><ele>1127.5</ele></trkpt>
   <trkpt lon="3.423978" lat="44.611281"><ele>1126.25</ele></trkpt>
   <trkpt lon="3.424210" lat="44.611227"><ele>1125.25</ele></trkpt>
   <trkpt lon="3.424621" lat="44.611157"><ele>1122.75</ele></trkpt>
   <trkpt lon="3.424820" lat="44.611098"><ele>1121.5</ele></trkpt>
   <trkpt lon="3.424970" lat="44.611020"><ele>1120.25</ele></trkpt>
   <trkpt lon="3.425077" lat="44.610930"><ele>1118.75</ele></trkpt>
   <trkpt lon="3.425214" lat="44.610709"><ele>1116.0</ele></trkpt>
   <trkpt lon="3.425331" lat="44.610162"><ele>1111.5</ele></trkpt>
   <trkpt lon="3.425389" lat="44.610065"><ele>1110.25</ele></trkpt>
   <trkpt lon="3.425694" lat="44.609611"><ele>1106.75</ele></trkpt>
   <trkpt lon="3.425851" lat="44.609449"><ele>1104.5</ele></trkpt>
   <trkpt lon="3.426253" lat="44.609144"><ele>1101.0</ele></trkpt>
   <trkpt lon="3.426545" lat="44.608874"><ele>1098.25</ele></trkpt>
   <trkpt lon="3.426833" lat="44.608499"><ele>1093.75</ele></trkpt>
   <trkpt lon="3.426902" lat="44.608362"><ele>1092.75</ele></trkpt>
   <trkpt lon="3.426953" lat="44.608186"><ele>1090.75</ele></trkpt>
   <trkpt lon="3.427006" lat="44.607699"><ele>1086.5</ele></trkpt>
   <trkpt lon="3.427059" lat="44.607428"><ele>1084.5</ele></trkpt>
   <trkpt lon="3.427288" lat="44.607216"><ele>1081.75</ele></trkpt>
   <trkpt lon="3.427506" lat="44.607085"><ele>1079.5</ele></trkpt>
   <trkpt lon="3.427591" lat="44.606966"><ele>1079.25</ele></trkpt>
   <trkpt lon="3.427638" lat="44.606806"><ele>1077.25</ele></trkpt>
   <trkpt lon="3.427691" lat="44.606563"><ele>1074.75</ele></trkpt>
   <trkpt lon="3.427798" lat="44.606340"><ele>1073.25</ele></trkpt>
   <trkpt lon="3.427950" lat="44.606123"><ele>1070.75</ele></trkpt>
   <trkpt lon="3.428095" lat="44.605988"><ele>1069.75</ele></trkpt>
   <trkpt lon="3.428420" lat="44.605789"><ele>1068.75</ele></trkpt>
   <trkpt lon="3.428600" lat="44.605606"><ele>1066.5</ele></trkpt>
   <trkpt lon="3.428905" lat="44.605354"><ele>1064.25</ele></trkpt>
   <trkpt lon="3.429213" lat="44.605199"><ele>1061.0</ele></trkpt>
   <trkpt lon="3.429525" lat="44.605077"><ele>1060.25</ele></trkpt>
   <trkpt lon="3.429765" lat="44.604835"><ele>1056.0</ele></trkpt>
   <trkpt lon="3.429895" lat="44.604638"><ele>1055.25</ele></trkpt>
   <trkpt lon="3.429943" lat="44.604473"><ele>1053.5</ele></trkpt>
   <trkpt lon="3.429971" lat="44.604175"><ele>1050.25</ele></trkpt>
   <trkpt lon="3.430001" lat="44.604070"><ele>1049.75</ele></trkpt>
   <trkpt lon="3.430056" lat="44.603996"><ele>1049.0</ele></trkpt>
   <trkpt lon="3.430153" lat="44.603941"><ele>1048.5</ele></trkpt>
   <trkpt lon="3.430251" lat="44.603935"><ele>1048.5</ele></trkpt>
   <trkpt lon="3.430384" lat="44.603962"><ele>1047.25</ele></trkpt>
   <trkpt lon="3.430862" lat="44.604144"><ele>1043.75</ele></trkpt>
   <trkpt lon="3.431260" lat="44.604215"><ele>1041.75</ele></trkpt>
   <trkpt lon="3.431571" lat="44.604235"><ele>1039.75</ele></trkpt>
   <trkpt lon="3.431814" lat="44.604227"><ele>1037.75</ele></trkpt>
   <trkpt lon="3.431942" lat="44.604182"><ele>1035.5</ele></trkpt>
   <trkpt lon="3.432030" lat="44.604118"></trkpt>
   <trkpt lon="3.432078" lat="44.604050"><ele>1035.0</ele></trkpt>
   <trkpt lon="3.432109" lat="44.603949"><ele>1036.0</ele></trkpt>
   <trkpt lon="3.432086" lat="44.603869"><ele>1037.25</ele></trkpt>
   <trkpt lon="3.431861" lat="44.603680"><ele>1039.5</ele></trkpt>
   <trkpt lon="3.431643" lat="44.603433"><ele>1041.25</ele></trkpt>
   <trkpt lon="3.431470" lat="44.603144"><ele>1044.75</ele></trkpt>
   <trkpt lon="3.431238" lat="44.602941"><ele>1046.5</ele></trkpt>
   <trkpt lon="3.430465" lat="44.602418"><ele>1049.5</ele></trkpt>
   <trkpt lon="3.430315" lat="44.602244"><ele>1051.25</ele></trkpt>
   <trkpt lon="3.430269" lat="44.602091"><ele>1051.5</ele></trkpt>
   <trkpt lon="3.430310" lat="44.601977"><ele>1053.25</ele></trkpt>
   <trkpt lon="3.430402" lat="44.601894"><ele>1053.75</ele></trkpt>
   <trkpt lon="3.430733" lat="44.601708"><ele>1056.25</ele></trkpt>
   <trkpt lon="3.430975" lat="44.601541"><ele>1058.25</ele></trkpt>
   <trkpt lon="3.431611" lat="44.600983"><ele>1063.25</ele></trkpt>
   <trkpt lon="3.432186" lat="44.600423"><ele>1067.75</ele></trkpt>
   <trkpt lon="3.432729" lat="44.599828"><ele>1073.5</ele></trkpt>
   <trkpt lon="3.433421" lat="44.598797"><ele>1082.5</ele></trkpt>
   <trkpt lon="3.433983" lat="44.597631"><ele>1089.75</ele></trkpt>
   <trkpt lon="3.434086" lat="44.597439"><ele>1091.5</ele></trkpt>
   <trkpt lon="3.434109" lat="44.597319"><ele>1091.75</ele></trkpt>
   <trkpt lon="3.434110" lat="44.597145"><ele>1092.0</ele></trkpt>
   <trkpt lon="3.434160" lat="44.597022"><ele>1093.5</ele></trkpt>
   <trkpt lon="3.434257" lat="44.596924"><ele>1095.0</ele></trkpt>
   <trkpt lon="3.434420" lat="44.596828"><ele>1094.25</ele></trkpt>
   <trkpt lon="3.434620" lat="44.596750"><ele>1096.5</ele></trkpt>
   <trkpt lon="3.434890" lat="44.596623"><ele>1097.75</ele></trkpt>
   <trkpt lon="3.435182" lat="44.596439"><ele>1098.5</ele></trkpt>
   <trkpt lon="3.435855" lat="44.595977"><ele>1101.75</ele></trkpt>
   <trkpt lon="3.435990" lat="44.595851"><ele>1101.5</ele></trkpt>
   <trkpt lon="3.436069" lat="44.595697"><ele>1102.25</ele></trkpt>
   <trkpt lon="3.436096" lat="44.595595"><ele>1102.0</ele></trkpt>
   <trkpt lon="3.436187" lat="44.595471"><ele>1103.75</ele></trkpt>
   <trkpt lon="3.436998" lat="44.594890"><ele>1109.5</ele></trkpt>
   <trkpt lon="3.437077" lat="44.594822"><ele>1110.0</ele></trkpt>
   <trkpt lon="3.437598" lat="44.594377"><ele>1114.25</ele></trkpt>
   <trkpt lon="3.438269" lat="44.593781"><ele>1119.75</ele></trkpt>
   <trkpt lon="3.438445" lat="44.593561"><ele>1121.75</ele></trkpt>
   <trkpt lon="3.438567" lat="44.593371"><ele>1124.0</ele></trkpt>
   <trkpt lon="3.438655" lat="44.593163"><ele>1125.0</ele></trkpt>
   <trkpt lon="3.438689" lat="44.593018"><ele>1126.5</ele></trkpt>
   <trkpt lon="3.439019" lat="44.591597"><ele>1137.5</ele></trkpt>
   <trkpt lon="3.439029" lat="44.591400"><ele>1138.75</ele></trkpt>
   <trkpt lon="3.438995" lat="44.591035"><ele>1141.25</ele></trkpt>
   <trkpt lon="3.439010" lat="44.590737"><ele>1144.0</ele></trkpt>
   <trkpt lon="3.439059" lat="44.590573"><ele>1145.75</ele></trkpt>
   <trkpt lon="3.439152" lat="44.590389"><ele>1147.5</ele></trkpt>
   <trkpt lon="3.439536" lat="44.589892"><ele>1151.0</ele></trkpt>
   <trkpt lon="3.439734" lat="44.589540"><ele>1153.5</ele></trkpt>
   <trkpt lon="3.439842" lat="44.589139"><ele>1156.25</ele></trkpt>
   <trkpt lon="3.439699" lat="44.588771"><ele>1159.25</ele></trkpt>
   <trkpt lon="3.439499" lat="44.588535"><ele>1161.0</ele></trkpt>
   <trkpt lon="3.439226" lat="44.588238"><ele>1162.75</ele></trkpt>
   <trkpt lon="3.438952" lat="44.587910"><ele>1164.75</ele></trkpt>
   <trkpt lon="3.438686" lat="44.587528"><ele>1167.5</ele></trkpt>
   <trkpt lon="3.438509" lat="44.587071"><ele>1169.5</ele></trkpt>
   <trkpt lon="3.438400" lat="44.586684"><ele>1171.25</ele></trkpt>
   <trkpt lon="3.438359" lat="44.586319"><ele>1173.25</ele></trkpt>
   <trkpt lon="3.438367" lat="44.585917"><ele>1175.25</ele></trkpt>
   <trkpt lon="3.438581" lat="44.584782"><ele>1181.75</ele></trkpt>
   <trkpt lon="3.438577" lat="44.584594"><ele>1182.25</ele></trkpt>
   <trkpt lon="3.438527" lat="44.584421"><ele>1183.0</ele></trkpt>
   <trkpt lon="3.438368" lat="44.584151"><ele>1184.25</ele></trkpt>
   <trkpt lon="3.437896" lat="44.583433"><ele>1189.25</ele></trkpt>
   <trkpt lon="3.437715" lat="44.583071"><ele>1191.0</ele></trkpt>
   <trkpt lon="3.437422" lat="44.582075"><ele>1196.5</ele></trkpt>
   <trkpt lon="3.437359" lat="44.581847"><ele>1197.5</ele></trkpt>
   <trkpt lon="3.437312" lat="44.581593"><ele>1198.5</ele></trkpt>
   <trkpt lon="3.437321" lat="44.581195"><ele>1200.5</ele></trkpt>
   <trkpt lon="3.437395" lat="44.580889"><ele>1202.25</ele></trkpt>
   <trkpt lon="3.437508" lat="44.580553"><ele>1204.0</ele></trkpt>
   <trkpt lon="3.437713" lat="44.579964"><ele>1206.0</ele></trkpt>
   <trkpt lon="3.437910" lat="44.579785"><ele>1206.75</ele></trkpt>
   <trkpt lon="3.437981" lat="44.579734"><ele>1206.75</ele></trkpt>
   <trkpt lon="3.438198" lat="44.579602"><ele>1207.0</ele></trkpt>
   <trkpt lon="3.439239" lat="44.579153"><ele>1209.75</ele></trkpt>
   <trkpt lon="3.439373" lat="44.579095"><ele>1209.75</ele></trkpt>
   <trkpt lon="3.439901" lat="44.578867"><ele>1212.25</ele></trkpt>
   <trkpt lon="3.440511" lat="44.578616"><ele>1214.75</ele></trkpt>
   <trkpt lon="3.441187" lat="44.578379"><ele>1217.25</ele></trkpt>
   <trkpt lon="3.441610" lat="44.578259"><ele>1218.75</ele></trkpt>
   <trkpt lon="3.441997" lat="44.578183"><ele>1219.5</ele></trkpt>
   <trkpt lon="3.442879" lat="44.578064"><ele>1222.25</ele></trkpt>
   <trkpt lon="3.445775" lat="44.577725"><ele>1229.5</ele></trkpt>
   <trkpt lon="3.446186" lat="44.577653"><ele>1231.75</ele></trkpt>
   <trkpt lon="3.446500" lat="44.577576"><ele>1234.25</ele></trkpt>
   <trkpt lon="3.446785" lat="44.577405"><ele>1235.75</ele></trkpt>
   <trkpt lon="3.446984" lat="44.577176"><ele>1237.25</ele></trkpt>
   <trkpt lon="3.447078" lat="44.576970"><ele>1237.5</ele></trkpt>
   <trkpt lon="3.447146" lat="44.576763"><ele>1238.5</ele></trkpt>
   <trkpt lon="3.448038" lat="44.574011"><ele>1236.25</ele></trkpt>
   <trkpt lon="3.448106" lat="44.573756"><ele>1235.5</ele></trkpt>
   <trkpt lon="3.448148" lat="44.573420"><ele>1234.25</ele></trkpt>
   <trkpt lon="3.448158" lat="44.571999"><ele>1229.0</ele></trkpt>
   <trkpt lon="3.448214" lat="44.571792"><ele>1228.0</ele></trkpt>
   <trkpt lon="3.448313" lat="44.571627"><ele>1226.75</ele></trkpt>
   <trkpt lon="3.448479" lat="44.571503"><ele>1225.5</ele></trkpt>
   <trkpt lon="3.448690" lat="44.571415"><ele>1224.75</ele></trkpt>
   <trkpt lon="3.448975" lat="44.571349"><ele>1223.0</ele></trkpt>
   <trkpt lon="3.449037" lat="44.571341"><ele>1222.75</ele></trkpt>
   <trkpt lon="3.449401" lat="44.571283"><ele>1221.0</ele></trkpt>
   <trkpt lon="3.449600" lat="44.571225"><ele>1220.0</ele></trkpt>
   <trkpt lon="3.449905" lat="44.571082"><ele>1218.5</ele></trkpt>
   <trkpt lon="3.450156" lat="44.570906"><ele>1216.75</ele></trkpt>
   <trkpt lon="3.450419" lat="44.570697"><ele>1215.5</ele></trkpt>
   <trkpt lon="3.450509" lat="44.570573"><ele>1214.75</ele></trkpt>
   <trkpt lon="3.450555" lat="44.570510"><ele>1214.5</ele></trkpt>
   <trkpt lon="3.450655" lat="44.570267"><ele>1212.75</ele></trkpt>
   <trkpt lon="3.450699" lat="44.569987"><ele>1211.75</ele></trkpt>
   <trkpt lon="3.450708" lat="44.569420"><ele>1210.25</ele></trkpt>
   <trkpt lon="3.450730" lat="44.569040"><ele>1208.5</ele></trkpt>
   <trkpt lon="3.450796" lat="44.568768"><ele>1206.75</ele></trkpt>
   <trkpt lon="3.451049" lat="44.568225"><ele>1203.5</ele></trkpt>
   <trkpt lon="3.451112" lat="44.568035"><ele>1202.75</ele></trkpt>
   <trkpt lon="3.451152" lat="44.567566"><ele>1198.75</ele></trkpt>
   <trkpt lon="3.451174" lat="44.566835"><ele>1194.5</ele></trkpt>
   <trkpt lon="3.451175" lat="44.566755"><ele>1188.75</ele></trkpt>
   <trkpt lon="3.451189" lat="44.565927"><ele>1188.75</ele></trkpt>
   <trkpt lon="3.451214" lat="44.565696"><ele>1187.25</ele></trkpt>
   <trkpt lon="3.451256" lat="44.565510"><ele>1186.0</ele></trkpt>
   <trkpt lon="3.451317" lat="44.565385"><ele>1185.25</ele></trkpt>
   <trkpt lon="3.451410" lat="44.565223"><ele>1184.25</ele></trkpt>
   <trkpt lon="3.451581" lat="44.565021"><ele>1182.75</ele></trkpt>
   <trkpt lon="3.451807" lat="44.564830"><ele>1181.0</ele></trkpt>
   <trkpt lon="3.452100" lat="44.564655"><ele>1179.25</ele></trkpt>
   <trkpt lon="3.452885" lat="44.564339"><ele>1175.5</ele></trkpt>
   <trkpt lon="3.453176" lat="44.564197"><ele>1173.75</ele></trkpt>
   <trkpt lon="3.453385" lat="44.564069"><ele>1172.25</ele></trkpt>
   <trkpt lon="3.453545" lat="44.563907"><ele>1171.0</ele></trkpt>
   <trkpt lon="3.453755" lat="44.563602"><ele>1169.25</ele></trkpt>
   <trkpt lon="3.453968" lat="44.563257"><ele>1167.0</ele></trkpt>
   <trkpt lon="3.454239" lat="44.562805"><ele>1163.75</ele></trkpt>
   <trkpt lon="3.454391" lat="44.562336"><ele>1161.5</ele></trkpt>
   <trkpt lon="3.454521" lat="44.562034"><ele>1159.75</ele></trkpt>
   <trkpt lon="3.454578" lat="44.561855"><ele>1158.5</ele></trkpt>
   <trkpt lon="3.454651" lat="44.561406"><ele>1155.25</ele></trkpt>
   <trkpt lon="3.454727" lat="44.560810"><ele>1150.75</ele></trkpt>
   <trkpt lon="3.454810" lat="44.560139"><ele>1146.5</ele></trkpt>
   <trkpt lon="3.454870" lat="44.559618"><ele>1143.75</ele></trkpt>
   <trkpt lon="3.454858" lat="44.559511"><ele>1142.75</ele></trkpt>
   <trkpt lon="3.454828" lat="44.559433"><ele>1142.25</ele></trkpt>
   <trkpt lon="3.454778" lat="44.559358"><ele>1141.25</ele></trkpt>
   <trkpt lon="3.454708" lat="44.559293"><ele>1140.25</ele></trkpt>
   <trkpt lon="3.454601" lat="44.559217"><ele>1139.5</ele></trkpt>
   <trkpt lon="3.454202" lat="44.559021"><ele>1135.75</ele></trkpt>
   <trkpt lon="3.454086" lat="44.558955"><ele>1134.75</ele></trkpt>
   <trkpt lon="3.453970" lat="44.558863"><ele>1133.75</ele></trkpt>
   <trkpt lon="3.453881" lat="44.558754"><ele>1133.0</ele></trkpt>
   <trkpt lon="3.453702" lat="44.558453"><ele>1129.5</ele></trkpt>
   <trkpt lon="3.453425" lat="44.558221"><ele>1127.75</ele></trkpt>
   <trkpt lon="3.453336" lat="44.558134"><ele>1126.5</ele></trkpt>
   <trkpt lon="3.453243" lat="44.558027"><ele>1125.75</ele></trkpt>
   <trkpt lon="3.453186" lat="44.557911"><ele>1125.0</ele></trkpt>
   <trkpt lon="3.453126" lat="44.557669"><ele>1122.0</ele></trkpt>
   <trkpt lon="3.453061" lat="44.557347"><ele>1119.0</ele></trkpt>
   <trkpt lon="3.452989" lat="44.557131"><ele>1117.25</ele></trkpt>
   <trkpt lon="3.452926" lat="44.557017"><ele>1116.0</ele></trkpt>
   <trkpt lon="3.452833" lat="44.556907"><ele>1115.0</ele></trkpt>
   <trkpt lon="3.452731" lat="44.556806"><ele>1113.75</ele></trkpt>
   <trkpt lon="3.452195" lat="44.556393"><ele>1110.75</ele></trkpt>
   <trkpt lon="3.452092" lat="44.556293"><ele>1110.0</ele></trkpt>
   <trkpt lon="3.452012" lat="44.556165"><ele>1108.25</ele></trkpt>
   <trkpt lon="3.451949" lat="44.555931"><ele>1105.5</ele></trkpt>
   <trkpt lon="3.451886" lat="44.555558"><ele>1102.5</ele></trkpt>
   <trkpt lon="3.451839" lat="44.555425"><ele>1101.0</ele></trkpt>
   <trkpt lon="3.451768" lat="44.555309"><ele>1100.0</ele></trkpt>
   <trkpt lon="3.451634" lat="44.555134"><ele>1097.75</ele></trkpt>
   <trkpt lon="3.451594" lat="44.555052"><ele>1096.25</ele></trkpt>
   <trkpt lon="3.451578" lat="44.554929"><ele>1094.5</ele></trkpt>
   <trkpt lon="3.451594" lat="44.554814"><ele>1093.25</ele></trkpt>
   <trkpt lon="3.451677" lat="44.554706"><ele>1091.75</ele></trkpt>
   <trkpt lon="3.451751" lat="44.554638"><ele>1090.75</ele></trkpt>
   <trkpt lon="3.451884" lat="44.554563"><ele>1089.5</ele></trkpt>
   <trkpt lon="3.452212" lat="44.554455"><ele>1086.75</ele></trkpt>
   <trkpt lon="3.452546" lat="44.554324"><ele>1084.75</ele></trkpt>
   <trkpt lon="3.452855" lat="44.554193"><ele>1082.0</ele></trkpt>
   <trkpt lon="3.453088" lat="44.554082"><ele>1079.75</ele></trkpt>
   <trkpt lon="3.453446" lat="44.553826"><ele>1077.75</ele></trkpt>
   <trkpt lon="3.453750" lat="44.553573"><ele>1075.5</ele></trkpt>
   <trkpt lon="3.453980" lat="44.553331"><ele>1071.25</ele></trkpt>
   <trkpt lon="3.454180" lat="44.553108"><ele>1070.0</ele></trkpt>
   <trkpt lon="3.454432" lat="44.552790"><ele>1067.25</ele></trkpt>
   <trkpt lon="3.454559" lat="44.552605"><ele>1064.5</ele></trkpt>
   <trkpt lon="3.454642" lat="44.552455"><ele>1062.5</ele></trkpt>
   <trkpt lon="3.454680" lat="44.552285"><ele>1061.25</ele></trkpt>
   <trkpt lon="3.454685" lat="44.552126"><ele>1060.0</ele></trkpt>
   <trkpt lon="3.454654" lat="44.551900"><ele>1057.75</ele></trkpt>
   <trkpt lon="3.454535" lat="44.551538"><ele>1055.0</ele></trkpt>
   <trkpt lon="3.454524" lat="44.551398"><ele>1053.5</ele></trkpt>
   <trkpt lon="3.454561" lat="44.551235"><ele>1052.25</ele></trkpt>
   <trkpt lon="3.454695" lat="44.550920"><ele>1049.5</ele></trkpt>
   <trkpt lon="3.454821" lat="44.550646"><ele>1047.25</ele></trkpt>
   <trkpt lon="3.454952" lat="44.550391"><ele>1045.0</ele></trkpt>
   <trkpt lon="3.456103" lat="44.548682"><ele>1028.0</ele></trkpt>
   <trkpt lon="3.456379" lat="44.548236"><ele>1023.5</ele></trkpt>
   <trkpt lon="3.456458" lat="44.548014"><ele>1021.75</ele></trkpt>
   <trkpt lon="3.456501" lat="44.547818"><ele>1020.25</ele></trkpt>
   <trkpt lon="3.456514" lat="44.547591"><ele>1018.5</ele></trkpt>
   <trkpt lon="3.456496" lat="44.547440"><ele>1016.75</ele></trkpt>
   <trkpt lon="3.456444" lat="44.547297"><ele>1015.0</ele></trkpt>
   <trkpt lon="3.456065" lat="44.546583"><ele>1008.25</ele></trkpt>
   <trkpt lon="3.455923" lat="44.546346"><ele>1006.0</ele></trkpt>
   <trkpt lon="3.455819" lat="44.546207"><ele>1005.0</ele></trkpt>
   <trkpt lon="3.455651" lat="44.546061"><ele>1003.0</ele></trkpt>
   <trkpt lon="3.455441" lat="44.545908"><ele>1001.25</ele></trkpt>
   <trkpt lon="3.455120" lat="44.545645"><ele>997.75</ele></trkpt>
   <trkpt lon="3.454653" lat="44.545227"><ele>992.5</ele></trkpt>
   <trkpt lon="3.454498" lat="44.545095"><ele>991.0</ele></trkpt>
   <trkpt lon="3.454157" lat="44.544895"><ele>987.75</ele></trkpt>
   <trkpt lon="3.453665" lat="44.544634"><ele>983.5</ele></trkpt>
   <trkpt lon="3.453597" lat="44.544569"><ele>982.5</ele></trkpt>
   <trkpt lon="3.453588" lat="44.544508"><ele>981.5</ele></trkpt>
   <trkpt lon="3.453605" lat="44.544461"><ele>981.0</ele></trkpt>
   <trkpt lon="3.453699" lat="44.544401"><ele>979.0</ele></trkpt>
   <trkpt lon="3.455487" lat="44.544133"><ele>967.75</ele></trkpt>
   <trkpt lon="3.455684" lat="44.544093"><ele>966.25</ele></trkpt>
   <trkpt lon="3.455842" lat="44.544035"><ele>965.0</ele></trkpt>
   <trkpt lon="3.456014" lat="44.543957"><ele>963.75</ele></trkpt>
   <trkpt lon="3.456164" lat="44.543855"><ele>962.25</ele></trkpt>
   <trkpt lon="3.456270" lat="44.543750"><ele>961.0</ele></trkpt>
   <trkpt lon="3.456335" lat="44.543659"><ele>960.25</ele></trkpt>
   <trkpt lon="3.456387" lat="44.543525"><ele>959.25</ele></trkpt>
   <trkpt lon="3.456407" lat="44.543372"><ele>958.0</ele></trkpt>
   <trkpt lon="3.456421" lat="44.542988"><ele>954.5</ele></trkpt>
   <trkpt lon="3.456459" lat="44.542905"><ele>954.0</ele></trkpt>
   <trkpt lon="3.456548" lat="44.542790"><ele>953.25</ele></trkpt>
   <trkpt lon="3.457037" lat="44.542347"><ele>949.5</ele></trkpt>
   <trkpt lon="3.457195" lat="44.542147"><ele>948.25</ele></trkpt>
   <trkpt lon="3.457378" lat="44.541970"><ele>947.0</ele></trkpt>
   <trkpt lon="3.457862" lat="44.541633"><ele>945.75</ele></trkpt>
   <trkpt lon="3.457982" lat="44.541518"><ele>944.75</ele></trkpt>
   <trkpt lon="3.458074" lat="44.541409"><ele>944.0</ele></trkpt>
   <trkpt lon="3.458419" lat="44.540854"><ele>942.0</ele></trkpt>
   <trkpt lon="3.458576" lat="44.540724"><ele>941.5</ele></trkpt>
   <trkpt lon="3.458796" lat="44.540513"><ele>940.75</ele></trkpt>
   <trkpt lon="3.458920" lat="44.540364"><ele>940.25</ele></trkpt>
   <trkpt lon="3.459345" lat="44.539751"><ele>939.5</ele></trkpt>
   <trkpt lon="3.459729" lat="44.539135"><ele>939.75</ele></trkpt>
   <trkpt lon="3.460048" lat="44.538716"><ele>939.75</ele></trkpt>
   <trkpt lon="3.460260" lat="44.538529"><ele>940.25</ele></trkpt>
   <trkpt lon="3.460642" lat="44.538269"><ele>940.0</ele></trkpt>
   <trkpt lon="3.461017" lat="44.538060"><ele>939.5</ele></trkpt>
   <trkpt lon="3.461361" lat="44.537850"><ele>939.5</ele></trkpt>
   <trkpt lon="3.461797" lat="44.537534"><ele>938.75</ele></trkpt>
   <trkpt lon="3.462248" lat="44.537175"><ele>938.0</ele></trkpt>
   <trkpt lon="3.462785" lat="44.536810"><ele>936.25</ele></trkpt>
   <trkpt lon="3.462908" lat="44.536751"><ele>936.25</ele></trkpt>
   <trkpt lon="3.463080" lat="44.536691"><ele>936.5</ele></trkpt>
   <trkpt lon="3.463225" lat="44.536651"><ele>936.5</ele></trkpt>
   <trkpt lon="3.463475" lat="44.536624"><ele>936.25</ele></trkpt>
   <trkpt lon="3.463685" lat="44.536614"><ele>936.0</ele></trkpt>
   <trkpt lon="3.463981" lat="44.536588"><ele>935.25</ele></trkpt>
   <trkpt lon="3.464342" lat="44.536534"><ele>934.25</ele></trkpt>
   <trkpt lon="3.464569" lat="44.536475"><ele>933.25</ele></trkpt>
   <trkpt lon="3.464760" lat="44.536409"><ele>932.5</ele></trkpt>
   <trkpt lon="3.465080" lat="44.536270"><ele>932.0</ele></trkpt>
   <trkpt lon="3.465358" lat="44.536137"><ele>930.5</ele></trkpt>
   <trkpt lon="3.465519" lat="44.536026"><ele>930.25</ele></trkpt>
   <trkpt lon="3.465741" lat="44.535840"><ele>929.5</ele></trkpt>
   <trkpt lon="3.466033" lat="44.535504"><ele>927.5</ele></trkpt>
   <trkpt lon="3.466297" lat="44.535177"><ele>925.75</ele></trkpt>
   <trkpt lon="3.466358" lat="44.535116"><ele>925.25</ele></trkpt>
   <trkpt lon="3.466572" lat="44.534900"><ele>923.75</ele></trkpt>
   <trkpt lon="3.466778" lat="44.534691"><ele>922.25</ele></trkpt>
   <trkpt lon="3.466852" lat="44.534616"><ele>921.5</ele></trkpt>
   <trkpt lon="3.467190" lat="44.534302"><ele>918.25</ele></trkpt>
   <trkpt lon="3.467426" lat="44.534063"><ele>916.25</ele></trkpt>
   <trkpt lon="3.467492" lat="44.533985"><ele>915.75</ele></trkpt>
   <trkpt lon="3.467681" lat="44.533707"><ele>914.0</ele></trkpt>
   <trkpt lon="3.467844" lat="44.533382"><ele>911.25</ele></trkpt>
   <trkpt lon="3.467882" lat="44.533250"><ele>910.25</ele></trkpt>
   <trkpt lon="3.467896" lat="44.533099"><ele>909.5</ele></trkpt>
   <trkpt lon="3.467845" lat="44.532892"><ele>908.75</ele></trkpt>
   <trkpt lon="3.467810" lat="44.532772"><ele>908.5</ele></trkpt>
   <trkpt lon="3.467822" lat="44.532729"><ele>908.0</ele></trkpt>
   <trkpt lon="3.467862" lat="44.532689"><ele>907.25</ele></trkpt>
   <trkpt lon="3.467939" lat="44.532681"><ele>906.25</ele></trkpt>
   <trkpt lon="3.468018" lat="44.532724"><ele>905.75</ele></trkpt>
   <trkpt lon="3.468162" lat="44.532999"><ele>904.5</ele></trkpt>
   <trkpt lon="3.468463" lat="44.533375"><ele>901.75</ele></trkpt>
   <trkpt lon="3.468605" lat="44.533586"><ele>900.75</ele></trkpt>
   <trkpt lon="3.468643" lat="44.533611"><ele>900.75</ele></trkpt>
   <trkpt lon="3.468714" lat="44.533622"><ele>900.0</ele></trkpt>
   <trkpt lon="3.468764" lat="44.533612"><ele>899.75</ele></trkpt>
   <trkpt lon="3.468805" lat="44.533587"><ele>899.25</ele></trkpt>
   <trkpt lon="3.468826" lat="44.533542"><ele>898.75</ele></trkpt>
   <trkpt lon="3.468822" lat="44.533488"><ele>898.25</ele></trkpt>
   <trkpt lon="3.468630" lat="44.533119"><ele>895.5</ele></trkpt>
   <trkpt lon="3.468545" lat="44.532895"><ele>894.25</ele></trkpt>
   <trkpt lon="3.468469" lat="44.532617"><ele>892.0</ele></trkpt>
   <trkpt lon="3.468367" lat="44.532352"><ele>890.25</ele></trkpt>
   <trkpt lon="3.468311" lat="44.532125"><ele>888.75</ele></trkpt>
   <trkpt lon="3.468284" lat="44.531800"><ele>887.25</ele></trkpt>
   <trkpt lon="3.468357" lat="44.531313"><ele>883.0</ele></trkpt>
   <trkpt lon="3.468346" lat="44.531114"><ele>881.75</ele></trkpt>
   <trkpt lon="3.468316" lat="44.531025"><ele>880.75</ele></trkpt>
   <trkpt lon="3.468238" lat="44.530933"><ele>880.5</ele></trkpt>
   <trkpt lon="3.467939" lat="44.530689"><ele>878.75</ele></trkpt>
   <trkpt lon="3.467686" lat="44.530466"><ele>877.75</ele></trkpt>
   <trkpt lon="3.467647" lat="44.530401"><ele>877.0</ele></trkpt>
   <trkpt lon="3.467582" lat="44.530292"><ele>875.5</ele></trkpt>
   <trkpt lon="3.467565" lat="44.530199"><ele>875.0</ele></trkpt>
   <trkpt lon="3.467579" lat="44.530100"><ele>874.75</ele></trkpt>
   <trkpt lon="3.467699" lat="44.529994"><ele>873.5</ele></trkpt>
   <trkpt lon="3.467725" lat="44.529971"><ele>873.25</ele></trkpt>
   <trkpt lon="3.467746" lat="44.529916"><ele>873.0</ele></trkpt>
   <trkpt lon="3.467773" lat="44.529888"><ele>873.0</ele></trkpt>
   <trkpt lon="3.467809" lat="44.529867"><ele>872.5</ele></trkpt>
   <trkpt lon="3.467851" lat="44.529852"><ele>872.0</ele></trkpt>
   <trkpt lon="3.467898" lat="44.529846"><ele>871.5</ele></trkpt>
   <trkpt lon="3.467944" lat="44.529848"><ele>871.0</ele></trkpt>
   <trkpt lon="3.467988" lat="44.529858"><ele>870.5</ele></trkpt>
   <trkpt lon="3.468026" lat="44.529875"><ele>870.25</ele></trkpt>
   <trkpt lon="3.468058" lat="44.529898"><ele>870.25</ele></trkpt>
   <trkpt lon="3.468080" lat="44.529927"><ele>870.25</ele></trkpt>
   <trkpt lon="3.468092" lat="44.529958"><ele>870.5</ele></trkpt>
   <trkpt lon="3.468093" lat="44.529990"><ele>870.75</ele></trkpt>
   <trkpt lon="3.468083" lat="44.530022"><ele>871.25</ele></trkpt>
   <trkpt lon="3.468063" lat="44.530051"><ele>871.75</ele></trkpt>
   <trkpt lon="3.468033" lat="44.530075"><ele>872.0</ele></trkpt>
   <trkpt lon="3.468016" lat="44.530195"><ele>872.0</ele></trkpt>
   <trkpt lon="3.468024" lat="44.530313"><ele>872.5</ele></trkpt>
   <trkpt lon="3.468097" lat="44.530400"><ele>872.0</ele></trkpt>
   <trkpt lon="3.468397" lat="44.530632"><ele>871.25</ele></trkpt>
   <trkpt lon="3.468736" lat="44.530809"><ele>870.5</ele></trkpt>
   <trkpt lon="3.469069" lat="44.530901"><ele>869.0</ele></trkpt>
   <trkpt lon="3.469433" lat="44.530915"><ele>866.25</ele></trkpt>
   <trkpt lon="3.469570" lat="44.530894"><ele>865.5</ele></trkpt>
   <trkpt lon="3.469658" lat="44.530865"><ele>865.0</ele></trkpt>
   <trkpt lon="3.469838" lat="44.530772"><ele>864.0</ele></trkpt>
   <trkpt lon="3.469999" lat="44.530634"><ele>863.25</ele></trkpt>
   <trkpt lon="3.470237" lat="44.530398"><ele>862.5</ele></trkpt>
   <trkpt lon="3.470304" lat="44.530331"><ele>862.5</ele></trkpt>
   <trkpt lon="3.470457" lat="44.530178"><ele>861.5</ele></trkpt>
   <trkpt lon="3.470646" lat="44.530058"><ele>860.25</ele></trkpt>
   <trkpt lon="3.470842" lat="44.529970"><ele>859.25</ele></trkpt>
   <trkpt lon="3.471308" lat="44.529841"><ele>857.5</ele></trkpt>
   <trkpt lon="3.471482" lat="44.529771"><ele>856.5</ele></trkpt>
   <trkpt lon="3.471687" lat="44.529665"><ele>855.25</ele></trkpt>
   <trkpt lon="3.471982" lat="44.529466"><ele>853.75</ele></trkpt>
   <trkpt lon="3.472334" lat="44.529178"><ele>851.0</ele></trkpt>
   <trkpt lon="3.472455" lat="44.529051"><ele>850.0</ele></trkpt>
   <trkpt lon="3.472831" lat="44.528697"><ele>846.75</ele></trkpt>
   <trkpt lon="3.472968" lat="44.528563"><ele>845.5</ele></trkpt>
   <trkpt lon="3.473420" lat="44.528098"><ele>842.5</ele></trkpt>
   <trkpt lon="3.473581" lat="44.527939"><ele>840.75</ele></trkpt>
   <trkpt lon="3.474060" lat="44.527457"><ele>837.75</ele></trkpt>
   <trkpt lon="3.474177" lat="44.527279"><ele>836.75</ele></trkpt>
   <trkpt lon="3.474180" lat="44.527263"><ele>836.5</ele></trkpt>
   <trkpt lon="3.474190" lat="44.527213"><ele>835.75</ele></trkpt>
   <trkpt lon="3.474202" lat="44.527146"><ele>835.25</ele></trkpt>
   <trkpt lon="3.474185" lat="44.527111"><ele>835.0</ele></trkpt>
   <trkpt lon="3.474182" lat="44.527079"><ele>834.75</ele></trkpt>
   <trkpt lon="3.474190" lat="44.527047"><ele>834.5</ele></trkpt>
   <trkpt lon="3.474208" lat="44.527017"><ele>834.25</ele></trkpt>
   <trkpt lon="3.474235" lat="44.526991"><ele>834.25</ele></trkpt>
   <trkpt lon="3.474270" lat="44.526971"><ele>834.0</ele></trkpt>
   <trkpt lon="3.474350" lat="44.526950"><ele>834.0</ele></trkpt>
   <trkpt lon="3.474435" lat="44.526957"><ele>834.0</ele></trkpt>
   <trkpt lon="3.474533" lat="44.526933"><ele>833.5</ele></trkpt>
   <trkpt lon="3.474664" lat="44.526913"><ele>832.75</ele></trkpt>
   <trkpt lon="3.474990" lat="44.526851"><ele>832.25</ele></trkpt>
   <trkpt lon="3.475019" lat="44.526842"><ele>831.75</ele></trkpt>
   <trkpt lon="3.475131" lat="44.526807"><ele>830.25</ele></trkpt>
   <trkpt lon="3.475499" lat="44.526693"><ele>827.0</ele></trkpt>
   <trkpt lon="3.475539" lat="44.526680"><ele>827.0</ele></trkpt>
   <trkpt lon="3.475975" lat="44.526545"><ele>824.0</ele></trkpt>
   <trkpt lon="3.476234" lat="44.526469"><ele>822.25</ele></trkpt>
   <trkpt lon="3.478463" lat="44.525810"><ele>808.25</ele></trkpt>
   <trkpt lon="3.478787" lat="44.525716"><ele>805.75</ele></trkpt>
   <trkpt lon="3.479353" lat="44.525551"><ele>803.25</ele></trkpt>
   <trkpt lon="3.479481" lat="44.525516"><ele>802.5</ele></trkpt>
   <trkpt lon="3.479588" lat="44.525469"><ele>801.75</ele></trkpt>
   <trkpt lon="3.479845" lat="44.525383"><ele>800.0</ele></trkpt>
   <trkpt lon="3.480297" lat="44.525233"><ele>797.5</ele></trkpt>
   <trkpt lon="3.480730" lat="44.525096"><ele>794.25</ele></trkpt>
   <trkpt lon="3.481051" lat="44.524979"><ele>792.75</ele></trkpt>
   <trkpt lon="3.481337" lat="44.524863"><ele>791.0</ele></trkpt>
   <trkpt lon="3.481428" lat="44.524815"><ele>790.5</ele></trkpt>
   <trkpt lon="3.481469" lat="44.524773"><ele>790.25</ele></trkpt>
   <trkpt lon="3.481502" lat="44.524735"><ele>790.0</ele></trkpt>
   <trkpt lon="3.481489" lat="44.524667"><ele>789.5</ele></trkpt>
   <trkpt lon="3.481498" lat="44.524633"><ele>789.25</ele></trkpt>
   <trkpt lon="3.481542" lat="44.524573"><ele>788.75</ele></trkpt>
   <trkpt lon="3.481576" lat="44.524549"><ele>788.75</ele></trkpt>
   <trkpt lon="3.481616" lat="44.524531"><ele>788.5</ele></trkpt>
   <trkpt lon="3.481688" lat="44.524514"><ele>788.25</ele></trkpt>
   <trkpt lon="3.481774" lat="44.524517"><ele>788.25</ele></trkpt>
   <trkpt lon="3.481821" lat="44.524528"><ele>788.25</ele></trkpt>
   <trkpt lon="3.481863" lat="44.524546"><ele>788.25</ele></trkpt>
   <trkpt lon="3.481899" lat="44.524570"><ele>788.5</ele></trkpt>
   <trkpt lon="3.481946" lat="44.524631"><ele>788.5</ele></trkpt>
   <trkpt lon="3.481955" lat="44.524697"><ele>788.75</ele></trkpt>
   <trkpt lon="3.482061" lat="44.524779"><ele>789.0</ele></trkpt>
   <trkpt lon="3.482141" lat="44.524811"><ele>789.25</ele></trkpt>
   <trkpt lon="3.482638" lat="44.525040"><ele>785.25</ele></trkpt>
   <trkpt lon="3.485522" lat="44.526209"><ele>800.25</ele></trkpt>
   <trkpt lon="3.485795" lat="44.526238"><ele>807.5</ele></trkpt>
   <trkpt lon="3.485848" lat="44.526219"><ele>808.5</ele></trkpt>
   <trkpt lon="3.485928" lat="44.526100"><ele>809.0</ele></trkpt>
   <trkpt lon="3.485958" lat="44.525913"><ele>805.75</ele></trkpt>
   <trkpt lon="3.486006" lat="44.525763"><ele>803.5</ele></trkpt>
   <trkpt lon="3.486047" lat="44.525651"><ele>802.5</ele></trkpt>
   <trkpt lon="3.486208" lat="44.525291"><ele>802.5</ele></trkpt>
   <trkpt lon="3.486301" lat="44.525111"><ele>801.25</ele></trkpt>
   <trkpt lon="3.486452" lat="44.524820"><ele>799.25</ele></trkpt>
   <trkpt lon="3.486568" lat="44.524672"><ele>798.0</ele></trkpt>
   <trkpt lon="3.486726" lat="44.524522"><ele>796.75</ele></trkpt>
   <trkpt lon="3.486988" lat="44.524342"><ele>794.75</ele></trkpt>
   <trkpt lon="3.487150" lat="44.524255"><ele>794.25</ele></trkpt>
   <trkpt lon="3.487233" lat="44.524214"><ele>794.25</ele></trkpt>
   <trkpt lon="3.487312" lat="44.524173"><ele>793.75</ele></trkpt>
   <trkpt lon="3.487660" lat="44.523995"><ele>791.5</ele></trkpt>
   <trkpt lon="3.487908" lat="44.523878"><ele>790.5</ele></trkpt>
   <trkpt lon="3.488084" lat="44.523825"><ele>789.25</ele></trkpt>
   <trkpt lon="3.488339" lat="44.523794"><ele>787.75</ele></trkpt>
   <trkpt lon="3.488520" lat="44.523792"><ele>787.25</ele></trkpt>
   <trkpt lon="3.488722" lat="44.523790"><ele>787.0</ele></trkpt>
   <trkpt lon="3.488948" lat="44.523787"><ele>786.5</ele></trkpt>
   <trkpt lon="3.488977" lat="44.523787"><ele>786.5</ele></trkpt>
   <trkpt lon="3.489266" lat="44.523755"><ele>785.25</ele></trkpt>
   <trkpt lon="3.489492" lat="44.523722"><ele>784.25</ele></trkpt>
   <trkpt lon="3.489951" lat="44.523607"><ele>782.0</ele></trkpt>
   <trkpt lon="3.490703" lat="44.523434"><ele>779.25</ele></trkpt>
   <trkpt lon="3.490018" lat="44.523663"><ele>782.75</ele></trkpt>
   <trkpt lon="3.490064" lat="44.523770"><ele>784.75</ele></trkpt>
   <trkpt lon="3.490095" lat="44.523912"><ele>787.25</ele></trkpt>
   <trkpt lon="3.490200" lat="44.523994"><ele>788.25</ele></trkpt>
   <trkpt lon="3.490327" lat="44.524063"><ele>789.0</ele></trkpt>
   <trkpt lon="3.490504" lat="44.524146"><ele>791.0</ele></trkpt>
   <trkpt lon="3.490678" lat="44.524284"><ele>793.5</ele></trkpt>
   <trkpt lon="3.490724" lat="44.524329"><ele>794.25</ele></trkpt>
   <trkpt lon="3.490849" lat="44.524451"><ele>796.0</ele></trkpt>
   <trkpt lon="3.490986" lat="44.524570"><ele>798.25</ele></trkpt>
   <trkpt lon="3.491437" lat="44.524829"><ele>803.25</ele></trkpt>
   <trkpt lon="3.491561" lat="44.524910"><ele>805.0</ele></trkpt>
   <trkpt lon="3.491614" lat="44.524949"><ele>805.75</ele></trkpt>
   <trkpt lon="3.492022" lat="44.525258"><ele>811.5</ele></trkpt>
   <trkpt lon="3.492344" lat="44.525544"><ele>815.25</ele></trkpt>
   <trkpt lon="3.492457" lat="44.525634"><ele>816.25</ele></trkpt>
   <trkpt lon="3.492637" lat="44.525752"><ele>817.25</ele></trkpt>
   <trkpt lon="3.492957" lat="44.525906"><ele>818.75</ele></trkpt>
   <trkpt lon="3.493099" lat="44.525961"><ele>819.5</ele></trkpt>
   <trkpt lon="3.493202" lat="44.525994"><ele>819.75</ele></trkpt>
   <trkpt lon="3.494739" lat="44.526340"><ele>823.5</ele></trkpt>
   <trkpt lon="3.495023" lat="44.526404"><ele>825.25</ele></trkpt>
   <trkpt lon="3.496129" lat="44.526649"><ele>827.5</ele></trkpt>
   <trkpt lon="3.496428" lat="44.526679"><ele>828.0</ele></trkpt>
   <trkpt lon="3.496713" lat="44.526669"><ele>827.0</ele></trkpt>
   <trkpt lon="3.496714" lat="44.526698"><ele>827.5</ele></trkpt>
   <trkpt lon="3.496715" lat="44.526718"><ele>827.75</ele></trkpt>
   <trkpt lon="3.496676" lat="44.526796"><ele>829.25</ele></trkpt>
   <trkpt lon="3.496524" lat="44.526830"><ele>830.25</ele></trkpt>
   <trkpt lon="3.496236" lat="44.526858"><ele>831.25</ele></trkpt>
   <trkpt lon="3.496065" lat="44.526875"><ele>832.0</ele></trkpt>
   <trkpt lon="3.495891" lat="44.526907"><ele>833.75</ele></trkpt>
   <trkpt lon="3.495167" lat="44.527086"><ele>838.0</ele></trkpt>
   <trkpt lon="3.494980" lat="44.527154"><ele>839.5</ele></trkpt>
   <trkpt lon="3.494874" lat="44.527226"><ele>840.0</ele></trkpt>
   <trkpt lon="3.494815" lat="44.527300"><ele>840.5</ele></trkpt>
   <trkpt lon="3.494778" lat="44.527388"><ele>841.5</ele></trkpt>
   <trkpt lon="3.494769" lat="44.527492"><ele>842.75</ele></trkpt>
   <trkpt lon="3.494796" lat="44.527572"><ele>843.5</ele></trkpt>
   <trkpt lon="3.494836" lat="44.527639"><ele>844.25</ele></trkpt>
   <trkpt lon="3.494894" lat="44.527705"><ele>845.25</ele></trkpt>
   <trkpt lon="3.495038" lat="44.527780"><ele>847.0</ele></trkpt>
   <trkpt lon="3.496964" lat="44.528210"><ele>856.5</ele></trkpt>
   <trkpt lon="3.497172" lat="44.528256"><ele>857.75</ele></trkpt>
   <trkpt lon="3.497346" lat="44.528294"><ele>859.0</ele></trkpt>
   <trkpt lon="3.497382" lat="44.528301"><ele>859.5</ele></trkpt>
   <trkpt lon="3.498926" lat="44.528632"><ele>867.0</ele></trkpt>
   <trkpt lon="3.499425" lat="44.528745"><ele>868.75</ele></trkpt>
   <trkpt lon="3.499594" lat="44.528815"><ele>870.0</ele></trkpt>
   <trkpt lon="3.499686" lat="44.528896"><ele>871.75</ele></trkpt>
   <trkpt lon="3.499777" lat="44.528995"><ele>872.5</ele></trkpt>
   <trkpt lon="3.499832" lat="44.529168"><ele>875.0</ele></trkpt>
   <trkpt lon="3.499822" lat="44.529308"><ele>876.0</ele></trkpt>
   <trkpt lon="3.499759" lat="44.529423"><ele>876.75</ele></trkpt>
   <trkpt lon="3.499679" lat="44.529506"><ele>878.0</ele></trkpt>
   <trkpt lon="3.499515" lat="44.529617"><ele>879.75</ele></trkpt>
   <trkpt lon="3.499302" lat="44.529691"><ele>880.5</ele></trkpt>
   <trkpt lon="3.497941" lat="44.530109"><ele>887.25</ele></trkpt>
   <trkpt lon="3.497155" lat="44.530346"><ele>891.25</ele></trkpt>
   <trkpt lon="3.496995" lat="44.530425"><ele>891.25</ele></trkpt>
   <trkpt lon="3.496870" lat="44.530506"><ele>892.25</ele></trkpt>
   <trkpt lon="3.496747" lat="44.530626"><ele>893.75</ele></trkpt>
   <trkpt lon="3.496645" lat="44.530750"><ele>894.75</ele></trkpt>
   <trkpt lon="3.496581" lat="44.530861"><ele>896.0</ele></trkpt>
   <trkpt lon="3.496539" lat="44.530952"><ele>897.25</ele></trkpt>
   <trkpt lon="3.496561" lat="44.531081"><ele>899.5</ele></trkpt>
   <trkpt lon="3.496577" lat="44.531124"><ele>900.0</ele></trkpt>
   <trkpt lon="3.496594" lat="44.531172"><ele>900.5</ele></trkpt>
   <trkpt lon="3.496650" lat="44.531203"><ele>900.75</ele></trkpt>
   <trkpt lon="3.496777" lat="44.531214"><ele>901.75</ele></trkpt>
   <trkpt lon="3.497056" lat="44.531222"><ele>903.5</ele></trkpt>
   <trkpt lon="3.497321" lat="44.531221"><ele>904.0</ele></trkpt>
   <trkpt lon="3.497490" lat="44.531242"><ele>904.25</ele></trkpt>
   <trkpt lon="3.497595" lat="44.531271"><ele>904.75</ele></trkpt>
   <trkpt lon="3.497746" lat="44.531324"><ele>905.75</ele></trkpt>
   <trkpt lon="3.497936" lat="44.531413"><ele>907.0</ele></trkpt>
   <trkpt lon="3.498696" lat="44.531822"><ele>910.5</ele></trkpt>
   <trkpt lon="3.498912" lat="44.531938"><ele>911.75</ele></trkpt>
   <trkpt lon="3.499780" lat="44.532408"><ele>916.0</ele></trkpt>
   <trkpt lon="3.500047" lat="44.532553"><ele>917.25</ele></trkpt>
   <trkpt lon="3.500150" lat="44.532613"><ele>918.0</ele></trkpt>
   <trkpt lon="3.500609" lat="44.532879"><ele>919.5</ele></trkpt>
   <trkpt lon="3.500696" lat="44.532956"><ele>919.75</ele></trkpt>
   <trkpt lon="3.500782" lat="44.533086"><ele>920.5</ele></trkpt>
   <trkpt lon="3.501123" lat="44.533764"><ele>925.5</ele></trkpt>
   <trkpt lon="3.501442" lat="44.534401"><ele>929.25</ele></trkpt>
   <trkpt lon="3.501505" lat="44.534505"><ele>929.75</ele></trkpt>
   <trkpt lon="3.501498" lat="44.534562"><ele>930.0</ele></trkpt>
   <trkpt lon="3.501542" lat="44.534587"><ele>930.0</ele></trkpt>
   <trkpt lon="3.501571" lat="44.534618"><ele>930.25</ele></trkpt>
   <trkpt lon="3.501587" lat="44.534653"><ele>930.5</ele></trkpt>
   <trkpt lon="3.501588" lat="44.534691"><ele>930.75</ele></trkpt>
   <trkpt lon="3.501573" lat="44.534728"><ele>931.0</ele></trkpt>
   <trkpt lon="3.501654" lat="44.534921"><ele>931.75</ele></trkpt>
   <trkpt lon="3.501768" lat="44.535049"><ele>931.75</ele></trkpt>
   <trkpt lon="3.501858" lat="44.535192"><ele>932.5</ele></trkpt>
   <trkpt lon="3.501978" lat="44.535421"><ele>933.25</ele></trkpt>
   <trkpt lon="3.502294" lat="44.536066"><ele>934.75</ele></trkpt>
   <trkpt lon="3.502391" lat="44.536262"><ele>935.25</ele></trkpt>
   <trkpt lon="3.502406" lat="44.536294"><ele>935.25</ele></trkpt>
   <trkpt lon="3.502459" lat="44.536388"><ele>935.75</ele></trkpt>
   <trkpt lon="3.502542" lat="44.536538"><ele>935.75</ele></trkpt>
   <trkpt lon="3.502672" lat="44.536665"><ele>935.75</ele></trkpt>
   <trkpt lon="3.502742" lat="44.536701"><ele>935.75</ele></trkpt>
   <trkpt lon="3.502787" lat="44.536708"><ele>935.75</ele></trkpt>
   <trkpt lon="3.502828" lat="44.536723"><ele>936.0</ele></trkpt>
   <trkpt lon="3.502863" lat="44.536744"><ele>936.0</ele></trkpt>
   <trkpt lon="3.502890" lat="44.536770"><ele>936.0</ele></trkpt>
   <trkpt lon="3.502908" lat="44.536800"><ele>936.0</ele></trkpt>
   <trkpt lon="3.502910" lat="44.536865"><ele>936.0</ele></trkpt>
   <trkpt lon="3.502899" lat="44.536891"><ele>936.0</ele></trkpt>
   <trkpt lon="3.502856" lat="44.536936"><ele>936.0</ele></trkpt>
   <trkpt lon="3.502823" lat="44.537031"><ele>936.25</ele></trkpt>
   <trkpt lon="3.502814" lat="44.537155"><ele>936.75</ele></trkpt>
   <trkpt lon="3.502986" lat="44.537552"><ele>937.0</ele></trkpt>
   <trkpt lon="3.503107" lat="44.537797"><ele>938.0</ele></trkpt>
   <trkpt lon="3.503185" lat="44.537955"><ele>938.5</ele></trkpt>
   <trkpt lon="3.503313" lat="44.538212"><ele>939.5</ele></trkpt>
   <trkpt lon="3.504387" lat="44.540339"><ele>952.0</ele></trkpt>
   <trkpt lon="3.504834" lat="44.541226"><ele>958.75</ele></trkpt>
   <trkpt lon="3.505053" lat="44.541719"><ele>962.0</ele></trkpt>
   <trkpt lon="3.505851" lat="44.543302"><ele>965.0</ele></trkpt>
   <trkpt lon="3.506084" lat="44.543740"><ele>965.75</ele></trkpt>
   <trkpt lon="3.506636" lat="44.544881"><ele>969.5</ele></trkpt>
   <trkpt lon="3.506646" lat="44.544902"><ele>969.5</ele></trkpt>
   <trkpt lon="3.506935" lat="44.545198"><ele>970.5</ele></trkpt>
   <trkpt lon="3.506977" lat="44.545188"><ele>970.5</ele></trkpt>
   <trkpt lon="3.507022" lat="44.545187"><ele>970.5</ele></trkpt>
   <trkpt lon="3.507065" lat="44.545197"><ele>970.5</ele></trkpt>
   <trkpt lon="3.507101" lat="44.545216"><ele>970.75</ele></trkpt>
   <trkpt lon="3.507128" lat="44.545244"><ele>970.75</ele></trkpt>
   <trkpt lon="3.507141" lat="44.545277"><ele>970.75</ele></trkpt>
   <trkpt lon="3.507136" lat="44.545312"><ele>971.0</ele></trkpt>
   <trkpt lon="3.507116" lat="44.545343"><ele>971.25</ele></trkpt>
   <trkpt lon="3.507085" lat="44.545366"><ele>971.25</ele></trkpt>
   <trkpt lon="3.507046" lat="44.545381"><ele>971.5</ele></trkpt>
   <trkpt lon="3.506960" lat="44.545520"><ele>971.75</ele></trkpt>
   <trkpt lon="3.506943" lat="44.545630"><ele>972.25</ele></trkpt>
   <trkpt lon="3.506966" lat="44.545791"><ele>972.75</ele></trkpt>
   <trkpt lon="3.507029" lat="44.546159"><ele>974.5</ele></trkpt>
   <trkpt lon="3.507045" lat="44.546369"><ele>975.5</ele></trkpt>
   <trkpt lon="3.507187" lat="44.547209"><ele>980.5</ele></trkpt>
   <trkpt lon="3.507443" lat="44.548893"><ele>992.75</ele></trkpt>
   <trkpt lon="3.507528" lat="44.549093"><ele>993.75</ele></trkpt>
   <trkpt lon="3.507899" lat="44.549803"><ele>998.0</ele></trkpt>
   <trkpt lon="3.507988" lat="44.549970"><ele>999.25</ele></trkpt>
   <trkpt lon="3.508138" lat="44.550223"><ele>1000.25</ele></trkpt>
   <trkpt lon="3.508224" lat="44.550413"><ele>1000.5</ele></trkpt>
   <trkpt lon="3.508298" lat="44.550635"><ele>1001.75</ele></trkpt>
   <trkpt lon="3.508323" lat="44.550819"><ele>1002.75</ele></trkpt>
   <trkpt lon="3.508320" lat="44.551047"><ele>1003.5</ele></trkpt>
   <trkpt lon="3.508222" lat="44.551315"><ele>1004.0</ele></trkpt>
   <trkpt lon="3.507540" lat="44.552231"><ele>1011.0</ele></trkpt>
   <trkpt lon="3.507439" lat="44.552380"><ele>1012.5</ele></trkpt>
   <trkpt lon="3.507247" lat="44.552683"><ele>1013.5</ele></trkpt>
   <trkpt lon="3.507051" lat="44.552962"><ele>1014.5</ele></trkpt>
   <trkpt lon="3.506740" lat="44.553473"><ele>1016.75</ele></trkpt>
   <trkpt lon="3.506198" lat="44.554330"><ele>1022.0</ele></trkpt>
   <trkpt lon="3.506012" lat="44.554623"><ele>1024.5</ele></trkpt>
   <trkpt lon="3.506006" lat="44.554686"><ele>1025.0</ele></trkpt>
   <trkpt lon="3.506013" lat="44.554712"><ele>1025.5</ele></trkpt>
   <trkpt lon="3.505937" lat="44.554775"><ele>1025.75</ele></trkpt>
   <trkpt lon="3.505782" lat="44.554997"><ele>1027.0</ele></trkpt>
   <trkpt lon="3.505720" lat="44.555114"><ele>1027.25</ele></trkpt>
   <trkpt lon="3.505637" lat="44.555346"><ele>1028.25</ele></trkpt>
   <trkpt lon="3.505508" lat="44.555716"><ele>1029.25</ele></trkpt>
   <trkpt lon="3.505175" lat="44.556453"><ele>1031.5</ele></trkpt>
   <trkpt lon="3.504983" lat="44.556852"><ele>1033.75</ele></trkpt>
   <trkpt lon="3.504797" lat="44.557087"><ele>1033.5</ele></trkpt>
   <trkpt lon="3.504671" lat="44.557227"><ele>1033.25</ele></trkpt>
   <trkpt lon="3.504498" lat="44.557476"><ele>1033.0</ele></trkpt>
   <trkpt lon="3.504221" lat="44.557917"><ele>1030.5</ele></trkpt>
   <trkpt lon="3.504165" lat="44.557994"><ele>1029.75</ele></trkpt>
   <trkpt lon="3.504098" lat="44.558020"><ele>1029.25</ele></trkpt>
   <trkpt lon="3.504076" lat="44.558025"><ele>1029.25</ele></trkpt>
   <trkpt lon="3.504095" lat="44.558113"><ele>1029.5</ele></trkpt>
   <trkpt lon="3.504177" lat="44.558483"><ele>1031.5</ele></trkpt>
   <trkpt lon="3.504223" lat="44.558765"><ele>1033.0</ele></trkpt>
   <trkpt lon="3.504336" lat="44.559211"><ele>1035.75</ele></trkpt>
   <trkpt lon="3.504356" lat="44.559300"><ele>1036.5</ele></trkpt>
   <trkpt lon="3.504373" lat="44.559369"><ele>1036.75</ele></trkpt>
   <trkpt lon="3.504513" lat="44.559949"><ele>1041.25</ele></trkpt>
   <trkpt lon="3.504527" lat="44.560067"><ele>1041.75</ele></trkpt>
   <trkpt lon="3.504527" lat="44.560242"><ele>1042.5</ele></trkpt>
   <trkpt lon="3.504496" lat="44.560447"><ele>1044.25</ele></trkpt>
   <trkpt lon="3.504355" lat="44.561131"><ele>1049.0</ele></trkpt>
   <trkpt lon="3.504275" lat="44.561399"><ele>1051.25</ele></trkpt>
   <trkpt lon="3.504247" lat="44.561457"><ele>1051.5</ele></trkpt>
   <trkpt lon="3.504214" lat="44.561504"><ele>1051.75</ele></trkpt>
   <trkpt lon="3.504075" lat="44.561629"><ele>1051.75</ele></trkpt>
   <trkpt lon="3.503851" lat="44.561754"><ele>1052.75</ele></trkpt>
   <trkpt lon="3.503623" lat="44.561816"><ele>1054.0</ele></trkpt>
   <trkpt lon="3.503298" lat="44.561842"><ele>1054.0</ele></trkpt>
   <trkpt lon="3.503031" lat="44.561846"><ele>1054.25</ele></trkpt>
   <trkpt lon="3.502801" lat="44.561869"><ele>1055.0</ele></trkpt>
   <trkpt lon="3.502583" lat="44.561912"><ele>1056.25</ele></trkpt>
   <trkpt lon="3.502523" lat="44.561934"><ele>1056.75</ele></trkpt>
   <trkpt lon="3.502343" lat="44.562022"><ele>1057.0</ele></trkpt>
   <trkpt lon="3.501361" lat="44.562544"><ele>1059.25</ele></trkpt>
   <trkpt lon="3.500987" lat="44.562792"><ele>1060.25</ele></trkpt>
   <trkpt lon="3.500635" lat="44.563058"><ele>1062.5</ele></trkpt>
   <trkpt lon="3.500451" lat="44.563217"><ele>1063.75</ele></trkpt>
   <trkpt lon="3.500235" lat="44.563469"><ele>1066.0</ele></trkpt>
   <trkpt lon="3.500074" lat="44.563697"><ele>1067.25</ele></trkpt>
   <trkpt lon="3.499880" lat="44.564085"><ele>1069.5</ele></trkpt>
   <trkpt lon="3.499682" lat="44.564528"><ele>1071.5</ele></trkpt>
   <trkpt lon="3.499554" lat="44.564834"><ele>1074.0</ele></trkpt>
   <trkpt lon="3.499470" lat="44.564958"><ele>1074.5</ele></trkpt>
   <trkpt lon="3.499344" lat="44.565123"><ele>1075.25</ele></trkpt>
   <trkpt lon="3.499096" lat="44.565378"><ele>1076.75</ele></trkpt>
   <trkpt lon="3.498985" lat="44.565450"><ele>1077.25</ele></trkpt>
   <trkpt lon="3.498723" lat="44.565603"><ele>1079.75</ele></trkpt>
   <trkpt lon="3.498513" lat="44.565703"><ele>1081.5</ele></trkpt>
   <trkpt lon="3.498162" lat="44.565832"><ele>1082.25</ele></trkpt>
   <trkpt lon="3.497752" lat="44.565972"><ele>1085.5</ele></trkpt>
   <trkpt lon="3.497509" lat="44.566061"><ele>1083.5</ele></trkpt>
   <trkpt lon="3.497268" lat="44.566186"><ele>1085.75</ele></trkpt>
   <trkpt lon="3.496997" lat="44.566354"><ele>1086.5</ele></trkpt>
   <trkpt lon="3.496364" lat="44.566841"><ele>1091.0</ele></trkpt>
   <trkpt lon="3.496000" lat="44.567141"><ele>1094.25</ele></trkpt>
   <trkpt lon="3.495214" lat="44.568162"><ele>1101.5</ele></trkpt>
   <trkpt lon="3.495026" lat="44.568365"><ele>1102.5</ele></trkpt>
   <trkpt lon="3.493956" lat="44.569274"><ele>1111.25</ele></trkpt>
   <trkpt lon="3.493776" lat="44.569466"><ele>1113.25</ele></trkpt>
   <trkpt lon="3.493659" lat="44.569648"><ele>1114.0</ele></trkpt>
   <trkpt lon="3.493568" lat="44.569920"><ele>1114.75</ele></trkpt>
   <trkpt lon="3.493558" lat="44.570021"><ele>1115.0</ele></trkpt>
   <trkpt lon="3.493547" lat="44.570132"><ele>1114.5</ele></trkpt>
   <trkpt lon="3.493557" lat="44.570303"><ele>1114.5</ele></trkpt>
   <trkpt lon="3.493595" lat="44.570800"><ele>1117.25</ele></trkpt>
   <trkpt lon="3.493733" lat="44.572236"><ele>1118.25</ele></trkpt>
   <trkpt lon="3.493711" lat="44.572602"><ele>1118.5</ele></trkpt>
   <trkpt lon="3.493584" lat="44.573313"><ele>1119.0</ele></trkpt>
   <trkpt lon="3.493513" lat="44.573610"><ele>1119.5</ele></trkpt>
   <trkpt lon="3.493428" lat="44.573865"><ele>1120.25</ele></trkpt>
   <trkpt lon="3.493340" lat="44.574015"><ele>1119.75</ele></trkpt>
   <trkpt lon="3.493308" lat="44.574069"><ele>1119.75</ele></trkpt>
   <trkpt lon="3.493074" lat="44.574340"><ele>1121.0</ele></trkpt>
   <trkpt lon="3.492718" lat="44.574700"><ele>1122.25</ele></trkpt>
   <trkpt lon="3.492525" lat="44.574999"><ele>1122.5</ele></trkpt>
   <trkpt lon="3.492467" lat="44.575262"><ele>1122.0</ele></trkpt>
   <trkpt lon="3.492487" lat="44.575434"><ele>1122.5</ele></trkpt>
   <trkpt lon="3.492536" lat="44.575580"><ele>1123.25</ele></trkpt>
   <trkpt lon="3.492631" lat="44.575778"><ele>1123.0</ele></trkpt>
   <trkpt lon="3.493559" lat="44.576936"><ele>1125.0</ele></trkpt>
   <trkpt lon="3.493923" lat="44.577408"><ele>1128.25</ele></trkpt>
   <trkpt lon="3.494314" lat="44.577874"><ele>1129.25</ele></trkpt>
   <trkpt lon="3.494528" lat="44.578076"><ele>1129.25</ele></trkpt>
   <trkpt lon="3.494769" lat="44.578263"><ele>1130.75</ele></trkpt>
   <trkpt lon="3.495050" lat="44.578444"><ele>1132.0</ele></trkpt>
   <trkpt lon="3.495338" lat="44.578600"><ele>1132.0</ele></trkpt>
   <trkpt lon="3.495714" lat="44.578758"><ele>1133.75</ele></trkpt>
   <trkpt lon="3.495949" lat="44.578865"><ele>1133.0</ele></trkpt>
   <trkpt lon="3.496128" lat="44.578992"><ele>1132.0</ele></trkpt>
   <trkpt lon="3.496261" lat="44.579149"><ele>1132.25</ele></trkpt>
   <trkpt lon="3.496305" lat="44.579228"><ele>1132.5</ele></trkpt>
   <trkpt lon="3.496340" lat="44.579317"><ele>1133.0</ele></trkpt>
   <trkpt lon="3.496358" lat="44.579413"><ele>1133.25</ele></trkpt>
   <trkpt lon="3.496362" lat="44.579540"><ele>1132.0</ele></trkpt>
   <trkpt lon="3.496326" lat="44.579698"><ele>1129.25</ele></trkpt>
   <trkpt lon="3.496277" lat="44.579821"><ele>1131.5</ele></trkpt>
   <trkpt lon="3.496205" lat="44.579932"><ele>1134.75</ele></trkpt>
   <trkpt lon="3.496114" lat="44.580022"><ele>1137.75</ele></trkpt>
   <trkpt lon="3.495984" lat="44.580121"><ele>1139.0</ele></trkpt>
   <trkpt lon="3.495831" lat="44.580206"><ele>1138.25</ele></trkpt>
   <trkpt lon="3.495126" lat="44.580541"><ele>1139.25</ele></trkpt>
   <trkpt lon="3.494936" lat="44.580640"><ele>1140.0</ele></trkpt>
   <trkpt lon="3.494792" lat="44.580736"><ele>1140.5</ele></trkpt>
   <trkpt lon="3.494694" lat="44.580836"><ele>1141.75</ele></trkpt>
   <trkpt lon="3.494600" lat="44.580951"><ele>1142.5</ele></trkpt>
   <trkpt lon="3.494552" lat="44.581047"><ele>1143.0</ele></trkpt>
   <trkpt lon="3.494511" lat="44.581165"><ele>1143.5</ele></trkpt>
   <trkpt lon="3.494504" lat="44.581284"><ele>1143.5</ele></trkpt>
   <trkpt lon="3.494515" lat="44.581393"><ele>1144.0</ele></trkpt>
   <trkpt lon="3.494544" lat="44.581493"><ele>1144.0</ele></trkpt>
   <trkpt lon="3.494598" lat="44.581605"><ele>1144.25</ele></trkpt>
   <trkpt lon="3.494675" lat="44.581717"><ele>1144.75</ele></trkpt>
   <trkpt lon="3.495575" lat="44.582758"><ele>1149.5</ele></trkpt>
   <trkpt lon="3.495698" lat="44.582934"><ele>1149.0</ele></trkpt>
   <trkpt lon="3.495789" lat="44.583123"><ele>1149.75</ele></trkpt>
   <trkpt lon="3.495834" lat="44.583315"><ele>1151.75</ele></trkpt>
   <trkpt lon="3.495828" lat="44.583467"><ele>1152.25</ele></trkpt>
   <trkpt lon="3.495785" lat="44.583625"><ele>1151.5</ele></trkpt>
   <trkpt lon="3.495726" lat="44.583777"><ele>1151.5</ele></trkpt>
   <trkpt lon="3.495633" lat="44.583921"><ele>1154.25</ele></trkpt>
   <trkpt lon="3.495517" lat="44.584041"><ele>1157.5</ele></trkpt>
   <trkpt lon="3.495361" lat="44.584171"><ele>1157.5</ele></trkpt>
   <trkpt lon="3.495169" lat="44.584276"><ele>1159.0</ele></trkpt>
   <trkpt lon="3.495035" lat="44.584333"><ele>1159.25</ele></trkpt>
   <trkpt lon="3.494910" lat="44.584375"><ele>1159.0</ele></trkpt>
   <trkpt lon="3.494748" lat="44.584416"><ele>1158.0</ele></trkpt>
   <trkpt lon="3.494543" lat="44.584452"><ele>1157.25</ele></trkpt>
   <trkpt lon="3.493718" lat="44.584544"><ele>1158.25</ele></trkpt>
   <trkpt lon="3.492910" lat="44.584632"><ele>1161.0</ele></trkpt>
   <trkpt lon="3.492645" lat="44.584690"><ele>1160.75</ele></trkpt>
   <trkpt lon="3.492458" lat="44.584750"><ele>1160.75</ele></trkpt>
   <trkpt lon="3.492295" lat="44.584846"><ele>1162.25</ele></trkpt>
   <trkpt lon="3.492174" lat="44.584935"><ele>1162.25</ele></trkpt>
   <trkpt lon="3.492069" lat="44.585051"><ele>1162.5</ele></trkpt>
   <trkpt lon="3.491987" lat="44.585165"><ele>1162.5</ele></trkpt>
   <trkpt lon="3.491938" lat="44.585290"><ele>1162.75</ele></trkpt>
   <trkpt lon="3.491925" lat="44.585440"><ele>1163.25</ele></trkpt>
   <trkpt lon="3.491945" lat="44.585607"><ele>1164.0</ele></trkpt>
   <trkpt lon="3.492007" lat="44.585760"><ele>1164.5</ele></trkpt>
   <trkpt lon="3.492111" lat="44.585897"><ele>1164.75</ele></trkpt>
   <trkpt lon="3.492254" lat="44.586026"><ele>1165.5</ele></trkpt>
   <trkpt lon="3.492646" lat="44.586313"><ele>1166.0</ele></trkpt>
   <trkpt lon="3.492755" lat="44.586419"><ele>1165.75</ele></trkpt>
   <trkpt lon="3.492853" lat="44.586564"><ele>1165.5</ele></trkpt>
   <trkpt lon="3.492902" lat="44.586700"><ele>1165.5</ele></trkpt>
   <trkpt lon="3.492917" lat="44.586840"><ele>1165.75</ele></trkpt>
   <trkpt lon="3.492922" lat="44.586885"><ele>1165.75</ele></trkpt>
   <trkpt lon="3.492904" lat="44.587128"><ele>1166.5</ele></trkpt>
   <trkpt lon="3.492745" lat="44.587857"><ele>1169.25</ele></trkpt>
   <trkpt lon="3.492561" lat="44.588680"><ele>1172.0</ele></trkpt>
   <trkpt lon="3.492487" lat="44.588849"><ele>1172.0</ele></trkpt>
   <trkpt lon="3.492386" lat="44.589007"><ele>1172.5</ele></trkpt>
   <trkpt lon="3.492264" lat="44.589134"><ele>1172.75</ele></trkpt>
   <trkpt lon="3.491719" lat="44.589624"><ele>1175.75</ele></trkpt>
   <trkpt lon="3.491458" lat="44.589864"><ele>1176.0</ele></trkpt>
   <trkpt lon="3.491230" lat="44.590111"><ele>1177.0</ele></trkpt>
   <trkpt lon="3.491062" lat="44.590333"><ele>1179.5</ele></trkpt>
   <trkpt lon="3.489940" lat="44.592119"><ele>1196.5</ele></trkpt>
   <trkpt lon="3.489827" lat="44.592338"><ele>1198.5</ele></trkpt>
   <trkpt lon="3.489757" lat="44.592516"><ele>1200.0</ele></trkpt>
   <trkpt lon="3.489705" lat="44.592723"><ele>1201.25</ele></trkpt>
   <trkpt lon="3.489661" lat="44.592978"><ele>1203.0</ele></trkpt>
   <trkpt lon="3.489646" lat="44.593674"><ele>1206.75</ele></trkpt>
   <trkpt lon="3.489607" lat="44.593918"><ele>1208.0</ele></trkpt>
   <trkpt lon="3.489514" lat="44.594219"><ele>1207.5</ele></trkpt>
   <trkpt lon="3.489399" lat="44.594452"><ele>1207.75</ele></trkpt>
   <trkpt lon="3.489226" lat="44.594719"><ele>1209.25</ele></trkpt>
   <trkpt lon="3.488441" lat="44.595779"><ele>1211.0</ele></trkpt>
   <trkpt lon="3.487559" lat="44.596897"><ele>1220.25</ele></trkpt>
   <trkpt lon="3.487375" lat="44.597181"><ele>1224.25</ele></trkpt>
   <trkpt lon="3.487153" lat="44.597605"><ele>1228.5</ele></trkpt>
   <trkpt lon="3.487031" lat="44.598010"><ele>1230.5</ele></trkpt>
   <trkpt lon="3.486975" lat="44.598316"><ele>1232.0</ele></trkpt>
   <trkpt lon="3.486966" lat="44.598579"><ele>1232.0</ele></trkpt>
   <trkpt lon="3.487038" lat="44.600356"><ele>1220.25</ele></trkpt>
   <trkpt lon="3.486998" lat="44.600665"><ele>1219.25</ele></trkpt>
   <trkpt lon="3.486951" lat="44.600861"><ele>1219.25</ele></trkpt>
   <trkpt lon="3.486862" lat="44.601091"><ele>1221.0</ele></trkpt>
   <trkpt lon="3.486728" lat="44.601334"><ele>1223.0</ele></trkpt>
   <trkpt lon="3.486536" lat="44.601614"><ele>1226.0</ele></trkpt>
   <trkpt lon="3.485868" lat="44.602341"><ele>1234.25</ele></trkpt>
   <trkpt lon="3.485486" lat="44.602768"><ele>1237.25</ele></trkpt>
   <trkpt lon="3.485216" lat="44.603143"><ele>1236.5</ele></trkpt>
   <trkpt lon="3.485042" lat="44.603444"><ele>1236.5</ele></trkpt>
   <trkpt lon="3.484865" lat="44.603859"><ele>1236.25</ele></trkpt>
   <trkpt lon="3.484767" lat="44.604243"><ele>1236.25</ele></trkpt>
   <trkpt lon="3.484559" lat="44.605616"><ele>1230.5</ele></trkpt>
   <trkpt lon="3.484409" lat="44.606679"><ele>1230.0</ele></trkpt>
   <trkpt lon="3.484326" lat="44.607724"><ele>1226.0</ele></trkpt>
   <trkpt lon="3.484299" lat="44.608644"><ele>1221.75</ele></trkpt>
   <trkpt lon="3.484272" lat="44.609143"><ele>1220.25</ele></trkpt>
   <trkpt lon="3.484233" lat="44.609487"><ele>1219.75</ele></trkpt>
   <trkpt lon="3.483957" lat="44.610373"><ele>1215.0</ele></trkpt>
   <trkpt lon="3.483819" lat="44.610817"><ele>1213.25</ele></trkpt>
   <trkpt lon="3.483655" lat="44.611278"><ele>1211.75</ele></trkpt>
   <trkpt lon="3.482982" lat="44.612332"><ele>1206.75</ele></trkpt>
   <trkpt lon="3.482835" lat="44.612540"><ele>1206.0</ele></trkpt>
   <trkpt lon="3.482789" lat="44.612607"><ele>1206.25</ele></trkpt>
   <trkpt lon="3.482268" lat="44.613341"><ele>1207.0</ele></trkpt>
   <trkpt lon="3.482045" lat="44.613584"><ele>1208.0</ele></trkpt>
   <trkpt lon="3.481685" lat="44.613863"><ele>1208.75</ele></trkpt>
   <trkpt lon="3.481358" lat="44.614066"><ele>1208.0</ele></trkpt>
   <trkpt lon="3.481055" lat="44.614206"><ele>1208.75</ele></trkpt>
   <trkpt lon="3.479898" lat="44.614603"><ele>1212.5</ele></trkpt>
   <trkpt lon="3.479176" lat="44.614869"><ele>1212.0</ele></trkpt>
   <trkpt lon="3.478700" lat="44.615108"><ele>1210.75</ele></trkpt>
   <trkpt lon="3.478304" lat="44.615381"><ele>1209.75</ele></trkpt>
   <trkpt lon="3.478031" lat="44.615608"><ele>1208.75</ele></trkpt>
   <trkpt lon="3.477947" lat="44.615696"><ele>1208.5</ele></trkpt>
   <trkpt lon="3.477668" lat="44.616055"><ele>1207.0</ele></trkpt>
   <trkpt lon="3.477483" lat="44.616385"><ele>1205.0</ele></trkpt>
   <trkpt lon="3.477393" lat="44.616640"><ele>1203.75</ele></trkpt>
   <trkpt lon="3.477246" lat="44.617480"><ele>1198.0</ele></trkpt>
   <trkpt lon="3.477164" lat="44.617724"><ele>1196.5</ele></trkpt>
   <trkpt lon="3.476977" lat="44.618105"><ele>1193.25</ele></trkpt>
   <trkpt lon="3.475930" lat="44.619648"><ele>1172.25</ele></trkpt>
   <trkpt lon="3.475366" lat="44.620505"><ele>1169.0</ele></trkpt>
   <trkpt lon="3.475140" lat="44.620861"><ele>1169.0</ele></trkpt>
   <trkpt lon="3.474986" lat="44.621145"><ele>1168.75</ele></trkpt>
   <trkpt lon="3.474874" lat="44.621412"><ele>1167.0</ele></trkpt>
   <trkpt lon="3.474484" lat="44.622720"><ele>1154.75</ele></trkpt>
   <trkpt lon="3.474275" lat="44.623467"><ele>1158.5</ele></trkpt>
   <trkpt lon="3.474189" lat="44.623919"><ele>1155.75</ele></trkpt>
   <trkpt lon="3.474226" lat="44.624173"><ele>1153.25</ele></trkpt>
   <trkpt lon="3.474281" lat="44.624371"><ele>1151.5</ele></trkpt>
   <trkpt lon="3.474428" lat="44.624682"><ele>1147.5</ele></trkpt>
   <trkpt lon="3.474657" lat="44.624959"><ele>1145.0</ele></trkpt>
   <trkpt lon="3.475544" lat="44.625755"><ele>1138.25</ele></trkpt>
   <trkpt lon="3.475740" lat="44.626003"><ele>1136.0</ele></trkpt>
   <trkpt lon="3.475830" lat="44.626177"><ele>1134.25</ele></trkpt>
   <trkpt lon="3.475892" lat="44.626329"><ele>1132.75</ele></trkpt>
   <trkpt lon="3.475951" lat="44.626561"><ele>1131.5</ele></trkpt>
   <trkpt lon="3.475959" lat="44.626707"><ele>1130.75</ele></trkpt>
   <trkpt lon="3.475912" lat="44.627058"><ele>1130.0</ele></trkpt>
   <trkpt lon="3.475823" lat="44.627421"><ele>1129.75</ele></trkpt>
   <trkpt lon="3.475730" lat="44.627800"><ele>1130.25</ele></trkpt>
   <trkpt lon="3.475660" lat="44.628124"><ele>1129.75</ele></trkpt>
   <trkpt lon="3.475527" lat="44.628608"><ele>1129.5</ele></trkpt>
   <trkpt lon="3.475362" lat="44.629273"><ele>1129.75</ele></trkpt>
   <trkpt lon="3.475346" lat="44.629626"><ele>1128.5</ele></trkpt>
   <trkpt lon="3.475377" lat="44.629905"><ele>1127.25</ele></trkpt>
   <trkpt lon="3.475466" lat="44.630203"><ele>1125.5</ele></trkpt>
   <trkpt lon="3.475578" lat="44.630405"><ele>1124.75</ele></trkpt>
   <trkpt lon="3.475718" lat="44.630610"><ele>1124.0</ele></trkpt>
   <trkpt lon="3.475844" lat="44.630751"><ele>1123.25</ele></trkpt>
   <trkpt lon="3.476453" lat="44.631345"><ele>1121.25</ele></trkpt>
   <trkpt lon="3.476597" lat="44.631492"><ele>1121.25</ele></trkpt>
   <trkpt lon="3.476687" lat="44.631600"><ele>1121.5</ele></trkpt>
   <trkpt lon="3.476851" lat="44.631931"><ele>1122.5</ele></trkpt>
   <trkpt lon="3.476897" lat="44.632134"><ele>1122.0</ele></trkpt>
   <trkpt lon="3.476886" lat="44.632298"><ele>1121.0</ele></trkpt>
   <trkpt lon="3.476835" lat="44.632452"><ele>1120.25</ele></trkpt>
   <trkpt lon="3.476771" lat="44.632585"><ele>1119.75</ele></trkpt>
   <trkpt lon="3.476404" lat="44.633088"><ele>1118.5</ele></trkpt>
   <trkpt lon="3.476169" lat="44.633390"><ele>1117.0</ele></trkpt>
   <trkpt lon="3.476066" lat="44.633561"><ele>1116.5</ele></trkpt>
   <trkpt lon="3.476032" lat="44.633663"><ele>1116.25</ele></trkpt>
   <trkpt lon="3.476021" lat="44.633765"><ele>1116.0</ele></trkpt>
   <trkpt lon="3.476049" lat="44.634026"><ele>1114.75</ele></trkpt>
   <trkpt lon="3.476053" lat="44.634191"><ele>1113.5</ele></trkpt>
   <trkpt lon="3.476038" lat="44.634317"><ele>1113.25</ele></trkpt>
   <trkpt lon="3.475982" lat="44.634435"><ele>1113.0</ele></trkpt>
   <trkpt lon="3.475900" lat="44.634531"><ele>1113.25</ele></trkpt>
   <trkpt lon="3.475781" lat="44.634639"><ele>1113.25</ele></trkpt>
   <trkpt lon="3.475253" lat="44.634983"><ele>1111.5</ele></trkpt>
   <trkpt lon="3.475114" lat="44.635099"><ele>1110.5</ele></trkpt>
   <trkpt lon="3.475035" lat="44.635236"><ele>1110.0</ele></trkpt>
   <trkpt lon="3.474969" lat="44.635437"><ele>1109.5</ele></trkpt>
   <trkpt lon="3.474909" lat="44.635681"><ele>1109.0</ele></trkpt>
   <trkpt lon="3.474893" lat="44.635813"><ele>1108.75</ele></trkpt>
   <trkpt lon="3.474896" lat="44.635925"><ele>1108.5</ele></trkpt>
   <trkpt lon="3.474940" lat="44.636068"><ele>1108.5</ele></trkpt>
   <trkpt lon="3.475138" lat="44.636324"><ele>1108.75</ele></trkpt>
   <trkpt lon="3.475252" lat="44.636492"><ele>1108.5</ele></trkpt>
   <trkpt lon="3.475458" lat="44.636823"><ele>1109.25</ele></trkpt>
   <trkpt lon="3.475625" lat="44.637120"><ele>1107.25</ele></trkpt>
   <trkpt lon="3.475679" lat="44.637318"><ele>1105.0</ele></trkpt>
   <trkpt lon="3.475684" lat="44.637461"><ele>1103.25</ele></trkpt>
   <trkpt lon="3.475676" lat="44.637610"><ele>1103.25</ele></trkpt>
   <trkpt lon="3.475635" lat="44.637798"><ele>1104.0</ele></trkpt>
   <trkpt lon="3.475576" lat="44.637954"><ele>1105.25</ele></trkpt>
   <trkpt lon="3.474203" lat="44.640223"><ele>1123.5</ele></trkpt>
   <trkpt lon="3.473357" lat="44.641547"><ele>1134.25</ele></trkpt>
   <trkpt lon="3.473104" lat="44.641897"><ele>1135.75</ele></trkpt>
   <trkpt lon="3.472486" lat="44.642544"><ele>1138.0</ele></trkpt>
   <trkpt lon="3.472305" lat="44.642734"><ele>1137.5</ele></trkpt>
   <trkpt lon="3.471596" lat="44.643516"><ele>1137.75</ele></trkpt>
   <trkpt lon="3.471446" lat="44.643713"><ele>1137.25</ele></trkpt>
   <trkpt lon="3.471373" lat="44.643852"><ele>1136.75</ele></trkpt>
   <trkpt lon="3.471227" lat="44.644176"><ele>1134.0</ele></trkpt>
   <trkpt lon="3.471006" lat="44.644751"><ele>1128.75</ele></trkpt>
   <trkpt lon="3.470534" lat="44.646037"><ele>1132.5</ele></trkpt>
   <trkpt lon="3.470470" lat="44.646258"><ele>1132.25</ele></trkpt>
   <trkpt lon="3.470389" lat="44.646470"><ele>1132.0</ele></trkpt>
   <trkpt lon="3.469861" lat="44.647644"><ele>1129.0</ele></trkpt>
   <trkpt lon="3.469701" lat="44.647922"><ele>1128.25</ele></trkpt>
   <trkpt lon="3.469431" lat="44.648261"><ele>1125.75</ele></trkpt>
   <trkpt lon="3.469049" lat="44.648586"><ele>1126.75</ele></trkpt>
   <trkpt lon="3.467978" lat="44.649416"><ele>1126.25</ele></trkpt>
   <trkpt lon="3.467375" lat="44.649908"><ele>1122.25</ele></trkpt>
   <trkpt lon="3.465511" lat="44.651307"><ele>1109.75</ele></trkpt>
   <trkpt lon="3.464561" lat="44.652012"><ele>1104.0</ele></trkpt>
   <trkpt lon="3.464194" lat="44.652209"><ele>1102.25</ele></trkpt>
   <trkpt lon="3.463903" lat="44.652297"><ele>1101.0</ele></trkpt>
   <trkpt lon="3.463582" lat="44.652338"><ele>1101.0</ele></trkpt>
   <trkpt lon="3.462886" lat="44.652382"><ele>1094.75</ele></trkpt>
   <trkpt lon="3.462589" lat="44.652413"><ele>1093.25</ele></trkpt>
   <trkpt lon="3.462287" lat="44.652482"><ele>1092.25</ele></trkpt>
   <trkpt lon="3.462082" lat="44.652546"><ele>1089.75</ele></trkpt>
   <trkpt lon="3.461634" lat="44.652705"><ele>1089.0</ele></trkpt>
   <trkpt lon="3.460719" lat="44.653006"><ele>1091.5</ele></trkpt>
   <trkpt lon="3.460305" lat="44.653091"><ele>1092.75</ele></trkpt>
   <trkpt lon="3.460012" lat="44.653162"><ele>1094.75</ele></trkpt>
   <trkpt lon="3.459675" lat="44.653268"><ele>1094.0</ele></trkpt>
   <trkpt lon="3.458844" lat="44.653631"><ele>1095.25</ele></trkpt>
   <trkpt lon="3.458423" lat="44.653851"><ele>1097.25</ele></trkpt>
   <trkpt lon="3.458176" lat="44.653958"><ele>1098.25</ele></trkpt>
   <trkpt lon="3.457944" lat="44.654023"><ele>1099.25</ele></trkpt>
   <trkpt lon="3.457566" lat="44.654111"><ele>1101.25</ele></trkpt>
   <trkpt lon="3.457073" lat="44.654236"><ele>1103.25</ele></trkpt>
   <trkpt lon="3.456796" lat="44.654351"><ele>1105.5</ele></trkpt>
   <trkpt lon="3.456607" lat="44.654488"><ele>1106.25</ele></trkpt>
   <trkpt lon="3.455135" lat="44.655824"><ele>1115.5</ele></trkpt>
   <trkpt lon="3.454610" lat="44.656357"><ele>1117.25</ele></trkpt>
   <trkpt lon="3.453980" lat="44.656942"><ele>1120.5</ele></trkpt>
   <trkpt lon="3.453385" lat="44.657494"><ele>1124.75</ele></trkpt>
   <trkpt lon="3.452240" lat="44.658467"><ele>1131.75</ele></trkpt>
   <trkpt lon="3.452101" lat="44.658622"><ele>1133.0</ele></trkpt>
   <trkpt lon="3.451974" lat="44.658837"><ele>1133.75</ele></trkpt>
   <trkpt lon="3.451651" lat="44.659437"><ele>1132.75</ele></trkpt>
   <trkpt lon="3.451235" lat="44.660236"><ele>1130.75</ele></trkpt>
   <trkpt lon="3.451035" lat="44.660611"><ele>1129.5</ele></trkpt>
   <trkpt lon="3.450865" lat="44.660906"><ele>1129.75</ele></trkpt>
   <trkpt lon="3.450727" lat="44.661171"><ele>1130.0</ele></trkpt>
   <trkpt lon="3.450366" lat="44.661834"><ele>1131.75</ele></trkpt>
   <trkpt lon="3.450094" lat="44.662314"><ele>1132.0</ele></trkpt>
   <trkpt lon="3.449990" lat="44.662510"><ele>1132.75</ele></trkpt>
   <trkpt lon="3.449855" lat="44.662481"><ele>1132.25</ele></trkpt>
   <trkpt lon="3.449752" lat="44.662478"><ele>1131.75</ele></trkpt>
   <trkpt lon="3.449428" lat="44.662532"><ele>1130.25</ele></trkpt>
   <trkpt lon="3.449140" lat="44.662543"><ele>1130.0</ele></trkpt>
   <trkpt lon="3.448568" lat="44.662474"><ele>1128.25</ele></trkpt>
   <trkpt lon="3.448348" lat="44.662402"><ele>1126.25</ele></trkpt>
   <trkpt lon="3.448191" lat="44.662331"><ele>1126.0</ele></trkpt>
   <trkpt lon="3.448048" lat="44.662204"><ele>1124.5</ele></trkpt>
   <trkpt lon="3.447935" lat="44.662103"><ele>1123.25</ele></trkpt>
   <trkpt lon="3.447762" lat="44.662007"><ele>1123.5</ele></trkpt>
   <trkpt lon="3.447464" lat="44.661947"><ele>1120.75</ele></trkpt>
   <trkpt lon="3.447220" lat="44.661946"><ele>1119.75</ele></trkpt>
   <trkpt lon="3.447036" lat="44.661926"><ele>1118.5</ele></trkpt>
   <trkpt lon="3.446652" lat="44.661826"><ele>1116.75</ele></trkpt>
   <trkpt lon="3.445959" lat="44.661471"><ele>1114.5</ele></trkpt>
   <trkpt lon="3.445643" lat="44.661267"><ele>1112.25</ele></trkpt>
   <trkpt lon="3.445470" lat="44.660994"><ele>1113.75</ele></trkpt>
   <trkpt lon="3.445480" lat="44.660653"><ele>1112.75</ele></trkpt>
   <trkpt lon="3.445451" lat="44.660325"><ele>1111.25</ele></trkpt>
   <trkpt lon="3.445278" lat="44.660107"><ele>1110.75</ele></trkpt>
   <trkpt lon="3.444588" lat="44.659691"><ele>1108.5</ele></trkpt>
   <trkpt lon="3.443677" lat="44.659241"><ele>1105.25</ele></trkpt>
   <trkpt lon="3.443044" lat="44.659091"><ele>1103.25</ele></trkpt>
   <trkpt lon="3.442401" lat="44.659036"><ele>1103.5</ele></trkpt>
   <trkpt lon="3.441970" lat="44.658913"><ele>1104.25</ele></trkpt>
   <trkpt lon="3.441519" lat="44.658688"><ele>1102.75</ele></trkpt>
   <trkpt lon="3.441250" lat="44.658470"><ele>1101.75</ele></trkpt>
   <trkpt lon="3.441116" lat="44.658170"><ele>1102.25</ele></trkpt>
   <trkpt lon="3.441068" lat="44.657569"><ele>1100.5</ele></trkpt>
   <trkpt lon="3.441068" lat="44.657256"><ele>1101.0</ele></trkpt>
   <trkpt lon="3.441289" lat="44.656846"><ele>1100.0</ele></trkpt>
   <trkpt lon="3.441452" lat="44.656342"><ele>1099.25</ele></trkpt>
   <trkpt lon="3.441442" lat="44.656089"><ele>1099.25</ele></trkpt>
   <trkpt lon="3.441289" lat="44.655482"><ele>1099.75</ele></trkpt>
   <trkpt lon="3.441155" lat="44.654786"><ele>1097.75</ele></trkpt>
   <trkpt lon="3.441174" lat="44.654384"><ele>1097.25</ele></trkpt>
   <trkpt lon="3.441442" lat="44.653538"><ele>1094.0</ele></trkpt>
   <trkpt lon="3.441509" lat="44.653251"><ele>1091.25</ele></trkpt>
   <trkpt lon="3.441337" lat="44.652999"><ele>1091.75</ele></trkpt>
   <trkpt lon="3.441020" lat="44.652733"><ele>1091.0</ele></trkpt>
   <trkpt lon="3.440733" lat="44.652358"><ele>1088.25</ele></trkpt>
   <trkpt lon="3.440397" lat="44.652016"><ele>1087.25</ele></trkpt>
   <trkpt lon="3.440052" lat="44.651819"><ele>1084.0</ele></trkpt>
   <trkpt lon="3.439870" lat="44.651696"><ele>1082.75</ele></trkpt>
   <trkpt lon="3.439800" lat="44.651613"><ele>1082.5</ele></trkpt>
  </trkseg>
 </trk>
</gpx>
