<?xml version="1.0" encoding="UTF-8"?>
<gpx version="1.1" creator="BRouter paired review" xmlns="http://www.topografix.com/GPX/1/1">
<trk><name>Route A</name><trkseg>
<trkpt lat="44.651609" lon="3.439799"><ele>1082.25</ele></trkpt>
<trkpt lat="44.651512" lon="3.439793"><ele>1082.25</ele></trkpt>
<trkpt lat="44.651082" lon="3.439994"><ele>1080.75</ele></trkpt>
<trkpt lat="44.650550" lon="3.440301"><ele>1079.75</ele></trkpt>
<trkpt lat="44.650202" lon="3.440704"><ele>1077.75</ele></trkpt>
<trkpt lat="44.649867" lon="3.440975"><ele>1076.75</ele></trkpt>
<trkpt lat="44.649713" lon="3.441111"><ele>1075.75</ele></trkpt>
<trkpt lat="44.649551" lon="3.441112"><ele>1075.25</ele></trkpt>
<trkpt lat="44.649464" lon="3.441007"><ele>1075.5</ele></trkpt>
<trkpt lat="44.649356" lon="3.440771"><ele>1074.75</ele></trkpt>
<trkpt lat="44.649021" lon="3.439975"><ele>1073.75</ele></trkpt>
<trkpt lat="44.648913" lon="3.439858"><ele>1074.25</ele></trkpt>
<trkpt lat="44.648701" lon="3.439726"><ele>1073.75</ele></trkpt>
<trkpt lat="44.648525" lon="3.439635"><ele>1074.0</ele></trkpt>
<trkpt lat="44.648350" lon="3.439426"><ele>1073.75</ele></trkpt>
<trkpt lat="44.648161" lon="3.439070"><ele>1074.75</ele></trkpt>
<trkpt lat="44.648005" lon="3.438690"><ele>1075.5</ele></trkpt>
<trkpt lat="44.647712" lon="3.437971"><ele>1074.5</ele></trkpt>
<trkpt lat="44.647537" lon="3.437216"><ele>1072.0</ele></trkpt>
<trkpt lat="44.647347" lon="3.436441"><ele>1070.5</ele></trkpt>
<trkpt lat="44.647155" lon="3.436135"><ele>1069.75</ele></trkpt>
<trkpt lat="44.645835" lon="3.434605"><ele>1077.75</ele></trkpt>
<trkpt lat="44.645160" lon="3.433569"><ele>1073.0</ele></trkpt>
<trkpt lat="44.645017" lon="3.433310"><ele>1073.25</ele></trkpt>
<trkpt lat="44.644989" lon="3.433061"><ele>1074.25</ele></trkpt>
<trkpt lat="44.645037" lon="3.432773"><ele>1073.25</ele></trkpt>
<trkpt lat="44.645276" lon="3.432332"><ele>1072.0</ele></trkpt>
<trkpt lat="44.645337" lon="3.432159"><ele>1072.25</ele></trkpt>
<trkpt lat="44.645359" lon="3.431740"><ele>1069.25</ele></trkpt>
<trkpt lat="44.645399" lon="3.431507"><ele>1068.25</ele></trkpt>
<trkpt lat="44.645528" lon="3.431152"><ele>1066.75</ele></trkpt>
<trkpt lat="44.645753" lon="3.430721"><ele>1065.5</ele></trkpt>
<trkpt lat="44.645835" lon="3.430347"><ele>1064.25</ele></trkpt>
<trkpt lat="44.645947" lon="3.429658"><ele>1062.75</ele></trkpt>
<trkpt lat="44.646088" lon="3.428784"><ele>1056.75</ele></trkpt>
<trkpt lat="44.646186" lon="3.428253"><ele>1054.5</ele></trkpt>
<trkpt lat="44.646333" lon="3.427460"><ele>1050.75</ele></trkpt>
<trkpt lat="44.646415" lon="3.427125"><ele>1049.75</ele></trkpt>
<trkpt lat="44.646552" lon="3.426856"><ele>1049.5</ele></trkpt>
<trkpt lat="44.646640" lon="3.426712"><ele>1049.75</ele></trkpt>
<trkpt lat="44.646647" lon="3.426588"><ele>1049.25</ele></trkpt>
<trkpt lat="44.646632" lon="3.426410"><ele>1048.0</ele></trkpt>
<trkpt lat="44.646614" lon="3.426241"><ele>1049.0</ele></trkpt>
<trkpt lat="44.646668" lon="3.425955"><ele>1049.75</ele></trkpt>
<trkpt lat="44.646784" lon="3.425456"><ele>1051.25</ele></trkpt>
<trkpt lat="44.646809" lon="3.425371"><ele>1051.25</ele></trkpt>
<trkpt lat="44.646947" lon="3.424900"><ele>1050.5</ele></trkpt>
<trkpt lat="44.647241" lon="3.423145"><ele>1049.0</ele></trkpt>
<trkpt lat="44.647343" lon="3.422301"><ele>1048.5</ele></trkpt>
<trkpt lat="44.647329" lon="3.421773"><ele>1048.5</ele></trkpt>
<trkpt lat="44.647200" lon="3.421150"><ele>1048.25</ele></trkpt>
<trkpt lat="44.647070" lon="3.420479"><ele>1048.75</ele></trkpt>
<trkpt lat="44.647063" lon="3.419951"><ele>1048.75</ele></trkpt>
<trkpt lat="44.647138" lon="3.419222"><ele>1048.0</ele></trkpt>
<trkpt lat="44.647295" lon="3.418590"><ele>1050.0</ele></trkpt>
<trkpt lat="44.647575" lon="3.417822"><ele>1051.25</ele></trkpt>
<trkpt lat="44.647692" lon="3.417526"><ele>1051.25</ele></trkpt>
<trkpt lat="44.647706" lon="3.417301"><ele>1050.25</ele></trkpt>
<trkpt lat="44.647599" lon="3.417116"><ele>1051.5</ele></trkpt>
<trkpt lat="44.647366" lon="3.416794"><ele>1051.25</ele></trkpt>
<trkpt lat="44.647209" lon="3.416493"><ele>1050.75</ele></trkpt>
<trkpt lat="44.647011" lon="3.416258"><ele>1052.0</ele></trkpt>
<trkpt lat="44.646863" lon="3.416069"><ele>1050.75</ele></trkpt>
<trkpt lat="44.646757" lon="3.415990"><ele>1050.25</ele></trkpt>
<trkpt lat="44.646634" lon="3.416003"><ele>1051.5</ele></trkpt>
<trkpt lat="44.646415" lon="3.416115"><ele>1052.25</ele></trkpt>
<trkpt lat="44.646293" lon="3.416154"><ele>1052.25</ele></trkpt>
<trkpt lat="44.646204" lon="3.416135"><ele>1051.5</ele></trkpt>
<trkpt lat="44.646033" lon="3.416048"><ele>1050.5</ele></trkpt>
<trkpt lat="44.645624" lon="3.415607"><ele>1051.5</ele></trkpt>
<trkpt lat="44.645460" lon="3.415444"><ele>1051.5</ele></trkpt>
<trkpt lat="44.644887" lon="3.415291"><ele>1052.5</ele></trkpt>
<trkpt lat="44.644723" lon="3.415195"><ele>1052.5</ele></trkpt>
<trkpt lat="44.644628" lon="3.415041"><ele>1053.0</ele></trkpt>
<trkpt lat="44.644669" lon="3.414782"><ele>1054.25</ele></trkpt>
<trkpt lat="44.644955" lon="3.414188"><ele>1056.5</ele></trkpt>
<trkpt lat="44.645092" lon="3.413785"><ele>1057.75</ele></trkpt>
<trkpt lat="44.645126" lon="3.413497"><ele>1059.25</ele></trkpt>
<trkpt lat="44.645051" lon="3.413258"><ele>1061.0</ele></trkpt>
<trkpt lat="44.644901" lon="3.413133"><ele>1061.75</ele></trkpt>
<trkpt lat="44.644575" lon="3.413163"><ele>1064.25</ele></trkpt>
<trkpt lat="44.644075" lon="3.413210"><ele>1066.5</ele></trkpt>
<trkpt lat="44.643386" lon="3.413344"><ele>1066.5</ele></trkpt>
<trkpt lat="44.643011" lon="3.413545"><ele>1066.75</ele></trkpt>
<trkpt lat="44.642806" lon="3.413680"><ele>1065.25</ele></trkpt>
<trkpt lat="44.642690" lon="3.413881"><ele>1067.5</ele></trkpt>
<trkpt lat="44.642617" lon="3.413914"><ele>1066.0</ele></trkpt>
<trkpt lat="44.642575" lon="3.413925"></trkpt>
<trkpt lat="44.642543" lon="3.413923"></trkpt>
<trkpt lat="44.642460" lon="3.413886"><ele>1063.25</ele></trkpt>
<trkpt lat="44.642352" lon="3.413819"><ele>1064.5</ele></trkpt>
<trkpt lat="44.642315" lon="3.413731"><ele>1065.5</ele></trkpt>
<trkpt lat="44.642302" lon="3.413643"><ele>1066.0</ele></trkpt>
<trkpt lat="44.642318" lon="3.413469"><ele>1067.25</ele></trkpt>
<trkpt lat="44.642416" lon="3.413225"><ele>1066.0</ele></trkpt>
<trkpt lat="44.642422" lon="3.412941"><ele>1066.5</ele></trkpt>
<trkpt lat="44.642384" lon="3.412588"><ele>1067.0</ele></trkpt>
<trkpt lat="44.642258" lon="3.412327"><ele>1069.5</ele></trkpt>
<trkpt lat="44.641527" lon="3.411852"><ele>1072.5</ele></trkpt>
<trkpt lat="44.641352" lon="3.411721"><ele>1071.75</ele></trkpt>
<trkpt lat="44.641134" lon="3.411422"><ele>1072.75</ele></trkpt>
<trkpt lat="44.641003" lon="3.411131"><ele>1072.0</ele></trkpt>
<trkpt lat="44.640948" lon="3.410908"><ele>1071.5</ele></trkpt>
<trkpt lat="44.640986" lon="3.410693"><ele>1072.0</ele></trkpt>
<trkpt lat="44.641248" lon="3.410087"><ele>1075.5</ele></trkpt>
<trkpt lat="44.641335" lon="3.409780"><ele>1076.25</ele></trkpt>
<trkpt lat="44.641346" lon="3.409228"><ele>1077.25</ele></trkpt>
<trkpt lat="44.641265" lon="3.408860"><ele>1078.25</ele></trkpt>
<trkpt lat="44.641244" lon="3.408798"><ele>1078.25</ele></trkpt>
<trkpt lat="44.641194" lon="3.408645"><ele>1078.25</ele></trkpt>
<trkpt lat="44.640910" lon="3.408254"><ele>1079.75</ele></trkpt>
<trkpt lat="44.640801" lon="3.408070"><ele>1080.25</ele></trkpt>
<trkpt lat="44.640511" lon="3.406389"><ele>1086.25</ele></trkpt>
<trkpt lat="44.640380" lon="3.406075"><ele>1087.0</ele></trkpt>
<trkpt lat="44.640222" lon="3.405852"><ele>1087.25</ele></trkpt>
<trkpt lat="44.639987" lon="3.405722"><ele>1086.75</ele></trkpt>
<trkpt lat="44.639890" lon="3.405619"><ele>1086.5</ele></trkpt>
<trkpt lat="44.639805" lon="3.405535"><ele>1087.0</ele></trkpt>
<trkpt lat="44.639798" lon="3.405305"><ele>1086.75</ele></trkpt>
<trkpt lat="44.639878" lon="3.404996"><ele>1087.0</ele></trkpt>
<trkpt lat="44.639988" lon="3.404512"><ele>1086.75</ele></trkpt>
<trkpt lat="44.640040" lon="3.404110"><ele>1086.25</ele></trkpt>
<trkpt lat="44.639988" lon="3.403708"><ele>1085.25</ele></trkpt>
<trkpt lat="44.639607" lon="3.402801"><ele>1082.25</ele></trkpt>
<trkpt lat="44.639541" lon="3.402554"><ele>1083.25</ele></trkpt>
<trkpt lat="44.639541" lon="3.402286"><ele>1084.75</ele></trkpt>
<trkpt lat="44.639688" lon="3.401565"><ele>1085.0</ele></trkpt>
<trkpt lat="44.639761" lon="3.401132"><ele>1087.25</ele></trkpt>
<trkpt lat="44.639768" lon="3.400781"><ele>1088.5</ele></trkpt>
<trkpt lat="44.639629" lon="3.399967"><ele>1089.25</ele></trkpt>
<trkpt lat="44.639608" lon="3.399902"><ele>1089.75</ele></trkpt>
<trkpt lat="44.639541" lon="3.399699"><ele>1090.75</ele></trkpt>
<trkpt lat="44.639139" lon="3.399335"><ele>1091.5</ele></trkpt>
<trkpt lat="44.638928" lon="3.399171"><ele>1091.0</ele></trkpt>
<trkpt lat="44.638816" lon="3.399147"><ele>1090.5</ele></trkpt>
<trkpt lat="44.638729" lon="3.399178"><ele>1090.25</ele></trkpt>
<trkpt lat="44.638623" lon="3.399234"><ele>1090.5</ele></trkpt>
<trkpt lat="44.638536" lon="3.399349"><ele>1090.25</ele></trkpt>
<trkpt lat="44.638474" lon="3.399385"><ele>1089.75</ele></trkpt>
<trkpt lat="44.638361" lon="3.399452"><ele>1089.25</ele></trkpt>
<trkpt lat="44.638185" lon="3.399421"><ele>1089.0</ele></trkpt>
<trkpt lat="44.637843" lon="3.399209"><ele>1087.0</ele></trkpt>
<trkpt lat="44.637576" lon="3.399142"><ele>1086.25</ele></trkpt>
<trkpt lat="44.637411" lon="3.399140"><ele>1085.5</ele></trkpt>
<trkpt lat="44.637019" lon="3.399308"><ele>1086.25</ele></trkpt>
<trkpt lat="44.636899" lon="3.399369"><ele>1087.25</ele></trkpt>
<trkpt lat="44.636608" lon="3.399421"><ele>1087.5</ele></trkpt>
<trkpt lat="44.636041" lon="3.399586"><ele>1090.75</ele></trkpt>
<trkpt lat="44.635858" lon="3.399802"><ele>1093.25</ele></trkpt>
<trkpt lat="44.635762" lon="3.399967"><ele>1094.25</ele></trkpt>
<trkpt lat="44.635671" lon="3.400669"><ele>1099.0</ele></trkpt>
<trkpt lat="44.635528" lon="3.402121"><ele>1106.25</ele></trkpt>
<trkpt lat="44.635521" lon="3.402564"><ele>1109.0</ele></trkpt>
<trkpt lat="44.635345" lon="3.402791"><ele>1111.5</ele></trkpt>
<trkpt lat="44.635110" lon="3.402842"><ele>1113.5</ele></trkpt>
<trkpt lat="44.634707" lon="3.402976"><ele>1116.75</ele></trkpt>
<trkpt lat="44.634326" lon="3.403182"><ele>1120.25</ele></trkpt>
<trkpt lat="44.633864" lon="3.403584"><ele>1123.5</ele></trkpt>
<trkpt lat="44.633284" lon="3.404223"><ele>1129.5</ele></trkpt>
<trkpt lat="44.633006" lon="3.404584"><ele>1133.0</ele></trkpt>
<trkpt lat="44.632786" lon="3.405120"><ele>1138.25</ele></trkpt>
<trkpt lat="44.632573" lon="3.405470"><ele>1139.5</ele></trkpt>
<trkpt lat="44.632353" lon="3.405728"><ele>1141.0</ele></trkpt>
<trkpt lat="44.632239" lon="3.405842"><ele>1142.0</ele></trkpt>
<trkpt lat="44.632225" lon="3.405862"><ele>1142.25</ele></trkpt>
<trkpt lat="44.632057" lon="3.406108"><ele>1145.25</ele></trkpt>
<trkpt lat="44.631875" lon="3.406415"><ele>1146.75</ele></trkpt>
<trkpt lat="44.631611" lon="3.406868"><ele>1149.25</ele></trkpt>
<trkpt lat="44.631442" lon="3.407022"><ele>1150.5</ele></trkpt>
<trkpt lat="44.631216" lon="3.407262"><ele>1152.5</ele></trkpt>
<trkpt lat="44.631114" lon="3.407456"><ele>1154.75</ele></trkpt>
<trkpt lat="44.631069" lon="3.407705"><ele>1156.75</ele></trkpt>
<trkpt lat="44.631057" lon="3.408400"><ele>1160.5</ele></trkpt>
<trkpt lat="44.630988" lon="3.408673"><ele>1162.0</ele></trkpt>
<trkpt lat="44.630637" lon="3.409334"><ele>1166.0</ele></trkpt>
<trkpt lat="44.630219" lon="3.409839"><ele>1169.5</ele></trkpt>
<trkpt lat="44.629764" lon="3.410282"><ele>1173.0</ele></trkpt>
<trkpt lat="44.628998" lon="3.410874"><ele>1180.0</ele></trkpt>
<trkpt lat="44.628842" lon="3.411119"><ele>1180.75</ele></trkpt>
<trkpt lat="44.628661" lon="3.411440"><ele>1182.75</ele></trkpt>
<trkpt lat="44.628564" lon="3.411696"><ele>1184.0</ele></trkpt>
<trkpt lat="44.628481" lon="3.411993"><ele>1185.5</ele></trkpt>
<trkpt lat="44.628364" lon="3.412374"><ele>1187.5</ele></trkpt>
<trkpt lat="44.628173" lon="3.412724"><ele>1189.75</ele></trkpt>
<trkpt lat="44.627835" lon="3.413107"><ele>1192.5</ele></trkpt>
<trkpt lat="44.627588" lon="3.413386"><ele>1194.25</ele></trkpt>
<trkpt lat="44.626890" lon="3.414177"><ele>1195.0</ele></trkpt>
<trkpt lat="44.626655" lon="3.414414"><ele>1195.75</ele></trkpt>
<trkpt lat="44.626428" lon="3.414528"><ele>1195.5</ele></trkpt>
<trkpt lat="44.624888" lon="3.414672"><ele>1192.75</ele></trkpt>
<trkpt lat="44.622629" lon="3.414837"><ele>1186.5</ele></trkpt>
<trkpt lat="44.620927" lon="3.414960"><ele>1186.0</ele></trkpt>
<trkpt lat="44.620489" lon="3.414983"><ele>1185.75</ele></trkpt>
<trkpt lat="44.619710" lon="3.415022"><ele>1182.75</ele></trkpt>
<trkpt lat="44.619328" lon="3.415063"><ele>1181.75</ele></trkpt>
<trkpt lat="44.618917" lon="3.415278"><ele>1180.0</ele></trkpt>
<trkpt lat="44.618846" lon="3.415315"><ele>1179.5</ele></trkpt>
<trkpt lat="44.618756" lon="3.415362"><ele>1179.25</ele></trkpt>
<trkpt lat="44.617407" lon="3.416424"><ele>1172.5</ele></trkpt>
<trkpt lat="44.615984" lon="3.417681"><ele>1165.5</ele></trkpt>
<trkpt lat="44.615661" lon="3.417949"><ele>1163.0</ele></trkpt>
<trkpt lat="44.615338" lon="3.418031"><ele>1160.5</ele></trkpt>
<trkpt lat="44.614707" lon="3.418031"><ele>1156.0</ele></trkpt>
<trkpt lat="44.614201" lon="3.418526"><ele>1152.25</ele></trkpt>
<trkpt lat="44.613922" lon="3.418979"><ele>1149.5</ele></trkpt>
<trkpt lat="44.612201" lon="3.422342"><ele>1136.25</ele></trkpt>
<trkpt lat="44.611830" lon="3.423033"><ele>1132.5</ele></trkpt>
<trkpt lat="44.611357" lon="3.423778"><ele>1127.5</ele></trkpt>
<trkpt lat="44.611281" lon="3.423978"><ele>1126.25</ele></trkpt>
<trkpt lat="44.611227" lon="3.424210"><ele>1125.25</ele></trkpt>
<trkpt lat="44.611157" lon="3.424621"><ele>1122.75</ele></trkpt>
<trkpt lat="44.611098" lon="3.424820"><ele>1121.5</ele></trkpt>
<trkpt lat="44.611020" lon="3.424970"><ele>1120.25</ele></trkpt>
<trkpt lat="44.610930" lon="3.425077"><ele>1118.75</ele></trkpt>
<trkpt lat="44.610709" lon="3.425214"><ele>1116.0</ele></trkpt>
<trkpt lat="44.610162" lon="3.425331"><ele>1111.5</ele></trkpt>
<trkpt lat="44.610065" lon="3.425389"><ele>1110.25</ele></trkpt>
<trkpt lat="44.609611" lon="3.425694"><ele>1106.75</ele></trkpt>
<trkpt lat="44.609449" lon="3.425851"><ele>1104.5</ele></trkpt>
<trkpt lat="44.609144" lon="3.426253"><ele>1101.0</ele></trkpt>
<trkpt lat="44.608874" lon="3.426545"><ele>1098.25</ele></trkpt>
<trkpt lat="44.608499" lon="3.426833"><ele>1093.75</ele></trkpt>
<trkpt lat="44.608362" lon="3.426902"><ele>1092.75</ele></trkpt>
<trkpt lat="44.608186" lon="3.426953"><ele>1090.75</ele></trkpt>
<trkpt lat="44.607699" lon="3.427006"><ele>1086.5</ele></trkpt>
<trkpt lat="44.607428" lon="3.427059"><ele>1084.5</ele></trkpt>
<trkpt lat="44.607216" lon="3.427288"><ele>1081.75</ele></trkpt>
<trkpt lat="44.607085" lon="3.427506"><ele>1079.5</ele></trkpt>
<trkpt lat="44.606966" lon="3.427591"><ele>1079.25</ele></trkpt>
<trkpt lat="44.606806" lon="3.427638"><ele>1077.25</ele></trkpt>
<trkpt lat="44.606563" lon="3.427691"><ele>1074.75</ele></trkpt>
<trkpt lat="44.606340" lon="3.427798"><ele>1073.25</ele></trkpt>
<trkpt lat="44.606123" lon="3.427950"><ele>1070.75</ele></trkpt>
<trkpt lat="44.605988" lon="3.428095"><ele>1069.75</ele></trkpt>
<trkpt lat="44.605789" lon="3.428420"><ele>1068.75</ele></trkpt>
<trkpt lat="44.605606" lon="3.428600"><ele>1066.5</ele></trkpt>
<trkpt lat="44.605354" lon="3.428905"><ele>1064.25</ele></trkpt>
<trkpt lat="44.605199" lon="3.429213"><ele>1061.0</ele></trkpt>
<trkpt lat="44.605077" lon="3.429525"><ele>1060.25</ele></trkpt>
<trkpt lat="44.604835" lon="3.429765"><ele>1056.0</ele></trkpt>
<trkpt lat="44.604638" lon="3.429895"><ele>1055.25</ele></trkpt>
<trkpt lat="44.604473" lon="3.429943"><ele>1053.5</ele></trkpt>
<trkpt lat="44.604175" lon="3.429971"><ele>1050.25</ele></trkpt>
<trkpt lat="44.604070" lon="3.430001"><ele>1049.75</ele></trkpt>
<trkpt lat="44.603996" lon="3.430056"><ele>1049.0</ele></trkpt>
<trkpt lat="44.603941" lon="3.430153"><ele>1048.5</ele></trkpt>
<trkpt lat="44.603935" lon="3.430251"><ele>1048.5</ele></trkpt>
<trkpt lat="44.603962" lon="3.430384"><ele>1047.25</ele></trkpt>
<trkpt lat="44.604144" lon="3.430862"><ele>1043.75</ele></trkpt>
<trkpt lat="44.604215" lon="3.431260"><ele>1041.75</ele></trkpt>
<trkpt lat="44.604235" lon="3.431571"><ele>1039.75</ele></trkpt>
<trkpt lat="44.604227" lon="3.431814"><ele>1037.75</ele></trkpt>
<trkpt lat="44.604182" lon="3.431942"><ele>1035.5</ele></trkpt>
<trkpt lat="44.604118" lon="3.432030"></trkpt>
<trkpt lat="44.604050" lon="3.432078"><ele>1035.0</ele></trkpt>
<trkpt lat="44.603949" lon="3.432109"><ele>1036.0</ele></trkpt>
<trkpt lat="44.603869" lon="3.432086"><ele>1037.25</ele></trkpt>
<trkpt lat="44.603680" lon="3.431861"><ele>1039.5</ele></trkpt>
<trkpt lat="44.603433" lon="3.431643"><ele>1041.25</ele></trkpt>
<trkpt lat="44.603144" lon="3.431470"><ele>1044.75</ele></trkpt>
<trkpt lat="44.602941" lon="3.431238"><ele>1046.5</ele></trkpt>
<trkpt lat="44.602418" lon="3.430465"><ele>1049.5</ele></trkpt>
<trkpt lat="44.602244" lon="3.430315"><ele>1051.25</ele></trkpt>
<trkpt lat="44.602091" lon="3.430269"><ele>1051.5</ele></trkpt>
<trkpt lat="44.601977" lon="3.430310"><ele>1053.25</ele></trkpt>
<trkpt lat="44.601894" lon="3.430402"><ele>1053.75</ele></trkpt>
<trkpt lat="44.601708" lon="3.430733"><ele>1056.25</ele></trkpt>
<trkpt lat="44.601541" lon="3.430975"><ele>1058.25</ele></trkpt>
<trkpt lat="44.600983" lon="3.431611"><ele>1063.25</ele></trkpt>
<trkpt lat="44.600423" lon="3.432186"><ele>1067.75</ele></trkpt>
<trkpt lat="44.599828" lon="3.432729"><ele>1073.5</ele></trkpt>
<trkpt lat="44.598797" lon="3.433421"><ele>1082.5</ele></trkpt>
<trkpt lat="44.597631" lon="3.433983"><ele>1089.75</ele></trkpt>
<trkpt lat="44.597439" lon="3.434086"><ele>1091.5</ele></trkpt>
<trkpt lat="44.597319" lon="3.434109"><ele>1091.75</ele></trkpt>
<trkpt lat="44.597145" lon="3.434110"><ele>1092.0</ele></trkpt>
<trkpt lat="44.597022" lon="3.434160"><ele>1093.5</ele></trkpt>
<trkpt lat="44.596924" lon="3.434257"><ele>1095.0</ele></trkpt>
<trkpt lat="44.596828" lon="3.434420"><ele>1094.25</ele></trkpt>
<trkpt lat="44.596750" lon="3.434620"><ele>1096.5</ele></trkpt>
<trkpt lat="44.596623" lon="3.434890"><ele>1097.75</ele></trkpt>
<trkpt lat="44.596439" lon="3.435182"><ele>1098.5</ele></trkpt>
<trkpt lat="44.595977" lon="3.435855"><ele>1101.75</ele></trkpt>
<trkpt lat="44.595851" lon="3.435990"><ele>1101.5</ele></trkpt>
<trkpt lat="44.595697" lon="3.436069"><ele>1102.25</ele></trkpt>
<trkpt lat="44.595595" lon="3.436096"><ele>1102.0</ele></trkpt>
<trkpt lat="44.595471" lon="3.436187"><ele>1103.75</ele></trkpt>
<trkpt lat="44.594890" lon="3.436998"><ele>1109.5</ele></trkpt>
<trkpt lat="44.594822" lon="3.437077"><ele>1110.0</ele></trkpt>
<trkpt lat="44.594377" lon="3.437598"><ele>1114.25</ele></trkpt>
<trkpt lat="44.593781" lon="3.438269"><ele>1119.75</ele></trkpt>
<trkpt lat="44.593561" lon="3.438445"><ele>1121.75</ele></trkpt>
<trkpt lat="44.593371" lon="3.438567"><ele>1124.0</ele></trkpt>
<trkpt lat="44.593163" lon="3.438655"><ele>1125.0</ele></trkpt>
<trkpt lat="44.593018" lon="3.438689"><ele>1126.5</ele></trkpt>
<trkpt lat="44.591597" lon="3.439019"><ele>1137.5</ele></trkpt>
<trkpt lat="44.591400" lon="3.439029"><ele>1138.75</ele></trkpt>
<trkpt lat="44.591035" lon="3.438995"><ele>1141.25</ele></trkpt>
<trkpt lat="44.590737" lon="3.439010"><ele>1144.0</ele></trkpt>
<trkpt lat="44.590573" lon="3.439059"><ele>1145.75</ele></trkpt>
<trkpt lat="44.590389" lon="3.439152"><ele>1147.5</ele></trkpt>
<trkpt lat="44.589892" lon="3.439536"><ele>1151.0</ele></trkpt>
<trkpt lat="44.589540" lon="3.439734"><ele>1153.5</ele></trkpt>
<trkpt lat="44.589139" lon="3.439842"><ele>1156.25</ele></trkpt>
<trkpt lat="44.588771" lon="3.439699"><ele>1159.25</ele></trkpt>
<trkpt lat="44.588535" lon="3.439499"><ele>1161.0</ele></trkpt>
<trkpt lat="44.588238" lon="3.439226"><ele>1162.75</ele></trkpt>
<trkpt lat="44.587910" lon="3.438952"><ele>1164.75</ele></trkpt>
<trkpt lat="44.587528" lon="3.438686"><ele>1167.5</ele></trkpt>
<trkpt lat="44.587071" lon="3.438509"><ele>1169.5</ele></trkpt>
<trkpt lat="44.586684" lon="3.438400"><ele>1171.25</ele></trkpt>
<trkpt lat="44.586319" lon="3.438359"><ele>1173.25</ele></trkpt>
<trkpt lat="44.585917" lon="3.438367"><ele>1175.25</ele></trkpt>
<trkpt lat="44.584782" lon="3.438581"><ele>1181.75</ele></trkpt>
<trkpt lat="44.584594" lon="3.438577"><ele>1182.25</ele></trkpt>
<trkpt lat="44.584421" lon="3.438527"><ele>1183.0</ele></trkpt>
<trkpt lat="44.584151" lon="3.438368"><ele>1184.25</ele></trkpt>
<trkpt lat="44.583433" lon="3.437896"><ele>1189.25</ele></trkpt>
<trkpt lat="44.583071" lon="3.437715"><ele>1191.0</ele></trkpt>
<trkpt lat="44.582075" lon="3.437422"><ele>1196.5</ele></trkpt>
<trkpt lat="44.581847" lon="3.437359"><ele>1197.5</ele></trkpt>
<trkpt lat="44.581593" lon="3.437312"><ele>1198.5</ele></trkpt>
<trkpt lat="44.581195" lon="3.437321"><ele>1200.5</ele></trkpt>
<trkpt lat="44.580889" lon="3.437395"><ele>1202.25</ele></trkpt>
<trkpt lat="44.580553" lon="3.437508"><ele>1204.0</ele></trkpt>
<trkpt lat="44.579964" lon="3.437713"><ele>1206.0</ele></trkpt>
<trkpt lat="44.579785" lon="3.437910"><ele>1206.75</ele></trkpt>
<trkpt lat="44.579734" lon="3.437981"><ele>1206.75</ele></trkpt>
<trkpt lat="44.579602" lon="3.438198"><ele>1207.0</ele></trkpt>
<trkpt lat="44.579153" lon="3.439239"><ele>1209.75</ele></trkpt>
<trkpt lat="44.579095" lon="3.439373"><ele>1209.75</ele></trkpt>
<trkpt lat="44.578867" lon="3.439901"><ele>1212.25</ele></trkpt>
<trkpt lat="44.578616" lon="3.440511"><ele>1214.75</ele></trkpt>
<trkpt lat="44.578379" lon="3.441187"><ele>1217.25</ele></trkpt>
<trkpt lat="44.578259" lon="3.441610"><ele>1218.75</ele></trkpt>
<trkpt lat="44.578183" lon="3.441997"><ele>1219.5</ele></trkpt>
<trkpt lat="44.578064" lon="3.442879"><ele>1222.25</ele></trkpt>
<trkpt lat="44.577725" lon="3.445775"><ele>1229.5</ele></trkpt>
<trkpt lat="44.577653" lon="3.446186"><ele>1231.75</ele></trkpt>
<trkpt lat="44.577576" lon="3.446500"><ele>1234.25</ele></trkpt>
<trkpt lat="44.577405" lon="3.446785"><ele>1235.75</ele></trkpt>
<trkpt lat="44.577176" lon="3.446984"><ele>1237.25</ele></trkpt>
<trkpt lat="44.576970" lon="3.447078"><ele>1237.5</ele></trkpt>
<trkpt lat="44.576763" lon="3.447146"><ele>1238.5</ele></trkpt>
<trkpt lat="44.574011" lon="3.448038"><ele>1236.25</ele></trkpt>
<trkpt lat="44.573756" lon="3.448106"><ele>1235.5</ele></trkpt>
<trkpt lat="44.573420" lon="3.448148"><ele>1234.25</ele></trkpt>
<trkpt lat="44.571999" lon="3.448158"><ele>1229.0</ele></trkpt>
<trkpt lat="44.571792" lon="3.448214"><ele>1228.0</ele></trkpt>
<trkpt lat="44.571627" lon="3.448313"><ele>1226.75</ele></trkpt>
<trkpt lat="44.571503" lon="3.448479"><ele>1225.5</ele></trkpt>
<trkpt lat="44.571415" lon="3.448690"><ele>1224.75</ele></trkpt>
<trkpt lat="44.571349" lon="3.448975"><ele>1223.0</ele></trkpt>
<trkpt lat="44.571341" lon="3.449037"><ele>1222.75</ele></trkpt>
<trkpt lat="44.571283" lon="3.449401"><ele>1221.0</ele></trkpt>
<trkpt lat="44.571225" lon="3.449600"><ele>1220.0</ele></trkpt>
<trkpt lat="44.571082" lon="3.449905"><ele>1218.5</ele></trkpt>
<trkpt lat="44.570906" lon="3.450156"><ele>1216.75</ele></trkpt>
<trkpt lat="44.570697" lon="3.450419"><ele>1215.5</ele></trkpt>
<trkpt lat="44.570573" lon="3.450509"><ele>1214.75</ele></trkpt>
<trkpt lat="44.570510" lon="3.450555"><ele>1214.5</ele></trkpt>
<trkpt lat="44.570267" lon="3.450655"><ele>1212.75</ele></trkpt>
<trkpt lat="44.569987" lon="3.450699"><ele>1211.75</ele></trkpt>
<trkpt lat="44.569420" lon="3.450708"><ele>1210.25</ele></trkpt>
<trkpt lat="44.569040" lon="3.450730"><ele>1208.5</ele></trkpt>
<trkpt lat="44.568768" lon="3.450796"><ele>1206.75</ele></trkpt>
<trkpt lat="44.568225" lon="3.451049"><ele>1203.5</ele></trkpt>
<trkpt lat="44.568035" lon="3.451112"><ele>1202.75</ele></trkpt>
<trkpt lat="44.567566" lon="3.451152"><ele>1198.75</ele></trkpt>
<trkpt lat="44.566835" lon="3.451174"><ele>1194.5</ele></trkpt>
<trkpt lat="44.566755" lon="3.451175"><ele>1188.75</ele></trkpt>
<trkpt lat="44.565927" lon="3.451189"><ele>1188.75</ele></trkpt>
<trkpt lat="44.565696" lon="3.451214"><ele>1187.25</ele></trkpt>
<trkpt lat="44.565510" lon="3.451256"><ele>1186.0</ele></trkpt>
<trkpt lat="44.565385" lon="3.451317"><ele>1185.25</ele></trkpt>
<trkpt lat="44.565223" lon="3.451410"><ele>1184.25</ele></trkpt>
<trkpt lat="44.565021" lon="3.451581"><ele>1182.75</ele></trkpt>
<trkpt lat="44.564830" lon="3.451807"><ele>1181.0</ele></trkpt>
<trkpt lat="44.564655" lon="3.452100"><ele>1179.25</ele></trkpt>
<trkpt lat="44.564339" lon="3.452885"><ele>1175.5</ele></trkpt>
<trkpt lat="44.564197" lon="3.453176"><ele>1173.75</ele></trkpt>
<trkpt lat="44.564069" lon="3.453385"><ele>1172.25</ele></trkpt>
<trkpt lat="44.563907" lon="3.453545"><ele>1171.0</ele></trkpt>
<trkpt lat="44.563602" lon="3.453755"><ele>1169.25</ele></trkpt>
<trkpt lat="44.563257" lon="3.453968"><ele>1167.0</ele></trkpt>
<trkpt lat="44.562805" lon="3.454239"><ele>1163.75</ele></trkpt>
<trkpt lat="44.562336" lon="3.454391"><ele>1161.5</ele></trkpt>
<trkpt lat="44.562034" lon="3.454521"><ele>1159.75</ele></trkpt>
<trkpt lat="44.561855" lon="3.454578"><ele>1158.5</ele></trkpt>
<trkpt lat="44.561406" lon="3.454651"><ele>1155.25</ele></trkpt>
<trkpt lat="44.560810" lon="3.454727"><ele>1150.75</ele></trkpt>
<trkpt lat="44.560139" lon="3.454810"><ele>1146.5</ele></trkpt>
<trkpt lat="44.559618" lon="3.454870"><ele>1143.75</ele></trkpt>
<trkpt lat="44.559511" lon="3.454858"><ele>1142.75</ele></trkpt>
<trkpt lat="44.559433" lon="3.454828"><ele>1142.25</ele></trkpt>
<trkpt lat="44.559358" lon="3.454778"><ele>1141.25</ele></trkpt>
<trkpt lat="44.559293" lon="3.454708"><ele>1140.25</ele></trkpt>
<trkpt lat="44.559217" lon="3.454601"><ele>1139.5</ele></trkpt>
<trkpt lat="44.559021" lon="3.454202"><ele>1135.75</ele></trkpt>
<trkpt lat="44.558955" lon="3.454086"><ele>1134.75</ele></trkpt>
<trkpt lat="44.558863" lon="3.453970"><ele>1133.75</ele></trkpt>
<trkpt lat="44.558754" lon="3.453881"><ele>1133.0</ele></trkpt>
<trkpt lat="44.558453" lon="3.453702"><ele>1129.5</ele></trkpt>
<trkpt lat="44.558221" lon="3.453425"><ele>1127.75</ele></trkpt>
<trkpt lat="44.558134" lon="3.453336"><ele>1126.5</ele></trkpt>
<trkpt lat="44.558027" lon="3.453243"><ele>1125.75</ele></trkpt>
<trkpt lat="44.557911" lon="3.453186"><ele>1125.0</ele></trkpt>
<trkpt lat="44.557669" lon="3.453126"><ele>1122.0</ele></trkpt>
<trkpt lat="44.557347" lon="3.453061"><ele>1119.0</ele></trkpt>
<trkpt lat="44.557131" lon="3.452989"><ele>1117.25</ele></trkpt>
<trkpt lat="44.557017" lon="3.452926"><ele>1116.0</ele></trkpt>
<trkpt lat="44.556907" lon="3.452833"><ele>1115.0</ele></trkpt>
<trkpt lat="44.556806" lon="3.452731"><ele>1113.75</ele></trkpt>
<trkpt lat="44.556393" lon="3.452195"><ele>1110.75</ele></trkpt>
<trkpt lat="44.556293" lon="3.452092"><ele>1110.0</ele></trkpt>
<trkpt lat="44.556165" lon="3.452012"><ele>1108.25</ele></trkpt>
<trkpt lat="44.555931" lon="3.451949"><ele>1105.5</ele></trkpt>
<trkpt lat="44.555558" lon="3.451886"><ele>1102.5</ele></trkpt>
<trkpt lat="44.555425" lon="3.451839"><ele>1101.0</ele></trkpt>
<trkpt lat="44.555309" lon="3.451768"><ele>1100.0</ele></trkpt>
<trkpt lat="44.555134" lon="3.451634"><ele>1097.75</ele></trkpt>
<trkpt lat="44.555052" lon="3.451594"><ele>1096.25</ele></trkpt>
<trkpt lat="44.554929" lon="3.451578"><ele>1094.5</ele></trkpt>
<trkpt lat="44.554814" lon="3.451594"><ele>1093.25</ele></trkpt>
<trkpt lat="44.554706" lon="3.451677"><ele>1091.75</ele></trkpt>
<trkpt lat="44.554638" lon="3.451751"><ele>1090.75</ele></trkpt>
<trkpt lat="44.554563" lon="3.451884"><ele>1089.5</ele></trkpt>
<trkpt lat="44.554455" lon="3.452212"><ele>1086.75</ele></trkpt>
<trkpt lat="44.554324" lon="3.452546"><ele>1084.75</ele></trkpt>
<trkpt lat="44.554193" lon="3.452855"><ele>1082.0</ele></trkpt>
<trkpt lat="44.554082" lon="3.453088"><ele>1079.75</ele></trkpt>
<trkpt lat="44.553826" lon="3.453446"><ele>1077.75</ele></trkpt>
<trkpt lat="44.553573" lon="3.453750"><ele>1075.5</ele></trkpt>
<trkpt lat="44.553331" lon="3.453980"><ele>1071.25</ele></trkpt>
<trkpt lat="44.553108" lon="3.454180"><ele>1070.0</ele></trkpt>
<trkpt lat="44.552790" lon="3.454432"><ele>1067.25</ele></trkpt>
<trkpt lat="44.552605" lon="3.454559"><ele>1064.5</ele></trkpt>
<trkpt lat="44.552455" lon="3.454642"><ele>1062.5</ele></trkpt>
<trkpt lat="44.552285" lon="3.454680"><ele>1061.25</ele></trkpt>
<trkpt lat="44.552126" lon="3.454685"><ele>1060.0</ele></trkpt>
<trkpt lat="44.551900" lon="3.454654"><ele>1057.75</ele></trkpt>
<trkpt lat="44.551538" lon="3.454535"><ele>1055.0</ele></trkpt>
<trkpt lat="44.551398" lon="3.454524"><ele>1053.5</ele></trkpt>
<trkpt lat="44.551235" lon="3.454561"><ele>1052.25</ele></trkpt>
<trkpt lat="44.550920" lon="3.454695"><ele>1049.5</ele></trkpt>
<trkpt lat="44.550646" lon="3.454821"><ele>1047.25</ele></trkpt>
<trkpt lat="44.550391" lon="3.454952"><ele>1045.0</ele></trkpt>
<trkpt lat="44.548682" lon="3.456103"><ele>1028.0</ele></trkpt>
<trkpt lat="44.548236" lon="3.456379"><ele>1023.5</ele></trkpt>
<trkpt lat="44.548014" lon="3.456458"><ele>1021.75</ele></trkpt>
<trkpt lat="44.547818" lon="3.456501"><ele>1020.25</ele></trkpt>
<trkpt lat="44.547591" lon="3.456514"><ele>1018.5</ele></trkpt>
<trkpt lat="44.547440" lon="3.456496"><ele>1016.75</ele></trkpt>
<trkpt lat="44.547297" lon="3.456444"><ele>1015.0</ele></trkpt>
<trkpt lat="44.546583" lon="3.456065"><ele>1008.25</ele></trkpt>
<trkpt lat="44.546346" lon="3.455923"><ele>1006.0</ele></trkpt>
<trkpt lat="44.546207" lon="3.455819"><ele>1005.0</ele></trkpt>
<trkpt lat="44.546061" lon="3.455651"><ele>1003.0</ele></trkpt>
<trkpt lat="44.545908" lon="3.455441"><ele>1001.25</ele></trkpt>
<trkpt lat="44.545645" lon="3.455120"><ele>997.75</ele></trkpt>
<trkpt lat="44.545227" lon="3.454653"><ele>992.5</ele></trkpt>
<trkpt lat="44.545095" lon="3.454498"><ele>991.0</ele></trkpt>
<trkpt lat="44.544895" lon="3.454157"><ele>987.75</ele></trkpt>
<trkpt lat="44.544634" lon="3.453665"><ele>983.5</ele></trkpt>
<trkpt lat="44.544569" lon="3.453597"><ele>982.5</ele></trkpt>
<trkpt lat="44.544508" lon="3.453588"><ele>981.5</ele></trkpt>
<trkpt lat="44.544461" lon="3.453605"><ele>981.0</ele></trkpt>
<trkpt lat="44.544401" lon="3.453699"><ele>979.0</ele></trkpt>
<trkpt lat="44.544133" lon="3.455487"><ele>967.75</ele></trkpt>
<trkpt lat="44.544093" lon="3.455684"><ele>966.25</ele></trkpt>
<trkpt lat="44.544035" lon="3.455842"><ele>965.0</ele></trkpt>
<trkpt lat="44.543957" lon="3.456014"><ele>963.75</ele></trkpt>
<trkpt lat="44.543855" lon="3.456164"><ele>962.25</ele></trkpt>
<trkpt lat="44.543750" lon="3.456270"><ele>961.0</ele></trkpt>
<trkpt lat="44.543659" lon="3.456335"><ele>960.25</ele></trkpt>
<trkpt lat="44.543525" lon="3.456387"><ele>959.25</ele></trkpt>
<trkpt lat="44.543372" lon="3.456407"><ele>958.0</ele></trkpt>
<trkpt lat="44.542988" lon="3.456421"><ele>954.5</ele></trkpt>
<trkpt lat="44.542905" lon="3.456459"><ele>954.0</ele></trkpt>
<trkpt lat="44.542790" lon="3.456548"><ele>953.25</ele></trkpt>
<trkpt lat="44.542347" lon="3.457037"><ele>949.5</ele></trkpt>
<trkpt lat="44.542147" lon="3.457195"><ele>948.25</ele></trkpt>
<trkpt lat="44.541970" lon="3.457378"><ele>947.0</ele></trkpt>
<trkpt lat="44.541633" lon="3.457862"><ele>945.75</ele></trkpt>
<trkpt lat="44.541518" lon="3.457982"><ele>944.75</ele></trkpt>
<trkpt lat="44.541409" lon="3.458074"><ele>944.0</ele></trkpt>
<trkpt lat="44.540854" lon="3.458419"><ele>942.0</ele></trkpt>
<trkpt lat="44.540724" lon="3.458576"><ele>941.5</ele></trkpt>
<trkpt lat="44.540513" lon="3.458796"><ele>940.75</ele></trkpt>
<trkpt lat="44.540364" lon="3.458920"><ele>940.25</ele></trkpt>
<trkpt lat="44.539751" lon="3.459345"><ele>939.5</ele></trkpt>
<trkpt lat="44.539135" lon="3.459729"><ele>939.75</ele></trkpt>
<trkpt lat="44.538716" lon="3.460048"><ele>939.75</ele></trkpt>
<trkpt lat="44.538529" lon="3.460260"><ele>940.25</ele></trkpt>
<trkpt lat="44.538269" lon="3.460642"><ele>940.0</ele></trkpt>
<trkpt lat="44.538060" lon="3.461017"><ele>939.5</ele></trkpt>
<trkpt lat="44.537850" lon="3.461361"><ele>939.5</ele></trkpt>
<trkpt lat="44.537534" lon="3.461797"><ele>938.75</ele></trkpt>
<trkpt lat="44.537175" lon="3.462248"><ele>938.0</ele></trkpt>
<trkpt lat="44.536810" lon="3.462785"><ele>936.25</ele></trkpt>
<trkpt lat="44.536751" lon="3.462908"><ele>936.25</ele></trkpt>
<trkpt lat="44.536691" lon="3.463080"><ele>936.5</ele></trkpt>
<trkpt lat="44.536651" lon="3.463225"><ele>936.5</ele></trkpt>
<trkpt lat="44.536624" lon="3.463475"><ele>936.25</ele></trkpt>
<trkpt lat="44.536614" lon="3.463685"><ele>936.0</ele></trkpt>
<trkpt lat="44.536588" lon="3.463981"><ele>935.25</ele></trkpt>
<trkpt lat="44.536534" lon="3.464342"><ele>934.25</ele></trkpt>
<trkpt lat="44.536475" lon="3.464569"><ele>933.25</ele></trkpt>
<trkpt lat="44.536409" lon="3.464760"><ele>932.5</ele></trkpt>
<trkpt lat="44.536270" lon="3.465080"><ele>932.0</ele></trkpt>
<trkpt lat="44.536137" lon="3.465358"><ele>930.5</ele></trkpt>
<trkpt lat="44.536026" lon="3.465519"><ele>930.25</ele></trkpt>
<trkpt lat="44.535840" lon="3.465741"><ele>929.5</ele></trkpt>
<trkpt lat="44.535504" lon="3.466033"><ele>927.5</ele></trkpt>
<trkpt lat="44.535177" lon="3.466297"><ele>925.75</ele></trkpt>
<trkpt lat="44.535116" lon="3.466358"><ele>925.25</ele></trkpt>
<trkpt lat="44.534900" lon="3.466572"><ele>923.75</ele></trkpt>
<trkpt lat="44.534691" lon="3.466778"><ele>922.25</ele></trkpt>
<trkpt lat="44.534616" lon="3.466852"><ele>921.5</ele></trkpt>
<trkpt lat="44.534302" lon="3.467190"><ele>918.25</ele></trkpt>
<trkpt lat="44.534063" lon="3.467426"><ele>916.25</ele></trkpt>
<trkpt lat="44.533985" lon="3.467492"><ele>915.75</ele></trkpt>
<trkpt lat="44.533707" lon="3.467681"><ele>914.0</ele></trkpt>
<trkpt lat="44.533382" lon="3.467844"><ele>911.25</ele></trkpt>
<trkpt lat="44.533250" lon="3.467882"><ele>910.25</ele></trkpt>
<trkpt lat="44.533099" lon="3.467896"><ele>909.5</ele></trkpt>
<trkpt lat="44.532892" lon="3.467845"><ele>908.75</ele></trkpt>
<trkpt lat="44.532772" lon="3.467810"><ele>908.5</ele></trkpt>
<trkpt lat="44.532729" lon="3.467822"><ele>908.0</ele></trkpt>
<trkpt lat="44.532689" lon="3.467862"><ele>907.25</ele></trkpt>
<trkpt lat="44.532681" lon="3.467939"><ele>906.25</ele></trkpt>
<trkpt lat="44.532724" lon="3.468018"><ele>905.75</ele></trkpt>
<trkpt lat="44.532999" lon="3.468162"><ele>904.5</ele></trkpt>
<trkpt lat="44.533375" lon="3.468463"><ele>901.75</ele></trkpt>
<trkpt lat="44.533586" lon="3.468605"><ele>900.75</ele></trkpt>
<trkpt lat="44.533611" lon="3.468643"><ele>900.75</ele></trkpt>
<trkpt lat="44.533622" lon="3.468714"><ele>900.0</ele></trkpt>
<trkpt lat="44.533612" lon="3.468764"><ele>899.75</ele></trkpt>
<trkpt lat="44.533587" lon="3.468805"><ele>899.25</ele></trkpt>
<trkpt lat="44.533542" lon="3.468826"><ele>898.75</ele></trkpt>
<trkpt lat="44.533488" lon="3.468822"><ele>898.25</ele></trkpt>
<trkpt lat="44.533119" lon="3.468630"><ele>895.5</ele></trkpt>
<trkpt lat="44.532895" lon="3.468545"><ele>894.25</ele></trkpt>
<trkpt lat="44.532617" lon="3.468469"><ele>892.0</ele></trkpt>
<trkpt lat="44.532352" lon="3.468367"><ele>890.25</ele></trkpt>
<trkpt lat="44.532125" lon="3.468311"><ele>888.75</ele></trkpt>
<trkpt lat="44.531800" lon="3.468284"><ele>887.25</ele></trkpt>
<trkpt lat="44.531313" lon="3.468357"><ele>883.0</ele></trkpt>
<trkpt lat="44.531114" lon="3.468346"><ele>881.75</ele></trkpt>
<trkpt lat="44.531025" lon="3.468316"><ele>880.75</ele></trkpt>
<trkpt lat="44.530933" lon="3.468238"><ele>880.5</ele></trkpt>
<trkpt lat="44.530689" lon="3.467939"><ele>878.75</ele></trkpt>
<trkpt lat="44.530466" lon="3.467686"><ele>877.75</ele></trkpt>
<trkpt lat="44.530401" lon="3.467647"><ele>877.0</ele></trkpt>
<trkpt lat="44.530292" lon="3.467582"><ele>875.5</ele></trkpt>
<trkpt lat="44.530199" lon="3.467565"><ele>875.0</ele></trkpt>
<trkpt lat="44.530100" lon="3.467579"><ele>874.75</ele></trkpt>
<trkpt lat="44.529994" lon="3.467699"><ele>873.5</ele></trkpt>
<trkpt lat="44.529971" lon="3.467725"><ele>873.25</ele></trkpt>
<trkpt lat="44.529916" lon="3.467746"><ele>873.0</ele></trkpt>
<trkpt lat="44.529888" lon="3.467773"><ele>873.0</ele></trkpt>
<trkpt lat="44.529867" lon="3.467809"><ele>872.5</ele></trkpt>
<trkpt lat="44.529852" lon="3.467851"><ele>872.0</ele></trkpt>
<trkpt lat="44.529846" lon="3.467898"><ele>871.5</ele></trkpt>
<trkpt lat="44.529848" lon="3.467944"><ele>871.0</ele></trkpt>
<trkpt lat="44.529858" lon="3.467988"><ele>870.5</ele></trkpt>
<trkpt lat="44.529875" lon="3.468026"><ele>870.25</ele></trkpt>
<trkpt lat="44.529898" lon="3.468058"><ele>870.25</ele></trkpt>
<trkpt lat="44.529927" lon="3.468080"><ele>870.25</ele></trkpt>
<trkpt lat="44.529958" lon="3.468092"><ele>870.5</ele></trkpt>
<trkpt lat="44.529990" lon="3.468093"><ele>870.75</ele></trkpt>
<trkpt lat="44.530022" lon="3.468083"><ele>871.25</ele></trkpt>
<trkpt lat="44.530051" lon="3.468063"><ele>871.75</ele></trkpt>
<trkpt lat="44.530075" lon="3.468033"><ele>872.0</ele></trkpt>
<trkpt lat="44.530195" lon="3.468016"><ele>872.0</ele></trkpt>
<trkpt lat="44.530313" lon="3.468024"><ele>872.5</ele></trkpt>
<trkpt lat="44.530400" lon="3.468097"><ele>872.0</ele></trkpt>
<trkpt lat="44.530632" lon="3.468397"><ele>871.25</ele></trkpt>
<trkpt lat="44.530809" lon="3.468736"><ele>870.5</ele></trkpt>
<trkpt lat="44.530901" lon="3.469069"><ele>869.0</ele></trkpt>
<trkpt lat="44.530915" lon="3.469433"><ele>866.25</ele></trkpt>
<trkpt lat="44.530894" lon="3.469570"><ele>865.5</ele></trkpt>
<trkpt lat="44.530865" lon="3.469658"><ele>865.0</ele></trkpt>
<trkpt lat="44.530772" lon="3.469838"><ele>864.0</ele></trkpt>
<trkpt lat="44.530634" lon="3.469999"><ele>863.25</ele></trkpt>
<trkpt lat="44.530398" lon="3.470237"><ele>862.5</ele></trkpt>
<trkpt lat="44.530331" lon="3.470304"><ele>862.5</ele></trkpt>
<trkpt lat="44.530178" lon="3.470457"><ele>861.5</ele></trkpt>
<trkpt lat="44.530058" lon="3.470646"><ele>860.25</ele></trkpt>
<trkpt lat="44.529970" lon="3.470842"><ele>859.25</ele></trkpt>
<trkpt lat="44.529841" lon="3.471308"><ele>857.5</ele></trkpt>
<trkpt lat="44.529771" lon="3.471482"><ele>856.5</ele></trkpt>
<trkpt lat="44.529665" lon="3.471687"><ele>855.25</ele></trkpt>
<trkpt lat="44.529466" lon="3.471982"><ele>853.75</ele></trkpt>
<trkpt lat="44.529178" lon="3.472334"><ele>851.0</ele></trkpt>
<trkpt lat="44.529051" lon="3.472455"><ele>850.0</ele></trkpt>
<trkpt lat="44.528697" lon="3.472831"><ele>846.75</ele></trkpt>
<trkpt lat="44.528563" lon="3.472968"><ele>845.5</ele></trkpt>
<trkpt lat="44.528098" lon="3.473420"><ele>842.5</ele></trkpt>
<trkpt lat="44.527939" lon="3.473581"><ele>840.75</ele></trkpt>
<trkpt lat="44.527457" lon="3.474060"><ele>837.75</ele></trkpt>
<trkpt lat="44.527279" lon="3.474177"><ele>836.75</ele></trkpt>
<trkpt lat="44.527263" lon="3.474180"><ele>836.5</ele></trkpt>
<trkpt lat="44.527213" lon="3.474190"><ele>835.75</ele></trkpt>
<trkpt lat="44.527146" lon="3.474202"><ele>835.25</ele></trkpt>
<trkpt lat="44.527111" lon="3.474185"><ele>835.0</ele></trkpt>
<trkpt lat="44.527079" lon="3.474182"><ele>834.75</ele></trkpt>
<trkpt lat="44.527047" lon="3.474190"><ele>834.5</ele></trkpt>
<trkpt lat="44.527017" lon="3.474208"><ele>834.25</ele></trkpt>
<trkpt lat="44.526991" lon="3.474235"><ele>834.25</ele></trkpt>
<trkpt lat="44.526971" lon="3.474270"><ele>834.0</ele></trkpt>
<trkpt lat="44.526950" lon="3.474350"><ele>834.0</ele></trkpt>
<trkpt lat="44.526957" lon="3.474435"><ele>834.0</ele></trkpt>
<trkpt lat="44.526933" lon="3.474533"><ele>833.5</ele></trkpt>
<trkpt lat="44.526913" lon="3.474664"><ele>832.75</ele></trkpt>
<trkpt lat="44.526851" lon="3.474990"><ele>832.25</ele></trkpt>
<trkpt lat="44.526842" lon="3.475019"><ele>831.75</ele></trkpt>
<trkpt lat="44.526807" lon="3.475131"><ele>830.25</ele></trkpt>
<trkpt lat="44.526693" lon="3.475499"><ele>827.0</ele></trkpt>
<trkpt lat="44.526680" lon="3.475539"><ele>827.0</ele></trkpt>
<trkpt lat="44.526545" lon="3.475975"><ele>824.0</ele></trkpt>
<trkpt lat="44.526469" lon="3.476234"><ele>822.25</ele></trkpt>
<trkpt lat="44.525810" lon="3.478463"><ele>808.25</ele></trkpt>
<trkpt lat="44.525716" lon="3.478787"><ele>805.75</ele></trkpt>
<trkpt lat="44.525551" lon="3.479353"><ele>803.25</ele></trkpt>
<trkpt lat="44.525516" lon="3.479481"><ele>802.5</ele></trkpt>
<trkpt lat="44.525469" lon="3.479588"><ele>801.75</ele></trkpt>
<trkpt lat="44.525383" lon="3.479845"><ele>800.0</ele></trkpt>
<trkpt lat="44.525233" lon="3.480297"><ele>797.5</ele></trkpt>
<trkpt lat="44.525096" lon="3.480730"><ele>794.25</ele></trkpt>
<trkpt lat="44.524979" lon="3.481051"><ele>792.75</ele></trkpt>
<trkpt lat="44.524863" lon="3.481337"><ele>791.0</ele></trkpt>
<trkpt lat="44.524815" lon="3.481428"><ele>790.5</ele></trkpt>
<trkpt lat="44.524773" lon="3.481469"><ele>790.25</ele></trkpt>
<trkpt lat="44.524735" lon="3.481502"><ele>790.0</ele></trkpt>
<trkpt lat="44.524667" lon="3.481489"><ele>789.5</ele></trkpt>
<trkpt lat="44.524633" lon="3.481498"><ele>789.25</ele></trkpt>
<trkpt lat="44.524573" lon="3.481542"><ele>788.75</ele></trkpt>
<trkpt lat="44.524549" lon="3.481576"><ele>788.75</ele></trkpt>
<trkpt lat="44.524531" lon="3.481616"><ele>788.5</ele></trkpt>
<trkpt lat="44.524514" lon="3.481688"><ele>788.25</ele></trkpt>
<trkpt lat="44.524517" lon="3.481774"><ele>788.25</ele></trkpt>
<trkpt lat="44.524528" lon="3.481821"><ele>788.25</ele></trkpt>
<trkpt lat="44.524546" lon="3.481863"><ele>788.25</ele></trkpt>
<trkpt lat="44.524570" lon="3.481899"><ele>788.5</ele></trkpt>
<trkpt lat="44.524631" lon="3.481946"><ele>788.5</ele></trkpt>
<trkpt lat="44.524697" lon="3.481955"><ele>788.75</ele></trkpt>
<trkpt lat="44.524779" lon="3.482061"><ele>789.0</ele></trkpt>
<trkpt lat="44.524811" lon="3.482141"><ele>789.25</ele></trkpt>
<trkpt lat="44.525040" lon="3.482638"><ele>785.25</ele></trkpt>
<trkpt lat="44.526209" lon="3.485522"><ele>800.25</ele></trkpt>
<trkpt lat="44.526238" lon="3.485795"><ele>807.5</ele></trkpt>
<trkpt lat="44.526219" lon="3.485848"><ele>808.5</ele></trkpt>
<trkpt lat="44.526100" lon="3.485928"><ele>809.0</ele></trkpt>
<trkpt lat="44.525913" lon="3.485958"><ele>805.75</ele></trkpt>
<trkpt lat="44.525763" lon="3.486006"><ele>803.5</ele></trkpt>
<trkpt lat="44.525651" lon="3.486047"><ele>802.5</ele></trkpt>
<trkpt lat="44.525291" lon="3.486208"><ele>802.5</ele></trkpt>
<trkpt lat="44.525111" lon="3.486301"><ele>801.25</ele></trkpt>
<trkpt lat="44.524820" lon="3.486452"><ele>799.25</ele></trkpt>
<trkpt lat="44.524672" lon="3.486568"><ele>798.0</ele></trkpt>
<trkpt lat="44.524522" lon="3.486726"><ele>796.75</ele></trkpt>
<trkpt lat="44.524342" lon="3.486988"><ele>794.75</ele></trkpt>
<trkpt lat="44.524255" lon="3.487150"><ele>794.25</ele></trkpt>
<trkpt lat="44.524214" lon="3.487233"><ele>794.25</ele></trkpt>
<trkpt lat="44.524173" lon="3.487312"><ele>793.75</ele></trkpt>
<trkpt lat="44.523995" lon="3.487660"><ele>791.5</ele></trkpt>
<trkpt lat="44.523878" lon="3.487908"><ele>790.5</ele></trkpt>
<trkpt lat="44.523825" lon="3.488084"><ele>789.25</ele></trkpt>
<trkpt lat="44.523794" lon="3.488339"><ele>787.75</ele></trkpt>
<trkpt lat="44.523792" lon="3.488520"><ele>787.25</ele></trkpt>
<trkpt lat="44.523790" lon="3.488722"><ele>787.0</ele></trkpt>
<trkpt lat="44.523787" lon="3.488948"><ele>786.5</ele></trkpt>
<trkpt lat="44.523787" lon="3.488977"><ele>786.5</ele></trkpt>
<trkpt lat="44.523755" lon="3.489266"><ele>785.25</ele></trkpt>
<trkpt lat="44.523722" lon="3.489492"><ele>784.25</ele></trkpt>
<trkpt lat="44.523607" lon="3.489951"><ele>782.0</ele></trkpt>
<trkpt lat="44.523434" lon="3.490703"><ele>779.25</ele></trkpt>
<trkpt lat="44.523663" lon="3.490018"><ele>782.75</ele></trkpt>
<trkpt lat="44.523770" lon="3.490064"><ele>784.75</ele></trkpt>
<trkpt lat="44.523912" lon="3.490095"><ele>787.25</ele></trkpt>
<trkpt lat="44.524063" lon="3.490327"><ele>789.0</ele></trkpt>
<trkpt lat="44.524284" lon="3.490678"><ele>793.5</ele></trkpt>
<trkpt lat="44.524329" lon="3.490724"><ele>794.25</ele></trkpt>
<trkpt lat="44.524570" lon="3.490986"><ele>798.25</ele></trkpt>
<trkpt lat="44.524829" lon="3.491437"><ele>803.25</ele></trkpt>
<trkpt lat="44.524910" lon="3.491561"><ele>805.0</ele></trkpt>
<trkpt lat="44.524949" lon="3.491614"><ele>805.75</ele></trkpt>
<trkpt lat="44.525258" lon="3.492022"><ele>811.5</ele></trkpt>
<trkpt lat="44.525906" lon="3.492957"><ele>818.75</ele></trkpt>
<trkpt lat="44.525961" lon="3.493099"><ele>819.5</ele></trkpt>
<trkpt lat="44.526340" lon="3.494739"><ele>823.5</ele></trkpt>
<trkpt lat="44.526404" lon="3.495023"><ele>825.25</ele></trkpt>
<trkpt lat="44.526669" lon="3.496713"><ele>827.0</ele></trkpt>
<trkpt lat="44.526698" lon="3.496714"><ele>827.5</ele></trkpt>
<trkpt lat="44.526718" lon="3.496715"><ele>827.75</ele></trkpt>
<trkpt lat="44.526858" lon="3.496236"><ele>831.25</ele></trkpt>
<trkpt lat="44.526875" lon="3.496065"><ele>832.0</ele></trkpt>
<trkpt lat="44.527388" lon="3.494778"><ele>841.5</ele></trkpt>
<trkpt lat="44.527226" lon="3.494874"><ele>840.0</ele></trkpt>
<trkpt lat="44.527300" lon="3.494815"><ele>840.5</ele></trkpt>
<trkpt lat="44.527388" lon="3.494778"><ele>841.5</ele></trkpt>
<trkpt lat="44.527492" lon="3.494769"><ele>842.75</ele></trkpt>
<trkpt lat="44.527572" lon="3.494796"><ele>843.5</ele></trkpt>
<trkpt lat="44.527639" lon="3.494836"><ele>844.25</ele></trkpt>
<trkpt lat="44.527705" lon="3.494894"><ele>845.25</ele></trkpt>
<trkpt lat="44.527780" lon="3.495038"><ele>847.0</ele></trkpt>
<trkpt lat="44.528210" lon="3.496964"><ele>856.5</ele></trkpt>
<trkpt lat="44.528256" lon="3.497172"><ele>857.75</ele></trkpt>
<trkpt lat="44.528294" lon="3.497346"><ele>859.0</ele></trkpt>
<trkpt lat="44.528301" lon="3.497382"><ele>859.5</ele></trkpt>
<trkpt lat="44.528632" lon="3.498926"><ele>867.0</ele></trkpt>
<trkpt lat="44.528745" lon="3.499425"><ele>868.75</ele></trkpt>
<trkpt lat="44.528815" lon="3.499594"><ele>870.0</ele></trkpt>
<trkpt lat="44.528896" lon="3.499686"><ele>871.75</ele></trkpt>
<trkpt lat="44.528995" lon="3.499777"><ele>872.5</ele></trkpt>
<trkpt lat="44.529168" lon="3.499832"><ele>875.0</ele></trkpt>
<trkpt lat="44.529308" lon="3.499822"><ele>876.0</ele></trkpt>
<trkpt lat="44.529423" lon="3.499759"><ele>876.75</ele></trkpt>
<trkpt lat="44.529506" lon="3.499679"><ele>878.0</ele></trkpt>
<trkpt lat="44.529617" lon="3.499515"><ele>879.75</ele></trkpt>
<trkpt lat="44.529691" lon="3.499302"><ele>880.5</ele></trkpt>
<trkpt lat="44.530109" lon="3.497941"><ele>887.25</ele></trkpt>
<trkpt lat="44.530346" lon="3.497155"><ele>891.25</ele></trkpt>
<trkpt lat="44.530425" lon="3.496995"><ele>891.25</ele></trkpt>
<trkpt lat="44.530506" lon="3.496870"><ele>892.25</ele></trkpt>
<trkpt lat="44.530626" lon="3.496747"><ele>893.75</ele></trkpt>
<trkpt lat="44.530750" lon="3.496645"><ele>894.75</ele></trkpt>
<trkpt lat="44.530861" lon="3.496581"><ele>896.0</ele></trkpt>
<trkpt lat="44.530952" lon="3.496539"><ele>897.25</ele></trkpt>
<trkpt lat="44.531081" lon="3.496561"><ele>899.5</ele></trkpt>
<trkpt lat="44.531124" lon="3.496577"><ele>900.0</ele></trkpt>
<trkpt lat="44.531172" lon="3.496594"><ele>900.5</ele></trkpt>
<trkpt lat="44.531203" lon="3.496650"><ele>900.75</ele></trkpt>
<trkpt lat="44.531214" lon="3.496777"><ele>901.75</ele></trkpt>
<trkpt lat="44.531222" lon="3.497056"><ele>903.5</ele></trkpt>
<trkpt lat="44.531221" lon="3.497321"><ele>904.0</ele></trkpt>
<trkpt lat="44.531242" lon="3.497490"><ele>904.25</ele></trkpt>
<trkpt lat="44.531271" lon="3.497595"><ele>904.75</ele></trkpt>
<trkpt lat="44.531324" lon="3.497746"><ele>905.75</ele></trkpt>
<trkpt lat="44.531413" lon="3.497936"><ele>907.0</ele></trkpt>
<trkpt lat="44.531822" lon="3.498696"><ele>910.5</ele></trkpt>
<trkpt lat="44.531938" lon="3.498912"><ele>911.75</ele></trkpt>
<trkpt lat="44.532408" lon="3.499780"><ele>916.0</ele></trkpt>
<trkpt lat="44.532553" lon="3.500047"><ele>917.25</ele></trkpt>
<trkpt lat="44.532613" lon="3.500150"><ele>918.0</ele></trkpt>
<trkpt lat="44.532879" lon="3.500609"><ele>919.5</ele></trkpt>
<trkpt lat="44.532956" lon="3.500696"><ele>919.75</ele></trkpt>
<trkpt lat="44.533086" lon="3.500782"><ele>920.5</ele></trkpt>
<trkpt lat="44.533764" lon="3.501123"><ele>925.5</ele></trkpt>
<trkpt lat="44.534401" lon="3.501442"><ele>929.25</ele></trkpt>
<trkpt lat="44.534505" lon="3.501505"><ele>929.75</ele></trkpt>
<trkpt lat="44.534562" lon="3.501498"><ele>930.0</ele></trkpt>
<trkpt lat="44.534587" lon="3.501542"><ele>930.0</ele></trkpt>
<trkpt lat="44.534618" lon="3.501571"><ele>930.25</ele></trkpt>
<trkpt lat="44.534653" lon="3.501587"><ele>930.5</ele></trkpt>
<trkpt lat="44.534691" lon="3.501588"><ele>930.75</ele></trkpt>
<trkpt lat="44.534728" lon="3.501573"><ele>931.0</ele></trkpt>
<trkpt lat="44.534921" lon="3.501654"><ele>931.75</ele></trkpt>
<trkpt lat="44.535049" lon="3.501768"><ele>931.75</ele></trkpt>
<trkpt lat="44.535192" lon="3.501858"><ele>932.5</ele></trkpt>
<trkpt lat="44.535421" lon="3.501978"><ele>933.25</ele></trkpt>
<trkpt lat="44.536066" lon="3.502294"><ele>934.75</ele></trkpt>
<trkpt lat="44.536262" lon="3.502391"><ele>935.25</ele></trkpt>
<trkpt lat="44.536294" lon="3.502406"><ele>935.25</ele></trkpt>
<trkpt lat="44.536388" lon="3.502459"><ele>935.75</ele></trkpt>
<trkpt lat="44.536538" lon="3.502542"><ele>935.75</ele></trkpt>
<trkpt lat="44.536665" lon="3.502672"><ele>935.75</ele></trkpt>
<trkpt lat="44.536701" lon="3.502742"><ele>935.75</ele></trkpt>
<trkpt lat="44.536708" lon="3.502787"><ele>935.75</ele></trkpt>
<trkpt lat="44.536723" lon="3.502828"><ele>936.0</ele></trkpt>
<trkpt lat="44.536744" lon="3.502863"><ele>936.0</ele></trkpt>
<trkpt lat="44.536770" lon="3.502890"><ele>936.0</ele></trkpt>
<trkpt lat="44.536800" lon="3.502908"><ele>936.0</ele></trkpt>
<trkpt lat="44.536865" lon="3.502910"><ele>936.0</ele></trkpt>
<trkpt lat="44.536891" lon="3.502899"><ele>936.0</ele></trkpt>
<trkpt lat="44.536936" lon="3.502856"><ele>936.0</ele></trkpt>
<trkpt lat="44.537031" lon="3.502823"><ele>936.25</ele></trkpt>
<trkpt lat="44.537155" lon="3.502814"><ele>936.75</ele></trkpt>
<trkpt lat="44.537552" lon="3.502986"><ele>937.0</ele></trkpt>
<trkpt lat="44.537797" lon="3.503107"><ele>938.0</ele></trkpt>
<trkpt lat="44.537955" lon="3.503185"><ele>938.5</ele></trkpt>
<trkpt lat="44.538212" lon="3.503313"><ele>939.5</ele></trkpt>
<trkpt lat="44.540339" lon="3.504387"><ele>952.0</ele></trkpt>
<trkpt lat="44.541226" lon="3.504834"><ele>958.75</ele></trkpt>
<trkpt lat="44.541719" lon="3.505053"><ele>962.0</ele></trkpt>
<trkpt lat="44.543302" lon="3.505851"><ele>965.0</ele></trkpt>
<trkpt lat="44.543740" lon="3.506084"><ele>965.75</ele></trkpt>
<trkpt lat="44.544881" lon="3.506636"><ele>969.5</ele></trkpt>
<trkpt lat="44.544902" lon="3.506646"><ele>969.5</ele></trkpt>
<trkpt lat="44.545198" lon="3.506935"><ele>970.5</ele></trkpt>
<trkpt lat="44.545188" lon="3.506977"><ele>970.5</ele></trkpt>
<trkpt lat="44.545187" lon="3.507022"><ele>970.5</ele></trkpt>
<trkpt lat="44.545197" lon="3.507065"><ele>970.5</ele></trkpt>
<trkpt lat="44.545216" lon="3.507101"><ele>970.75</ele></trkpt>
<trkpt lat="44.545244" lon="3.507128"><ele>970.75</ele></trkpt>
<trkpt lat="44.545277" lon="3.507141"><ele>970.75</ele></trkpt>
<trkpt lat="44.545312" lon="3.507136"><ele>971.0</ele></trkpt>
<trkpt lat="44.545343" lon="3.507116"><ele>971.25</ele></trkpt>
<trkpt lat="44.545366" lon="3.507085"><ele>971.25</ele></trkpt>
<trkpt lat="44.545381" lon="3.507046"><ele>971.5</ele></trkpt>
<trkpt lat="44.545520" lon="3.506960"><ele>971.75</ele></trkpt>
<trkpt lat="44.545630" lon="3.506943"><ele>972.25</ele></trkpt>
<trkpt lat="44.545791" lon="3.506966"><ele>972.75</ele></trkpt>
<trkpt lat="44.546159" lon="3.507029"><ele>974.5</ele></trkpt>
<trkpt lat="44.546369" lon="3.507045"><ele>975.5</ele></trkpt>
<trkpt lat="44.547209" lon="3.507187"><ele>980.5</ele></trkpt>
<trkpt lat="44.548893" lon="3.507443"><ele>992.75</ele></trkpt>
<trkpt lat="44.549093" lon="3.507528"><ele>993.75</ele></trkpt>
<trkpt lat="44.549803" lon="3.507899"><ele>998.0</ele></trkpt>
<trkpt lat="44.549970" lon="3.507988"><ele>999.25</ele></trkpt>
<trkpt lat="44.550223" lon="3.508138"><ele>1000.25</ele></trkpt>
<trkpt lat="44.550413" lon="3.508224"><ele>1000.5</ele></trkpt>
<trkpt lat="44.550635" lon="3.508298"><ele>1001.75</ele></trkpt>
<trkpt lat="44.550819" lon="3.508323"><ele>1002.75</ele></trkpt>
<trkpt lat="44.551047" lon="3.508320"><ele>1003.5</ele></trkpt>
<trkpt lat="44.551315" lon="3.508222"><ele>1004.0</ele></trkpt>
<trkpt lat="44.552231" lon="3.507540"><ele>1011.0</ele></trkpt>
<trkpt lat="44.552380" lon="3.507439"><ele>1012.5</ele></trkpt>
<trkpt lat="44.552683" lon="3.507247"><ele>1013.5</ele></trkpt>
<trkpt lat="44.552962" lon="3.507051"><ele>1014.5</ele></trkpt>
<trkpt lat="44.553473" lon="3.506740"><ele>1016.75</ele></trkpt>
<trkpt lat="44.554330" lon="3.506198"><ele>1022.0</ele></trkpt>
<trkpt lat="44.554623" lon="3.506012"><ele>1024.5</ele></trkpt>
<trkpt lat="44.554686" lon="3.506006"><ele>1025.0</ele></trkpt>
<trkpt lat="44.554712" lon="3.506013"><ele>1025.5</ele></trkpt>
<trkpt lat="44.554775" lon="3.505937"><ele>1025.75</ele></trkpt>
<trkpt lat="44.554997" lon="3.505782"><ele>1027.0</ele></trkpt>
<trkpt lat="44.555114" lon="3.505720"><ele>1027.25</ele></trkpt>
<trkpt lat="44.555346" lon="3.505637"><ele>1028.25</ele></trkpt>
<trkpt lat="44.555716" lon="3.505508"><ele>1029.25</ele></trkpt>
<trkpt lat="44.556453" lon="3.505175"><ele>1031.5</ele></trkpt>
<trkpt lat="44.556852" lon="3.504983"><ele>1033.75</ele></trkpt>
<trkpt lat="44.557087" lon="3.504797"><ele>1033.5</ele></trkpt>
<trkpt lat="44.557227" lon="3.504671"><ele>1033.25</ele></trkpt>
<trkpt lat="44.557476" lon="3.504498"><ele>1033.0</ele></trkpt>
<trkpt lat="44.557917" lon="3.504221"><ele>1030.5</ele></trkpt>
<trkpt lat="44.557994" lon="3.504165"><ele>1029.75</ele></trkpt>
<trkpt lat="44.558020" lon="3.504098"><ele>1029.25</ele></trkpt>
<trkpt lat="44.558025" lon="3.504076"><ele>1029.25</ele></trkpt>
<trkpt lat="44.558113" lon="3.504095"><ele>1029.5</ele></trkpt>
<trkpt lat="44.558483" lon="3.504177"><ele>1031.5</ele></trkpt>
<trkpt lat="44.558765" lon="3.504223"><ele>1033.0</ele></trkpt>
<trkpt lat="44.559211" lon="3.504336"><ele>1035.75</ele></trkpt>
<trkpt lat="44.559300" lon="3.504356"><ele>1036.5</ele></trkpt>
<trkpt lat="44.559369" lon="3.504373"><ele>1036.75</ele></trkpt>
<trkpt lat="44.559949" lon="3.504513"><ele>1041.25</ele></trkpt>
<trkpt lat="44.560067" lon="3.504527"><ele>1041.75</ele></trkpt>
<trkpt lat="44.560242" lon="3.504527"><ele>1042.5</ele></trkpt>
<trkpt lat="44.560447" lon="3.504496"><ele>1044.25</ele></trkpt>
<trkpt lat="44.561131" lon="3.504355"><ele>1049.0</ele></trkpt>
<trkpt lat="44.561399" lon="3.504275"><ele>1051.25</ele></trkpt>
<trkpt lat="44.561457" lon="3.504247"><ele>1051.5</ele></trkpt>
<trkpt lat="44.561504" lon="3.504214"><ele>1051.75</ele></trkpt>
<trkpt lat="44.561629" lon="3.504075"><ele>1051.75</ele></trkpt>
<trkpt lat="44.561754" lon="3.503851"><ele>1052.75</ele></trkpt>
<trkpt lat="44.561816" lon="3.503623"><ele>1054.0</ele></trkpt>
<trkpt lat="44.561842" lon="3.503298"><ele>1054.0</ele></trkpt>
<trkpt lat="44.561846" lon="3.503031"><ele>1054.25</ele></trkpt>
<trkpt lat="44.561869" lon="3.502801"><ele>1055.0</ele></trkpt>
<trkpt lat="44.561912" lon="3.502583"><ele>1056.25</ele></trkpt>
<trkpt lat="44.561934" lon="3.502523"><ele>1056.75</ele></trkpt>
<trkpt lat="44.562022" lon="3.502343"><ele>1057.0</ele></trkpt>
<trkpt lat="44.562544" lon="3.501361"><ele>1059.25</ele></trkpt>
<trkpt lat="44.562792" lon="3.500987"><ele>1060.25</ele></trkpt>
<trkpt lat="44.563058" lon="3.500635"><ele>1062.5</ele></trkpt>
<trkpt lat="44.563217" lon="3.500451"><ele>1063.75</ele></trkpt>
<trkpt lat="44.563469" lon="3.500235"><ele>1066.0</ele></trkpt>
<trkpt lat="44.563697" lon="3.500074"><ele>1067.25</ele></trkpt>
<trkpt lat="44.564085" lon="3.499880"><ele>1069.5</ele></trkpt>
<trkpt lat="44.564528" lon="3.499682"><ele>1071.5</ele></trkpt>
<trkpt lat="44.564834" lon="3.499554"><ele>1074.0</ele></trkpt>
<trkpt lat="44.564958" lon="3.499470"><ele>1074.5</ele></trkpt>
<trkpt lat="44.565123" lon="3.499344"><ele>1075.25</ele></trkpt>
<trkpt lat="44.565378" lon="3.499096"><ele>1076.75</ele></trkpt>
<trkpt lat="44.565450" lon="3.498985"><ele>1077.25</ele></trkpt>
<trkpt lat="44.565603" lon="3.498723"><ele>1079.75</ele></trkpt>
<trkpt lat="44.565703" lon="3.498513"><ele>1081.5</ele></trkpt>
<trkpt lat="44.565832" lon="3.498162"><ele>1082.25</ele></trkpt>
<trkpt lat="44.565972" lon="3.497752"><ele>1085.5</ele></trkpt>
<trkpt lat="44.566061" lon="3.497509"><ele>1083.5</ele></trkpt>
<trkpt lat="44.566186" lon="3.497268"><ele>1085.75</ele></trkpt>
<trkpt lat="44.566354" lon="3.496997"><ele>1086.5</ele></trkpt>
<trkpt lat="44.566841" lon="3.496364"><ele>1091.0</ele></trkpt>
<trkpt lat="44.567141" lon="3.496000"><ele>1094.25</ele></trkpt>
<trkpt lat="44.568162" lon="3.495214"><ele>1101.5</ele></trkpt>
<trkpt lat="44.568365" lon="3.495026"><ele>1102.5</ele></trkpt>
<trkpt lat="44.569274" lon="3.493956"><ele>1111.25</ele></trkpt>
<trkpt lat="44.569466" lon="3.493776"><ele>1113.25</ele></trkpt>
<trkpt lat="44.569648" lon="3.493659"><ele>1114.0</ele></trkpt>
<trkpt lat="44.569920" lon="3.493568"><ele>1114.75</ele></trkpt>
<trkpt lat="44.570021" lon="3.493558"><ele>1115.0</ele></trkpt>
<trkpt lat="44.570132" lon="3.493547"><ele>1114.5</ele></trkpt>
<trkpt lat="44.570303" lon="3.493557"><ele>1114.5</ele></trkpt>
<trkpt lat="44.570800" lon="3.493595"><ele>1117.25</ele></trkpt>
<trkpt lat="44.572236" lon="3.493733"><ele>1118.25</ele></trkpt>
<trkpt lat="44.572602" lon="3.493711"><ele>1118.5</ele></trkpt>
<trkpt lat="44.573313" lon="3.493584"><ele>1119.0</ele></trkpt>
<trkpt lat="44.573610" lon="3.493513"><ele>1119.5</ele></trkpt>
<trkpt lat="44.573865" lon="3.493428"><ele>1120.25</ele></trkpt>
<trkpt lat="44.574015" lon="3.493340"><ele>1119.75</ele></trkpt>
<trkpt lat="44.574069" lon="3.493308"><ele>1119.75</ele></trkpt>
<trkpt lat="44.574340" lon="3.493074"><ele>1121.0</ele></trkpt>
<trkpt lat="44.574700" lon="3.492718"><ele>1122.25</ele></trkpt>
<trkpt lat="44.574999" lon="3.492525"><ele>1122.5</ele></trkpt>
<trkpt lat="44.575262" lon="3.492467"><ele>1122.0</ele></trkpt>
<trkpt lat="44.575434" lon="3.492487"><ele>1122.5</ele></trkpt>
<trkpt lat="44.575580" lon="3.492536"><ele>1123.25</ele></trkpt>
<trkpt lat="44.575778" lon="3.492631"><ele>1123.0</ele></trkpt>
<trkpt lat="44.576936" lon="3.493559"><ele>1125.0</ele></trkpt>
<trkpt lat="44.577408" lon="3.493923"><ele>1128.25</ele></trkpt>
<trkpt lat="44.577874" lon="3.494314"><ele>1129.25</ele></trkpt>
<trkpt lat="44.578076" lon="3.494528"><ele>1129.25</ele></trkpt>
<trkpt lat="44.578263" lon="3.494769"><ele>1130.75</ele></trkpt>
<trkpt lat="44.578444" lon="3.495050"><ele>1132.0</ele></trkpt>
<trkpt lat="44.578600" lon="3.495338"><ele>1132.0</ele></trkpt>
<trkpt lat="44.578758" lon="3.495714"><ele>1133.75</ele></trkpt>
<trkpt lat="44.578865" lon="3.495949"><ele>1133.0</ele></trkpt>
<trkpt lat="44.578992" lon="3.496128"><ele>1132.0</ele></trkpt>
<trkpt lat="44.579149" lon="3.496261"><ele>1132.25</ele></trkpt>
<trkpt lat="44.579228" lon="3.496305"><ele>1132.5</ele></trkpt>
<trkpt lat="44.579317" lon="3.496340"><ele>1133.0</ele></trkpt>
<trkpt lat="44.579413" lon="3.496358"><ele>1133.25</ele></trkpt>
<trkpt lat="44.579540" lon="3.496362"><ele>1132.0</ele></trkpt>
<trkpt lat="44.579698" lon="3.496326"><ele>1129.25</ele></trkpt>
<trkpt lat="44.579821" lon="3.496277"><ele>1131.5</ele></trkpt>
<trkpt lat="44.579932" lon="3.496205"><ele>1134.75</ele></trkpt>
<trkpt lat="44.580022" lon="3.496114"><ele>1137.75</ele></trkpt>
<trkpt lat="44.580121" lon="3.495984"><ele>1139.0</ele></trkpt>
<trkpt lat="44.580206" lon="3.495831"><ele>1138.25</ele></trkpt>
<trkpt lat="44.580541" lon="3.495126"><ele>1139.25</ele></trkpt>
<trkpt lat="44.580640" lon="3.494936"><ele>1140.0</ele></trkpt>
<trkpt lat="44.580736" lon="3.494792"><ele>1140.5</ele></trkpt>
<trkpt lat="44.580836" lon="3.494694"><ele>1141.75</ele></trkpt>
<trkpt lat="44.580951" lon="3.494600"><ele>1142.5</ele></trkpt>
<trkpt lat="44.581047" lon="3.494552"><ele>1143.0</ele></trkpt>
<trkpt lat="44.581165" lon="3.494511"><ele>1143.5</ele></trkpt>
<trkpt lat="44.581284" lon="3.494504"><ele>1143.5</ele></trkpt>
<trkpt lat="44.581393" lon="3.494515"><ele>1144.0</ele></trkpt>
<trkpt lat="44.581493" lon="3.494544"><ele>1144.0</ele></trkpt>
<trkpt lat="44.581605" lon="3.494598"><ele>1144.25</ele></trkpt>
<trkpt lat="44.581717" lon="3.494675"><ele>1144.75</ele></trkpt>
<trkpt lat="44.582758" lon="3.495575"><ele>1149.5</ele></trkpt>
<trkpt lat="44.582934" lon="3.495698"><ele>1149.0</ele></trkpt>
<trkpt lat="44.583123" lon="3.495789"><ele>1149.75</ele></trkpt>
<trkpt lat="44.583315" lon="3.495834"><ele>1151.75</ele></trkpt>
<trkpt lat="44.583467" lon="3.495828"><ele>1152.25</ele></trkpt>
<trkpt lat="44.583625" lon="3.495785"><ele>1151.5</ele></trkpt>
<trkpt lat="44.583777" lon="3.495726"><ele>1151.5</ele></trkpt>
<trkpt lat="44.583921" lon="3.495633"><ele>1154.25</ele></trkpt>
<trkpt lat="44.584041" lon="3.495517"><ele>1157.5</ele></trkpt>
<trkpt lat="44.584171" lon="3.495361"><ele>1157.5</ele></trkpt>
<trkpt lat="44.584276" lon="3.495169"><ele>1159.0</ele></trkpt>
<trkpt lat="44.584333" lon="3.495035"><ele>1159.25</ele></trkpt>
<trkpt lat="44.584375" lon="3.494910"><ele>1159.0</ele></trkpt>
<trkpt lat="44.584416" lon="3.494748"><ele>1158.0</ele></trkpt>
<trkpt lat="44.584452" lon="3.494543"><ele>1157.25</ele></trkpt>
<trkpt lat="44.584544" lon="3.493718"><ele>1158.25</ele></trkpt>
<trkpt lat="44.584632" lon="3.492910"><ele>1161.0</ele></trkpt>
<trkpt lat="44.584690" lon="3.492645"><ele>1160.75</ele></trkpt>
<trkpt lat="44.584750" lon="3.492458"><ele>1160.75</ele></trkpt>
<trkpt lat="44.584846" lon="3.492295"><ele>1162.25</ele></trkpt>
<trkpt lat="44.584935" lon="3.492174"><ele>1162.25</ele></trkpt>
<trkpt lat="44.585051" lon="3.492069"><ele>1162.5</ele></trkpt>
<trkpt lat="44.585165" lon="3.491987"><ele>1162.5</ele></trkpt>
<trkpt lat="44.585290" lon="3.491938"><ele>1162.75</ele></trkpt>
<trkpt lat="44.585440" lon="3.491925"><ele>1163.25</ele></trkpt>
<trkpt lat="44.585607" lon="3.491945"><ele>1164.0</ele></trkpt>
<trkpt lat="44.585760" lon="3.492007"><ele>1164.5</ele></trkpt>
<trkpt lat="44.585897" lon="3.492111"><ele>1164.75</ele></trkpt>
<trkpt lat="44.586026" lon="3.492254"><ele>1165.5</ele></trkpt>
<trkpt lat="44.586313" lon="3.492646"><ele>1166.0</ele></trkpt>
<trkpt lat="44.586419" lon="3.492755"><ele>1165.75</ele></trkpt>
<trkpt lat="44.586564" lon="3.492853"><ele>1165.5</ele></trkpt>
<trkpt lat="44.586700" lon="3.492902"><ele>1165.5</ele></trkpt>
<trkpt lat="44.586840" lon="3.492917"><ele>1165.75</ele></trkpt>
<trkpt lat="44.586885" lon="3.492922"><ele>1165.75</ele></trkpt>
<trkpt lat="44.587128" lon="3.492904"><ele>1166.5</ele></trkpt>
<trkpt lat="44.587857" lon="3.492745"><ele>1169.25</ele></trkpt>
<trkpt lat="44.588680" lon="3.492561"><ele>1172.0</ele></trkpt>
<trkpt lat="44.588849" lon="3.492487"><ele>1172.0</ele></trkpt>
<trkpt lat="44.589007" lon="3.492386"><ele>1172.5</ele></trkpt>
<trkpt lat="44.589134" lon="3.492264"><ele>1172.75</ele></trkpt>
<trkpt lat="44.589624" lon="3.491719"><ele>1175.75</ele></trkpt>
<trkpt lat="44.589864" lon="3.491458"><ele>1176.0</ele></trkpt>
<trkpt lat="44.590111" lon="3.491230"><ele>1177.0</ele></trkpt>
<trkpt lat="44.590333" lon="3.491062"><ele>1179.5</ele></trkpt>
<trkpt lat="44.592119" lon="3.489940"><ele>1196.5</ele></trkpt>
<trkpt lat="44.592338" lon="3.489827"><ele>1198.5</ele></trkpt>
<trkpt lat="44.592516" lon="3.489757"><ele>1200.0</ele></trkpt>
<trkpt lat="44.592723" lon="3.489705"><ele>1201.25</ele></trkpt>
<trkpt lat="44.592978" lon="3.489661"><ele>1203.0</ele></trkpt>
<trkpt lat="44.593674" lon="3.489646"><ele>1206.75</ele></trkpt>
<trkpt lat="44.593918" lon="3.489607"><ele>1208.0</ele></trkpt>
<trkpt lat="44.594219" lon="3.489514"><ele>1207.5</ele></trkpt>
<trkpt lat="44.594452" lon="3.489399"><ele>1207.75</ele></trkpt>
<trkpt lat="44.594719" lon="3.489226"><ele>1209.25</ele></trkpt>
<trkpt lat="44.595779" lon="3.488441"><ele>1211.0</ele></trkpt>
<trkpt lat="44.596897" lon="3.487559"><ele>1220.25</ele></trkpt>
<trkpt lat="44.597181" lon="3.487375"><ele>1224.25</ele></trkpt>
<trkpt lat="44.597605" lon="3.487153"><ele>1228.5</ele></trkpt>
<trkpt lat="44.598010" lon="3.487031"><ele>1230.5</ele></trkpt>
<trkpt lat="44.598316" lon="3.486975"><ele>1232.0</ele></trkpt>
<trkpt lat="44.598579" lon="3.486966"><ele>1232.0</ele></trkpt>
<trkpt lat="44.600356" lon="3.487038"><ele>1220.25</ele></trkpt>
<trkpt lat="44.600665" lon="3.486998"><ele>1219.25</ele></trkpt>
<trkpt lat="44.600861" lon="3.486951"><ele>1219.25</ele></trkpt>
<trkpt lat="44.601091" lon="3.486862"><ele>1221.0</ele></trkpt>
<trkpt lat="44.601334" lon="3.486728"><ele>1223.0</ele></trkpt>
<trkpt lat="44.601614" lon="3.486536"><ele>1226.0</ele></trkpt>
<trkpt lat="44.602341" lon="3.485868"><ele>1234.25</ele></trkpt>
<trkpt lat="44.602768" lon="3.485486"><ele>1237.25</ele></trkpt>
<trkpt lat="44.603143" lon="3.485216"><ele>1236.5</ele></trkpt>
<trkpt lat="44.603444" lon="3.485042"><ele>1236.5</ele></trkpt>
<trkpt lat="44.603859" lon="3.484865"><ele>1236.25</ele></trkpt>
<trkpt lat="44.604243" lon="3.484767"><ele>1236.25</ele></trkpt>
<trkpt lat="44.605616" lon="3.484559"><ele>1230.5</ele></trkpt>
<trkpt lat="44.606679" lon="3.484409"><ele>1230.0</ele></trkpt>
<trkpt lat="44.607724" lon="3.484326"><ele>1226.0</ele></trkpt>
<trkpt lat="44.608644" lon="3.484299"><ele>1221.75</ele></trkpt>
<trkpt lat="44.609143" lon="3.484272"><ele>1220.25</ele></trkpt>
<trkpt lat="44.609487" lon="3.484233"><ele>1219.75</ele></trkpt>
<trkpt lat="44.610373" lon="3.483957"><ele>1215.0</ele></trkpt>
<trkpt lat="44.610817" lon="3.483819"><ele>1213.25</ele></trkpt>
<trkpt lat="44.611278" lon="3.483655"><ele>1211.75</ele></trkpt>
<trkpt lat="44.612332" lon="3.482982"><ele>1206.75</ele></trkpt>
<trkpt lat="44.612540" lon="3.482835"><ele>1206.0</ele></trkpt>
<trkpt lat="44.612607" lon="3.482789"><ele>1206.25</ele></trkpt>
<trkpt lat="44.613341" lon="3.482268"><ele>1207.0</ele></trkpt>
<trkpt lat="44.613584" lon="3.482045"><ele>1208.0</ele></trkpt>
<trkpt lat="44.613863" lon="3.481685"><ele>1208.75</ele></trkpt>
<trkpt lat="44.614066" lon="3.481358"><ele>1208.0</ele></trkpt>
<trkpt lat="44.614206" lon="3.481055"><ele>1208.75</ele></trkpt>
<trkpt lat="44.614603" lon="3.479898"><ele>1212.5</ele></trkpt>
<trkpt lat="44.614869" lon="3.479176"><ele>1212.0</ele></trkpt>
<trkpt lat="44.615108" lon="3.478700"><ele>1210.75</ele></trkpt>
<trkpt lat="44.615381" lon="3.478304"><ele>1209.75</ele></trkpt>
<trkpt lat="44.615608" lon="3.478031"><ele>1208.75</ele></trkpt>
<trkpt lat="44.615696" lon="3.477947"><ele>1208.5</ele></trkpt>
<trkpt lat="44.616055" lon="3.477668"><ele>1207.0</ele></trkpt>
<trkpt lat="44.616385" lon="3.477483"><ele>1205.0</ele></trkpt>
<trkpt lat="44.616640" lon="3.477393"><ele>1203.75</ele></trkpt>
<trkpt lat="44.617480" lon="3.477246"><ele>1198.0</ele></trkpt>
<trkpt lat="44.617724" lon="3.477164"><ele>1196.5</ele></trkpt>
<trkpt lat="44.618105" lon="3.476977"><ele>1193.25</ele></trkpt>
<trkpt lat="44.619648" lon="3.475930"><ele>1172.25</ele></trkpt>
<trkpt lat="44.620505" lon="3.475366"><ele>1169.0</ele></trkpt>
<trkpt lat="44.620861" lon="3.475140"><ele>1169.0</ele></trkpt>
<trkpt lat="44.621145" lon="3.474986"><ele>1168.75</ele></trkpt>
<trkpt lat="44.621412" lon="3.474874"><ele>1167.0</ele></trkpt>
<trkpt lat="44.622720" lon="3.474484"><ele>1154.75</ele></trkpt>
<trkpt lat="44.623467" lon="3.474275"><ele>1158.5</ele></trkpt>
<trkpt lat="44.623919" lon="3.474189"><ele>1155.75</ele></trkpt>
<trkpt lat="44.624173" lon="3.474226"><ele>1153.25</ele></trkpt>
<trkpt lat="44.624371" lon="3.474281"><ele>1151.5</ele></trkpt>
<trkpt lat="44.624682" lon="3.474428"><ele>1147.5</ele></trkpt>
<trkpt lat="44.624959" lon="3.474657"><ele>1145.0</ele></trkpt>
<trkpt lat="44.625755" lon="3.475544"><ele>1138.25</ele></trkpt>
<trkpt lat="44.626003" lon="3.475740"><ele>1136.0</ele></trkpt>
<trkpt lat="44.626177" lon="3.475830"><ele>1134.25</ele></trkpt>
<trkpt lat="44.626329" lon="3.475892"><ele>1132.75</ele></trkpt>
<trkpt lat="44.626561" lon="3.475951"><ele>1131.5</ele></trkpt>
<trkpt lat="44.626707" lon="3.475959"><ele>1130.75</ele></trkpt>
<trkpt lat="44.627058" lon="3.475912"><ele>1130.0</ele></trkpt>
<trkpt lat="44.627421" lon="3.475823"><ele>1129.75</ele></trkpt>
<trkpt lat="44.627800" lon="3.475730"><ele>1130.25</ele></trkpt>
<trkpt lat="44.628124" lon="3.475660"><ele>1129.75</ele></trkpt>
<trkpt lat="44.628608" lon="3.475527"><ele>1129.5</ele></trkpt>
<trkpt lat="44.629273" lon="3.475362"><ele>1129.75</ele></trkpt>
<trkpt lat="44.629626" lon="3.475346"><ele>1128.5</ele></trkpt>
<trkpt lat="44.629905" lon="3.475377"><ele>1127.25</ele></trkpt>
<trkpt lat="44.630203" lon="3.475466"><ele>1125.5</ele></trkpt>
<trkpt lat="44.630405" lon="3.475578"><ele>1124.75</ele></trkpt>
<trkpt lat="44.630610" lon="3.475718"><ele>1124.0</ele></trkpt>
<trkpt lat="44.630751" lon="3.475844"><ele>1123.25</ele></trkpt>
<trkpt lat="44.631345" lon="3.476453"><ele>1121.25</ele></trkpt>
<trkpt lat="44.631492" lon="3.476597"><ele>1121.25</ele></trkpt>
<trkpt lat="44.631600" lon="3.476687"><ele>1121.5</ele></trkpt>
<trkpt lat="44.631931" lon="3.476851"><ele>1122.5</ele></trkpt>
<trkpt lat="44.632134" lon="3.476897"><ele>1122.0</ele></trkpt>
<trkpt lat="44.632298" lon="3.476886"><ele>1121.0</ele></trkpt>
<trkpt lat="44.632452" lon="3.476835"><ele>1120.25</ele></trkpt>
<trkpt lat="44.632585" lon="3.476771"><ele>1119.75</ele></trkpt>
<trkpt lat="44.633088" lon="3.476404"><ele>1118.5</ele></trkpt>
<trkpt lat="44.633390" lon="3.476169"><ele>1117.0</ele></trkpt>
<trkpt lat="44.633561" lon="3.476066"><ele>1116.5</ele></trkpt>
<trkpt lat="44.633663" lon="3.476032"><ele>1116.25</ele></trkpt>
<trkpt lat="44.633765" lon="3.476021"><ele>1116.0</ele></trkpt>
<trkpt lat="44.634026" lon="3.476049"><ele>1114.75</ele></trkpt>
<trkpt lat="44.634191" lon="3.476053"><ele>1113.5</ele></trkpt>
<trkpt lat="44.634317" lon="3.476038"><ele>1113.25</ele></trkpt>
<trkpt lat="44.634435" lon="3.475982"><ele>1113.0</ele></trkpt>
<trkpt lat="44.634531" lon="3.475900"><ele>1113.25</ele></trkpt>
<trkpt lat="44.634639" lon="3.475781"><ele>1113.25</ele></trkpt>
<trkpt lat="44.634983" lon="3.475253"><ele>1111.5</ele></trkpt>
<trkpt lat="44.635099" lon="3.475114"><ele>1110.5</ele></trkpt>
<trkpt lat="44.635236" lon="3.475035"><ele>1110.0</ele></trkpt>
<trkpt lat="44.635437" lon="3.474969"><ele>1109.5</ele></trkpt>
<trkpt lat="44.635681" lon="3.474909"><ele>1109.0</ele></trkpt>
<trkpt lat="44.635813" lon="3.474893"><ele>1108.75</ele></trkpt>
<trkpt lat="44.635925" lon="3.474896"><ele>1108.5</ele></trkpt>
<trkpt lat="44.636068" lon="3.474940"><ele>1108.5</ele></trkpt>
<trkpt lat="44.636324" lon="3.475138"><ele>1108.75</ele></trkpt>
<trkpt lat="44.636492" lon="3.475252"><ele>1108.5</ele></trkpt>
<trkpt lat="44.636823" lon="3.475458"><ele>1109.25</ele></trkpt>
<trkpt lat="44.637120" lon="3.475625"><ele>1107.25</ele></trkpt>
<trkpt lat="44.637318" lon="3.475679"><ele>1105.0</ele></trkpt>
<trkpt lat="44.637461" lon="3.475684"><ele>1103.25</ele></trkpt>
<trkpt lat="44.637610" lon="3.475676"><ele>1103.25</ele></trkpt>
<trkpt lat="44.637798" lon="3.475635"><ele>1104.0</ele></trkpt>
<trkpt lat="44.637954" lon="3.475576"><ele>1105.25</ele></trkpt>
<trkpt lat="44.640223" lon="3.474203"><ele>1123.5</ele></trkpt>
<trkpt lat="44.641547" lon="3.473357"><ele>1134.25</ele></trkpt>
<trkpt lat="44.641897" lon="3.473104"><ele>1135.75</ele></trkpt>
<trkpt lat="44.642544" lon="3.472486"><ele>1138.0</ele></trkpt>
<trkpt lat="44.642734" lon="3.472305"><ele>1137.5</ele></trkpt>
<trkpt lat="44.643516" lon="3.471596"><ele>1137.75</ele></trkpt>
<trkpt lat="44.643713" lon="3.471446"><ele>1137.25</ele></trkpt>
<trkpt lat="44.643852" lon="3.471373"><ele>1136.75</ele></trkpt>
<trkpt lat="44.644176" lon="3.471227"><ele>1134.0</ele></trkpt>
<trkpt lat="44.644751" lon="3.471006"><ele>1128.75</ele></trkpt>
<trkpt lat="44.646037" lon="3.470534"><ele>1132.5</ele></trkpt>
<trkpt lat="44.646258" lon="3.470470"><ele>1132.25</ele></trkpt>
<trkpt lat="44.646470" lon="3.470389"><ele>1132.0</ele></trkpt>
<trkpt lat="44.647644" lon="3.469861"><ele>1129.0</ele></trkpt>
<trkpt lat="44.647922" lon="3.469701"><ele>1128.25</ele></trkpt>
<trkpt lat="44.648261" lon="3.469431"><ele>1125.75</ele></trkpt>
<trkpt lat="44.648586" lon="3.469049"><ele>1126.75</ele></trkpt>
<trkpt lat="44.649416" lon="3.467978"><ele>1126.25</ele></trkpt>
<trkpt lat="44.649908" lon="3.467375"><ele>1122.25</ele></trkpt>
<trkpt lat="44.651307" lon="3.465511"><ele>1109.75</ele></trkpt>
<trkpt lat="44.652012" lon="3.464561"><ele>1104.0</ele></trkpt>
<trkpt lat="44.652209" lon="3.464194"><ele>1102.25</ele></trkpt>
<trkpt lat="44.652297" lon="3.463903"><ele>1101.0</ele></trkpt>
<trkpt lat="44.652338" lon="3.463582"><ele>1101.0</ele></trkpt>
<trkpt lat="44.652382" lon="3.462886"><ele>1094.75</ele></trkpt>
<trkpt lat="44.652413" lon="3.462589"><ele>1093.25</ele></trkpt>
<trkpt lat="44.652482" lon="3.462287"><ele>1092.25</ele></trkpt>
<trkpt lat="44.652546" lon="3.462082"><ele>1089.75</ele></trkpt>
<trkpt lat="44.652705" lon="3.461634"><ele>1089.0</ele></trkpt>
<trkpt lat="44.653006" lon="3.460719"><ele>1091.5</ele></trkpt>
<trkpt lat="44.653091" lon="3.460305"><ele>1092.75</ele></trkpt>
<trkpt lat="44.653162" lon="3.460012"><ele>1094.75</ele></trkpt>
<trkpt lat="44.653268" lon="3.459675"><ele>1094.0</ele></trkpt>
<trkpt lat="44.653631" lon="3.458844"><ele>1095.25</ele></trkpt>
<trkpt lat="44.653851" lon="3.458423"><ele>1097.25</ele></trkpt>
<trkpt lat="44.653958" lon="3.458176"><ele>1098.25</ele></trkpt>
<trkpt lat="44.654023" lon="3.457944"><ele>1099.25</ele></trkpt>
<trkpt lat="44.654111" lon="3.457566"><ele>1101.25</ele></trkpt>
<trkpt lat="44.654236" lon="3.457073"><ele>1103.25</ele></trkpt>
<trkpt lat="44.654351" lon="3.456796"><ele>1105.5</ele></trkpt>
<trkpt lat="44.654488" lon="3.456607"><ele>1106.25</ele></trkpt>
<trkpt lat="44.655824" lon="3.455135"><ele>1115.5</ele></trkpt>
<trkpt lat="44.656357" lon="3.454610"><ele>1117.25</ele></trkpt>
<trkpt lat="44.656942" lon="3.453980"><ele>1120.5</ele></trkpt>
<trkpt lat="44.657494" lon="3.453385"><ele>1124.75</ele></trkpt>
<trkpt lat="44.658467" lon="3.452240"><ele>1131.75</ele></trkpt>
<trkpt lat="44.658622" lon="3.452101"><ele>1133.0</ele></trkpt>
<trkpt lat="44.658837" lon="3.451974"><ele>1133.75</ele></trkpt>
<trkpt lat="44.659437" lon="3.451651"><ele>1132.75</ele></trkpt>
<trkpt lat="44.660236" lon="3.451235"><ele>1130.75</ele></trkpt>
<trkpt lat="44.660611" lon="3.451035"><ele>1129.5</ele></trkpt>
<trkpt lat="44.660906" lon="3.450865"><ele>1129.75</ele></trkpt>
<trkpt lat="44.661171" lon="3.450727"><ele>1130.0</ele></trkpt>
<trkpt lat="44.661834" lon="3.450366"><ele>1131.75</ele></trkpt>
<trkpt lat="44.662314" lon="3.450094"><ele>1132.0</ele></trkpt>
<trkpt lat="44.662510" lon="3.449990"><ele>1132.75</ele></trkpt>
<trkpt lat="44.662481" lon="3.449855"><ele>1132.25</ele></trkpt>
<trkpt lat="44.662478" lon="3.449752"><ele>1131.75</ele></trkpt>
<trkpt lat="44.662532" lon="3.449428"><ele>1130.25</ele></trkpt>
<trkpt lat="44.662543" lon="3.449140"><ele>1130.0</ele></trkpt>
<trkpt lat="44.662474" lon="3.448568"><ele>1128.25</ele></trkpt>
<trkpt lat="44.662402" lon="3.448348"><ele>1126.25</ele></trkpt>
<trkpt lat="44.662331" lon="3.448191"><ele>1126.0</ele></trkpt>
<trkpt lat="44.662204" lon="3.448048"><ele>1124.5</ele></trkpt>
<trkpt lat="44.662103" lon="3.447935"><ele>1123.25</ele></trkpt>
<trkpt lat="44.662007" lon="3.447762"><ele>1123.5</ele></trkpt>
<trkpt lat="44.661947" lon="3.447464"><ele>1120.75</ele></trkpt>
<trkpt lat="44.661946" lon="3.447220"><ele>1119.75</ele></trkpt>
<trkpt lat="44.661926" lon="3.447036"><ele>1118.5</ele></trkpt>
<trkpt lat="44.661826" lon="3.446652"><ele>1116.75</ele></trkpt>
<trkpt lat="44.661471" lon="3.445959"><ele>1114.5</ele></trkpt>
<trkpt lat="44.661267" lon="3.445643"><ele>1112.25</ele></trkpt>
<trkpt lat="44.660994" lon="3.445470"><ele>1113.75</ele></trkpt>
<trkpt lat="44.660653" lon="3.445480"><ele>1112.75</ele></trkpt>
<trkpt lat="44.660325" lon="3.445451"><ele>1111.25</ele></trkpt>
<trkpt lat="44.660107" lon="3.445278"><ele>1110.75</ele></trkpt>
<trkpt lat="44.659691" lon="3.444588"><ele>1108.5</ele></trkpt>
<trkpt lat="44.659241" lon="3.443677"><ele>1105.25</ele></trkpt>
<trkpt lat="44.659091" lon="3.443044"><ele>1103.25</ele></trkpt>
<trkpt lat="44.659036" lon="3.442401"><ele>1103.5</ele></trkpt>
<trkpt lat="44.658913" lon="3.441970"><ele>1104.25</ele></trkpt>
<trkpt lat="44.658688" lon="3.441519"><ele>1102.75</ele></trkpt>
<trkpt lat="44.658470" lon="3.441250"><ele>1101.75</ele></trkpt>
<trkpt lat="44.658170" lon="3.441116"><ele>1102.25</ele></trkpt>
<trkpt lat="44.657569" lon="3.441068"><ele>1100.5</ele></trkpt>
<trkpt lat="44.657256" lon="3.441068"><ele>1101.0</ele></trkpt>
<trkpt lat="44.656846" lon="3.441289"><ele>1100.0</ele></trkpt>
<trkpt lat="44.656342" lon="3.441452"><ele>1099.25</ele></trkpt>
<trkpt lat="44.656089" lon="3.441442"><ele>1099.25</ele></trkpt>
<trkpt lat="44.655482" lon="3.441289"><ele>1099.75</ele></trkpt>
<trkpt lat="44.654786" lon="3.441155"><ele>1097.75</ele></trkpt>
<trkpt lat="44.654384" lon="3.441174"><ele>1097.25</ele></trkpt>
<trkpt lat="44.653538" lon="3.441442"><ele>1094.0</ele></trkpt>
<trkpt lat="44.653251" lon="3.441509"><ele>1091.25</ele></trkpt>
<trkpt lat="44.652999" lon="3.441337"><ele>1091.75</ele></trkpt>
<trkpt lat="44.652733" lon="3.441020"><ele>1091.0</ele></trkpt>
<trkpt lat="44.652358" lon="3.440733"><ele>1088.25</ele></trkpt>
<trkpt lat="44.652016" lon="3.440397"><ele>1087.25</ele></trkpt>
<trkpt lat="44.651819" lon="3.440052"><ele>1084.0</ele></trkpt>
<trkpt lat="44.651696" lon="3.439870"><ele>1082.75</ele></trkpt>
<trkpt lat="44.651613" lon="3.439800"><ele>1082.5</ele></trkpt>
</trkseg></trk></gpx>
